{
  "type": "FeatureCollection",
  "metadata": {
    "provider_name": "Mahalaxmi Bhelpuri HOUSE",
    "center_lat": 19.1063123,
    "center_lon": 73.00889019,
    "mode": "motorcycle",
    "total_zones": 4,
    "distance_zones": [
      3,
      4,
      5,
      6
    ],
    "generated_at": "2025-12-24T07:32:01.468622Z"
  },
  "features": [
    {
      "properties": {
        "fill-opacity": 0.33,
        "fillColor": "#bf4040",
        "opacity": 0.33,
        "fill": "#bf4040",
        "fillOpacity": 0.33,
        "color": "#bf4040",
        "contour": 3.0,
        "metric": "distance",
        "provider_name": "Mahalaxmi Bhelpuri HOUSE",
        "zone_type": "distance",
        "distance_km": 3,
        "mode": "motorcycle",
        "center_lat": 19.1063123,
        "center_lon": 73.00889019,
        "label": "3km"
      },
      "geometry": {
        "coordinates": [
          [
            [
              73.00389,
              19.130797
            ],
            [
              73.003355,
              19.127847
            ],
            [
              73.002415,
              19.127837
            ],
            [
              73.00189,
              19.129493
            ],
            [
              73.00089,
              19.128576
            ],
            [
              72.99989,
              19.129403
            ],
            [
              72.995172,
              19.125312
            ],
            [
              72.99477,
              19.122312
            ],
            [
              72.99662,
              19.121042
            ],
            [
              72.996344,
              19.118857
            ],
            [
              72.994365,
              19.118787
            ],
            [
              72.993995,
              19.120417
            ],
            [
              72.99289,
              19.121074
            ],
            [
              72.992359,
              19.119843
            ],
            [
              72.991482,
              19.119904
            ],
            [
              72.99089,
              19.121026
            ],
            [
              72.989779,
              19.120312
            ],
            [
              72.991478,
              19.1189
            ],
            [
              72.991363,
              19.116838
            ],
            [
              72.989117,
              19.116539
            ],
            [
              72.988808,
              19.117312
            ],
            [
              72.989586,
              19.114312
            ],
            [
              72.99089,
              19.11419
            ],
            [
              72.99289,
              19.115949
            ],
            [
              72.995566,
              19.113988
            ],
            [
              72.999169,
              19.112591
            ],
            [
              73.000265,
              19.111312
            ],
            [
              72.99849,
              19.110711
            ],
            [
              72.99629,
              19.107312
            ],
            [
              72.996261,
              19.103312
            ],
            [
              72.995286,
              19.102312
            ],
            [
              72.995321,
              19.100312
            ],
            [
              72.994368,
              19.098312
            ],
            [
              72.997421,
              19.096312
            ],
            [
              72.994679,
              19.095101
            ],
            [
              72.99689,
              19.094905
            ],
            [
              72.99789,
              19.09392
            ],
            [
              72.999137,
              19.094064
            ],
            [
              72.99989,
              19.096781
            ],
            [
              73.00089,
              19.093848
            ],
            [
              73.002204,
              19.093998
            ],
            [
              73.004608,
              19.096594
            ],
            [
              73.005299,
              19.096312
            ],
            [
              73.00525,
              19.092951
            ],
            [
              73.003721,
              19.09248
            ],
            [
              73.000425,
              19.088312
            ],
            [
              73.001046,
              19.087312
            ],
            [
              73.000443,
              19.086312
            ],
            [
              73.00189,
              19.084189
            ],
            [
              73.00789,
              19.085595
            ],
            [
              73.00889,
              19.087056
            ],
            [
              73.011731,
              19.08647
            ],
            [
              73.011964,
              19.088386
            ],
            [
              73.011228,
              19.090312
            ],
            [
              73.011778,
              19.090423
            ],
            [
              73.01389,
              19.090526
            ],
            [
              73.015173,
              19.089595
            ],
            [
              73.014299,
              19.088312
            ],
            [
              73.01489,
              19.087765
            ],
            [
              73.016145,
              19.088056
            ],
            [
              73.016313,
              19.090312
            ],
            [
              73.017298,
              19.090721
            ],
            [
              73.01789,
              19.086526
            ],
            [
              73.019128,
              19.088074
            ],
            [
              73.02044,
              19.088312
            ],
            [
              73.019113,
              19.088535
            ],
            [
              73.019322,
              19.089879
            ],
            [
              73.0206,
              19.090022
            ],
            [
              73.02089,
              19.088812
            ],
            [
              73.022186,
              19.089312
            ],
            [
              73.020118,
              19.091312
            ],
            [
              73.02089,
              19.09218
            ],
            [
              73.021721,
              19.092143
            ],
            [
              73.02189,
              19.091266
            ],
            [
              73.022587,
              19.091615
            ],
            [
              73.021596,
              19.093018
            ],
            [
              73.02189,
              19.094477
            ],
            [
              73.02289,
              19.093325
            ],
            [
              73.025602,
              19.096312
            ],
            [
              73.02489,
              19.097401
            ],
            [
              73.024731,
              19.096471
            ],
            [
              73.023271,
              19.096693
            ],
            [
              73.02289,
              19.097975
            ],
            [
              73.022448,
              19.096753
            ],
            [
              73.021418,
              19.09684
            ],
            [
              73.021301,
              19.0979
            ],
            [
              73.02257,
              19.098312
            ],
            [
              73.022823,
              19.099312
            ],
            [
              73.02189,
              19.100245
            ],
            [
              73.02089,
              19.099356
            ],
            [
              73.019488,
              19.09991
            ],
            [
              73.019485,
              19.100717
            ],
            [
              73.021251,
              19.102312
            ],
            [
              73.01945,
              19.102872
            ],
            [
              73.020023,
              19.104445
            ],
            [
              73.018468,
              19.105312
            ],
            [
              73.01889,
              19.107011
            ],
            [
              73.02089,
              19.106109
            ],
            [
              73.020415,
              19.108787
            ],
            [
              73.022273,
              19.109312
            ],
            [
              73.02189,
              19.110305
            ],
            [
              73.021673,
              19.109529
            ],
            [
              73.020393,
              19.109815
            ],
            [
              73.020451,
              19.11075
            ],
            [
              73.021706,
              19.111128
            ],
            [
              73.02189,
              19.110324
            ],
            [
              73.02289,
              19.112865
            ],
            [
              73.024677,
              19.112312
            ],
            [
              73.023992,
              19.113414
            ],
            [
              73.022408,
              19.11383
            ],
            [
              73.02223,
              19.114971
            ],
            [
              73.02289,
              19.115416
            ],
            [
              73.02189,
              19.116503
            ],
            [
              73.021526,
              19.114675
            ],
            [
              73.02089,
              19.114496
            ],
            [
              73.018467,
              19.115889
            ],
            [
              73.017185,
              19.117312
            ],
            [
              73.01789,
              19.120717
            ],
            [
              73.01689,
              19.120962
            ],
            [
              73.01612,
              19.119082
            ],
            [
              73.01489,
              19.119176
            ],
            [
              73.01484,
              19.118262
            ],
            [
              73.016595,
              19.117312
            ],
            [
              73.01589,
              19.114804
            ],
            [
              73.01389,
              19.114836
            ],
            [
              73.012548,
              19.11597
            ],
            [
              73.01189,
              19.118726
            ],
            [
              73.00989,
              19.119062
            ],
            [
              73.008567,
              19.117989
            ],
            [
              73.008672,
              19.119529
            ],
            [
              73.010947,
              19.120254
            ],
            [
              73.01193,
              19.123353
            ],
            [
              73.011573,
              19.122629
            ],
            [
              73.006599,
              19.122021
            ],
            [
              73.006529,
              19.123673
            ],
            [
              73.007924,
              19.124312
            ],
            [
              73.006269,
              19.124691
            ],
            [
              73.006308,
              19.125893
            ],
            [
              73.00789,
              19.125869
            ],
            [
              73.008976,
              19.127312
            ],
            [
              73.00389,
              19.130797
            ]
          ]
        ],
        "type": "Polygon"
      },
      "type": "Feature"
    },
    {
      "properties": {
        "fill-opacity": 0.33,
        "fillColor": "#bf4040",
        "opacity": 0.33,
        "fill": "#bf4040",
        "fillOpacity": 0.33,
        "color": "#bf4040",
        "contour": 4.0,
        "metric": "distance",
        "provider_name": "Mahalaxmi Bhelpuri HOUSE",
        "zone_type": "distance",
        "distance_km": 4,
        "mode": "motorcycle",
        "center_lat": 19.1063123,
        "center_lon": 73.00889019,
        "label": "4km"
      },
      "geometry": {
        "coordinates": [
          [
            [
              73.00589,
              19.136383
            ],
            [
              73.00364,
              19.136562
            ],
            [
              73.00289,
              19.134592
            ],
            [
              73.002065,
              19.135312
            ],
            [
              73.002337,
              19.136312
            ],
            [
              73.001563,
              19.136639
            ],
            [
              73.000927,
              19.136312
            ],
            [
              73.001714,
              19.135312
            ],
            [
              73.00089,
              19.134579
            ],
            [
              73.000034,
              19.135456
            ],
            [
              72.997889,
              19.135313
            ],
            [
              72.995166,
              19.132312
            ],
            [
              72.997646,
              19.131312
            ],
            [
              72.996243,
              19.129312
            ],
            [
              72.997126,
              19.128076
            ],
            [
              72.99589,
              19.127048
            ],
            [
              72.99189,
              19.127608
            ],
            [
              72.991623,
              19.126579
            ],
            [
              72.99089,
              19.126514
            ],
            [
              72.989993,
              19.127312
            ],
            [
              72.990043,
              19.128159
            ],
            [
              72.99093,
              19.128312
            ],
            [
              72.98989,
              19.128392
            ],
            [
              72.989658,
              19.127544
            ],
            [
              72.988749,
              19.127452
            ],
            [
              72.987556,
              19.124645
            ],
            [
              72.986694,
              19.124312
            ],
            [
              72.986522,
              19.119312
            ],
            [
              72.988522,
              19.118312
            ],
            [
              72.988605,
              19.114027
            ],
            [
              72.99089,
              19.113779
            ],
            [
              72.99289,
              19.115701
            ],
            [
              72.999087,
              19.112509
            ],
            [
              73.000163,
              19.111312
            ],
            [
              72.998414,
              19.110788
            ],
            [
              72.996176,
              19.107312
            ],
            [
              72.996161,
              19.103312
            ],
            [
              72.995171,
              19.102312
            ],
            [
              72.995191,
              19.100312
            ],
            [
              72.994213,
              19.098312
            ],
            [
              72.995451,
              19.096873
            ],
            [
              72.997237,
              19.096312
            ],
            [
              72.994494,
              19.095708
            ],
            [
              72.994494,
              19.094916
            ],
            [
              72.99889,
              19.093698
            ],
            [
              72.99989,
              19.096631
            ],
            [
              73.000456,
              19.093878
            ],
            [
              73.00189,
              19.093658
            ],
            [
              73.00518,
              19.096312
            ],
            [
              73.005124,
              19.093078
            ],
            [
              73.003508,
              19.092693
            ],
            [
              73.00142,
              19.090781
            ],
            [
              72.995787,
              19.084209
            ],
            [
              72.995934,
              19.083356
            ],
            [
              72.996917,
              19.083312
            ],
            [
              72.995475,
              19.082727
            ],
            [
              72.995725,
              19.079312
            ],
            [
              72.997223,
              19.078646
            ],
            [
              72.99789,
              19.076249
            ],
            [
              72.99889,
              19.076724
            ],
            [
              72.99989,
              19.078807
            ],
            [
              73.00189,
              19.077727
            ],
            [
              73.00689,
              19.079139
            ],
            [
              73.00789,
              19.07794
            ],
            [
              73.00889,
              19.079279
            ],
            [
              73.01189,
              19.080029
            ],
            [
              73.01306,
              19.081142
            ],
            [
              73.013103,
              19.083312
            ],
            [
              73.014166,
              19.084036
            ],
            [
              73.01589,
              19.087713
            ],
            [
              73.016507,
              19.087312
            ],
            [
              73.016705,
              19.080312
            ],
            [
              73.017454,
              19.079876
            ],
            [
              73.01789,
              19.077846
            ],
            [
              73.018782,
              19.07842
            ],
            [
              73.018541,
              19.08166
            ],
            [
              73.019889,
              19.082313
            ],
            [
              73.019832,
              19.083312
            ],
            [
              73.020877,
              19.084324
            ],
            [
              73.02389,
              19.082779
            ],
            [
              73.024145,
              19.084057
            ],
            [
              73.02589,
              19.085584
            ],
            [
              73.02789,
              19.084687
            ],
            [
              73.029312,
              19.085889
            ],
            [
              73.029706,
              19.086312
            ],
            [
              73.028676,
              19.087526
            ],
            [
              73.030004,
              19.089312
            ],
            [
              73.028258,
              19.08968
            ],
            [
              73.028124,
              19.090312
            ],
            [
              73.02931,
              19.091312
            ],
            [
              73.029523,
              19.093312
            ],
            [
              73.027559,
              19.094981
            ],
            [
              73.028255,
              19.097312
            ],
            [
              73.026319,
              19.098312
            ],
            [
              73.02648,
              19.100312
            ],
            [
              73.024342,
              19.103764
            ],
            [
              73.024452,
              19.106312
            ],
            [
              73.023516,
              19.108312
            ],
            [
              73.026172,
              19.111029
            ],
            [
              73.02789,
              19.110929
            ],
            [
              73.028479,
              19.109722
            ],
            [
              73.026501,
              19.108312
            ],
            [
              73.02989,
              19.107007
            ],
            [
              73.03189,
              19.108999
            ],
            [
              73.031981,
              19.110221
            ],
            [
              73.032956,
              19.110312
            ],
            [
              73.033104,
              19.111312
            ],
            [
              73.032379,
              19.113312
            ],
            [
              73.030242,
              19.113664
            ],
            [
              73.029995,
              19.116207
            ],
            [
              73.030562,
              19.116312
            ],
            [
              73.02989,
              19.116657
            ],
            [
              73.029617,
              19.115584
            ],
            [
              73.028321,
              19.115743
            ],
            [
              73.028183,
              19.117018
            ],
            [
              73.029372,
              19.117794
            ],
            [
              73.02789,
              19.119809
            ],
            [
              73.02689,
              19.119119
            ],
            [
              73.023664,
              19.120537
            ],
            [
              73.021413,
              19.117312
            ],
            [
              73.021192,
              19.11501
            ],
            [
              73.01963,
              19.115053
            ],
            [
              73.017476,
              19.117312
            ],
            [
              73.018385,
              19.118312
            ],
            [
              73.01855,
              19.120652
            ],
            [
              73.021141,
              19.122061
            ],
            [
              73.021093,
              19.124515
            ],
            [
              73.018289,
              19.125711
            ],
            [
              73.01589,
              19.129696
            ],
            [
              73.01389,
              19.12815
            ],
            [
              73.01289,
              19.129145
            ],
            [
              73.01143,
              19.128852
            ],
            [
              73.011167,
              19.130035
            ],
            [
              73.0127,
              19.130501
            ],
            [
              73.013061,
              19.131483
            ],
            [
              73.008451,
              19.131873
            ],
            [
              73.008358,
              19.132843
            ],
            [
              73.009219,
              19.133312
            ],
            [
              73.00889,
              19.135096
            ],
            [
              73.00589,
              19.136383
            ]
          ]
        ],
        "type": "Polygon"
      },
      "type": "Feature"
    },
    {
      "properties": {
        "fill-opacity": 0.33,
        "fillColor": "#bf4040",
        "opacity": 0.33,
        "fill": "#bf4040",
        "fillOpacity": 0.33,
        "color": "#bf4040",
        "contour": 5.0,
        "metric": "distance",
        "provider_name": "Mahalaxmi Bhelpuri HOUSE",
        "zone_type": "distance",
        "distance_km": 5,
        "mode": "motorcycle",
        "center_lat": 19.1063123,
        "center_lon": 73.00889019,
        "label": "5km"
      },
      "geometry": {
        "coordinates": [
          [
            [
              73.00189,
              19.144368
            ],
            [
              73.000912,
              19.142312
            ],
            [
              73.00189,
              19.140982
            ],
            [
              72.998078,
              19.139312
            ],
            [
              72.998229,
              19.138312
            ],
            [
              72.999546,
              19.137968
            ],
            [
              72.999624,
              19.136577
            ],
            [
              72.99789,
              19.136399
            ],
            [
              72.996213,
              19.133988
            ],
            [
              72.994577,
              19.133625
            ],
            [
              72.992715,
              19.131312
            ],
            [
              72.994265,
              19.128936
            ],
            [
              72.989542,
              19.128659
            ],
            [
              72.986335,
              19.124312
            ],
            [
              72.986277,
              19.119312
            ],
            [
              72.988277,
              19.118312
            ],
            [
              72.988466,
              19.113888
            ],
            [
              72.99089,
              19.11363
            ],
            [
              72.99289,
              19.115592
            ],
            [
              73.000104,
              19.111312
            ],
            [
              72.998335,
              19.110867
            ],
            [
              72.996112,
              19.107312
            ],
            [
              72.996103,
              19.103312
            ],
            [
              72.995329,
              19.102873
            ],
            [
              72.994134,
              19.098312
            ],
            [
              72.995393,
              19.096815
            ],
            [
              72.997147,
              19.096312
            ],
            [
              72.994416,
              19.095786
            ],
            [
              72.994416,
              19.094838
            ],
            [
              72.99889,
              19.09359
            ],
            [
              72.99989,
              19.096554
            ],
            [
              73.000396,
              19.093818
            ],
            [
              73.00189,
              19.093569
            ],
            [
              73.005115,
              19.096312
            ],
            [
              73.005063,
              19.093139
            ],
            [
              73.003423,
              19.092779
            ],
            [
              73.000587,
              19.090615
            ],
            [
              72.999124,
              19.088077
            ],
            [
              72.992643,
              19.081559
            ],
            [
              72.99173,
              19.078471
            ],
            [
              72.990742,
              19.078312
            ],
            [
              72.990235,
              19.075312
            ],
            [
              72.99189,
              19.073038
            ],
            [
              72.99289,
              19.073565
            ],
            [
              72.993016,
              19.072312
            ],
            [
              72.994555,
              19.071977
            ],
            [
              72.99489,
              19.070016
            ],
            [
              72.995279,
              19.071922
            ],
            [
              72.996381,
              19.071804
            ],
            [
              72.997103,
              19.070098
            ],
            [
              72.996275,
              19.068312
            ],
            [
              72.99789,
              19.067476
            ],
            [
              72.999815,
              19.069312
            ],
            [
              72.99989,
              19.070647
            ],
            [
              73.001018,
              19.07044
            ],
            [
              73.00189,
              19.068938
            ],
            [
              73.00389,
              19.073996
            ],
            [
              73.004667,
              19.073312
            ],
            [
              73.004829,
              19.071251
            ],
            [
              73.00789,
              19.072451
            ],
            [
              73.007852,
              19.071312
            ],
            [
              73.00889,
              19.070165
            ],
            [
              73.009608,
              19.070312
            ],
            [
              73.009479,
              19.071312
            ],
            [
              73.010709,
              19.072492
            ],
            [
              73.01189,
              19.072303
            ],
            [
              73.01389,
              19.07393
            ],
            [
              73.01416,
              19.075041
            ],
            [
              73.01689,
              19.076355
            ],
            [
              73.018106,
              19.074528
            ],
            [
              73.01889,
              19.068863
            ],
            [
              73.02089,
              19.070333
            ],
            [
              73.023225,
              19.076977
            ],
            [
              73.02448,
              19.076902
            ],
            [
              73.02489,
              19.075228
            ],
            [
              73.025345,
              19.076856
            ],
            [
              73.026553,
              19.076976
            ],
            [
              73.02789,
              19.075923
            ],
            [
              73.028041,
              19.07716
            ],
            [
              73.02989,
              19.07813
            ],
            [
              73.029025,
              19.078447
            ],
            [
              73.029102,
              19.080312
            ],
            [
              73.030204,
              19.081312
            ],
            [
              73.030385,
              19.086312
            ],
            [
              73.031318,
              19.087312
            ],
            [
              73.03136,
              19.089312
            ],
            [
              73.03289,
              19.089924
            ],
            [
              73.03389,
              19.088996
            ],
            [
              73.035049,
              19.090312
            ],
            [
              73.035047,
              19.092312
            ],
            [
              73.03389,
              19.093745
            ],
            [
              73.03289,
              19.09261
            ],
            [
              73.032224,
              19.093312
            ],
            [
              73.033229,
              19.094972
            ],
            [
              73.03289,
              19.096717
            ],
            [
              73.03189,
              19.097643
            ],
            [
              73.03089,
              19.097059
            ],
            [
              73.030323,
              19.094878
            ],
            [
              73.02889,
              19.094714
            ],
            [
              73.028202,
              19.095312
            ],
            [
              73.028502,
              19.097312
            ],
            [
              73.026655,
              19.098077
            ],
            [
              73.026596,
              19.099605
            ],
            [
              73.02789,
              19.100975
            ],
            [
              73.0297,
              19.101122
            ],
            [
              73.03001,
              19.100312
            ],
            [
              73.030081,
              19.101312
            ],
            [
              73.029129,
              19.102312
            ],
            [
              73.031293,
              19.104312
            ],
            [
              73.031333,
              19.106312
            ],
            [
              73.032716,
              19.109486
            ],
            [
              73.03489,
              19.109519
            ],
            [
              73.03589,
              19.11098
            ],
            [
              73.036784,
              19.109418
            ],
            [
              73.035933,
              19.109312
            ],
            [
              73.036923,
              19.109278
            ],
            [
              73.038069,
              19.110312
            ],
            [
              73.038246,
              19.112955
            ],
            [
              73.039927,
              19.113312
            ],
            [
              73.03629,
              19.113712
            ],
            [
              73.035299,
              19.114721
            ],
            [
              73.03489,
              19.121269
            ],
            [
              73.034533,
              19.116312
            ],
            [
              73.033245,
              19.113956
            ],
            [
              73.030586,
              19.114008
            ],
            [
              73.030427,
              19.115312
            ],
            [
              73.031383,
              19.116312
            ],
            [
              73.030363,
              19.117312
            ],
            [
              73.030321,
              19.119312
            ],
            [
              73.03126,
              19.121312
            ],
            [
              73.02989,
              19.122683
            ],
            [
              73.02689,
              19.119806
            ],
            [
              73.023489,
              19.120713
            ],
            [
              73.021233,
              19.117312
            ],
            [
              73.021098,
              19.115104
            ],
            [
              73.019703,
              19.115125
            ],
            [
              73.017597,
              19.117312
            ],
            [
              73.018554,
              19.118312
            ],
            [
              73.018665,
              19.120537
            ],
            [
              73.0213,
              19.121901
            ],
            [
              73.021479,
              19.124312
            ],
            [
              73.018425,
              19.126312
            ],
            [
              73.018335,
              19.128312
            ],
            [
              73.017373,
              19.129312
            ],
            [
              73.017065,
              19.134136
            ],
            [
              73.017712,
              19.134312
            ],
            [
              73.01689,
              19.135208
            ],
            [
              73.01589,
              19.133025
            ],
            [
              73.014309,
              19.134731
            ],
            [
              73.01289,
              19.134871
            ],
            [
              73.011301,
              19.1329
            ],
            [
              73.010468,
              19.13289
            ],
            [
              73.010244,
              19.135666
            ],
            [
              73.00753,
              19.135952
            ],
            [
              73.007293,
              19.137715
            ],
            [
              73.00589,
              19.137015
            ],
            [
              73.003664,
              19.137312
            ],
            [
              73.00389,
              19.140401
            ],
            [
              73.005319,
              19.142312
            ],
            [
              73.00389,
              19.143596
            ],
            [
              73.002135,
              19.143557
            ],
            [
              73.00189,
              19.144368
            ]
          ]
        ],
        "type": "Polygon"
      },
      "type": "Feature"
    },
    {
      "properties": {
        "fill-opacity": 0.33,
        "fillColor": "#bf4040",
        "opacity": 0.33,
        "fill": "#bf4040",
        "fillOpacity": 0.33,
        "color": "#bf4040",
        "contour": 6.0,
        "metric": "distance",
        "provider_name": "Mahalaxmi Bhelpuri HOUSE",
        "zone_type": "distance",
        "distance_km": 6,
        "mode": "motorcycle",
        "center_lat": 19.1063123,
        "center_lon": 73.00889019,
        "label": "6km"
      },
      "geometry": {
        "coordinates": [
          [
            [
              73.00089,
              19.153398
            ],
            [
              72.996778,
              19.150312
            ],
            [
              72.996596,
              19.148606
            ],
            [
              72.994766,
              19.148312
            ],
            [
              72.996217,
              19.147312
            ],
            [
              72.99489,
              19.146921
            ],
            [
              72.992651,
              19.144312
            ],
            [
              72.99389,
              19.142736
            ],
            [
              72.995693,
              19.142115
            ],
            [
              72.995484,
              19.136312
            ],
            [
              72.997223,
              19.135312
            ],
            [
              72.996108,
              19.134094
            ],
            [
              72.994454,
              19.133748
            ],
            [
              72.992342,
              19.131312
            ],
            [
              72.99413,
              19.129072
            ],
            [
              72.98989,
              19.128988
            ],
            [
              72.988427,
              19.127774
            ],
            [
              72.988089,
              19.126112
            ],
            [
              72.986198,
              19.124312
            ],
            [
              72.986169,
              19.119312
            ],
            [
              72.988169,
              19.118312
            ],
            [
              72.988401,
              19.113823
            ],
            [
              72.99089,
              19.113553
            ],
            [
              72.99289,
              19.115531
            ],
            [
              72.993314,
              19.114736
            ],
            [
              72.99889,
              19.1125
            ],
            [
              73.000066,
              19.111312
            ],
            [
              72.998254,
              19.110948
            ],
            [
              72.997261,
              19.10994
            ],
            [
              72.99701,
              19.108192
            ],
            [
              72.996254,
              19.107948
            ],
            [
              72.996065,
              19.103312
            ],
            [
              72.99525,
              19.102952
            ],
            [
              72.994086,
              19.098312
            ],
            [
              72.995296,
              19.096718
            ],
            [
              72.997095,
              19.096312
            ],
            [
              72.994338,
              19.095864
            ],
            [
              72.994338,
              19.09476
            ],
            [
              72.99889,
              19.09353
            ],
            [
              72.999672,
              19.094312
            ],
            [
              72.99989,
              19.096507
            ],
            [
              73.000301,
              19.093723
            ],
            [
              73.00189,
              19.093516
            ],
            [
              73.00489,
              19.096494
            ],
            [
              73.005086,
              19.093312
            ],
            [
              73.001473,
              19.091729
            ],
            [
              72.999445,
              19.089756
            ],
            [
              72.999063,
              19.088138
            ],
            [
              72.992481,
              19.081721
            ],
            [
              72.992167,
              19.080034
            ],
            [
              72.99035,
              19.078312
            ],
            [
              72.990208,
              19.075993
            ],
            [
              72.98889,
              19.075768
            ],
            [
              72.98789,
              19.076668
            ],
            [
              72.98689,
              19.07569
            ],
            [
              72.984702,
              19.0755
            ],
            [
              72.98489,
              19.071739
            ],
            [
              72.98589,
              19.072392
            ],
            [
              72.985677,
              19.070312
            ],
            [
              72.987151,
              19.068574
            ],
            [
              72.99689,
              19.062124
            ],
            [
              72.997984,
              19.062218
            ],
            [
              72.99889,
              19.064
            ],
            [
              73.001361,
              19.063783
            ],
            [
              73.00189,
              19.059928
            ],
            [
              73.002268,
              19.063312
            ],
            [
              73.003413,
              19.064789
            ],
            [
              73.00889,
              19.066064
            ],
            [
              73.010595,
              19.065017
            ],
            [
              73.01089,
              19.063311
            ],
            [
              73.01289,
              19.065096
            ],
            [
              73.012248,
              19.06567
            ],
            [
              73.012485,
              19.066717
            ],
            [
              73.01489,
              19.066937
            ],
            [
              73.016157,
              19.070045
            ],
            [
              73.01789,
              19.070076
            ],
            [
              73.018377,
              19.069312
            ],
            [
              73.017679,
              19.067312
            ],
            [
              73.01856,
              19.064312
            ],
            [
              73.01707,
              19.063492
            ],
            [
              73.01689,
              19.064788
            ],
            [
              73.01611,
              19.063312
            ],
            [
              73.018696,
              19.061118
            ],
            [
              73.01889,
              19.060049
            ],
            [
              73.02218,
              19.062312
            ],
            [
              73.02112,
              19.062542
            ],
            [
              73.020242,
              19.065312
            ],
            [
              73.023185,
              19.067017
            ],
            [
              73.023821,
              19.069381
            ],
            [
              73.026454,
              19.069876
            ],
            [
              73.02689,
              19.067406
            ],
            [
              73.027363,
              19.069839
            ],
            [
              73.02889,
              19.070564
            ],
            [
              73.03089,
              19.069843
            ],
            [
              73.032119,
              19.072082
            ],
            [
              73.03389,
              19.072607
            ],
            [
              73.034064,
              19.074138
            ],
            [
              73.034939,
              19.074263
            ],
            [
              73.035231,
              19.075312
            ],
            [
              73.033994,
              19.077312
            ],
            [
              73.035003,
              19.078312
            ],
            [
              73.034558,
              19.08098
            ],
            [
              73.03289,
              19.081672
            ],
            [
              73.032646,
              19.080556
            ],
            [
              73.031868,
              19.080312
            ],
            [
              73.03266,
              19.079312
            ],
            [
              73.03189,
              19.078613
            ],
            [
              73.029449,
              19.080312
            ],
            [
              73.030483,
              19.081312
            ],
            [
              73.030554,
              19.086312
            ],
            [
              73.031526,
              19.087312
            ],
            [
              73.031654,
              19.089548
            ],
            [
              73.03289,
              19.089691
            ],
            [
              73.03389,
              19.088718
            ],
            [
              73.035465,
              19.090312
            ],
            [
              73.034281,
              19.096312
            ],
            [
              73.033316,
              19.097312
            ],
            [
              73.035245,
              19.099312
            ],
            [
              73.034266,
              19.100312
            ],
            [
              73.033019,
              19.104441
            ],
            [
              73.03189,
              19.100724
            ],
            [
              73.029588,
              19.10201
            ],
            [
              73.029478,
              19.103312
            ],
            [
              73.031307,
              19.103894
            ],
            [
              73.031532,
              19.106312
            ],
            [
              73.03289,
              19.107958
            ],
            [
              73.034454,
              19.105876
            ],
            [
              73.03889,
              19.106072
            ],
            [
              73.03994,
              19.105262
            ],
            [
              73.04089,
              19.105305
            ],
            [
              73.040888,
              19.105313
            ],
            [
              73.039956,
              19.105378
            ],
            [
              73.040254,
              19.106948
            ],
            [
              73.04214,
              19.108312
            ],
            [
              73.040339,
              19.111312
            ],
            [
              73.040229,
              19.113651
            ],
            [
              73.03689,
              19.11388
            ],
            [
              73.035507,
              19.115312
            ],
            [
              73.035586,
              19.116616
            ],
            [
              73.037201,
              19.117623
            ],
            [
              73.03689,
              19.119507
            ],
            [
              73.036339,
              19.117862
            ],
            [
              73.035462,
              19.118312
            ],
            [
              73.035411,
              19.120312
            ],
            [
              73.036382,
              19.121312
            ],
            [
              73.035354,
              19.122312
            ],
            [
              73.035246,
              19.125312
            ],
            [
              73.03589,
              19.126055
            ],
            [
              73.037901,
              19.1253
            ],
            [
              73.035138,
              19.127312
            ],
            [
              73.035057,
              19.129145
            ],
            [
              73.03589,
              19.129833
            ],
            [
              73.034813,
              19.129312
            ],
            [
              73.034281,
              19.116312
            ],
            [
              73.033122,
              19.11408
            ],
            [
              73.030576,
              19.114312
            ],
            [
              73.031553,
              19.116312
            ],
            [
              73.030545,
              19.117312
            ],
            [
              73.030527,
              19.119312
            ],
            [
              73.031503,
              19.121312
            ],
            [
              73.02989,
              19.122926
            ],
            [
              73.02689,
              19.119976
            ],
            [
              73.02489,
              19.120945
            ],
            [
              73.023413,
              19.120789
            ],
            [
              73.021145,
              19.117312
            ],
            [
              73.02089,
              19.115075
            ],
            [
              73.019744,
              19.115166
            ],
            [
              73.017741,
              19.117163
            ],
            [
              73.018639,
              19.118312
            ],
            [
              73.018721,
              19.12048
            ],
            [
              73.021371,
              19.12183
            ],
            [
              73.021599,
              19.124312
            ],
            [
              73.018572,
              19.126312
            ],
            [
              73.018533,
              19.128312
            ],
            [
              73.017549,
              19.129312
            ],
            [
              73.01744,
              19.133312
            ],
            [
              73.021264,
              19.136312
            ],
            [
              73.01989,
              19.13763
            ],
            [
              73.017458,
              19.13788
            ],
            [
              73.015411,
              19.139833
            ],
            [
              73.015178,
              19.141023
            ],
            [
              73.016467,
              19.141312
            ],
            [
              73.01589,
              19.141945
            ],
            [
              73.01289,
              19.141664
            ],
            [
              73.011422,
              19.142845
            ],
            [
              73.01117,
              19.144592
            ],
            [
              73.010236,
              19.145312
            ],
            [
              73.010696,
              19.149312
            ],
            [
              73.00789,
              19.149924
            ],
            [
              73.00589,
              19.149008
            ],
            [
              73.003991,
              19.150414
            ],
            [
              73.00189,
              19.148602
            ],
            [
              73.001204,
              19.149312
            ],
            [
              73.00089,
              19.153398
            ]
          ]
        ],
        "type": "Polygon"
      },
      "type": "Feature"
    }
  ]
}