{
  "type": "FeatureCollection",
  "metadata": {
    "provider_name": "The Spicy Empress Garden",
    "center_lat": 18.98352768,
    "center_lon": 73.02830402,
    "mode": "motorcycle",
    "total_zones": 4,
    "distance_zones": [
      3,
      4,
      5,
      6
    ],
    "generated_at": "2025-12-29T07:07:04.962616Z"
  },
  "features": [
    {
      "properties": {
        "fill-opacity": 0.33,
        "fillColor": "#bf4040",
        "opacity": 0.33,
        "fill": "#bf4040",
        "fillOpacity": 0.33,
        "color": "#bf4040",
        "contour": 3.0,
        "metric": "distance",
        "provider_name": "The Spicy Empress Garden",
        "zone_type": "distance",
        "distance_km": 3,
        "mode": "motorcycle",
        "center_lat": 18.98352768,
        "center_lon": 73.02830402,
        "label": "3km"
      },
      "geometry": {
        "coordinates": [
          [
            [
              73.026304,
              18.98724
            ],
            [
              73.023304,
              18.987222
            ],
            [
              73.021304,
              18.985194
            ],
            [
              73.017892,
              18.984939
            ],
            [
              73.017571,
              18.97826
            ],
            [
              73.014304,
              18.976031
            ],
            [
              73.008294,
              18.974518
            ],
            [
              73.008064,
              18.973527
            ],
            [
              73.009925,
              18.973149
            ],
            [
              73.009957,
              18.970874
            ],
            [
              73.00917,
              18.970394
            ],
            [
              73.012304,
              18.965042
            ],
            [
              73.014797,
              18.967034
            ],
            [
              73.015324,
              18.968548
            ],
            [
              73.015479,
              18.966527
            ],
            [
              73.014462,
              18.966369
            ],
            [
              73.014536,
              18.965527
            ],
            [
              73.015102,
              18.963326
            ],
            [
              73.016517,
              18.963527
            ],
            [
              73.016608,
              18.961527
            ],
            [
              73.025304,
              18.961469
            ],
            [
              73.025157,
              18.963527
            ],
            [
              73.026304,
              18.965167
            ],
            [
              73.027773,
              18.964997
            ],
            [
              73.029304,
              18.963319
            ],
            [
              73.030304,
              18.963321
            ],
            [
              73.030741,
              18.96509
            ],
            [
              73.032304,
              18.965366
            ],
            [
              73.033122,
              18.964527
            ],
            [
              73.033304,
              18.962449
            ],
            [
              73.039546,
              18.965527
            ],
            [
              73.038497,
              18.965721
            ],
            [
              73.03868,
              18.967151
            ],
            [
              73.03944,
              18.967527
            ],
            [
              73.038462,
              18.969527
            ],
            [
              73.038962,
              18.970527
            ],
            [
              73.036755,
              18.972527
            ],
            [
              73.038534,
              18.976527
            ],
            [
              73.038991,
              18.981527
            ],
            [
              73.038404,
              18.985527
            ],
            [
              73.037304,
              18.985889
            ],
            [
              73.037293,
              18.985517
            ],
            [
              73.038218,
              18.985441
            ],
            [
              73.038104,
              18.981527
            ],
            [
              73.036916,
              18.980527
            ],
            [
              73.036304,
              18.977142
            ],
            [
              73.034767,
              18.98199
            ],
            [
              73.03311,
              18.982334
            ],
            [
              73.031788,
              18.984011
            ],
            [
              73.029799,
              18.985022
            ],
            [
              73.028126,
              18.98535
            ],
            [
              73.026304,
              18.98724
            ]
          ]
        ],
        "type": "Polygon"
      },
      "type": "Feature"
    },
    {
      "properties": {
        "fill-opacity": 0.33,
        "fillColor": "#bf4040",
        "opacity": 0.33,
        "fill": "#bf4040",
        "fillOpacity": 0.33,
        "color": "#bf4040",
        "contour": 4.0,
        "metric": "distance",
        "provider_name": "The Spicy Empress Garden",
        "zone_type": "distance",
        "distance_km": 4,
        "mode": "motorcycle",
        "center_lat": 18.98352768,
        "center_lon": 73.02830402,
        "label": "4km"
      },
      "geometry": {
        "coordinates": [
          [
            [
              73.037304,
              18.994892
            ],
            [
              73.036304,
              18.99441
            ],
            [
              73.036119,
              18.992527
            ],
            [
              73.034484,
              18.989527
            ],
            [
              73.034549,
              18.988527
            ],
            [
              73.037681,
              18.984527
            ],
            [
              73.037719,
              18.981527
            ],
            [
              73.036683,
              18.980527
            ],
            [
              73.036512,
              18.977318
            ],
            [
              73.035056,
              18.979527
            ],
            [
              73.034836,
              18.982059
            ],
            [
              73.033154,
              18.982377
            ],
            [
              73.031874,
              18.984097
            ],
            [
              73.030304,
              18.984317
            ],
            [
              73.029894,
              18.985118
            ],
            [
              73.028164,
              18.985387
            ],
            [
              73.026857,
              18.987081
            ],
            [
              73.023304,
              18.987294
            ],
            [
              73.021304,
              18.985277
            ],
            [
              73.017821,
              18.985009
            ],
            [
              73.017582,
              18.978527
            ],
            [
              73.016505,
              18.977326
            ],
            [
              73.014304,
              18.976196
            ],
            [
              73.012304,
              18.976169
            ],
            [
              73.011304,
              18.975154
            ],
            [
              73.008304,
              18.975028
            ],
            [
              73.007304,
              18.974
            ],
            [
              73.004872,
              18.975096
            ],
            [
              73.004479,
              18.976703
            ],
            [
              73.003138,
              18.976693
            ],
            [
              73.005251,
              18.972475
            ],
            [
              73.004936,
              18.969895
            ],
            [
              73.002614,
              18.969527
            ],
            [
              73.005304,
              18.969352
            ],
            [
              73.005772,
              18.970059
            ],
            [
              73.007304,
              18.970181
            ],
            [
              73.010627,
              18.966851
            ],
            [
              73.011818,
              18.964527
            ],
            [
              73.011752,
              18.961078
            ],
            [
              73.010797,
              18.96102
            ],
            [
              73.010304,
              18.962636
            ],
            [
              73.008571,
              18.962527
            ],
            [
              73.008304,
              18.961725
            ],
            [
              73.009944,
              18.961167
            ],
            [
              73.010129,
              18.959702
            ],
            [
              73.009045,
              18.958527
            ],
            [
              73.010304,
              18.957094
            ],
            [
              73.012304,
              18.959128
            ],
            [
              73.013304,
              18.958968
            ],
            [
              73.013771,
              18.957995
            ],
            [
              73.015469,
              18.957527
            ],
            [
              73.014191,
              18.956639
            ],
            [
              73.014296,
              18.95552
            ],
            [
              73.015304,
              18.954964
            ],
            [
              73.0156,
              18.95623
            ],
            [
              73.016984,
              18.956208
            ],
            [
              73.017304,
              18.955272
            ],
            [
              73.018304,
              18.957298
            ],
            [
              73.019304,
              18.956406
            ],
            [
              73.021943,
              18.956166
            ],
            [
              73.02261,
              18.954527
            ],
            [
              73.023304,
              18.954787
            ],
            [
              73.023741,
              18.95809
            ],
            [
              73.025139,
              18.958363
            ],
            [
              73.025389,
              18.957527
            ],
            [
              73.025437,
              18.958394
            ],
            [
              73.023304,
              18.958746
            ],
            [
              73.022903,
              18.959928
            ],
            [
              73.025304,
              18.960076
            ],
            [
              73.026304,
              18.961133
            ],
            [
              73.027304,
              18.960183
            ],
            [
              73.029304,
              18.960266
            ],
            [
              73.030304,
              18.961229
            ],
            [
              73.030999,
              18.959527
            ],
            [
              73.02886,
              18.956527
            ],
            [
              73.031304,
              18.955048
            ],
            [
              73.032304,
              18.956341
            ],
            [
              73.034304,
              18.954989
            ],
            [
              73.035304,
              18.955183
            ],
            [
              73.037548,
              18.957283
            ],
            [
              73.039379,
              18.957452
            ],
            [
              73.039437,
              18.959394
            ],
            [
              73.041309,
              18.960522
            ],
            [
              73.041155,
              18.961676
            ],
            [
              73.042366,
              18.962465
            ],
            [
              73.04222,
              18.963527
            ],
            [
              73.044646,
              18.965527
            ],
            [
              73.042496,
              18.967527
            ],
            [
              73.042644,
              18.970527
            ],
            [
              73.045304,
              18.972275
            ],
            [
              73.046304,
              18.971566
            ],
            [
              73.046517,
              18.972527
            ],
            [
              73.044088,
              18.972743
            ],
            [
              73.043794,
              18.972037
            ],
            [
              73.042866,
              18.972089
            ],
            [
              73.042831,
              18.973
            ],
            [
              73.044434,
              18.974527
            ],
            [
              73.04432,
              18.976544
            ],
            [
              73.044015,
              18.974815
            ],
            [
              73.042113,
              18.973718
            ],
            [
              73.041717,
              18.972114
            ],
            [
              73.039304,
              18.972008
            ],
            [
              73.038304,
              18.971041
            ],
            [
              73.037058,
              18.972282
            ],
            [
              73.036995,
              18.973527
            ],
            [
              73.038869,
              18.976527
            ],
            [
              73.039304,
              18.979164
            ],
            [
              73.043304,
              18.979392
            ],
            [
              73.043521,
              18.980309
            ],
            [
              73.045769,
              18.980527
            ],
            [
              73.046746,
              18.981527
            ],
            [
              73.040879,
              18.982103
            ],
            [
              73.041304,
              18.983257
            ],
            [
              73.044738,
              18.983527
            ],
            [
              73.042452,
              18.984675
            ],
            [
              73.040304,
              18.98385
            ],
            [
              73.03947,
              18.985694
            ],
            [
              73.038135,
              18.986359
            ],
            [
              73.03804,
              18.987791
            ],
            [
              73.039503,
              18.988527
            ],
            [
              73.037595,
              18.988819
            ],
            [
              73.038396,
              18.992527
            ],
            [
              73.037304,
              18.994892
            ]
          ]
        ],
        "type": "Polygon"
      },
      "type": "Feature"
    },
    {
      "properties": {
        "fill-opacity": 0.33,
        "fillColor": "#bf4040",
        "opacity": 0.33,
        "fill": "#bf4040",
        "fillOpacity": 0.33,
        "color": "#bf4040",
        "contour": 5.0,
        "metric": "distance",
        "provider_name": "The Spicy Empress Garden",
        "zone_type": "distance",
        "distance_km": 5,
        "mode": "motorcycle",
        "center_lat": 18.98352768,
        "center_lon": 73.02830402,
        "label": "5km"
      },
      "geometry": {
        "coordinates": [
          [
            [
              73.032304,
              19.0028
            ],
            [
              73.03222,
              19.001527
            ],
            [
              73.033006,
              19.00123
            ],
            [
              73.033304,
              18.995018
            ],
            [
              73.033444,
              18.996527
            ],
            [
              73.034304,
              18.997281
            ],
            [
              73.035828,
              18.995527
            ],
            [
              73.035753,
              18.992527
            ],
            [
              73.034612,
              18.990219
            ],
            [
              73.033304,
              18.989799
            ],
            [
              73.032304,
              18.99046
            ],
            [
              73.031304,
              18.988836
            ],
            [
              73.030518,
              18.990313
            ],
            [
              73.03207,
              18.990527
            ],
            [
              73.030304,
              18.991321
            ],
            [
              73.029886,
              18.988944
            ],
            [
              73.029162,
              18.988527
            ],
            [
              73.031304,
              18.987206
            ],
            [
              73.033304,
              18.987117
            ],
            [
              73.034304,
              18.988065
            ],
            [
              73.03505,
              18.986274
            ],
            [
              73.036568,
              18.985791
            ],
            [
              73.037334,
              18.981527
            ],
            [
              73.036579,
              18.980527
            ],
            [
              73.036463,
              18.977368
            ],
            [
              73.035105,
              18.979527
            ],
            [
              73.034924,
              18.982148
            ],
            [
              73.033181,
              18.982405
            ],
            [
              73.03195,
              18.984173
            ],
            [
              73.030304,
              18.984354
            ],
            [
              73.029964,
              18.985188
            ],
            [
              73.028188,
              18.985412
            ],
            [
              73.026938,
              18.987162
            ],
            [
              73.023304,
              18.987338
            ],
            [
              73.021304,
              18.985327
            ],
            [
              73.017737,
              18.985094
            ],
            [
              73.017521,
              18.978527
            ],
            [
              73.016458,
              18.977373
            ],
            [
              73.014785,
              18.977046
            ],
            [
              73.014304,
              18.976278
            ],
            [
              73.012304,
              18.976264
            ],
            [
              73.011304,
              18.975256
            ],
            [
              73.008304,
              18.975194
            ],
            [
              73.007304,
              18.974182
            ],
            [
              73.005042,
              18.975265
            ],
            [
              73.004687,
              18.976911
            ],
            [
              73.003304,
              18.977098
            ],
            [
              73.002733,
              18.976527
            ],
            [
              73.004677,
              18.973527
            ],
            [
              73.004602,
              18.970228
            ],
            [
              73.002304,
              18.970019
            ],
            [
              72.999304,
              18.967906
            ],
            [
              72.997116,
              18.967714
            ],
            [
              72.996304,
              18.966746
            ],
            [
              72.993745,
              18.966527
            ],
            [
              72.997304,
              18.966276
            ],
            [
              73.003304,
              18.969009
            ],
            [
              73.007561,
              18.969785
            ],
            [
              73.010521,
              18.966745
            ],
            [
              73.011643,
              18.964527
            ],
            [
              73.01169,
              18.961527
            ],
            [
              73.011018,
              18.961242
            ],
            [
              73.009656,
              18.96288
            ],
            [
              73.007949,
              18.963173
            ],
            [
              73.007677,
              18.965527
            ],
            [
              73.006603,
              18.966527
            ],
            [
              73.00601,
              18.968821
            ],
            [
              73.005965,
              18.965527
            ],
            [
              73.00689,
              18.964527
            ],
            [
              73.00783,
              18.959527
            ],
            [
              73.006863,
              18.958527
            ],
            [
              73.006744,
              18.956087
            ],
            [
              73.004123,
              18.956708
            ],
            [
              73.003223,
              18.956527
            ],
            [
              73.003141,
              18.95569
            ],
            [
              73.006766,
              18.954989
            ],
            [
              73.006858,
              18.953973
            ],
            [
              73.006104,
              18.953527
            ],
            [
              73.006304,
              18.951536
            ],
            [
              73.006664,
              18.953167
            ],
            [
              73.011759,
              18.952982
            ],
            [
              73.011984,
              18.950847
            ],
            [
              73.010525,
              18.950527
            ],
            [
              73.012304,
              18.948959
            ],
            [
              73.012595,
              18.952527
            ],
            [
              73.013304,
              18.953258
            ],
            [
              73.019505,
              18.952326
            ],
            [
              73.019522,
              18.953745
            ],
            [
              73.017939,
              18.955163
            ],
            [
              73.018304,
              18.956
            ],
            [
              73.021608,
              18.955831
            ],
            [
              73.021966,
              18.95419
            ],
            [
              73.023304,
              18.953065
            ],
            [
              73.024699,
              18.952923
            ],
            [
              73.025304,
              18.951559
            ],
            [
              73.027419,
              18.953412
            ],
            [
              73.027674,
              18.955156
            ],
            [
              73.029304,
              18.955979
            ],
            [
              73.031029,
              18.954253
            ],
            [
              73.03301,
              18.953527
            ],
            [
              73.032048,
              18.949783
            ],
            [
              73.031173,
              18.949527
            ],
            [
              73.031304,
              18.947821
            ],
            [
              73.031372,
              18.949459
            ],
            [
              73.033041,
              18.949527
            ],
            [
              73.034337,
              18.950494
            ],
            [
              73.036304,
              18.953218
            ],
            [
              73.037086,
              18.952527
            ],
            [
              73.037304,
              18.950115
            ],
            [
              73.037748,
              18.956527
            ],
            [
              73.039657,
              18.957174
            ],
            [
              73.039852,
              18.958979
            ],
            [
              73.041834,
              18.960997
            ],
            [
              73.046304,
              18.963276
            ],
            [
              73.051336,
              18.96356
            ],
            [
              73.051304,
              18.964802
            ],
            [
              73.049304,
              18.964797
            ],
            [
              73.048304,
              18.963781
            ],
            [
              73.045884,
              18.964107
            ],
            [
              73.046693,
              18.965527
            ],
            [
              73.044304,
              18.966086
            ],
            [
              73.043015,
              18.967239
            ],
            [
              73.042906,
              18.970527
            ],
            [
              73.044689,
              18.970912
            ],
            [
              73.045304,
              18.969192
            ],
            [
              73.050304,
              18.968213
            ],
            [
              73.050536,
              18.969527
            ],
            [
              73.049534,
              18.971757
            ],
            [
              73.047903,
              18.972127
            ],
            [
              73.047638,
              18.973527
            ],
            [
              73.048821,
              18.97601
            ],
            [
              73.052032,
              18.976527
            ],
            [
              73.049694,
              18.976917
            ],
            [
              73.047651,
              18.979527
            ],
            [
              73.051304,
              18.980247
            ],
            [
              73.052304,
              18.981309
            ],
            [
              73.054853,
              18.981527
            ],
            [
              73.051304,
              18.981792
            ],
            [
              73.050304,
              18.980861
            ],
            [
              73.047937,
              18.98116
            ],
            [
              73.049304,
              18.983213
            ],
            [
              73.053721,
              18.983527
            ],
            [
              73.045951,
              18.984175
            ],
            [
              73.044848,
              18.986983
            ],
            [
              73.046532,
              18.987527
            ],
            [
              73.046094,
              18.988737
            ],
            [
              73.048702,
              18.989527
            ],
            [
              73.043304,
              18.98998
            ],
            [
              73.041304,
              18.988975
            ],
            [
              73.037991,
              18.989214
            ],
            [
              73.037882,
              18.990527
            ],
            [
              73.03884,
              18.991527
            ],
            [
              73.038738,
              18.995527
            ],
            [
              73.0377,
              18.996527
            ],
            [
              73.038304,
              18.99735
            ],
            [
              73.040179,
              18.997527
            ],
            [
              73.039468,
              18.997692
            ],
            [
              73.039304,
              18.999224
            ],
            [
              73.037888,
              18.999527
            ],
            [
              73.038213,
              19.000527
            ],
            [
              73.035634,
              19.000858
            ],
            [
              73.035357,
              19.001581
            ],
            [
              73.033545,
              19.001768
            ],
            [
              73.032304,
              19.0028
            ]
          ]
        ],
        "type": "Polygon"
      },
      "type": "Feature"
    },
    {
      "properties": {
        "fill-opacity": 0.33,
        "fillColor": "#bf4040",
        "opacity": 0.33,
        "fill": "#bf4040",
        "fillOpacity": 0.33,
        "color": "#bf4040",
        "contour": 6.0,
        "metric": "distance",
        "provider_name": "The Spicy Empress Garden",
        "zone_type": "distance",
        "distance_km": 6,
        "mode": "motorcycle",
        "center_lat": 18.98352768,
        "center_lon": 73.02830402,
        "label": "6km"
      },
      "geometry": {
        "coordinates": [
          [
            [
              73.028304,
              19.01088
            ],
            [
              73.027036,
              19.008527
            ],
            [
              73.028118,
              19.008342
            ],
            [
              73.029663,
              19.004527
            ],
            [
              73.031648,
              19.002871
            ],
            [
              73.032746,
              19.000527
            ],
            [
              73.03279,
              18.995527
            ],
            [
              73.030689,
              18.993142
            ],
            [
              73.028997,
              18.992833
            ],
            [
              73.029753,
              18.989527
            ],
            [
              73.028765,
              18.988527
            ],
            [
              73.031304,
              18.986931
            ],
            [
              73.033304,
              18.986898
            ],
            [
              73.034304,
              18.987877
            ],
            [
              73.034892,
              18.986116
            ],
            [
              73.036493,
              18.985716
            ],
            [
              73.036432,
              18.977399
            ],
            [
              73.035963,
              18.979187
            ],
            [
              73.035138,
              18.979527
            ],
            [
              73.034985,
              18.982209
            ],
            [
              73.0332,
              18.982424
            ],
            [
              73.032003,
              18.984227
            ],
            [
              73.030304,
              18.984379
            ],
            [
              73.030013,
              18.985237
            ],
            [
              73.028205,
              18.985429
            ],
            [
              73.026995,
              18.987218
            ],
            [
              73.023304,
              18.987368
            ],
            [
              73.021304,
              18.985361
            ],
            [
              73.01766,
              18.985171
            ],
            [
              73.017482,
              18.978527
            ],
            [
              73.016304,
              18.977337
            ],
            [
              73.014692,
              18.977139
            ],
            [
              73.014304,
              18.976328
            ],
            [
              73.011721,
              18.97611
            ],
            [
              73.011304,
              18.975314
            ],
            [
              73.008304,
              18.975278
            ],
            [
              73.007304,
              18.974271
            ],
            [
              73.005115,
              18.975339
            ],
            [
              73.004772,
              18.976995
            ],
            [
              73.002837,
              18.976994
            ],
            [
              73.004575,
              18.973527
            ],
            [
              73.00451,
              18.970321
            ],
            [
              73.002304,
              18.97019
            ],
            [
              72.996304,
              18.967089
            ],
            [
              72.993304,
              18.967015
            ],
            [
              72.992304,
              18.965984
            ],
            [
              72.990304,
              18.965901
            ],
            [
              72.987304,
              18.967657
            ],
            [
              72.985268,
              18.967527
            ],
            [
              72.987199,
              18.965422
            ],
            [
              72.986966,
              18.963865
            ],
            [
              72.985399,
              18.963623
            ],
            [
              72.985304,
              18.964398
            ],
            [
              72.984843,
              18.963527
            ],
            [
              72.987304,
              18.963366
            ],
            [
              72.987743,
              18.964088
            ],
            [
              72.990304,
              18.964164
            ],
            [
              72.991304,
              18.965114
            ],
            [
              72.993304,
              18.965062
            ],
            [
              72.994304,
              18.966012
            ],
            [
              72.997304,
              18.965955
            ],
            [
              72.998304,
              18.966927
            ],
            [
              73.000304,
              18.96691
            ],
            [
              73.003304,
              18.968852
            ],
            [
              73.005673,
              18.968896
            ],
            [
              73.005702,
              18.965527
            ],
            [
              73.007636,
              18.961527
            ],
            [
              73.006568,
              18.956263
            ],
            [
              73.005304,
              18.957093
            ],
            [
              73.002962,
              18.957185
            ],
            [
              73.002593,
              18.958816
            ],
            [
              73.001304,
              18.959913
            ],
            [
              72.999013,
              18.959527
            ],
            [
              73.001676,
              18.957899
            ],
            [
              73.002952,
              18.955176
            ],
            [
              73.005581,
              18.954804
            ],
            [
              73.005833,
              18.950527
            ],
            [
              73.004912,
              18.948527
            ],
            [
              73.007304,
              18.944212
            ],
            [
              73.00817,
              18.944527
            ],
            [
              73.008316,
              18.945527
            ],
            [
              73.006663,
              18.948527
            ],
            [
              73.00694,
              18.950891
            ],
            [
              73.010634,
              18.949858
            ],
            [
              73.011854,
              18.947527
            ],
            [
              73.010005,
              18.944527
            ],
            [
              73.009952,
              18.942878
            ],
            [
              73.008291,
              18.94254
            ],
            [
              73.009304,
              18.941257
            ],
            [
              73.011502,
              18.944328
            ],
            [
              73.011895,
              18.945936
            ],
            [
              73.013304,
              18.946115
            ],
            [
              73.015062,
              18.943527
            ],
            [
              73.015304,
              18.940813
            ],
            [
              73.016304,
              18.94119
            ],
            [
              73.015492,
              18.941716
            ],
            [
              73.015603,
              18.944527
            ],
            [
              73.013759,
              18.947527
            ],
            [
              73.016517,
              18.948313
            ],
            [
              73.016357,
              18.951527
            ],
            [
              73.019696,
              18.952135
            ],
            [
              73.019901,
              18.953527
            ],
            [
              73.018068,
              18.955292
            ],
            [
              73.018304,
              18.955848
            ],
            [
              73.021512,
              18.955735
            ],
            [
              73.021857,
              18.954081
            ],
            [
              73.024686,
              18.952527
            ],
            [
              73.023838,
              18.951527
            ],
            [
              73.024304,
              18.950062
            ],
            [
              73.027671,
              18.95316
            ],
            [
              73.027853,
              18.954527
            ],
            [
              73.029069,
              18.955761
            ],
            [
              73.029884,
              18.954108
            ],
            [
              73.032545,
              18.953768
            ],
            [
              73.032539,
              18.952291
            ],
            [
              73.029667,
              18.947163
            ],
            [
              73.028402,
              18.946527
            ],
            [
              73.026978,
              18.941853
            ],
            [
              73.026009,
              18.941527
            ],
            [
              73.025847,
              18.940527
            ],
            [
              73.026487,
              18.941343
            ],
            [
              73.028026,
              18.941249
            ],
            [
              73.028304,
              18.940049
            ],
            [
              73.028566,
              18.941265
            ],
            [
              73.029412,
              18.941527
            ],
            [
              73.028608,
              18.943527
            ],
            [
              73.032304,
              18.949255
            ],
            [
              73.033106,
              18.948527
            ],
            [
              73.033085,
              18.944746
            ],
            [
              73.032097,
              18.944527
            ],
            [
              73.032724,
              18.941527
            ],
            [
              73.032657,
              18.943174
            ],
            [
              73.033501,
              18.943527
            ],
            [
              73.033783,
              18.949527
            ],
            [
              73.035663,
              18.951168
            ],
            [
              73.036304,
              18.952936
            ],
            [
              73.038041,
              18.944527
            ],
            [
              73.039239,
              18.942463
            ],
            [
              73.040304,
              18.941952
            ],
            [
              73.040353,
              18.942576
            ],
            [
              73.039519,
              18.942743
            ],
            [
              73.039636,
              18.946527
            ],
            [
              73.040691,
              18.948527
            ],
            [
              73.038934,
              18.949158
            ],
            [
              73.037818,
              18.950527
            ],
            [
              73.037947,
              18.956527
            ],
            [
              73.039757,
              18.957074
            ],
            [
              73.040029,
              18.958802
            ],
            [
              73.042041,
              18.96079
            ],
            [
              73.046304,
              18.962823
            ],
            [
              73.051304,
              18.962737
            ],
            [
              73.053194,
              18.963417
            ],
            [
              73.055304,
              18.961238
            ],
            [
              73.056329,
              18.961502
            ],
            [
              73.055523,
              18.963527
            ],
            [
              73.056304,
              18.964202
            ],
            [
              73.057984,
              18.964208
            ],
            [
              73.058304,
              18.963379
            ],
            [
              73.060861,
              18.963527
            ],
            [
              73.058623,
              18.963846
            ],
            [
              73.058647,
              18.965184
            ],
            [
              73.060201,
              18.965527
            ],
            [
              73.059464,
              18.965688
            ],
            [
              73.059304,
              18.966845
            ],
            [
              73.059108,
              18.965723
            ],
            [
              73.056815,
              18.966038
            ],
            [
              73.056304,
              18.969072
            ],
            [
              73.055304,
              18.969178
            ],
            [
              73.055767,
              18.966063
            ],
            [
              73.051929,
              18.966153
            ],
            [
              73.051607,
              18.967223
            ],
            [
              73.052363,
              18.967468
            ],
            [
              73.05238,
              18.968604
            ],
            [
              73.051304,
              18.968723
            ],
            [
              73.050023,
              18.970247
            ],
            [
              73.049706,
              18.97193
            ],
            [
              73.048054,
              18.972277
            ],
            [
              73.047904,
              18.973527
            ],
            [
              73.049024,
              18.975807
            ],
            [
              73.051304,
              18.976008
            ],
            [
              73.052304,
              18.974975
            ],
            [
              73.052814,
              18.976527
            ],
            [
              73.050003,
              18.977227
            ],
            [
              73.047909,
              18.979527
            ],
            [
              73.051304,
              18.979946
            ],
            [
              73.052304,
              18.980966
            ],
            [
              73.059304,
              18.981176
            ],
            [
              73.060304,
              18.982226
            ],
            [
              73.064242,
              18.982527
            ],
            [
              73.059304,
              18.982866
            ],
            [
              73.058304,
              18.981921
            ],
            [
              73.051304,
              18.982104
            ],
            [
              73.050304,
              18.981127
            ],
            [
              73.047963,
              18.981527
            ],
            [
              73.049304,
              18.982934
            ],
            [
              73.054304,
              18.983044
            ],
            [
              73.055304,
              18.984075
            ],
            [
              73.061304,
              18.984366
            ],
            [
              73.061512,
              18.985319
            ],
            [
              73.063052,
              18.985527
            ],
            [
              73.061304,
              18.985626
            ],
            [
              73.060304,
              18.98476
            ],
            [
              73.054304,
              18.985003
            ],
            [
              73.053304,
              18.984038
            ],
            [
              73.04769,
              18.984527
            ],
            [
              73.047928,
              18.987903
            ],
            [
              73.050005,
              18.989826
            ],
            [
              73.054304,
              18.989936
            ],
            [
              73.055304,
              18.991298
            ],
            [
              73.057232,
              18.990456
            ],
            [
              73.057304,
              18.991597
            ],
            [
              73.054304,
              18.991789
            ],
            [
              73.053304,
              18.990869
            ],
            [
              73.049304,
              18.990995
            ],
            [
              73.048304,
              18.990159
            ],
            [
              73.043304,
              18.990748
            ],
            [
              73.041304,
              18.989171
            ],
            [
              73.038091,
              18.989314
            ],
            [
              73.038984,
              18.992208
            ],
            [
              73.038942,
              18.995527
            ],
            [
              73.038033,
              18.996798
            ],
            [
              73.042677,
              18.997153
            ],
            [
              73.044304,
              18.998166
            ],
            [
              73.045038,
              18.997527
            ],
            [
              73.045285,
              18.994508
            ],
            [
              73.046304,
              18.994509
            ],
            [
              73.0463,
              18.994531
            ],
            [
              73.045365,
              18.994589
            ],
            [
              73.045823,
              18.998008
            ],
            [
              73.049636,
              18.998527
            ],
            [
              73.046745,
              18.998969
            ],
            [
              73.046524,
              19.001307
            ],
            [
              73.047809,
              19.001527
            ],
            [
              73.040907,
              19.002131
            ],
            [
              73.040304,
              19.00479
            ],
            [
              73.039304,
              19.001002
            ],
            [
              73.036304,
              19.001076
            ],
            [
              73.033984,
              19.002207
            ],
            [
              73.030949,
              19.005173
            ],
            [
              73.029691,
              19.008527
            ],
            [
              73.030204,
              19.009527
            ],
            [
              73.028304,
              19.01088
            ]
          ]
        ],
        "type": "Polygon"
      },
      "type": "Feature"
    }
  ]
}