{
  "type": "FeatureCollection",
  "metadata": {
    "provider_name": "Classy Bites",
    "center_lat": 19.0626844,
    "center_lon": 72.9000573,
    "mode": "motorcycle",
    "total_zones": 4,
    "distance_zones": [
      3,
      4,
      5,
      6
    ],
    "generated_at": "2025-12-31T05:05:38.723962Z"
  },
  "features": [
    {
      "properties": {
        "fill-opacity": 0.33,
        "fillColor": "#bf4040",
        "opacity": 0.33,
        "fill": "#bf4040",
        "fillOpacity": 0.33,
        "color": "#bf4040",
        "contour": 3.0,
        "metric": "distance",
        "provider_name": "Classy Bites",
        "zone_type": "distance",
        "distance_km": 3,
        "mode": "motorcycle",
        "center_lat": 19.0626844,
        "center_lon": 72.9000573,
        "label": "3km"
      },
      "geometry": {
        "coordinates": [
          [
            [
              72.905057,
              19.08184
            ],
            [
              72.903878,
              19.081863
            ],
            [
              72.899808,
              19.078933
            ],
            [
              72.898653,
              19.077684
            ],
            [
              72.898325,
              19.074416
            ],
            [
              72.896694,
              19.074047
            ],
            [
              72.893779,
              19.070962
            ],
            [
              72.893391,
              19.06935
            ],
            [
              72.889057,
              19.068403
            ],
            [
              72.886283,
              19.06991
            ],
            [
              72.886057,
              19.07099
            ],
            [
              72.885998,
              19.069625
            ],
            [
              72.887057,
              19.06709
            ],
            [
              72.882057,
              19.066759
            ],
            [
              72.881874,
              19.065867
            ],
            [
              72.879865,
              19.064684
            ],
            [
              72.879179,
              19.058807
            ],
            [
              72.880765,
              19.055684
            ],
            [
              72.880057,
              19.054775
            ],
            [
              72.878918,
              19.055823
            ],
            [
              72.877876,
              19.053865
            ],
            [
              72.876839,
              19.053684
            ],
            [
              72.877057,
              19.052915
            ],
            [
              72.877135,
              19.053606
            ],
            [
              72.878546,
              19.053173
            ],
            [
              72.878504,
              19.052237
            ],
            [
              72.877396,
              19.052023
            ],
            [
              72.877057,
              19.052636
            ],
            [
              72.875726,
              19.050684
            ],
            [
              72.877057,
              19.049525
            ],
            [
              72.877249,
              19.050492
            ],
            [
              72.878737,
              19.050364
            ],
            [
              72.878513,
              19.048684
            ],
            [
              72.881057,
              19.047717
            ],
            [
              72.881828,
              19.048684
            ],
            [
              72.881173,
              19.049684
            ],
            [
              72.88196,
              19.051781
            ],
            [
              72.884475,
              19.052102
            ],
            [
              72.884403,
              19.050684
            ],
            [
              72.887539,
              19.047166
            ],
            [
              72.887993,
              19.04562
            ],
            [
              72.890791,
              19.045418
            ],
            [
              72.891721,
              19.044684
            ],
            [
              72.891044,
              19.043697
            ],
            [
              72.891199,
              19.040542
            ],
            [
              72.894057,
              19.039901
            ],
            [
              72.894526,
              19.041215
            ],
            [
              72.897195,
              19.042545
            ],
            [
              72.899057,
              19.04452
            ],
            [
              72.904057,
              19.043664
            ],
            [
              72.904599,
              19.045142
            ],
            [
              72.90773,
              19.046011
            ],
            [
              72.909151,
              19.044778
            ],
            [
              72.911189,
              19.045816
            ],
            [
              72.914057,
              19.043173
            ],
            [
              72.914329,
              19.045411
            ],
            [
              72.916745,
              19.045684
            ],
            [
              72.915948,
              19.046684
            ],
            [
              72.917412,
              19.048329
            ],
            [
              72.919628,
              19.048255
            ],
            [
              72.919896,
              19.046523
            ],
            [
              72.922633,
              19.047684
            ],
            [
              72.922057,
              19.050235
            ],
            [
              72.921057,
              19.049532
            ],
            [
              72.919057,
              19.052853
            ],
            [
              72.917685,
              19.052312
            ],
            [
              72.917227,
              19.054854
            ],
            [
              72.915057,
              19.056022
            ],
            [
              72.913057,
              19.055981
            ],
            [
              72.911696,
              19.057323
            ],
            [
              72.911564,
              19.058177
            ],
            [
              72.914035,
              19.058705
            ],
            [
              72.915067,
              19.060684
            ],
            [
              72.914216,
              19.060843
            ],
            [
              72.914057,
              19.061929
            ],
            [
              72.913057,
              19.061596
            ],
            [
              72.910806,
              19.063434
            ],
            [
              72.911001,
              19.066684
            ],
            [
              72.912556,
              19.067185
            ],
            [
              72.912701,
              19.068328
            ],
            [
              72.90934,
              19.071684
            ],
            [
              72.910501,
              19.07324
            ],
            [
              72.912136,
              19.073605
            ],
            [
              72.913057,
              19.075646
            ],
            [
              72.909057,
              19.075927
            ],
            [
              72.908095,
              19.078722
            ],
            [
              72.905515,
              19.080142
            ],
            [
              72.905057,
              19.08184
            ]
          ]
        ],
        "type": "Polygon"
      },
      "type": "Feature"
    },
    {
      "properties": {
        "fill-opacity": 0.33,
        "fillColor": "#bf4040",
        "opacity": 0.33,
        "fill": "#bf4040",
        "fillOpacity": 0.33,
        "color": "#bf4040",
        "contour": 4.0,
        "metric": "distance",
        "provider_name": "Classy Bites",
        "zone_type": "distance",
        "distance_km": 4,
        "mode": "motorcycle",
        "center_lat": 19.0626844,
        "center_lon": 72.9000573,
        "label": "4km"
      },
      "geometry": {
        "coordinates": [
          [
            [
              72.906057,
              19.087688
            ],
            [
              72.904057,
              19.088498
            ],
            [
              72.902749,
              19.086992
            ],
            [
              72.902542,
              19.085199
            ],
            [
              72.901211,
              19.084684
            ],
            [
              72.900057,
              19.083295
            ],
            [
              72.89991,
              19.081831
            ],
            [
              72.89903,
              19.081684
            ],
            [
              72.899242,
              19.080498
            ],
            [
              72.897617,
              19.080124
            ],
            [
              72.897399,
              19.078342
            ],
            [
              72.895761,
              19.076979
            ],
            [
              72.896362,
              19.075684
            ],
            [
              72.895234,
              19.074684
            ],
            [
              72.895087,
              19.072684
            ],
            [
              72.893057,
              19.06996
            ],
            [
              72.891057,
              19.069224
            ],
            [
              72.890437,
              19.069684
            ],
            [
              72.893301,
              19.073439
            ],
            [
              72.894312,
              19.073684
            ],
            [
              72.894005,
              19.074632
            ],
            [
              72.893057,
              19.074663
            ],
            [
              72.892723,
              19.073018
            ],
            [
              72.890887,
              19.072854
            ],
            [
              72.889475,
              19.071266
            ],
            [
              72.888057,
              19.072019
            ],
            [
              72.887057,
              19.070946
            ],
            [
              72.885716,
              19.071343
            ],
            [
              72.885057,
              19.07315
            ],
            [
              72.883057,
              19.074166
            ],
            [
              72.880694,
              19.074321
            ],
            [
              72.880057,
              19.075376
            ],
            [
              72.878057,
              19.07559
            ],
            [
              72.879819,
              19.071447
            ],
            [
              72.882057,
              19.073351
            ],
            [
              72.883057,
              19.072216
            ],
            [
              72.884408,
              19.072035
            ],
            [
              72.885461,
              19.06928
            ],
            [
              72.881638,
              19.067102
            ],
            [
              72.87914,
              19.064684
            ],
            [
              72.879057,
              19.063639
            ],
            [
              72.875965,
              19.062776
            ],
            [
              72.87539,
              19.061017
            ],
            [
              72.876534,
              19.060161
            ],
            [
              72.875677,
              19.058684
            ],
            [
              72.876464,
              19.057277
            ],
            [
              72.874567,
              19.057194
            ],
            [
              72.874057,
              19.058405
            ],
            [
              72.871207,
              19.056534
            ],
            [
              72.86897,
              19.05277
            ],
            [
              72.868057,
              19.052371
            ],
            [
              72.870057,
              19.052061
            ],
            [
              72.871818,
              19.050684
            ],
            [
              72.870371,
              19.049998
            ],
            [
              72.869057,
              19.051364
            ],
            [
              72.868676,
              19.049065
            ],
            [
              72.866961,
              19.047588
            ],
            [
              72.868132,
              19.047609
            ],
            [
              72.869057,
              19.048459
            ],
            [
              72.871371,
              19.047998
            ],
            [
              72.871463,
              19.046684
            ],
            [
              72.872858,
              19.046485
            ],
            [
              72.873057,
              19.045666
            ],
            [
              72.873383,
              19.046358
            ],
            [
              72.875248,
              19.046493
            ],
            [
              72.87536,
              19.047684
            ],
            [
              72.874428,
              19.048684
            ],
            [
              72.876057,
              19.049337
            ],
            [
              72.877424,
              19.048051
            ],
            [
              72.877395,
              19.046684
            ],
            [
              72.87829,
              19.045684
            ],
            [
              72.877699,
              19.042326
            ],
            [
              72.878178,
              19.041684
            ],
            [
              72.879959,
              19.041586
            ],
            [
              72.881057,
              19.039019
            ],
            [
              72.88118,
              19.039561
            ],
            [
              72.883106,
              19.039635
            ],
            [
              72.882191,
              19.039818
            ],
            [
              72.882266,
              19.041684
            ],
            [
              72.881361,
              19.042684
            ],
            [
              72.881665,
              19.045076
            ],
            [
              72.882449,
              19.045076
            ],
            [
              72.885057,
              19.039705
            ],
            [
              72.88649,
              19.041684
            ],
            [
              72.886644,
              19.044097
            ],
            [
              72.889394,
              19.045021
            ],
            [
              72.890555,
              19.043684
            ],
            [
              72.890057,
              19.041822
            ],
            [
              72.889328,
              19.041955
            ],
            [
              72.889057,
              19.042994
            ],
            [
              72.887481,
              19.042684
            ],
            [
              72.889755,
              19.039684
            ],
            [
              72.887937,
              19.038804
            ],
            [
              72.887057,
              19.037123
            ],
            [
              72.889271,
              19.036684
            ],
            [
              72.890066,
              19.037693
            ],
            [
              72.890146,
              19.036684
            ],
            [
              72.8916,
              19.035684
            ],
            [
              72.890475,
              19.034684
            ],
            [
              72.891427,
              19.033684
            ],
            [
              72.892075,
              19.033666
            ],
            [
              72.892587,
              19.036154
            ],
            [
              72.893472,
              19.036099
            ],
            [
              72.893876,
              19.033503
            ],
            [
              72.896751,
              19.031378
            ],
            [
              72.897057,
              19.02978
            ],
            [
              72.898334,
              19.030684
            ],
            [
              72.898347,
              19.033394
            ],
            [
              72.899384,
              19.033684
            ],
            [
              72.904851,
              19.040684
            ],
            [
              72.901057,
              19.041183
            ],
            [
              72.900828,
              19.042912
            ],
            [
              72.906566,
              19.042193
            ],
            [
              72.907057,
              19.039971
            ],
            [
              72.90723,
              19.041684
            ],
            [
              72.908469,
              19.042097
            ],
            [
              72.908203,
              19.039684
            ],
            [
              72.909057,
              19.036586
            ],
            [
              72.910057,
              19.039272
            ],
            [
              72.915816,
              19.039684
            ],
            [
              72.918057,
              19.040933
            ],
            [
              72.920057,
              19.040549
            ],
            [
              72.920305,
              19.042684
            ],
            [
              72.921057,
              19.043145
            ],
            [
              72.923699,
              19.043326
            ],
            [
              72.924057,
              19.04225
            ],
            [
              72.925057,
              19.042126
            ],
            [
              72.925965,
              19.042684
            ],
            [
              72.925207,
              19.042834
            ],
            [
              72.925057,
              19.04537
            ],
            [
              72.92492,
              19.044821
            ],
            [
              72.923294,
              19.044921
            ],
            [
              72.922495,
              19.046684
            ],
            [
              72.925695,
              19.048684
            ],
            [
              72.922057,
              19.051071
            ],
            [
              72.919795,
              19.051422
            ],
            [
              72.919057,
              19.053211
            ],
            [
              72.917818,
              19.052445
            ],
            [
              72.917452,
              19.054079
            ],
            [
              72.915514,
              19.056141
            ],
            [
              72.913057,
              19.05639
            ],
            [
              72.911815,
              19.057684
            ],
            [
              72.915423,
              19.058318
            ],
            [
              72.917057,
              19.060858
            ],
            [
              72.919652,
              19.061684
            ],
            [
              72.918609,
              19.064684
            ],
            [
              72.917057,
              19.066354
            ],
            [
              72.916901,
              19.06584
            ],
            [
              72.914689,
              19.066052
            ],
            [
              72.914057,
              19.065063
            ],
            [
              72.91349,
              19.065684
            ],
            [
              72.916303,
              19.068438
            ],
            [
              72.916275,
              19.070902
            ],
            [
              72.914057,
              19.071146
            ],
            [
              72.913057,
              19.072302
            ],
            [
              72.91163,
              19.072111
            ],
            [
              72.911057,
              19.071251
            ],
            [
              72.909824,
              19.071684
            ],
            [
              72.914057,
              19.074386
            ],
            [
              72.918793,
              19.074948
            ],
            [
              72.919057,
              19.075684
            ],
            [
              72.918298,
              19.075925
            ],
            [
              72.918273,
              19.077684
            ],
            [
              72.91735,
              19.078684
            ],
            [
              72.919057,
              19.082508
            ],
            [
              72.918057,
              19.082657
            ],
            [
              72.916057,
              19.081485
            ],
            [
              72.915057,
              19.082196
            ],
            [
              72.914057,
              19.08176
            ],
            [
              72.912335,
              19.082962
            ],
            [
              72.911057,
              19.082114
            ],
            [
              72.909806,
              19.082433
            ],
            [
              72.90977,
              19.083971
            ],
            [
              72.911284,
              19.084457
            ],
            [
              72.911057,
              19.086171
            ],
            [
              72.907057,
              19.086236
            ],
            [
              72.906057,
              19.087688
            ]
          ]
        ],
        "type": "Polygon"
      },
      "type": "Feature"
    },
    {
      "properties": {
        "fill-opacity": 0.33,
        "fillColor": "#bf4040",
        "opacity": 0.33,
        "fill": "#bf4040",
        "fillOpacity": 0.33,
        "color": "#bf4040",
        "contour": 5.0,
        "metric": "distance",
        "provider_name": "Classy Bites",
        "zone_type": "distance",
        "distance_km": 5,
        "mode": "motorcycle",
        "center_lat": 19.0626844,
        "center_lon": 72.9000573,
        "label": "5km"
      },
      "geometry": {
        "coordinates": [
          [
            [
              72.905057,
              19.096835
            ],
            [
              72.903177,
              19.096563
            ],
            [
              72.902354,
              19.095684
            ],
            [
              72.903797,
              19.095424
            ],
            [
              72.903057,
              19.093943
            ],
            [
              72.902057,
              19.095482
            ],
            [
              72.901961,
              19.09478
            ],
            [
              72.900121,
              19.094684
            ],
            [
              72.901944,
              19.094571
            ],
            [
              72.901835,
              19.092906
            ],
            [
              72.900638,
              19.092684
            ],
            [
              72.900332,
              19.091409
            ],
            [
              72.898594,
              19.090684
            ],
            [
              72.897272,
              19.088469
            ],
            [
              72.896057,
              19.088388
            ],
            [
              72.891244,
              19.082684
            ],
            [
              72.891894,
              19.082521
            ],
            [
              72.89186,
              19.080881
            ],
            [
              72.89049,
              19.080684
            ],
            [
              72.893089,
              19.078716
            ],
            [
              72.894218,
              19.078684
            ],
            [
              72.895434,
              19.076684
            ],
            [
              72.894408,
              19.075333
            ],
            [
              72.892722,
              19.075019
            ],
            [
              72.892358,
              19.073383
            ],
            [
              72.890675,
              19.073066
            ],
            [
              72.889314,
              19.071427
            ],
            [
              72.888057,
              19.072285
            ],
            [
              72.887057,
              19.071259
            ],
            [
              72.88607,
              19.071684
            ],
            [
              72.885471,
              19.074684
            ],
            [
              72.887113,
              19.075684
            ],
            [
              72.887233,
              19.078684
            ],
            [
              72.886057,
              19.078645
            ],
            [
              72.884057,
              19.080785
            ],
            [
              72.882057,
              19.080684
            ],
            [
              72.883015,
              19.081684
            ],
            [
              72.882057,
              19.08271
            ],
            [
              72.878337,
              19.082404
            ],
            [
              72.878879,
              19.080506
            ],
            [
              72.878057,
              19.078097
            ],
            [
              72.877057,
              19.079056
            ],
            [
              72.875457,
              19.079084
            ],
            [
              72.875057,
              19.079848
            ],
            [
              72.873059,
              19.079684
            ],
            [
              72.87396,
              19.076684
            ],
            [
              72.870057,
              19.075193
            ],
            [
              72.869329,
              19.073684
            ],
            [
              72.871284,
              19.072684
            ],
            [
              72.871397,
              19.074344
            ],
            [
              72.872057,
              19.074448
            ],
            [
              72.872905,
              19.073684
            ],
            [
              72.872504,
              19.072684
            ],
            [
              72.874528,
              19.072155
            ],
            [
              72.872749,
              19.070684
            ],
            [
              72.873837,
              19.070464
            ],
            [
              72.877201,
              19.063684
            ],
            [
              72.875353,
              19.063388
            ],
            [
              72.87177,
              19.058971
            ],
            [
              72.871433,
              19.057308
            ],
            [
              72.868832,
              19.054909
            ],
            [
              72.866896,
              19.050845
            ],
            [
              72.864985,
              19.049756
            ],
            [
              72.863057,
              19.043916
            ],
            [
              72.862057,
              19.043824
            ],
            [
              72.862057,
              19.039684
            ],
            [
              72.864057,
              19.039639
            ],
            [
              72.866585,
              19.040684
            ],
            [
              72.866329,
              19.041684
            ],
            [
              72.86812,
              19.042621
            ],
            [
              72.868507,
              19.045234
            ],
            [
              72.869562,
              19.046179
            ],
            [
              72.87208,
              19.045707
            ],
            [
              72.870072,
              19.041684
            ],
            [
              72.872057,
              19.040465
            ],
            [
              72.872445,
              19.041296
            ],
            [
              72.873521,
              19.041148
            ],
            [
              72.872575,
              19.036684
            ],
            [
              72.873245,
              19.035872
            ],
            [
              72.874057,
              19.035404
            ],
            [
              72.876057,
              19.036621
            ],
            [
              72.878057,
              19.032316
            ],
            [
              72.880103,
              19.032637
            ],
            [
              72.880083,
              19.03271
            ],
            [
              72.879224,
              19.032851
            ],
            [
              72.879231,
              19.033684
            ],
            [
              72.880533,
              19.03416
            ],
            [
              72.882057,
              19.03021
            ],
            [
              72.882295,
              19.031445
            ],
            [
              72.883057,
              19.031617
            ],
            [
              72.884057,
              19.030645
            ],
            [
              72.885085,
              19.030656
            ],
            [
              72.884144,
              19.030771
            ],
            [
              72.884394,
              19.032347
            ],
            [
              72.886057,
              19.032385
            ],
            [
              72.887057,
              19.029255
            ],
            [
              72.889057,
              19.029465
            ],
            [
              72.890057,
              19.030394
            ],
            [
              72.891857,
              19.029485
            ],
            [
              72.891764,
              19.027977
            ],
            [
              72.890139,
              19.027684
            ],
            [
              72.891454,
              19.027082
            ],
            [
              72.891768,
              19.025684
            ],
            [
              72.892988,
              19.024615
            ],
            [
              72.894848,
              19.024476
            ],
            [
              72.896057,
              19.021925
            ],
            [
              72.898057,
              19.020882
            ],
            [
              72.899469,
              19.022684
            ],
            [
              72.898777,
              19.023404
            ],
            [
              72.898652,
              19.027088
            ],
            [
              72.89953,
              19.027157
            ],
            [
              72.900057,
              19.025311
            ],
            [
              72.901406,
              19.028335
            ],
            [
              72.905057,
              19.028849
            ],
            [
              72.906225,
              19.030516
            ],
            [
              72.907057,
              19.030635
            ],
            [
              72.907336,
              19.031684
            ],
            [
              72.905057,
              19.031889
            ],
            [
              72.904218,
              19.032684
            ],
            [
              72.90725,
              19.036491
            ],
            [
              72.907695,
              19.039046
            ],
            [
              72.908491,
              19.038684
            ],
            [
              72.908057,
              19.032248
            ],
            [
              72.909404,
              19.033337
            ],
            [
              72.911057,
              19.033424
            ],
            [
              72.911465,
              19.036684
            ],
            [
              72.912727,
              19.039014
            ],
            [
              72.914057,
              19.039352
            ],
            [
              72.917445,
              19.038072
            ],
            [
              72.919057,
              19.036367
            ],
            [
              72.920389,
              19.036352
            ],
            [
              72.921057,
              19.037534
            ],
            [
              72.923137,
              19.035604
            ],
            [
              72.923256,
              19.037684
            ],
            [
              72.924057,
              19.038406
            ],
            [
              72.924734,
              19.037684
            ],
            [
              72.92407,
              19.033697
            ],
            [
              72.925057,
              19.033421
            ],
            [
              72.925588,
              19.035153
            ],
            [
              72.927,
              19.035684
            ],
            [
              72.926593,
              19.036684
            ],
            [
              72.930691,
              19.03805
            ],
            [
              72.930834,
              19.040907
            ],
            [
              72.932057,
              19.041625
            ],
            [
              72.933057,
              19.040324
            ],
            [
              72.935465,
              19.041684
            ],
            [
              72.935057,
              19.042831
            ],
            [
              72.933852,
              19.042479
            ],
            [
              72.933295,
              19.043922
            ],
            [
              72.931216,
              19.043843
            ],
            [
              72.930293,
              19.045684
            ],
            [
              72.930142,
              19.047598
            ],
            [
              72.933258,
              19.049885
            ],
            [
              72.931057,
              19.049999
            ],
            [
              72.930612,
              19.049129
            ],
            [
              72.927057,
              19.048051
            ],
            [
              72.922057,
              19.051482
            ],
            [
              72.919869,
              19.051496
            ],
            [
              72.919859,
              19.053486
            ],
            [
              72.918334,
              19.053407
            ],
            [
              72.917881,
              19.052508
            ],
            [
              72.917912,
              19.054539
            ],
            [
              72.91636,
              19.055684
            ],
            [
              72.920057,
              19.056002
            ],
            [
              72.921057,
              19.054767
            ],
            [
              72.922057,
              19.054783
            ],
            [
              72.925057,
              19.056153
            ],
            [
              72.926227,
              19.057514
            ],
            [
              72.928057,
              19.057538
            ],
            [
              72.928346,
              19.058684
            ],
            [
              72.924728,
              19.067684
            ],
            [
              72.92321,
              19.067837
            ],
            [
              72.923077,
              19.070704
            ],
            [
              72.921057,
              19.071164
            ],
            [
              72.920098,
              19.070684
            ],
            [
              72.919853,
              19.068684
            ],
            [
              72.918452,
              19.067288
            ],
            [
              72.917057,
              19.067171
            ],
            [
              72.916057,
              19.066197
            ],
            [
              72.914681,
              19.066308
            ],
            [
              72.91667,
              19.068684
            ],
            [
              72.916656,
              19.071085
            ],
            [
              72.92122,
              19.073521
            ],
            [
              72.920365,
              19.075992
            ],
            [
              72.918742,
              19.07637
            ],
            [
              72.917772,
              19.078968
            ],
            [
              72.921057,
              19.082343
            ],
            [
              72.923057,
              19.080524
            ],
            [
              72.924946,
              19.080573
            ],
            [
              72.925057,
              19.079693
            ],
            [
              72.925091,
              19.080718
            ],
            [
              72.923418,
              19.081045
            ],
            [
              72.921489,
              19.083684
            ],
            [
              72.924109,
              19.087632
            ],
            [
              72.924057,
              19.089884
            ],
            [
              72.923728,
              19.088012
            ],
            [
              72.922919,
              19.087822
            ],
            [
              72.922521,
              19.08622
            ],
            [
              72.921057,
              19.085094
            ],
            [
              72.918057,
              19.089433
            ],
            [
              72.917057,
              19.089738
            ],
            [
              72.917057,
              19.085332
            ],
            [
              72.914741,
              19.085368
            ],
            [
              72.911057,
              19.08805
            ],
            [
              72.909057,
              19.087082
            ],
            [
              72.908057,
              19.088085
            ],
            [
              72.907057,
              19.087075
            ],
            [
              72.904398,
              19.090684
            ],
            [
              72.905057,
              19.096835
            ]
          ]
        ],
        "type": "Polygon"
      },
      "type": "Feature"
    },
    {
      "properties": {
        "fill-opacity": 0.33,
        "fillColor": "#bf4040",
        "opacity": 0.33,
        "fill": "#bf4040",
        "fillOpacity": 0.33,
        "color": "#bf4040",
        "contour": 6.0,
        "metric": "distance",
        "provider_name": "Classy Bites",
        "zone_type": "distance",
        "distance_km": 6,
        "mode": "motorcycle",
        "center_lat": 19.0626844,
        "center_lon": 72.9000573,
        "label": "6km"
      },
      "geometry": {
        "coordinates": [
          [
            [
              72.904057,
              19.100065
            ],
            [
              72.901695,
              19.098684
            ],
            [
              72.901432,
              19.095309
            ],
            [
              72.899609,
              19.094684
            ],
            [
              72.901402,
              19.094029
            ],
            [
              72.901388,
              19.093353
            ],
            [
              72.899057,
              19.092063
            ],
            [
              72.894057,
              19.09175
            ],
            [
              72.892828,
              19.090684
            ],
            [
              72.891698,
              19.087325
            ],
            [
              72.893578,
              19.086684
            ],
            [
              72.892057,
              19.085455
            ],
            [
              72.890057,
              19.086252
            ],
            [
              72.889985,
              19.085755
            ],
            [
              72.888334,
              19.085961
            ],
            [
              72.887692,
              19.086684
            ],
            [
              72.888257,
              19.087884
            ],
            [
              72.887516,
              19.088684
            ],
            [
              72.886046,
              19.088695
            ],
            [
              72.886991,
              19.088618
            ],
            [
              72.886937,
              19.087684
            ],
            [
              72.886672,
              19.087068
            ],
            [
              72.885368,
              19.086995
            ],
            [
              72.882801,
              19.091428
            ],
            [
              72.881057,
              19.091504
            ],
            [
              72.88053,
              19.08821
            ],
            [
              72.874891,
              19.085684
            ],
            [
              72.875963,
              19.08359
            ],
            [
              72.877495,
              19.083122
            ],
            [
              72.877555,
              19.081684
            ],
            [
              72.87851,
              19.080684
            ],
            [
              72.878057,
              19.078314
            ],
            [
              72.869057,
              19.083013
            ],
            [
              72.865203,
              19.08283
            ],
            [
              72.864678,
              19.083684
            ],
            [
              72.865552,
              19.079684
            ],
            [
              72.865057,
              19.077984
            ],
            [
              72.865958,
              19.077585
            ],
            [
              72.865921,
              19.076684
            ],
            [
              72.863884,
              19.075511
            ],
            [
              72.865614,
              19.072684
            ],
            [
              72.863057,
              19.07108
            ],
            [
              72.861057,
              19.072091
            ],
            [
              72.861227,
              19.070684
            ],
            [
              72.863057,
              19.068664
            ],
            [
              72.864335,
              19.070406
            ],
            [
              72.867826,
              19.070453
            ],
            [
              72.867744,
              19.068997
            ],
            [
              72.865802,
              19.067429
            ],
            [
              72.867463,
              19.06709
            ],
            [
              72.868057,
              19.065643
            ],
            [
              72.870989,
              19.064616
            ],
            [
              72.871461,
              19.06628
            ],
            [
              72.872295,
              19.066684
            ],
            [
              72.872451,
              19.069684
            ],
            [
              72.873057,
              19.070175
            ],
            [
              72.87369,
              19.064684
            ],
            [
              72.872782,
              19.063684
            ],
            [
              72.872005,
              19.059736
            ],
            [
              72.871187,
              19.059553
            ],
            [
              72.871129,
              19.057612
            ],
            [
              72.864735,
              19.050006
            ],
            [
              72.863474,
              19.046267
            ],
            [
              72.861713,
              19.044684
            ],
            [
              72.8614,
              19.042341
            ],
            [
              72.860057,
              19.04101
            ],
            [
              72.858854,
              19.040887
            ],
            [
              72.858598,
              19.039143
            ],
            [
              72.857779,
              19.038684
            ],
            [
              72.858383,
              19.037358
            ],
            [
              72.856737,
              19.036684
            ],
            [
              72.857057,
              19.034604
            ],
            [
              72.858639,
              19.034266
            ],
            [
              72.858909,
              19.031537
            ],
            [
              72.864057,
              19.037274
            ],
            [
              72.864835,
              19.036684
            ],
            [
              72.864057,
              19.035158
            ],
            [
              72.86588,
              19.035508
            ],
            [
              72.866179,
              19.034561
            ],
            [
              72.865079,
              19.033684
            ],
            [
              72.867057,
              19.032272
            ],
            [
              72.872057,
              19.032217
            ],
            [
              72.873057,
              19.03325
            ],
            [
              72.874057,
              19.032299
            ],
            [
              72.877323,
              19.03195
            ],
            [
              72.876709,
              19.028684
            ],
            [
              72.876993,
              19.02362
            ],
            [
              72.877266,
              19.024474
            ],
            [
              72.879954,
              19.025684
            ],
            [
              72.881057,
              19.028426
            ],
            [
              72.882057,
              19.027265
            ],
            [
              72.884057,
              19.028338
            ],
            [
              72.887057,
              19.02629
            ],
            [
              72.889419,
              19.026046
            ],
            [
              72.888512,
              19.024229
            ],
            [
              72.885958,
              19.023783
            ],
            [
              72.885874,
              19.022501
            ],
            [
              72.887057,
              19.02211
            ],
            [
              72.888474,
              19.023267
            ],
            [
              72.889505,
              19.023132
            ],
            [
              72.88962,
              19.022121
            ],
            [
              72.888063,
              19.021684
            ],
            [
              72.889766,
              19.020393
            ],
            [
              72.890057,
              19.018838
            ],
            [
              72.89135,
              19.020391
            ],
            [
              72.892519,
              19.020146
            ],
            [
              72.893057,
              19.016273
            ],
            [
              72.896313,
              19.013684
            ],
            [
              72.89779,
              19.013417
            ],
            [
              72.898057,
              19.011968
            ],
            [
              72.898483,
              19.013258
            ],
            [
              72.900662,
              19.014079
            ],
            [
              72.902619,
              19.016684
            ],
            [
              72.90177,
              19.017397
            ],
            [
              72.902057,
              19.018545
            ],
            [
              72.903057,
              19.018294
            ],
            [
              72.904297,
              19.020443
            ],
            [
              72.907787,
              19.021684
            ],
            [
              72.907187,
              19.021815
            ],
            [
              72.907445,
              19.023684
            ],
            [
              72.90667,
              19.025297
            ],
            [
              72.903057,
              19.024903
            ],
            [
              72.902405,
              19.026684
            ],
            [
              72.90637,
              19.028371
            ],
            [
              72.906739,
              19.031002
            ],
            [
              72.911346,
              19.033395
            ],
            [
              72.911685,
              19.036684
            ],
            [
              72.912836,
              19.038905
            ],
            [
              72.915057,
              19.039051
            ],
            [
              72.916057,
              19.038028
            ],
            [
              72.917302,
              19.037929
            ],
            [
              72.920799,
              19.034426
            ],
            [
              72.922057,
              19.034298
            ],
            [
              72.923411,
              19.033038
            ],
            [
              72.92449,
              19.030251
            ],
            [
              72.923432,
              19.030059
            ],
            [
              72.922057,
              19.031313
            ],
            [
              72.921973,
              19.030768
            ],
            [
              72.92279,
              19.030417
            ],
            [
              72.922975,
              19.028602
            ],
            [
              72.924799,
              19.027684
            ],
            [
              72.925057,
              19.024468
            ],
            [
              72.925289,
              19.029452
            ],
            [
              72.927117,
              19.029624
            ],
            [
              72.927173,
              19.030567
            ],
            [
              72.929098,
              19.030684
            ],
            [
              72.931193,
              19.032547
            ],
            [
              72.93266,
              19.037081
            ],
            [
              72.934057,
              19.037307
            ],
            [
              72.936057,
              19.036445
            ],
            [
              72.938057,
              19.038405
            ],
            [
              72.940505,
              19.036684
            ],
            [
              72.941058,
              19.037684
            ],
            [
              72.940286,
              19.037913
            ],
            [
              72.940482,
              19.039259
            ],
            [
              72.943958,
              19.039585
            ],
            [
              72.944057,
              19.039065
            ],
            [
              72.944205,
              19.039536
            ],
            [
              72.942241,
              19.040868
            ],
            [
              72.939429,
              19.041056
            ],
            [
              72.939057,
              19.042066
            ],
            [
              72.936348,
              19.041976
            ],
            [
              72.934224,
              19.044851
            ],
            [
              72.931573,
              19.0442
            ],
            [
              72.930601,
              19.046684
            ],
            [
              72.933493,
              19.049248
            ],
            [
              72.936843,
              19.04947
            ],
            [
              72.937057,
              19.048607
            ],
            [
              72.938057,
              19.049413
            ],
            [
              72.939057,
              19.04776
            ],
            [
              72.940286,
              19.047455
            ],
            [
              72.94113,
              19.049611
            ],
            [
              72.940373,
              19.052368
            ],
            [
              72.942057,
              19.052858
            ],
            [
              72.935057,
              19.053998
            ],
            [
              72.933156,
              19.054783
            ],
            [
              72.933057,
              19.055453
            ],
            [
              72.932865,
              19.054684
            ],
            [
              72.933311,
              19.05343
            ],
            [
              72.931807,
              19.052934
            ],
            [
              72.932137,
              19.050604
            ],
            [
              72.931057,
              19.051518
            ],
            [
              72.930057,
              19.049263
            ],
            [
              72.929331,
              19.049684
            ],
            [
              72.92939,
              19.051017
            ],
            [
              72.927562,
              19.051189
            ],
            [
              72.927695,
              19.053045
            ],
            [
              72.930057,
              19.052266
            ],
            [
              72.931389,
              19.053352
            ],
            [
              72.928661,
              19.054288
            ],
            [
              72.928375,
              19.055684
            ],
            [
              72.931633,
              19.056108
            ],
            [
              72.931588,
              19.057684
            ],
            [
              72.930677,
              19.058064
            ],
            [
              72.930457,
              19.057284
            ],
            [
              72.929057,
              19.057151
            ],
            [
              72.928719,
              19.058022
            ],
            [
              72.930463,
              19.058277
            ],
            [
              72.931057,
              19.059294
            ],
            [
              72.936518,
              19.059684
            ],
            [
              72.936057,
              19.060382
            ],
            [
              72.935943,
              19.059798
            ],
            [
              72.933561,
              19.060188
            ],
            [
              72.934289,
              19.063684
            ],
            [
              72.934044,
              19.063684
            ],
            [
              72.933713,
              19.062028
            ],
            [
              72.932558,
              19.062185
            ],
            [
              72.932057,
              19.065005
            ],
            [
              72.930195,
              19.067822
            ],
            [
              72.929057,
              19.067894
            ],
            [
              72.928057,
              19.069039
            ],
            [
              72.926057,
              19.068143
            ],
            [
              72.923664,
              19.068291
            ],
            [
              72.923414,
              19.070684
            ],
            [
              72.921325,
              19.072684
            ],
            [
              72.92049,
              19.076118
            ],
            [
              72.918843,
              19.07647
            ],
            [
              72.917763,
              19.078684
            ],
            [
              72.921057,
              19.082081
            ],
            [
              72.925755,
              19.078382
            ],
            [
              72.928528,
              19.078155
            ],
            [
              72.930057,
              19.0771
            ],
            [
              72.930306,
              19.078434
            ],
            [
              72.932623,
              19.079684
            ],
            [
              72.933057,
              19.080702
            ],
            [
              72.927057,
              19.079128
            ],
            [
              72.921695,
              19.083684
            ],
            [
              72.924375,
              19.087365
            ],
            [
              72.925425,
              19.091684
            ],
            [
              72.926385,
              19.092684
            ],
            [
              72.92636,
              19.094684
            ],
            [
              72.92729,
              19.095684
            ],
            [
              72.927248,
              19.097492
            ],
            [
              72.928057,
              19.098124
            ],
            [
              72.927015,
              19.097725
            ],
            [
              72.926714,
              19.096027
            ],
            [
              72.925939,
              19.095802
            ],
            [
              72.92555,
              19.093191
            ],
            [
              72.923057,
              19.09421
            ],
            [
              72.921135,
              19.093684
            ],
            [
              72.920287,
              19.092684
            ],
            [
              72.920249,
              19.091684
            ],
            [
              72.922057,
              19.092479
            ],
            [
              72.924057,
              19.092338
            ],
            [
              72.924613,
              19.091684
            ],
            [
              72.92358,
              19.090684
            ],
            [
              72.923525,
              19.088684
            ],
            [
              72.922331,
              19.08641
            ],
            [
              72.921057,
              19.085313
            ],
            [
              72.920448,
              19.087075
            ],
            [
              72.918761,
              19.088388
            ],
            [
              72.918417,
              19.090684
            ],
            [
              72.917473,
              19.091684
            ],
            [
              72.918825,
              19.092684
            ],
            [
              72.917057,
              19.093273
            ],
            [
              72.916427,
              19.091314
            ],
            [
              72.915655,
              19.091282
            ],
            [
              72.915357,
              19.092984
            ],
            [
              72.913363,
              19.09499
            ],
            [
              72.910057,
              19.094748
            ],
            [
              72.909756,
              19.092985
            ],
            [
              72.908038,
              19.092684
            ],
            [
              72.908624,
              19.089684
            ],
            [
              72.911057,
              19.089513
            ],
            [
              72.911565,
              19.088684
            ],
            [
              72.91018,
              19.088561
            ],
            [
              72.910057,
              19.087561
            ],
            [
              72.90897,
              19.087597
            ],
            [
              72.908896,
              19.088523
            ],
            [
              72.907283,
              19.088457
            ],
            [
              72.906933,
              19.08756
            ],
            [
              72.905686,
              19.090313
            ],
            [
              72.904859,
              19.090684
            ],
            [
              72.905575,
              19.097684
            ],
            [
              72.905333,
              19.09896
            ],
            [
              72.904057,
              19.100065
            ]
          ]
        ],
        "type": "Polygon"
      },
      "type": "Feature"
    }
  ]
}