{
  "type": "FeatureCollection",
  "metadata": {
    "provider_name": "Mr. Juicer",
    "center_lat": 21.25221261,
    "center_lon": 81.66352674,
    "mode": "motorcycle",
    "total_zones": 4,
    "distance_zones": [
      3,
      4,
      5,
      6
    ],
    "generated_at": "2025-12-28T12:43:32.015941Z"
  },
  "features": [
    {
      "properties": {
        "fill-opacity": 0.33,
        "fillColor": "#bf4040",
        "opacity": 0.33,
        "fill": "#bf4040",
        "fillOpacity": 0.33,
        "color": "#bf4040",
        "contour": 3.0,
        "metric": "distance",
        "provider_name": "Mr. Juicer",
        "zone_type": "distance",
        "distance_km": 3,
        "mode": "motorcycle",
        "center_lat": 21.25221261,
        "center_lon": 81.66352674,
        "label": "3km"
      },
      "geometry": {
        "coordinates": [
          [
            [
              81.680526,
              21.271239
            ],
            [
              81.679478,
              21.27126
            ],
            [
              81.678526,
              21.270029
            ],
            [
              81.677504,
              21.270235
            ],
            [
              81.67689,
              21.268849
            ],
            [
              81.672526,
              21.266689
            ],
            [
              81.671526,
              21.268069
            ],
            [
              81.666526,
              21.268438
            ],
            [
              81.665526,
              21.269701
            ],
            [
              81.664526,
              21.269461
            ],
            [
              81.663694,
              21.27038
            ],
            [
              81.661851,
              21.270537
            ],
            [
              81.661604,
              21.271289
            ],
            [
              81.660526,
              21.271259
            ],
            [
              81.661299,
              21.270985
            ],
            [
              81.661068,
              21.268671
            ],
            [
              81.659472,
              21.267267
            ],
            [
              81.659418,
              21.266321
            ],
            [
              81.656526,
              21.265334
            ],
            [
              81.654117,
              21.266802
            ],
            [
              81.652732,
              21.269212
            ],
            [
              81.652526,
              21.271564
            ],
            [
              81.652203,
              21.267212
            ],
            [
              81.650955,
              21.264784
            ],
            [
              81.644339,
              21.262212
            ],
            [
              81.645226,
              21.260212
            ],
            [
              81.644489,
              21.259212
            ],
            [
              81.644841,
              21.256212
            ],
            [
              81.642779,
              21.255212
            ],
            [
              81.64685,
              21.252212
            ],
            [
              81.645981,
              21.250212
            ],
            [
              81.648526,
              21.249844
            ],
            [
              81.648637,
              21.249323
            ],
            [
              81.647526,
              21.246734
            ],
            [
              81.646526,
              21.248704
            ],
            [
              81.645526,
              21.24797
            ],
            [
              81.645762,
              21.244977
            ],
            [
              81.64193,
              21.245212
            ],
            [
              81.642526,
              21.243747
            ],
            [
              81.644526,
              21.242457
            ],
            [
              81.647526,
              21.242834
            ],
            [
              81.648145,
              21.242212
            ],
            [
              81.647526,
              21.24152
            ],
            [
              81.644982,
              21.241212
            ],
            [
              81.647205,
              21.240212
            ],
            [
              81.646834,
              21.238904
            ],
            [
              81.645224,
              21.238212
            ],
            [
              81.646169,
              21.237212
            ],
            [
              81.645813,
              21.235212
            ],
            [
              81.646526,
              21.233428
            ],
            [
              81.65537,
              21.232368
            ],
            [
              81.656526,
              21.231397
            ],
            [
              81.658526,
              21.232981
            ],
            [
              81.661464,
              21.233275
            ],
            [
              81.663828,
              21.23491
            ],
            [
              81.665894,
              21.235212
            ],
            [
              81.668526,
              21.23885
            ],
            [
              81.669433,
              21.237212
            ],
            [
              81.669374,
              21.236364
            ],
            [
              81.668368,
              21.236212
            ],
            [
              81.668681,
              21.235367
            ],
            [
              81.670526,
              21.23589
            ],
            [
              81.673356,
              21.234042
            ],
            [
              81.673498,
              21.233183
            ],
            [
              81.674518,
              21.233212
            ],
            [
              81.673608,
              21.233294
            ],
            [
              81.673597,
              21.234282
            ],
            [
              81.671993,
              21.235679
            ],
            [
              81.671775,
              21.237212
            ],
            [
              81.677264,
              21.239212
            ],
            [
              81.674526,
              21.239443
            ],
            [
              81.673785,
              21.240212
            ],
            [
              81.675807,
              21.242212
            ],
            [
              81.676294,
              21.245445
            ],
            [
              81.677947,
              21.245791
            ],
            [
              81.678336,
              21.247403
            ],
            [
              81.680526,
              21.247353
            ],
            [
              81.681757,
              21.248212
            ],
            [
              81.681914,
              21.253212
            ],
            [
              81.683144,
              21.254595
            ],
            [
              81.684526,
              21.253872
            ],
            [
              81.686526,
              21.253951
            ],
            [
              81.687526,
              21.25311
            ],
            [
              81.688566,
              21.253173
            ],
            [
              81.687648,
              21.253334
            ],
            [
              81.687526,
              21.25441
            ],
            [
              81.685526,
              21.254528
            ],
            [
              81.684526,
              21.255576
            ],
            [
              81.681996,
              21.256212
            ],
            [
              81.684098,
              21.258641
            ],
            [
              81.687611,
              21.260127
            ],
            [
              81.688368,
              21.261212
            ],
            [
              81.687526,
              21.261317
            ],
            [
              81.687252,
              21.260487
            ],
            [
              81.685526,
              21.260434
            ],
            [
              81.684526,
              21.25955
            ],
            [
              81.683098,
              21.259784
            ],
            [
              81.683638,
              21.263212
            ],
            [
              81.681883,
              21.264212
            ],
            [
              81.683046,
              21.265692
            ],
            [
              81.685751,
              21.266212
            ],
            [
              81.686275,
              21.267212
            ],
            [
              81.684526,
              21.267357
            ],
            [
              81.684172,
              21.266566
            ],
            [
              81.682526,
              21.266506
            ],
            [
              81.681526,
              21.265569
            ],
            [
              81.680122,
              21.265808
            ],
            [
              81.680526,
              21.271239
            ]
          ]
        ],
        "type": "Polygon"
      },
      "type": "Feature"
    },
    {
      "properties": {
        "fill-opacity": 0.33,
        "fillColor": "#bf4040",
        "opacity": 0.33,
        "fill": "#bf4040",
        "fillOpacity": 0.33,
        "color": "#bf4040",
        "contour": 4.0,
        "metric": "distance",
        "provider_name": "Mr. Juicer",
        "zone_type": "distance",
        "distance_km": 4,
        "mode": "motorcycle",
        "center_lat": 21.25221261,
        "center_lon": 81.66352674,
        "label": "4km"
      },
      "geometry": {
        "coordinates": [
          [
            [
              81.651526,
              21.280435
            ],
            [
              81.651477,
              21.279212
            ],
            [
              81.652313,
              21.278212
            ],
            [
              81.65193,
              21.267212
            ],
            [
              81.650787,
              21.264951
            ],
            [
              81.648526,
              21.263768
            ],
            [
              81.645526,
              21.263684
            ],
            [
              81.645079,
              21.26666
            ],
            [
              81.647612,
              21.267298
            ],
            [
              81.646526,
              21.268418
            ],
            [
              81.642526,
              21.268368
            ],
            [
              81.640146,
              21.264212
            ],
            [
              81.641939,
              21.263625
            ],
            [
              81.641688,
              21.261051
            ],
            [
              81.640526,
              21.260508
            ],
            [
              81.639526,
              21.261372
            ],
            [
              81.637642,
              21.261212
            ],
            [
              81.637526,
              21.260574
            ],
            [
              81.636091,
              21.260648
            ],
            [
              81.634184,
              21.259212
            ],
            [
              81.636892,
              21.255578
            ],
            [
              81.636924,
              21.253815
            ],
            [
              81.635526,
              21.253851
            ],
            [
              81.635277,
              21.253212
            ],
            [
              81.639576,
              21.252212
            ],
            [
              81.639887,
              21.250212
            ],
            [
              81.637273,
              21.248212
            ],
            [
              81.639526,
              21.246466
            ],
            [
              81.639714,
              21.247025
            ],
            [
              81.641061,
              21.246747
            ],
            [
              81.640981,
              21.245757
            ],
            [
              81.63973,
              21.245212
            ],
            [
              81.641172,
              21.244212
            ],
            [
              81.640989,
              21.242675
            ],
            [
              81.644082,
              21.241212
            ],
            [
              81.643016,
              21.240212
            ],
            [
              81.642953,
              21.238212
            ],
            [
              81.642128,
              21.237212
            ],
            [
              81.64311,
              21.235212
            ],
            [
              81.64044,
              21.232299
            ],
            [
              81.640361,
              21.230212
            ],
            [
              81.641526,
              21.229034
            ],
            [
              81.643161,
              21.228847
            ],
            [
              81.643526,
              21.226449
            ],
            [
              81.645578,
              21.227161
            ],
            [
              81.647526,
              21.226758
            ],
            [
              81.649526,
              21.228057
            ],
            [
              81.651526,
              21.226123
            ],
            [
              81.652526,
              21.22643
            ],
            [
              81.655526,
              21.225176
            ],
            [
              81.65822,
              21.227518
            ],
            [
              81.659526,
              21.22779
            ],
            [
              81.663879,
              21.22586
            ],
            [
              81.664534,
              21.22622
            ],
            [
              81.663526,
              21.228053
            ],
            [
              81.661077,
              21.228763
            ],
            [
              81.661076,
              21.229663
            ],
            [
              81.662326,
              21.230012
            ],
            [
              81.663526,
              21.228446
            ],
            [
              81.6656,
              21.230139
            ],
            [
              81.666081,
              21.232657
            ],
            [
              81.668108,
              21.232794
            ],
            [
              81.668526,
              21.231832
            ],
            [
              81.669987,
              21.232212
            ],
            [
              81.670526,
              21.233728
            ],
            [
              81.668526,
              21.233414
            ],
            [
              81.667972,
              21.234212
            ],
            [
              81.669923,
              21.234815
            ],
            [
              81.670282,
              21.236457
            ],
            [
              81.670866,
              21.236212
            ],
            [
              81.670794,
              21.234479
            ],
            [
              81.675526,
              21.230777
            ],
            [
              81.676162,
              21.232576
            ],
            [
              81.679733,
              21.234006
            ],
            [
              81.680526,
              21.234964
            ],
            [
              81.682916,
              21.233212
            ],
            [
              81.682811,
              21.234927
            ],
            [
              81.683871,
              21.235212
            ],
            [
              81.683607,
              21.236212
            ],
            [
              81.681526,
              21.236485
            ],
            [
              81.681097,
              21.237642
            ],
            [
              81.682526,
              21.238894
            ],
            [
              81.683526,
              21.238021
            ],
            [
              81.686473,
              21.238159
            ],
            [
              81.686526,
              21.237597
            ],
            [
              81.686757,
              21.238212
            ],
            [
              81.685734,
              21.238419
            ],
            [
              81.684256,
              21.241942
            ],
            [
              81.683526,
              21.24209
            ],
            [
              81.683021,
              21.239717
            ],
            [
              81.681107,
              21.239793
            ],
            [
              81.680797,
              21.244212
            ],
            [
              81.678911,
              21.245212
            ],
            [
              81.681526,
              21.247706
            ],
            [
              81.691285,
              21.248212
            ],
            [
              81.690526,
              21.249074
            ],
            [
              81.688026,
              21.248712
            ],
            [
              81.687526,
              21.251822
            ],
            [
              81.687003,
              21.248735
            ],
            [
              81.682199,
              21.248884
            ],
            [
              81.682125,
              21.252212
            ],
            [
              81.683283,
              21.254455
            ],
            [
              81.684526,
              21.25361
            ],
            [
              81.687601,
              21.253287
            ],
            [
              81.687617,
              21.252303
            ],
            [
              81.689006,
              21.252732
            ],
            [
              81.689102,
              21.254212
            ],
            [
              81.688526,
              21.254786
            ],
            [
              81.685526,
              21.254806
            ],
            [
              81.682287,
              21.256451
            ],
            [
              81.684265,
              21.258473
            ],
            [
              81.687882,
              21.259856
            ],
            [
              81.688526,
              21.260718
            ],
            [
              81.689165,
              21.259212
            ],
            [
              81.688352,
              21.258038
            ],
            [
              81.693526,
              21.257845
            ],
            [
              81.695526,
              21.259726
            ],
            [
              81.69476,
              21.261212
            ],
            [
              81.695831,
              21.262908
            ],
            [
              81.697613,
              21.263212
            ],
            [
              81.694896,
              21.263582
            ],
            [
              81.694551,
              21.265237
            ],
            [
              81.692713,
              21.265399
            ],
            [
              81.692526,
              21.266243
            ],
            [
              81.690526,
              21.267316
            ],
            [
              81.689318,
              21.266212
            ],
            [
              81.688896,
              21.262842
            ],
            [
              81.686833,
              21.260905
            ],
            [
              81.684526,
              21.259814
            ],
            [
              81.683265,
              21.259951
            ],
            [
              81.6841,
              21.261212
            ],
            [
              81.684056,
              21.263212
            ],
            [
              81.682135,
              21.264212
            ],
            [
              81.683526,
              21.265646
            ],
            [
              81.686834,
              21.265905
            ],
            [
              81.687986,
              21.268212
            ],
            [
              81.686974,
              21.269212
            ],
            [
              81.687857,
              21.271212
            ],
            [
              81.686302,
              21.271436
            ],
            [
              81.685861,
              21.267877
            ],
            [
              81.684526,
              21.267751
            ],
            [
              81.681526,
              21.265821
            ],
            [
              81.680148,
              21.266212
            ],
            [
              81.68107,
              21.270212
            ],
            [
              81.685526,
              21.2729
            ],
            [
              81.687526,
              21.273022
            ],
            [
              81.687852,
              21.273886
            ],
            [
              81.689526,
              21.274158
            ],
            [
              81.689615,
              21.274212
            ],
            [
              81.689158,
              21.274844
            ],
            [
              81.687526,
              21.275775
            ],
            [
              81.68712,
              21.273619
            ],
            [
              81.685526,
              21.273525
            ],
            [
              81.684003,
              21.274689
            ],
            [
              81.683526,
              21.27722
            ],
            [
              81.681976,
              21.275212
            ],
            [
              81.683157,
              21.274843
            ],
            [
              81.683946,
              21.272792
            ],
            [
              81.682526,
              21.272649
            ],
            [
              81.681526,
              21.27169
            ],
            [
              81.679526,
              21.271731
            ],
            [
              81.678526,
              21.270705
            ],
            [
              81.677082,
              21.270768
            ],
            [
              81.676661,
              21.273077
            ],
            [
              81.677627,
              21.273212
            ],
            [
              81.676471,
              21.273268
            ],
            [
              81.675526,
              21.272575
            ],
            [
              81.673526,
              21.273068
            ],
            [
              81.671786,
              21.275212
            ],
            [
              81.669031,
              21.275717
            ],
            [
              81.668919,
              21.27682
            ],
            [
              81.670663,
              21.277212
            ],
            [
              81.669277,
              21.277963
            ],
            [
              81.668526,
              21.279441
            ],
            [
              81.667526,
              21.277438
            ],
            [
              81.665818,
              21.277504
            ],
            [
              81.664526,
              21.279392
            ],
            [
              81.663205,
              21.278533
            ],
            [
              81.662377,
              21.275212
            ],
            [
              81.664172,
              21.273212
            ],
            [
              81.663842,
              21.270897
            ],
            [
              81.660185,
              21.271554
            ],
            [
              81.660818,
              21.268921
            ],
            [
              81.657838,
              21.2659
            ],
            [
              81.655526,
              21.265887
            ],
            [
              81.653083,
              21.269212
            ],
            [
              81.652901,
              21.275212
            ],
            [
              81.653965,
              21.276773
            ],
            [
              81.656534,
              21.277212
            ],
            [
              81.65301,
              21.277696
            ],
            [
              81.652619,
              21.279305
            ],
            [
              81.651633,
              21.279319
            ],
            [
              81.651526,
              21.280435
            ]
          ]
        ],
        "type": "Polygon"
      },
      "type": "Feature"
    },
    {
      "properties": {
        "fill-opacity": 0.33,
        "fillColor": "#bf4040",
        "opacity": 0.33,
        "fill": "#bf4040",
        "fillOpacity": 0.33,
        "color": "#bf4040",
        "contour": 5.0,
        "metric": "distance",
        "provider_name": "Mr. Juicer",
        "zone_type": "distance",
        "distance_km": 5,
        "mode": "motorcycle",
        "center_lat": 21.25221261,
        "center_lon": 81.66352674,
        "label": "5km"
      },
      "geometry": {
        "coordinates": [
          [
            [
              81.652526,
              21.289236
            ],
            [
              81.650517,
              21.287221
            ],
            [
              81.650695,
              21.286043
            ],
            [
              81.647498,
              21.285212
            ],
            [
              81.648526,
              21.283649
            ],
            [
              81.64987,
              21.284868
            ],
            [
              81.651157,
              21.284212
            ],
            [
              81.651014,
              21.279212
            ],
            [
              81.651967,
              21.278212
            ],
            [
              81.651814,
              21.267212
            ],
            [
              81.650526,
              21.264918
            ],
            [
              81.648526,
              21.263904
            ],
            [
              81.645526,
              21.263867
            ],
            [
              81.645258,
              21.26648
            ],
            [
              81.648061,
              21.267212
            ],
            [
              81.646526,
              21.268769
            ],
            [
              81.642129,
              21.268609
            ],
            [
              81.639946,
              21.266792
            ],
            [
              81.638526,
              21.266984
            ],
            [
              81.637526,
              21.264738
            ],
            [
              81.636717,
              21.267021
            ],
            [
              81.637725,
              21.267212
            ],
            [
              81.636526,
              21.268073
            ],
            [
              81.635001,
              21.264737
            ],
            [
              81.632342,
              21.263396
            ],
            [
              81.630185,
              21.259212
            ],
            [
              81.630564,
              21.257212
            ],
            [
              81.629498,
              21.256241
            ],
            [
              81.628976,
              21.254212
            ],
            [
              81.629546,
              21.253232
            ],
            [
              81.630559,
              21.253212
            ],
            [
              81.62958,
              21.253158
            ],
            [
              81.630526,
              21.248075
            ],
            [
              81.633729,
              21.248212
            ],
            [
              81.633078,
              21.246212
            ],
            [
              81.630966,
              21.243773
            ],
            [
              81.631059,
              21.241212
            ],
            [
              81.633526,
              21.239911
            ],
            [
              81.634526,
              21.240074
            ],
            [
              81.639526,
              21.234983
            ],
            [
              81.641526,
              21.234324
            ],
            [
              81.639921,
              21.232818
            ],
            [
              81.639829,
              21.230212
            ],
            [
              81.641128,
              21.228814
            ],
            [
              81.64298,
              21.228212
            ],
            [
              81.643111,
              21.226212
            ],
            [
              81.642278,
              21.224964
            ],
            [
              81.645526,
              21.224772
            ],
            [
              81.646183,
              21.226555
            ],
            [
              81.647526,
              21.22571
            ],
            [
              81.649526,
              21.227589
            ],
            [
              81.654526,
              21.223666
            ],
            [
              81.655628,
              21.224314
            ],
            [
              81.657526,
              21.224294
            ],
            [
              81.659526,
              21.22329
            ],
            [
              81.660526,
              21.223696
            ],
            [
              81.661227,
              21.221212
            ],
            [
              81.660319,
              21.219212
            ],
            [
              81.660526,
              21.217431
            ],
            [
              81.661526,
              21.218814
            ],
            [
              81.664526,
              21.218335
            ],
            [
              81.665526,
              21.217455
            ],
            [
              81.66775,
              21.220989
            ],
            [
              81.670526,
              21.221082
            ],
            [
              81.672457,
              21.222212
            ],
            [
              81.67197,
              21.223656
            ],
            [
              81.669764,
              21.225212
            ],
            [
              81.672349,
              21.228389
            ],
            [
              81.672521,
              21.229212
            ],
            [
              81.670884,
              21.22957
            ],
            [
              81.670673,
              21.230212
            ],
            [
              81.671526,
              21.232747
            ],
            [
              81.674959,
              21.231645
            ],
            [
              81.675028,
              21.229714
            ],
            [
              81.681018,
              21.224704
            ],
            [
              81.681263,
              21.222949
            ],
            [
              81.685292,
              21.219978
            ],
            [
              81.68548,
              21.219166
            ],
            [
              81.686197,
              21.219212
            ],
            [
              81.684702,
              21.221388
            ],
            [
              81.682131,
              21.223817
            ],
            [
              81.68195,
              21.225636
            ],
            [
              81.677526,
              21.230272
            ],
            [
              81.678526,
              21.23095
            ],
            [
              81.681526,
              21.228769
            ],
            [
              81.683526,
              21.228908
            ],
            [
              81.684294,
              21.227445
            ],
            [
              81.683539,
              21.227212
            ],
            [
              81.686146,
              21.226832
            ],
            [
              81.686498,
              21.225184
            ],
            [
              81.687526,
              21.225212
            ],
            [
              81.686616,
              21.225302
            ],
            [
              81.686869,
              21.226869
            ],
            [
              81.688925,
              21.227212
            ],
            [
              81.687586,
              21.228272
            ],
            [
              81.687266,
              21.227472
            ],
            [
              81.686005,
              21.227691
            ],
            [
              81.686076,
              21.229662
            ],
            [
              81.687526,
              21.230951
            ],
            [
              81.690935,
              21.231212
            ],
            [
              81.689731,
              21.231417
            ],
            [
              81.689599,
              21.232212
            ],
            [
              81.68983,
              21.232909
            ],
            [
              81.691653,
              21.233212
            ],
            [
              81.690848,
              21.233534
            ],
            [
              81.69109,
              21.236649
            ],
            [
              81.695399,
              21.237085
            ],
            [
              81.695526,
              21.236134
            ],
            [
              81.696106,
              21.237212
            ],
            [
              81.695526,
              21.237947
            ],
            [
              81.695403,
              21.237335
            ],
            [
              81.692055,
              21.237741
            ],
            [
              81.691625,
              21.241113
            ],
            [
              81.692526,
              21.241488
            ],
            [
              81.691526,
              21.241433
            ],
            [
              81.691095,
              21.239643
            ],
            [
              81.690072,
              21.239758
            ],
            [
              81.68979,
              21.242949
            ],
            [
              81.690735,
              21.243212
            ],
            [
              81.688737,
              21.244423
            ],
            [
              81.684241,
              21.244497
            ],
            [
              81.683061,
              21.243212
            ],
            [
              81.682977,
              21.240212
            ],
            [
              81.681526,
              21.23982
            ],
            [
              81.681104,
              21.244212
            ],
            [
              81.679145,
              21.245212
            ],
            [
              81.681526,
              21.247543
            ],
            [
              81.690526,
              21.247693
            ],
            [
              81.692108,
              21.246212
            ],
            [
              81.69218,
              21.244865
            ],
            [
              81.6938,
              21.244939
            ],
            [
              81.695707,
              21.248032
            ],
            [
              81.695761,
              21.250212
            ],
            [
              81.693526,
              21.251513
            ],
            [
              81.691088,
              21.251773
            ],
            [
              81.690863,
              21.252876
            ],
            [
              81.694526,
              21.252968
            ],
            [
              81.696526,
              21.254938
            ],
            [
              81.697526,
              21.25408
            ],
            [
              81.69785,
              21.254888
            ],
            [
              81.699882,
              21.255212
            ],
            [
              81.698754,
              21.25544
            ],
            [
              81.698729,
              21.256415
            ],
            [
              81.697081,
              21.256767
            ],
            [
              81.697526,
              21.257831
            ],
            [
              81.69901,
              21.257696
            ],
            [
              81.700526,
              21.255899
            ],
            [
              81.701526,
              21.256483
            ],
            [
              81.701806,
              21.257933
            ],
            [
              81.702588,
              21.258212
            ],
            [
              81.701605,
              21.260212
            ],
            [
              81.701864,
              21.262212
            ],
            [
              81.699526,
              21.262637
            ],
            [
              81.699166,
              21.263573
            ],
            [
              81.702526,
              21.26592
            ],
            [
              81.706272,
              21.266212
            ],
            [
              81.701526,
              21.266531
            ],
            [
              81.700688,
              21.268374
            ],
            [
              81.699526,
              21.268422
            ],
            [
              81.697873,
              21.263866
            ],
            [
              81.695224,
              21.26391
            ],
            [
              81.694936,
              21.265622
            ],
            [
              81.693526,
              21.265786
            ],
            [
              81.691709,
              21.267212
            ],
            [
              81.692312,
              21.269427
            ],
            [
              81.693526,
              21.270298
            ],
            [
              81.694526,
              21.269682
            ],
            [
              81.69568,
              21.272212
            ],
            [
              81.694497,
              21.272241
            ],
            [
              81.694284,
              21.271454
            ],
            [
              81.691526,
              21.271527
            ],
            [
              81.689983,
              21.273212
            ],
            [
              81.693526,
              21.275857
            ],
            [
              81.695728,
              21.276011
            ],
            [
              81.696526,
              21.276937
            ],
            [
              81.698526,
              21.277432
            ],
            [
              81.696526,
              21.277393
            ],
            [
              81.695643,
              21.278329
            ],
            [
              81.693915,
              21.278601
            ],
            [
              81.693726,
              21.280012
            ],
            [
              81.694526,
              21.28049
            ],
            [
              81.69275,
              21.280212
            ],
            [
              81.693342,
              21.279212
            ],
            [
              81.692526,
              21.278401
            ],
            [
              81.691827,
              21.279212
            ],
            [
              81.692432,
              21.280212
            ],
            [
              81.691526,
              21.280819
            ],
            [
              81.690978,
              21.27876
            ],
            [
              81.690088,
              21.278774
            ],
            [
              81.688526,
              21.281863
            ],
            [
              81.687298,
              21.281984
            ],
            [
              81.686474,
              21.284212
            ],
            [
              81.684587,
              21.285273
            ],
            [
              81.683526,
              21.284117
            ],
            [
              81.681342,
              21.285212
            ],
            [
              81.681376,
              21.283212
            ],
            [
              81.683169,
              21.281212
            ],
            [
              81.683061,
              21.278212
            ],
            [
              81.68122,
              21.277518
            ],
            [
              81.679526,
              21.275643
            ],
            [
              81.677817,
              21.277212
            ],
            [
              81.677526,
              21.280941
            ],
            [
              81.674526,
              21.278306
            ],
            [
              81.673957,
              21.280643
            ],
            [
              81.672526,
              21.280874
            ],
            [
              81.671953,
              21.279785
            ],
            [
              81.671145,
              21.27983
            ],
            [
              81.671526,
              21.282248
            ],
            [
              81.67274,
              21.282998
            ],
            [
              81.672526,
              21.284385
            ],
            [
              81.669526,
              21.284998
            ],
            [
              81.667872,
              21.279867
            ],
            [
              81.666157,
              21.279843
            ],
            [
              81.664967,
              21.281212
            ],
            [
              81.666839,
              21.283212
            ],
            [
              81.666336,
              21.284402
            ],
            [
              81.662061,
              21.279212
            ],
            [
              81.661986,
              21.275212
            ],
            [
              81.663919,
              21.273212
            ],
            [
              81.66374,
              21.270998
            ],
            [
              81.662526,
              21.270907
            ],
            [
              81.661526,
              21.271893
            ],
            [
              81.660078,
              21.27166
            ],
            [
              81.660729,
              21.269009
            ],
            [
              81.657739,
              21.266
            ],
            [
              81.655353,
              21.266039
            ],
            [
              81.653219,
              21.269212
            ],
            [
              81.653142,
              21.275212
            ],
            [
              81.654526,
              21.276663
            ],
            [
              81.656526,
              21.275745
            ],
            [
              81.658526,
              21.275793
            ],
            [
              81.658969,
              21.277212
            ],
            [
              81.653238,
              21.277924
            ],
            [
              81.652032,
              21.280212
            ],
            [
              81.651896,
              21.284212
            ],
            [
              81.652526,
              21.28493
            ],
            [
              81.654639,
              21.2851
            ],
            [
              81.65471,
              21.286028
            ],
            [
              81.655585,
              21.286271
            ],
            [
              81.655526,
              21.286814
            ],
            [
              81.65447,
              21.286269
            ],
            [
              81.654197,
              21.285541
            ],
            [
              81.653013,
              21.285698
            ],
            [
              81.652526,
              21.289236
            ]
          ]
        ],
        "type": "Polygon"
      },
      "type": "Feature"
    },
    {
      "properties": {
        "fill-opacity": 0.33,
        "fillColor": "#bf4040",
        "opacity": 0.33,
        "fill": "#bf4040",
        "fillOpacity": 0.33,
        "color": "#bf4040",
        "contour": 6.0,
        "metric": "distance",
        "provider_name": "Mr. Juicer",
        "zone_type": "distance",
        "distance_km": 6,
        "mode": "motorcycle",
        "center_lat": 21.25221261,
        "center_lon": 81.66352674,
        "label": "6km"
      },
      "geometry": {
        "coordinates": [
          [
            [
              81.657526,
              21.297216
            ],
            [
              81.657465,
              21.296274
            ],
            [
              81.655382,
              21.295357
            ],
            [
              81.652866,
              21.289872
            ],
            [
              81.648852,
              21.285887
            ],
            [
              81.645526,
              21.285653
            ],
            [
              81.644889,
              21.286212
            ],
            [
              81.645743,
              21.289995
            ],
            [
              81.64656,
              21.290246
            ],
            [
              81.645343,
              21.290396
            ],
            [
              81.643526,
              21.289339
            ],
            [
              81.644132,
              21.284212
            ],
            [
              81.641346,
              21.283212
            ],
            [
              81.64143,
              21.281116
            ],
            [
              81.643337,
              21.279023
            ],
            [
              81.644349,
              21.278035
            ],
            [
              81.646526,
              21.277952
            ],
            [
              81.649198,
              21.283541
            ],
            [
              81.650798,
              21.284484
            ],
            [
              81.650854,
              21.279212
            ],
            [
              81.651832,
              21.278212
            ],
            [
              81.65175,
              21.267212
            ],
            [
              81.650979,
              21.26676
            ],
            [
              81.650673,
              21.265066
            ],
            [
              81.648987,
              21.264751
            ],
            [
              81.648526,
              21.263977
            ],
            [
              81.645526,
              21.263955
            ],
            [
              81.645335,
              21.266403
            ],
            [
              81.647526,
              21.26653
            ],
            [
              81.648209,
              21.267212
            ],
            [
              81.646988,
              21.268674
            ],
            [
              81.643526,
              21.26948
            ],
            [
              81.640526,
              21.268624
            ],
            [
              81.639526,
              21.2696
            ],
            [
              81.638171,
              21.268857
            ],
            [
              81.637123,
              21.270616
            ],
            [
              81.641526,
              21.271095
            ],
            [
              81.641628,
              21.27211
            ],
            [
              81.64267,
              21.272212
            ],
            [
              81.641476,
              21.272262
            ],
            [
              81.641292,
              21.271447
            ],
            [
              81.639043,
              21.271729
            ],
            [
              81.638987,
              21.272751
            ],
            [
              81.640625,
              21.273113
            ],
            [
              81.640917,
              21.274212
            ],
            [
              81.639526,
              21.275483
            ],
            [
              81.637479,
              21.274164
            ],
            [
              81.637808,
              21.274931
            ],
            [
              81.636526,
              21.276999
            ],
            [
              81.634662,
              21.275212
            ],
            [
              81.636189,
              21.274875
            ],
            [
              81.636021,
              21.273718
            ],
            [
              81.63484,
              21.273525
            ],
            [
              81.634526,
              21.274782
            ],
            [
              81.631223,
              21.272516
            ],
            [
              81.633297,
              21.269212
            ],
            [
              81.634956,
              21.268642
            ],
            [
              81.634935,
              21.265212
            ],
            [
              81.632526,
              21.263791
            ],
            [
              81.63159,
              21.264149
            ],
            [
              81.63141,
              21.263328
            ],
            [
              81.629526,
              21.263624
            ],
            [
              81.627261,
              21.261478
            ],
            [
              81.628526,
              21.257682
            ],
            [
              81.629526,
              21.257884
            ],
            [
              81.62966,
              21.257212
            ],
            [
              81.628621,
              21.257118
            ],
            [
              81.628662,
              21.255212
            ],
            [
              81.62758,
              21.255158
            ],
            [
              81.627526,
              21.253925
            ],
            [
              81.626526,
              21.255442
            ],
            [
              81.623779,
              21.253212
            ],
            [
              81.626242,
              21.249212
            ],
            [
              81.626179,
              21.247559
            ],
            [
              81.624213,
              21.246212
            ],
            [
              81.626414,
              21.244212
            ],
            [
              81.625052,
              21.243687
            ],
            [
              81.624624,
              21.242212
            ],
            [
              81.622176,
              21.240212
            ],
            [
              81.623681,
              21.239212
            ],
            [
              81.622712,
              21.238212
            ],
            [
              81.628526,
              21.232926
            ],
            [
              81.630098,
              21.233212
            ],
            [
              81.630113,
              21.234212
            ],
            [
              81.628845,
              21.234531
            ],
            [
              81.629526,
              21.235928
            ],
            [
              81.630526,
              21.234577
            ],
            [
              81.631571,
              21.235167
            ],
            [
              81.634047,
              21.234733
            ],
            [
              81.63635,
              21.231212
            ],
            [
              81.635976,
              21.230212
            ],
            [
              81.636851,
              21.229537
            ],
            [
              81.636975,
              21.228212
            ],
            [
              81.639422,
              21.229108
            ],
            [
              81.640526,
              21.22638
            ],
            [
              81.640703,
              21.228212
            ],
            [
              81.642735,
              21.228421
            ],
            [
              81.642636,
              21.226103
            ],
            [
              81.641666,
              21.226072
            ],
            [
              81.641915,
              21.224601
            ],
            [
              81.646429,
              21.22431
            ],
            [
              81.646547,
              21.226233
            ],
            [
              81.647436,
              21.223212
            ],
            [
              81.647357,
              21.222382
            ],
            [
              81.646408,
              21.222212
            ],
            [
              81.646526,
              21.217926
            ],
            [
              81.648526,
              21.217468
            ],
            [
              81.655526,
              21.218731
            ],
            [
              81.658308,
              21.219431
            ],
            [
              81.658526,
              21.22037
            ],
            [
              81.65863,
              21.219212
            ],
            [
              81.65998,
              21.218212
            ],
            [
              81.659169,
              21.213212
            ],
            [
              81.661526,
              21.211066
            ],
            [
              81.661719,
              21.212212
            ],
            [
              81.660848,
              21.213212
            ],
            [
              81.6612,
              21.217539
            ],
            [
              81.663957,
              21.216643
            ],
            [
              81.664526,
              21.21487
            ],
            [
              81.667526,
              21.214996
            ],
            [
              81.667758,
              21.215444
            ],
            [
              81.666141,
              21.215827
            ],
            [
              81.666019,
              21.217212
            ],
            [
              81.668526,
              21.22067
            ],
            [
              81.670125,
              21.218212
            ],
            [
              81.668377,
              21.217361
            ],
            [
              81.66838,
              21.216065
            ],
            [
              81.669526,
              21.216932
            ],
            [
              81.671526,
              21.215138
            ],
            [
              81.677526,
              21.216322
            ],
            [
              81.677618,
              21.218304
            ],
            [
              81.675852,
              21.219212
            ],
            [
              81.676797,
              21.220212
            ],
            [
              81.676691,
              21.221377
            ],
            [
              81.675526,
              21.223075
            ],
            [
              81.674396,
              21.223212
            ],
            [
              81.675355,
              21.223384
            ],
            [
              81.67566,
              21.224346
            ],
            [
              81.676234,
              21.22292
            ],
            [
              81.677526,
              21.2231
            ],
            [
              81.678526,
              21.224923
            ],
            [
              81.680761,
              21.224447
            ],
            [
              81.681111,
              21.222797
            ],
            [
              81.687898,
              21.216584
            ],
            [
              81.688305,
              21.214991
            ],
            [
              81.690339,
              21.213212
            ],
            [
              81.690329,
              21.21241
            ],
            [
              81.689513,
              21.212226
            ],
            [
              81.689526,
              21.211482
            ],
            [
              81.689569,
              21.212169
            ],
            [
              81.692142,
              21.212212
            ],
            [
              81.69167,
              21.215069
            ],
            [
              81.692433,
              21.215212
            ],
            [
              81.691479,
              21.21526
            ],
            [
              81.69124,
              21.214498
            ],
            [
              81.690039,
              21.214725
            ],
            [
              81.688056,
              21.216742
            ],
            [
              81.687822,
              21.218508
            ],
            [
              81.682278,
              21.223964
            ],
            [
              81.682215,
              21.225524
            ],
            [
              81.684526,
              21.226687
            ],
            [
              81.685825,
              21.226511
            ],
            [
              81.687051,
              21.224212
            ],
            [
              81.685275,
              21.223463
            ],
            [
              81.685062,
              21.221748
            ],
            [
              81.686526,
              21.222796
            ],
            [
              81.687909,
              21.222594
            ],
            [
              81.69141,
              21.219096
            ],
            [
              81.692329,
              21.219015
            ],
            [
              81.692526,
              21.217659
            ],
            [
              81.693086,
              21.218212
            ],
            [
              81.692135,
              21.220212
            ],
            [
              81.693659,
              21.221079
            ],
            [
              81.692565,
              21.223212
            ],
            [
              81.693834,
              21.224212
            ],
            [
              81.69362,
              21.226212
            ],
            [
              81.693179,
              21.22456
            ],
            [
              81.690526,
              21.224547
            ],
            [
              81.689526,
              21.223604
            ],
            [
              81.687063,
              21.226212
            ],
            [
              81.691863,
              21.226876
            ],
            [
              81.692149,
              21.229212
            ],
            [
              81.688526,
              21.229687
            ],
            [
              81.686526,
              21.227767
            ],
            [
              81.686258,
              21.229481
            ],
            [
              81.687526,
              21.230637
            ],
            [
              81.692013,
              21.230699
            ],
            [
              81.692339,
              21.230025
            ],
            [
              81.694137,
              21.229823
            ],
            [
              81.695526,
              21.227131
            ],
            [
              81.695695,
              21.228043
            ],
            [
              81.697566,
              21.229212
            ],
            [
              81.695898,
              21.229584
            ],
            [
              81.696001,
              21.230738
            ],
            [
              81.69985,
              21.231212
            ],
            [
              81.697858,
              21.231544
            ],
            [
              81.698066,
              21.233673
            ],
            [
              81.700205,
              21.233891
            ],
            [
              81.700526,
              21.232489
            ],
            [
              81.700803,
              21.233935
            ],
            [
              81.702272,
              21.234212
            ],
            [
              81.702737,
              21.236002
            ],
            [
              81.703797,
              21.236212
            ],
            [
              81.702526,
              21.236947
            ],
            [
              81.700259,
              21.235479
            ],
            [
              81.696526,
              21.235642
            ],
            [
              81.696194,
              21.236544
            ],
            [
              81.700526,
              21.236862
            ],
            [
              81.701526,
              21.238025
            ],
            [
              81.702526,
              21.237349
            ],
            [
              81.702788,
              21.23795
            ],
            [
              81.705713,
              21.238212
            ],
            [
              81.704526,
              21.239428
            ],
            [
              81.702036,
              21.238722
            ],
            [
              81.701526,
              21.242048
            ],
            [
              81.699878,
              21.240212
            ],
            [
              81.70129,
              21.239212
            ],
            [
              81.699954,
              21.237785
            ],
            [
              81.696193,
              21.237879
            ],
            [
              81.696118,
              21.240621
            ],
            [
              81.697526,
              21.23992
            ],
            [
              81.69933,
              21.240212
            ],
            [
              81.696823,
              21.242212
            ],
            [
              81.696851,
              21.243887
            ],
            [
              81.698141,
              21.244212
            ],
            [
              81.697695,
              21.245212
            ],
            [
              81.695375,
              21.246061
            ],
            [
              81.696093,
              21.250212
            ],
            [
              81.693526,
              21.251801
            ],
            [
              81.69108,
              21.252212
            ],
            [
              81.694526,
              21.252643
            ],
            [
              81.696526,
              21.254633
            ],
            [
              81.697526,
              21.253677
            ],
            [
              81.698526,
              21.254684
            ],
            [
              81.701827,
              21.254912
            ],
            [
              81.70305,
              21.259212
            ],
            [
              81.702047,
              21.260212
            ],
            [
              81.701927,
              21.262613
            ],
            [
              81.699526,
              21.262847
            ],
            [
              81.699292,
              21.263446
            ],
            [
              81.700943,
              21.263795
            ],
            [
              81.702526,
              21.265627
            ],
            [
              81.708915,
              21.264823
            ],
            [
              81.710526,
              21.265902
            ],
            [
              81.713317,
              21.266002
            ],
            [
              81.713526,
              21.265162
            ],
            [
              81.713699,
              21.266039
            ],
            [
              81.71458,
              21.266212
            ],
            [
              81.712819,
              21.266504
            ],
            [
              81.712538,
              21.267212
            ],
            [
              81.712704,
              21.268035
            ],
            [
              81.713624,
              21.268212
            ],
            [
              81.712715,
              21.2684
            ],
            [
              81.712591,
              21.270148
            ],
            [
              81.713133,
              21.270212
            ],
            [
              81.712505,
              21.270234
            ],
            [
              81.712356,
              21.269383
            ],
            [
              81.710526,
              21.269414
            ],
            [
              81.709526,
              21.268507
            ],
            [
              81.706526,
              21.269621
            ],
            [
              81.705526,
              21.266732
            ],
            [
              81.701526,
              21.266807
            ],
            [
              81.700906,
              21.268591
            ],
            [
              81.699526,
              21.268771
            ],
            [
              81.697939,
              21.266212
            ],
            [
              81.697754,
              21.263984
            ],
            [
              81.695318,
              21.264004
            ],
            [
              81.696914,
              21.269212
            ],
            [
              81.698121,
              21.270212
            ],
            [
              81.698149,
              21.271212
            ],
            [
              81.697002,
              21.272212
            ],
            [
              81.699294,
              21.273212
            ],
            [
              81.697609,
              21.274212
            ],
            [
              81.697864,
              21.274874
            ],
            [
              81.698988,
              21.274674
            ],
            [
              81.699526,
              21.273589
            ],
            [
              81.700969,
              21.275212
            ],
            [
              81.700158,
              21.27758
            ],
            [
              81.702526,
              21.278856
            ],
            [
              81.70375,
              21.277988
            ],
            [
              81.704232,
              21.279506
            ],
            [
              81.706714,
              21.280025
            ],
            [
              81.707505,
              21.281212
            ],
            [
              81.706477,
              21.281261
            ],
            [
              81.706316,
              21.280422
            ],
            [
              81.703007,
              21.280693
            ],
            [
              81.702526,
              21.283363
            ],
            [
              81.702092,
              21.281646
            ],
            [
              81.700831,
              21.281517
            ],
            [
              81.700526,
              21.282584
            ],
            [
              81.698827,
              21.283212
            ],
            [
              81.699011,
              21.284728
            ],
            [
              81.701385,
              21.286212
            ],
            [
              81.700675,
              21.286361
            ],
            [
              81.700526,
              21.287656
            ],
            [
              81.698802,
              21.286937
            ],
            [
              81.698663,
              21.286076
            ],
            [
              81.697526,
              21.285878
            ],
            [
              81.696526,
              21.284565
            ],
            [
              81.694354,
              21.28604
            ],
            [
              81.693526,
              21.288938
            ],
            [
              81.692526,
              21.289127
            ],
            [
              81.691526,
              21.288881
            ],
            [
              81.691476,
              21.288161
            ],
            [
              81.692291,
              21.287977
            ],
            [
              81.692094,
              21.286644
            ],
            [
              81.690693,
              21.286379
            ],
            [
              81.690526,
              21.28707
            ],
            [
              81.69037,
              21.286056
            ],
            [
              81.691124,
              21.285212
            ],
            [
              81.689526,
              21.283354
            ],
            [
              81.688472,
              21.285158
            ],
            [
              81.686526,
              21.285002
            ],
            [
              81.684526,
              21.285881
            ],
            [
              81.683526,
              21.284704
            ],
            [
              81.681526,
              21.286957
            ],
            [
              81.67983,
              21.287212
            ],
            [
              81.679526,
              21.287942
            ],
            [
              81.678488,
              21.287212
            ],
            [
              81.679156,
              21.286842
            ],
            [
              81.678936,
              21.282803
            ],
            [
              81.676134,
              21.28282
            ],
            [
              81.672526,
              21.285604
            ],
            [
              81.671526,
              21.284757
            ],
            [
              81.670974,
              21.285212
            ],
            [
              81.671956,
              21.286212
            ],
            [
              81.671903,
              21.288212
            ],
            [
              81.670927,
              21.289212
            ],
            [
              81.673613,
              21.293212
            ],
            [
              81.673526,
              21.294826
            ],
            [
              81.67334,
              21.293399
            ],
            [
              81.671357,
              21.292382
            ],
            [
              81.668877,
              21.287862
            ],
            [
              81.66717,
              21.286569
            ],
            [
              81.666816,
              21.284922
            ],
            [
              81.664109,
              21.28263
            ],
            [
              81.663761,
              21.280978
            ],
            [
              81.661875,
              21.279212
            ],
            [
              81.661841,
              21.275212
            ],
            [
              81.663808,
              21.273212
            ],
            [
              81.663688,
              21.27105
            ],
            [
              81.662526,
              21.270978
            ],
            [
              81.661526,
              21.27197
            ],
            [
              81.66002,
              21.271718
            ],
            [
              81.660682,
              21.269057
            ],
            [
              81.657687,
              21.266051
            ],
            [
              81.655389,
              21.266075
            ],
            [
              81.653291,
              21.269212
            ],
            [
              81.653248,
              21.275212
            ],
            [
              81.654526,
              21.276523
            ],
            [
              81.656526,
              21.27556
            ],
            [
              81.658526,
              21.275579
            ],
            [
              81.659169,
              21.277212
            ],
            [
              81.658526,
              21.277854
            ],
            [
              81.653325,
              21.278011
            ],
            [
              81.652196,
              21.280212
            ],
            [
              81.65214,
              21.284212
            ],
            [
              81.65489,
              21.284848
            ],
            [
              81.657526,
              21.288848
            ],
            [
              81.661255,
              21.288941
            ],
            [
              81.661486,
              21.288172
            ],
            [
              81.66256,
              21.288179
            ],
            [
              81.662966,
              21.289212
            ],
            [
              81.656526,
              21.289628
            ],
            [
              81.655221,
              21.288518
            ],
            [
              81.654853,
              21.286885
            ],
            [
              81.653239,
              21.285925
            ],
            [
              81.653058,
              21.288212
            ],
            [
              81.654945,
              21.291212
            ],
            [
              81.65598,
              21.294758
            ],
            [
              81.657554,
              21.296212
            ],
            [
              81.657526,
              21.297216
            ]
          ]
        ],
        "type": "Polygon"
      },
      "type": "Feature"
    }
  ]
}