{
  "type": "FeatureCollection",
  "metadata": {
    "provider_name": "Ovenfresh Pizzas, Cakes & Desserts",
    "center_lat": 12.90083397,
    "center_lon": 80.09284666,
    "mode": "motorcycle",
    "total_zones": 4,
    "distance_zones": [
      3,
      4,
      5,
      6
    ],
    "generated_at": "2025-12-30T10:33:24.318242Z"
  },
  "features": [
    {
      "properties": {
        "fill-opacity": 0.33,
        "fillColor": "#bf4040",
        "opacity": 0.33,
        "fill": "#bf4040",
        "fillOpacity": 0.33,
        "color": "#bf4040",
        "contour": 3.0,
        "metric": "distance",
        "provider_name": "Ovenfresh Pizzas, Cakes & Desserts",
        "zone_type": "distance",
        "distance_km": 3,
        "mode": "motorcycle",
        "center_lat": 12.90083397,
        "center_lon": 80.09284666,
        "label": "3km"
      },
      "geometry": {
        "coordinates": [
          [
            [
              80.093846,
              12.903726
            ],
            [
              80.089262,
              12.899418
            ],
            [
              80.087888,
              12.896791
            ],
            [
              80.085846,
              12.895345
            ],
            [
              80.084556,
              12.896834
            ],
            [
              80.08122,
              12.898208
            ],
            [
              80.079846,
              12.897586
            ],
            [
              80.079341,
              12.895339
            ],
            [
              80.078147,
              12.895134
            ],
            [
              80.077846,
              12.896709
            ],
            [
              80.077468,
              12.896212
            ],
            [
              80.078622,
              12.893834
            ],
            [
              80.078353,
              12.892327
            ],
            [
              80.07543,
              12.891834
            ],
            [
              80.07842,
              12.891408
            ],
            [
              80.079846,
              12.889495
            ],
            [
              80.080928,
              12.889916
            ],
            [
              80.081729,
              12.888716
            ],
            [
              80.082846,
              12.888989
            ],
            [
              80.083442,
              12.88843
            ],
            [
              80.08344,
              12.88724
            ],
            [
              80.082187,
              12.886834
            ],
            [
              80.081564,
              12.884834
            ],
            [
              80.081846,
              12.882379
            ],
            [
              80.082846,
              12.882962
            ],
            [
              80.083394,
              12.886286
            ],
            [
              80.084296,
              12.886284
            ],
            [
              80.085846,
              12.884629
            ],
            [
              80.087862,
              12.884818
            ],
            [
              80.088876,
              12.885804
            ],
            [
              80.086846,
              12.886059
            ],
            [
              80.085404,
              12.887392
            ],
            [
              80.085321,
              12.889834
            ],
            [
              80.086547,
              12.892133
            ],
            [
              80.088217,
              12.892463
            ],
            [
              80.08858,
              12.8941
            ],
            [
              80.090239,
              12.89444
            ],
            [
              80.091476,
              12.896834
            ],
            [
              80.090634,
              12.898046
            ],
            [
              80.092846,
              12.898103
            ],
            [
              80.09434,
              12.89934
            ],
            [
              80.094483,
              12.90347
            ],
            [
              80.093846,
              12.903726
            ]
          ]
        ],
        "type": "Polygon"
      },
      "type": "Feature"
    },
    {
      "properties": {
        "fill-opacity": 0.33,
        "fillColor": "#bf4040",
        "opacity": 0.33,
        "fill": "#bf4040",
        "fillOpacity": 0.33,
        "color": "#bf4040",
        "contour": 4.0,
        "metric": "distance",
        "provider_name": "Ovenfresh Pizzas, Cakes & Desserts",
        "zone_type": "distance",
        "distance_km": 4,
        "mode": "motorcycle",
        "center_lat": 12.90083397,
        "center_lon": 80.09284666,
        "label": "4km"
      },
      "geometry": {
        "coordinates": [
          [
            [
              80.097846,
              12.908906
            ],
            [
              80.095846,
              12.907675
            ],
            [
              80.094846,
              12.909038
            ],
            [
              80.093846,
              12.90818
            ],
            [
              80.092846,
              12.908803
            ],
            [
              80.090503,
              12.907177
            ],
            [
              80.089838,
              12.902834
            ],
            [
              80.087846,
              12.902093
            ],
            [
              80.08648,
              12.9002
            ],
            [
              80.083987,
              12.899974
            ],
            [
              80.084074,
              12.902062
            ],
            [
              80.081846,
              12.903067
            ],
            [
              80.080715,
              12.902965
            ],
            [
              80.080591,
              12.900834
            ],
            [
              80.079846,
              12.900142
            ],
            [
              80.078846,
              12.90117
            ],
            [
              80.074408,
              12.900834
            ],
            [
              80.077317,
              12.900304
            ],
            [
              80.077508,
              12.897834
            ],
            [
              80.076537,
              12.897143
            ],
            [
              80.076374,
              12.895834
            ],
            [
              80.078283,
              12.893834
            ],
            [
              80.077846,
              12.892392
            ],
            [
              80.073846,
              12.892286
            ],
            [
              80.069697,
              12.893983
            ],
            [
              80.066694,
              12.892834
            ],
            [
              80.0668,
              12.889787
            ],
            [
              80.067846,
              12.888617
            ],
            [
              80.069846,
              12.887879
            ],
            [
              80.071034,
              12.888646
            ],
            [
              80.07364,
              12.888627
            ],
            [
              80.073784,
              12.887772
            ],
            [
              80.074859,
              12.887821
            ],
            [
              80.074841,
              12.887838
            ],
            [
              80.073995,
              12.887982
            ],
            [
              80.073913,
              12.888901
            ],
            [
              80.072332,
              12.88932
            ],
            [
              80.072439,
              12.891241
            ],
            [
              80.077846,
              12.891275
            ],
            [
              80.079335,
              12.889834
            ],
            [
              80.078533,
              12.88852
            ],
            [
              80.081213,
              12.8872
            ],
            [
              80.081249,
              12.886431
            ],
            [
              80.08015,
              12.886137
            ],
            [
              80.076418,
              12.886834
            ],
            [
              80.076639,
              12.885626
            ],
            [
              80.079696,
              12.885683
            ],
            [
              80.080509,
              12.884834
            ],
            [
              80.080378,
              12.883302
            ],
            [
              80.079257,
              12.882834
            ],
            [
              80.078846,
              12.880985
            ],
            [
              80.079675,
              12.877834
            ],
            [
              80.078667,
              12.876834
            ],
            [
              80.078846,
              12.873957
            ],
            [
              80.079292,
              12.876388
            ],
            [
              80.082619,
              12.876606
            ],
            [
              80.082846,
              12.875726
            ],
            [
              80.083846,
              12.877101
            ],
            [
              80.085318,
              12.876834
            ],
            [
              80.085503,
              12.877834
            ],
            [
              80.083304,
              12.878834
            ],
            [
              80.085428,
              12.879834
            ],
            [
              80.083368,
              12.880356
            ],
            [
              80.083577,
              12.886103
            ],
            [
              80.085846,
              12.884277
            ],
            [
              80.087846,
              12.884313
            ],
            [
              80.090123,
              12.885557
            ],
            [
              80.09201,
              12.88767
            ],
            [
              80.090666,
              12.888013
            ],
            [
              80.089205,
              12.886474
            ],
            [
              80.086846,
              12.886397
            ],
            [
              80.085581,
              12.887569
            ],
            [
              80.085486,
              12.888834
            ],
            [
              80.086479,
              12.889834
            ],
            [
              80.08664,
              12.89204
            ],
            [
              80.088308,
              12.892372
            ],
            [
              80.088656,
              12.894024
            ],
            [
              80.090319,
              12.894361
            ],
            [
              80.091692,
              12.897987
            ],
            [
              80.093421,
              12.898258
            ],
            [
              80.094434,
              12.899246
            ],
            [
              80.094792,
              12.902888
            ],
            [
              80.097036,
              12.905644
            ],
            [
              80.097846,
              12.908906
            ]
          ]
        ],
        "type": "Polygon"
      },
      "type": "Feature"
    },
    {
      "properties": {
        "fill-opacity": 0.33,
        "fillColor": "#bf4040",
        "opacity": 0.33,
        "fill": "#bf4040",
        "fillOpacity": 0.33,
        "color": "#bf4040",
        "contour": 5.0,
        "metric": "distance",
        "provider_name": "Ovenfresh Pizzas, Cakes & Desserts",
        "zone_type": "distance",
        "distance_km": 5,
        "mode": "motorcycle",
        "center_lat": 12.90083397,
        "center_lon": 80.09284666,
        "label": "5km"
      },
      "geometry": {
        "coordinates": [
          [
            [
              80.102846,
              12.91589
            ],
            [
              80.101846,
              12.916505
            ],
            [
              80.101601,
              12.912834
            ],
            [
              80.100013,
              12.912001
            ],
            [
              80.098263,
              12.91325
            ],
            [
              80.097938,
              12.914925
            ],
            [
              80.096846,
              12.915823
            ],
            [
              80.093846,
              12.916518
            ],
            [
              80.089846,
              12.91415
            ],
            [
              80.088846,
              12.914484
            ],
            [
              80.085021,
              12.911834
            ],
            [
              80.08747,
              12.911457
            ],
            [
              80.088545,
              12.909834
            ],
            [
              80.088249,
              12.908431
            ],
            [
              80.084678,
              12.908002
            ],
            [
              80.082403,
              12.905834
            ],
            [
              80.082297,
              12.903834
            ],
            [
              80.080205,
              12.903475
            ],
            [
              80.080017,
              12.900662
            ],
            [
              80.078846,
              12.901434
            ],
            [
              80.073846,
              12.901318
            ],
            [
              80.071846,
              12.900246
            ],
            [
              80.07092,
              12.900907
            ],
            [
              80.070846,
              12.902843
            ],
            [
              80.070272,
              12.901408
            ],
            [
              80.067674,
              12.900834
            ],
            [
              80.067789,
              12.899776
            ],
            [
              80.069362,
              12.89935
            ],
            [
              80.069293,
              12.898387
            ],
            [
              80.067225,
              12.898212
            ],
            [
              80.066846,
              12.89905
            ],
            [
              80.065846,
              12.898162
            ],
            [
              80.064846,
              12.900363
            ],
            [
              80.061638,
              12.898042
            ],
            [
              80.061418,
              12.896261
            ],
            [
              80.058296,
              12.894834
            ],
            [
              80.059846,
              12.893315
            ],
            [
              80.062072,
              12.893059
            ],
            [
              80.061701,
              12.890688
            ],
            [
              80.062919,
              12.889834
            ],
            [
              80.060846,
              12.889555
            ],
            [
              80.06065,
              12.887638
            ],
            [
              80.062846,
              12.887486
            ],
            [
              80.065279,
              12.886267
            ],
            [
              80.063846,
              12.883201
            ],
            [
              80.065846,
              12.881846
            ],
            [
              80.066284,
              12.883396
            ],
            [
              80.067328,
              12.883316
            ],
            [
              80.067549,
              12.882131
            ],
            [
              80.065981,
              12.881834
            ],
            [
              80.067219,
              12.880834
            ],
            [
              80.068846,
              12.880699
            ],
            [
              80.069093,
              12.882587
            ],
            [
              80.070165,
              12.883515
            ],
            [
              80.071846,
              12.883525
            ],
            [
              80.072413,
              12.885267
            ],
            [
              80.073924,
              12.885756
            ],
            [
              80.073877,
              12.886803
            ],
            [
              80.075353,
              12.88634
            ],
            [
              80.075674,
              12.884661
            ],
            [
              80.077359,
              12.883346
            ],
            [
              80.076558,
              12.881834
            ],
            [
              80.077506,
              12.880834
            ],
            [
              80.077525,
              12.878834
            ],
            [
              80.078091,
              12.878588
            ],
            [
              80.078846,
              12.879441
            ],
            [
              80.079299,
              12.877834
            ],
            [
              80.078043,
              12.876834
            ],
            [
              80.074846,
              12.865609
            ],
            [
              80.07595,
              12.865834
            ],
            [
              80.077234,
              12.867446
            ],
            [
              80.077542,
              12.871137
            ],
            [
              80.079846,
              12.871447
            ],
            [
              80.080846,
              12.870504
            ],
            [
              80.084846,
              12.870752
            ],
            [
              80.087042,
              12.872834
            ],
            [
              80.086193,
              12.873834
            ],
            [
              80.086846,
              12.875397
            ],
            [
              80.087846,
              12.874467
            ],
            [
              80.092725,
              12.873712
            ],
            [
              80.092846,
              12.872902
            ],
            [
              80.092846,
              12.873928
            ],
            [
              80.091298,
              12.874285
            ],
            [
              80.090111,
              12.876834
            ],
            [
              80.090846,
              12.877625
            ],
            [
              80.091926,
              12.876834
            ],
            [
              80.092064,
              12.878615
            ],
            [
              80.092846,
              12.879175
            ],
            [
              80.091846,
              12.879809
            ],
            [
              80.091598,
              12.878081
            ],
            [
              80.086846,
              12.87825
            ],
            [
              80.085218,
              12.880834
            ],
            [
              80.087846,
              12.882643
            ],
            [
              80.08924,
              12.88244
            ],
            [
              80.089647,
              12.883634
            ],
            [
              80.088846,
              12.88385
            ],
            [
              80.08863,
              12.885049
            ],
            [
              80.0895,
              12.886179
            ],
            [
              80.091323,
              12.886357
            ],
            [
              80.092551,
              12.887834
            ],
            [
              80.090846,
              12.888299
            ],
            [
              80.089192,
              12.886488
            ],
            [
              80.086846,
              12.88653
            ],
            [
              80.08557,
              12.887834
            ],
            [
              80.08559,
              12.889834
            ],
            [
              80.086688,
              12.891991
            ],
            [
              80.088376,
              12.892304
            ],
            [
              80.088698,
              12.893982
            ],
            [
              80.090395,
              12.894284
            ],
            [
              80.090633,
              12.895834
            ],
            [
              80.091634,
              12.896834
            ],
            [
              80.090716,
              12.897963
            ],
            [
              80.093496,
              12.898184
            ],
            [
              80.094504,
              12.899175
            ],
            [
              80.094846,
              12.902021
            ],
            [
              80.100412,
              12.904834
            ],
            [
              80.097506,
              12.906494
            ],
            [
              80.098518,
              12.908162
            ],
            [
              80.100242,
              12.907229
            ],
            [
              80.101933,
              12.90392
            ],
            [
              80.104846,
              12.903335
            ],
            [
              80.104544,
              12.907834
            ],
            [
              80.105846,
              12.907786
            ],
            [
              80.105909,
              12.908834
            ],
            [
              80.103117,
              12.910834
            ],
            [
              80.104928,
              12.913834
            ],
            [
              80.102309,
              12.913296
            ],
            [
              80.10199,
              12.915689
            ],
            [
              80.102846,
              12.91589
            ]
          ]
        ],
        "type": "Polygon"
      },
      "type": "Feature"
    },
    {
      "properties": {
        "fill-opacity": 0.33,
        "fillColor": "#bf4040",
        "opacity": 0.33,
        "fill": "#bf4040",
        "fillOpacity": 0.33,
        "color": "#bf4040",
        "contour": 6.0,
        "metric": "distance",
        "provider_name": "Ovenfresh Pizzas, Cakes & Desserts",
        "zone_type": "distance",
        "distance_km": 6,
        "mode": "motorcycle",
        "center_lat": 12.90083397,
        "center_lon": 80.09284666,
        "label": "6km"
      },
      "geometry": {
        "coordinates": [
          [
            [
              80.100846,
              12.923907
            ],
            [
              80.099846,
              12.919298
            ],
            [
              80.09797,
              12.918834
            ],
            [
              80.097605,
              12.918075
            ],
            [
              80.098425,
              12.915834
            ],
            [
              80.0957,
              12.917687
            ],
            [
              80.094846,
              12.919427
            ],
            [
              80.090482,
              12.918198
            ],
            [
              80.090376,
              12.917363
            ],
            [
              80.091386,
              12.916834
            ],
            [
              80.090846,
              12.916308
            ],
            [
              80.089846,
              12.917452
            ],
            [
              80.088846,
              12.916733
            ],
            [
              80.087846,
              12.916975
            ],
            [
              80.086846,
              12.91925
            ],
            [
              80.084846,
              12.917081
            ],
            [
              80.083846,
              12.918941
            ],
            [
              80.083458,
              12.918222
            ],
            [
              80.081077,
              12.917603
            ],
            [
              80.080631,
              12.914049
            ],
            [
              80.077816,
              12.913834
            ],
            [
              80.078693,
              12.91368
            ],
            [
              80.079645,
              12.911834
            ],
            [
              80.07961,
              12.909834
            ],
            [
              80.078634,
              12.908834
            ],
            [
              80.079509,
              12.907834
            ],
            [
              80.078515,
              12.906834
            ],
            [
              80.079445,
              12.905834
            ],
            [
              80.079155,
              12.901525
            ],
            [
              80.073846,
              12.901493
            ],
            [
              80.072846,
              12.90048
            ],
            [
              80.07157,
              12.900557
            ],
            [
              80.071051,
              12.902834
            ],
            [
              80.072289,
              12.903834
            ],
            [
              80.072034,
              12.906646
            ],
            [
              80.072959,
              12.90772
            ],
            [
              80.072846,
              12.910926
            ],
            [
              80.072461,
              12.908834
            ],
            [
              80.071279,
              12.907834
            ],
            [
              80.071087,
              12.905834
            ],
            [
              80.070032,
              12.905648
            ],
            [
              80.069846,
              12.904662
            ],
            [
              80.068318,
              12.906305
            ],
            [
              80.067846,
              12.90858
            ],
            [
              80.064846,
              12.908012
            ],
            [
              80.06283,
              12.906834
            ],
            [
              80.063102,
              12.904834
            ],
            [
              80.059843,
              12.903837
            ],
            [
              80.059358,
              12.900321
            ],
            [
              80.057846,
              12.900165
            ],
            [
              80.056846,
              12.899079
            ],
            [
              80.056194,
              12.899182
            ],
            [
              80.055846,
              12.900764
            ],
            [
              80.054846,
              12.900231
            ],
            [
              80.054279,
              12.895401
            ],
            [
              80.049027,
              12.894834
            ],
            [
              80.051476,
              12.894463
            ],
            [
              80.051791,
              12.892778
            ],
            [
              80.054329,
              12.892317
            ],
            [
              80.053846,
              12.888951
            ],
            [
              80.055145,
              12.890535
            ],
            [
              80.05735,
              12.890338
            ],
            [
              80.057387,
              12.889293
            ],
            [
              80.05569,
              12.88799
            ],
            [
              80.055846,
              12.886791
            ],
            [
              80.058776,
              12.886764
            ],
            [
              80.059729,
              12.883717
            ],
            [
              80.062007,
              12.884673
            ],
            [
              80.062539,
              12.88714
            ],
            [
              80.065109,
              12.886096
            ],
            [
              80.063206,
              12.883474
            ],
            [
              80.060643,
              12.882036
            ],
            [
              80.061721,
              12.880708
            ],
            [
              80.068846,
              12.880297
            ],
            [
              80.069483,
              12.882196
            ],
            [
              80.070846,
              12.883348
            ],
            [
              80.072208,
              12.883471
            ],
            [
              80.072584,
              12.885096
            ],
            [
              80.074846,
              12.886318
            ],
            [
              80.075465,
              12.884452
            ],
            [
              80.077098,
              12.883085
            ],
            [
              80.076191,
              12.881834
            ],
            [
              80.078151,
              12.880528
            ],
            [
              80.077109,
              12.878834
            ],
            [
              80.078923,
              12.877834
            ],
            [
              80.076846,
              12.876356
            ],
            [
              80.075846,
              12.878535
            ],
            [
              80.075371,
              12.875834
            ],
            [
              80.077739,
              12.874834
            ],
            [
              80.0758,
              12.87388
            ],
            [
              80.074132,
              12.870548
            ],
            [
              80.071479,
              12.870201
            ],
            [
              80.069697,
              12.868983
            ],
            [
              80.070155,
              12.868142
            ],
            [
              80.073262,
              12.869418
            ],
            [
              80.075225,
              12.868834
            ],
            [
              80.070846,
              12.857747
            ],
            [
              80.073846,
              12.858078
            ],
            [
              80.080846,
              12.861478
            ],
            [
              80.081747,
              12.862933
            ],
            [
              80.083608,
              12.863071
            ],
            [
              80.083943,
              12.865931
            ],
            [
              80.082365,
              12.866834
            ],
            [
              80.083473,
              12.867834
            ],
            [
              80.083487,
              12.869834
            ],
            [
              80.085411,
              12.870269
            ],
            [
              80.087233,
              12.872447
            ],
            [
              80.086451,
              12.873834
            ],
            [
              80.086846,
              12.875194
            ],
            [
              80.087846,
              12.874221
            ],
            [
              80.089846,
              12.874239
            ],
            [
              80.090846,
              12.87324
            ],
            [
              80.09456,
              12.872548
            ],
            [
              80.095702,
              12.87169
            ],
            [
              80.100488,
              12.871476
            ],
            [
              80.100846,
              12.869707
            ],
            [
              80.102537,
              12.871143
            ],
            [
              80.102829,
              12.871834
            ],
            [
              80.101846,
              12.872954
            ],
            [
              80.101592,
              12.872087
            ],
            [
              80.100366,
              12.872353
            ],
            [
              80.100009,
              12.87367
            ],
            [
              80.100692,
              12.873834
            ],
            [
              80.099816,
              12.873864
            ],
            [
              80.098445,
              12.872234
            ],
            [
              80.097175,
              12.872163
            ],
            [
              80.095846,
              12.873268
            ],
            [
              80.093846,
              12.873153
            ],
            [
              80.091422,
              12.874834
            ],
            [
              80.091368,
              12.876312
            ],
            [
              80.094281,
              12.876834
            ],
            [
              80.092515,
              12.877502
            ],
            [
              80.092529,
              12.87815
            ],
            [
              80.094157,
              12.878523
            ],
            [
              80.095846,
              12.880491
            ],
            [
              80.098846,
              12.880435
            ],
            [
              80.099002,
              12.881678
            ],
            [
              80.09985,
              12.881834
            ],
            [
              80.098955,
              12.881943
            ],
            [
              80.098846,
              12.882932
            ],
            [
              80.095846,
              12.883123
            ],
            [
              80.094433,
              12.88242
            ],
            [
              80.095012,
              12.888668
            ],
            [
              80.09559,
              12.888834
            ],
            [
              80.094773,
              12.888907
            ],
            [
              80.093846,
              12.888039
            ],
            [
              80.090846,
              12.88859
            ],
            [
              80.088846,
              12.886586
            ],
            [
              80.086846,
              12.8866
            ],
            [
              80.085631,
              12.887834
            ],
            [
              80.086719,
              12.891961
            ],
            [
              80.088465,
              12.892214
            ],
            [
              80.088725,
              12.893955
            ],
            [
              80.090478,
              12.894201
            ],
            [
              80.091741,
              12.897939
            ],
            [
              80.093548,
              12.898132
            ],
            [
              80.097531,
              12.903148
            ],
            [
              80.102254,
              12.901241
            ],
            [
              80.104469,
              12.899457
            ],
            [
              80.104846,
              12.897993
            ],
            [
              80.105023,
              12.898657
            ],
            [
              80.10643,
              12.898834
            ],
            [
              80.105071,
              12.899058
            ],
            [
              80.105361,
              12.903834
            ],
            [
              80.106304,
              12.904834
            ],
            [
              80.106846,
              12.907345
            ],
            [
              80.111026,
              12.910653
            ],
            [
              80.111214,
              12.912201
            ],
            [
              80.110492,
              12.913834
            ],
            [
              80.109177,
              12.914164
            ],
            [
              80.109127,
              12.915834
            ],
            [
              80.109846,
              12.916679
            ],
            [
              80.110846,
              12.91586
            ],
            [
              80.111883,
              12.916834
            ],
            [
              80.112116,
              12.918834
            ],
            [
              80.111753,
              12.919834
            ],
            [
              80.109508,
              12.920172
            ],
            [
              80.107846,
              12.919049
            ],
            [
              80.106846,
              12.920233
            ],
            [
              80.104846,
              12.919485
            ],
            [
              80.102846,
              12.92053
            ],
            [
              80.101846,
              12.919683
            ],
            [
              80.100846,
              12.923907
            ]
          ]
        ],
        "type": "Polygon"
      },
      "type": "Feature"
    }
  ]
}