{
  "type": "FeatureCollection",
  "metadata": {
    "provider_name": "The Biryani Life",
    "center_lat": 12.82969677,
    "center_lon": 80.04520252,
    "mode": "motorcycle",
    "total_zones": 4,
    "distance_zones": [
      3,
      4,
      5,
      6
    ],
    "generated_at": "2025-12-30T07:13:44.533640Z"
  },
  "features": [
    {
      "properties": {
        "fill-opacity": 0.33,
        "fillColor": "#bf4040",
        "opacity": 0.33,
        "fill": "#bf4040",
        "fillOpacity": 0.33,
        "color": "#bf4040",
        "contour": 3.0,
        "metric": "distance",
        "provider_name": "The Biryani Life",
        "zone_type": "distance",
        "distance_km": 3,
        "mode": "motorcycle",
        "center_lat": 12.82969677,
        "center_lon": 80.04520252,
        "label": "3km"
      },
      "geometry": {
        "coordinates": [
          [
            [
              80.060202,
              12.849783
            ],
            [
              80.059202,
              12.847982
            ],
            [
              80.05826,
              12.848754
            ],
            [
              80.057578,
              12.848696
            ],
            [
              80.058084,
              12.848578
            ],
            [
              80.057863,
              12.845696
            ],
            [
              80.056742,
              12.843696
            ],
            [
              80.054202,
              12.843181
            ],
            [
              80.052937,
              12.841962
            ],
            [
              80.051202,
              12.837359
            ],
            [
              80.050202,
              12.838331
            ],
            [
              80.047942,
              12.838437
            ],
            [
              80.048777,
              12.839696
            ],
            [
              80.047778,
              12.840696
            ],
            [
              80.047525,
              12.84302
            ],
            [
              80.04588,
              12.843374
            ],
            [
              80.044202,
              12.844975
            ],
            [
              80.043202,
              12.843955
            ],
            [
              80.042023,
              12.843875
            ],
            [
              80.04167,
              12.839696
            ],
            [
              80.042739,
              12.838696
            ],
            [
              80.041819,
              12.838079
            ],
            [
              80.041544,
              12.835696
            ],
            [
              80.040494,
              12.834696
            ],
            [
              80.040275,
              12.829696
            ],
            [
              80.037124,
              12.826775
            ],
            [
              80.037953,
              12.825696
            ],
            [
              80.036988,
              12.82491
            ],
            [
              80.035552,
              12.821346
            ],
            [
              80.033593,
              12.821696
            ],
            [
              80.034549,
              12.825349
            ],
            [
              80.035343,
              12.825696
            ],
            [
              80.035202,
              12.827161
            ],
            [
              80.034202,
              12.826842
            ],
            [
              80.033202,
              12.82754
            ],
            [
              80.031202,
              12.825503
            ],
            [
              80.031895,
              12.823696
            ],
            [
              80.029865,
              12.821034
            ],
            [
              80.028344,
              12.820838
            ],
            [
              80.028202,
              12.821708
            ],
            [
              80.027202,
              12.820473
            ],
            [
              80.028258,
              12.818696
            ],
            [
              80.031202,
              12.818395
            ],
            [
              80.031898,
              12.817696
            ],
            [
              80.030791,
              12.816696
            ],
            [
              80.031301,
              12.813696
            ],
            [
              80.030202,
              12.809964
            ],
            [
              80.031202,
              12.809999
            ],
            [
              80.032202,
              12.811388
            ],
            [
              80.033905,
              12.810993
            ],
            [
              80.034887,
              12.811696
            ],
            [
              80.034202,
              12.813874
            ],
            [
              80.039202,
              12.812674
            ],
            [
              80.039297,
              12.813601
            ],
            [
              80.040266,
              12.813633
            ],
            [
              80.041504,
              12.815696
            ],
            [
              80.042202,
              12.819168
            ],
            [
              80.050464,
              12.819434
            ],
            [
              80.049764,
              12.822696
            ],
            [
              80.052613,
              12.825285
            ],
            [
              80.052927,
              12.827972
            ],
            [
              80.05486,
              12.829039
            ],
            [
              80.055103,
              12.831696
            ],
            [
              80.056518,
              12.832696
            ],
            [
              80.0566,
              12.834299
            ],
            [
              80.057368,
              12.834696
            ],
            [
              80.056781,
              12.836117
            ],
            [
              80.057639,
              12.836133
            ],
            [
              80.05793,
              12.835424
            ],
            [
              80.060202,
              12.83551
            ],
            [
              80.062347,
              12.836696
            ],
            [
              80.061305,
              12.837696
            ],
            [
              80.062284,
              12.838779
            ],
            [
              80.059434,
              12.841696
            ],
            [
              80.059804,
              12.843094
            ],
            [
              80.062411,
              12.845488
            ],
            [
              80.062743,
              12.847155
            ],
            [
              80.064277,
              12.848771
            ],
            [
              80.063202,
              12.849317
            ],
            [
              80.061202,
              12.848753
            ],
            [
              80.060202,
              12.849783
            ]
          ]
        ],
        "type": "Polygon"
      },
      "type": "Feature"
    },
    {
      "properties": {
        "fill-opacity": 0.33,
        "fillColor": "#bf4040",
        "opacity": 0.33,
        "fill": "#bf4040",
        "fillOpacity": 0.33,
        "color": "#bf4040",
        "contour": 4.0,
        "metric": "distance",
        "provider_name": "The Biryani Life",
        "zone_type": "distance",
        "distance_km": 4,
        "mode": "motorcycle",
        "center_lat": 12.82969677,
        "center_lon": 80.04520252,
        "label": "4km"
      },
      "geometry": {
        "coordinates": [
          [
            [
              80.069202,
              12.856697
            ],
            [
              80.068939,
              12.855959
            ],
            [
              80.067493,
              12.855987
            ],
            [
              80.067202,
              12.856696
            ],
            [
              80.065202,
              12.85492
            ],
            [
              80.064202,
              12.855192
            ],
            [
              80.062409,
              12.852489
            ],
            [
              80.06034,
              12.851696
            ],
            [
              80.059202,
              12.84991
            ],
            [
              80.057202,
              12.849186
            ],
            [
              80.056518,
              12.850696
            ],
            [
              80.05834,
              12.851696
            ],
            [
              80.058185,
              12.854696
            ],
            [
              80.057202,
              12.855131
            ],
            [
              80.055202,
              12.854024
            ],
            [
              80.054202,
              12.855004
            ],
            [
              80.051249,
              12.853696
            ],
            [
              80.052523,
              12.853017
            ],
            [
              80.052692,
              12.851207
            ],
            [
              80.050202,
              12.851666
            ],
            [
              80.048495,
              12.850696
            ],
            [
              80.052666,
              12.84916
            ],
            [
              80.052785,
              12.848113
            ],
            [
              80.051162,
              12.847736
            ],
            [
              80.051202,
              12.846667
            ],
            [
              80.054202,
              12.848332
            ],
            [
              80.058647,
              12.847696
            ],
            [
              80.056428,
              12.84347
            ],
            [
              80.054202,
              12.843356
            ],
            [
              80.052759,
              12.842139
            ],
            [
              80.051202,
              12.837444
            ],
            [
              80.050202,
              12.838429
            ],
            [
              80.048015,
              12.838509
            ],
            [
              80.048904,
              12.839696
            ],
            [
              80.047904,
              12.840696
            ],
            [
              80.047642,
              12.843136
            ],
            [
              80.045985,
              12.843479
            ],
            [
              80.044202,
              12.845328
            ],
            [
              80.043479,
              12.844419
            ],
            [
              80.041827,
              12.844071
            ],
            [
              80.041521,
              12.839696
            ],
            [
              80.042351,
              12.838696
            ],
            [
              80.041279,
              12.837696
            ],
            [
              80.04137,
              12.835529
            ],
            [
              80.040202,
              12.835965
            ],
            [
              80.039101,
              12.834696
            ],
            [
              80.039178,
              12.833672
            ],
            [
              80.040202,
              12.833515
            ],
            [
              80.040403,
              12.831496
            ],
            [
              80.039202,
              12.829171
            ],
            [
              80.038433,
              12.831928
            ],
            [
              80.037765,
              12.831696
            ],
            [
              80.037699,
              12.827696
            ],
            [
              80.036671,
              12.826696
            ],
            [
              80.037631,
              12.825696
            ],
            [
              80.036607,
              12.824696
            ],
            [
              80.036573,
              12.822696
            ],
            [
              80.035418,
              12.820481
            ],
            [
              80.033823,
              12.821696
            ],
            [
              80.03574,
              12.825696
            ],
            [
              80.035202,
              12.831074
            ],
            [
              80.032967,
              12.830931
            ],
            [
              80.034622,
              12.830116
            ],
            [
              80.034554,
              12.828344
            ],
            [
              80.033202,
              12.829161
            ],
            [
              80.031771,
              12.828696
            ],
            [
              80.03168,
              12.826696
            ],
            [
              80.030685,
              12.825213
            ],
            [
              80.031473,
              12.823426
            ],
            [
              80.029515,
              12.821383
            ],
            [
              80.028202,
              12.82215
            ],
            [
              80.026672,
              12.820696
            ],
            [
              80.027796,
              12.81829
            ],
            [
              80.031627,
              12.817696
            ],
            [
              80.029626,
              12.816696
            ],
            [
              80.030081,
              12.812817
            ],
            [
              80.02708,
              12.812574
            ],
            [
              80.026202,
              12.813546
            ],
            [
              80.023812,
              12.811696
            ],
            [
              80.024966,
              12.809696
            ],
            [
              80.023728,
              12.808696
            ],
            [
              80.025937,
              12.807696
            ],
            [
              80.025791,
              12.806107
            ],
            [
              80.025071,
              12.805696
            ],
            [
              80.025202,
              12.802309
            ],
            [
              80.026202,
              12.802446
            ],
            [
              80.026485,
              12.803413
            ],
            [
              80.028158,
              12.803652
            ],
            [
              80.029202,
              12.80303
            ],
            [
              80.031202,
              12.803591
            ],
            [
              80.031865,
              12.805034
            ],
            [
              80.035778,
              12.806696
            ],
            [
              80.035713,
              12.808696
            ],
            [
              80.036871,
              12.809696
            ],
            [
              80.036858,
              12.81204
            ],
            [
              80.039202,
              12.812191
            ],
            [
              80.040552,
              12.813346
            ],
            [
              80.041791,
              12.815696
            ],
            [
              80.04199,
              12.818909
            ],
            [
              80.050685,
              12.819214
            ],
            [
              80.049897,
              12.822696
            ],
            [
              80.052686,
              12.825213
            ],
            [
              80.053012,
              12.826887
            ],
            [
              80.055202,
              12.827382
            ],
            [
              80.055884,
              12.826696
            ],
            [
              80.054998,
              12.825696
            ],
            [
              80.055202,
              12.822761
            ],
            [
              80.056407,
              12.823492
            ],
            [
              80.057436,
              12.825462
            ],
            [
              80.058946,
              12.825952
            ],
            [
              80.059002,
              12.827496
            ],
            [
              80.057202,
              12.826906
            ],
            [
              80.05657,
              12.827696
            ],
            [
              80.056633,
              12.829696
            ],
            [
              80.05767,
              12.831696
            ],
            [
              80.056746,
              12.833696
            ],
            [
              80.057768,
              12.83513
            ],
            [
              80.060202,
              12.835145
            ],
            [
              80.062741,
              12.836696
            ],
            [
              80.061774,
              12.837696
            ],
            [
              80.062836,
              12.838696
            ],
            [
              80.060088,
              12.841582
            ],
            [
              80.060141,
              12.842757
            ],
            [
              80.062863,
              12.844035
            ],
            [
              80.06349,
              12.845408
            ],
            [
              80.065202,
              12.84573
            ],
            [
              80.067202,
              12.845078
            ],
            [
              80.068885,
              12.846014
            ],
            [
              80.070202,
              12.851551
            ],
            [
              80.06755,
              12.852044
            ],
            [
              80.067446,
              12.852696
            ],
            [
              80.068369,
              12.853696
            ],
            [
              80.068401,
              12.855497
            ],
            [
              80.069293,
              12.855696
            ],
            [
              80.069202,
              12.856697
            ]
          ]
        ],
        "type": "Polygon"
      },
      "type": "Feature"
    },
    {
      "properties": {
        "fill-opacity": 0.33,
        "fillColor": "#bf4040",
        "opacity": 0.33,
        "fill": "#bf4040",
        "fillOpacity": 0.33,
        "color": "#bf4040",
        "contour": 5.0,
        "metric": "distance",
        "provider_name": "The Biryani Life",
        "zone_type": "distance",
        "distance_km": 5,
        "mode": "motorcycle",
        "center_lat": 12.82969677,
        "center_lon": 80.04520252,
        "label": "5km"
      },
      "geometry": {
        "coordinates": [
          [
            [
              80.074202,
              12.864295
            ],
            [
              80.071373,
              12.862696
            ],
            [
              80.071739,
              12.861696
            ],
            [
              80.070202,
              12.859999
            ],
            [
              80.06937,
              12.860696
            ],
            [
              80.069746,
              12.861696
            ],
            [
              80.068202,
              12.861697
            ],
            [
              80.067985,
              12.859913
            ],
            [
              80.067151,
              12.859747
            ],
            [
              80.064202,
              12.856044
            ],
            [
              80.063227,
              12.857722
            ],
            [
              80.062202,
              12.857774
            ],
            [
              80.059202,
              12.855984
            ],
            [
              80.058202,
              12.857626
            ],
            [
              80.057166,
              12.85766
            ],
            [
              80.057024,
              12.858696
            ],
            [
              80.054462,
              12.860957
            ],
            [
              80.053202,
              12.863173
            ],
            [
              80.051699,
              12.860199
            ],
            [
              80.049409,
              12.860696
            ],
            [
              80.04735,
              12.858696
            ],
            [
              80.047655,
              12.857696
            ],
            [
              80.042797,
              12.855101
            ],
            [
              80.040691,
              12.852696
            ],
            [
              80.040434,
              12.850928
            ],
            [
              80.044314,
              12.845808
            ],
            [
              80.045202,
              12.8459
            ],
            [
              80.046771,
              12.849127
            ],
            [
              80.049202,
              12.850178
            ],
            [
              80.050202,
              12.849178
            ],
            [
              80.052476,
              12.84897
            ],
            [
              80.052635,
              12.848263
            ],
            [
              80.051202,
              12.848212
            ],
            [
              80.048806,
              12.846696
            ],
            [
              80.048969,
              12.844463
            ],
            [
              80.050637,
              12.843131
            ],
            [
              80.051054,
              12.841548
            ],
            [
              80.052202,
              12.841513
            ],
            [
              80.052416,
              12.84091
            ],
            [
              80.051429,
              12.839696
            ],
            [
              80.051411,
              12.837696
            ],
            [
              80.050202,
              12.838485
            ],
            [
              80.048056,
              12.83855
            ],
            [
              80.048972,
              12.839696
            ],
            [
              80.047972,
              12.840696
            ],
            [
              80.0477,
              12.843194
            ],
            [
              80.046038,
              12.843532
            ],
            [
              80.045179,
              12.845673
            ],
            [
              80.044202,
              12.845693
            ],
            [
              80.043292,
              12.845607
            ],
            [
              80.043266,
              12.844633
            ],
            [
              80.041629,
              12.84427
            ],
            [
              80.04182,
              12.838696
            ],
            [
              80.039883,
              12.837016
            ],
            [
              80.037905,
              12.832994
            ],
            [
              80.034202,
              12.833123
            ],
            [
              80.033515,
              12.834009
            ],
            [
              80.031822,
              12.834317
            ],
            [
              80.031747,
              12.835151
            ],
            [
              80.033367,
              12.836696
            ],
            [
              80.033202,
              12.838389
            ],
            [
              80.033122,
              12.837776
            ],
            [
              80.031147,
              12.837751
            ],
            [
              80.030848,
              12.83505
            ],
            [
              80.030029,
              12.834696
            ],
            [
              80.031552,
              12.833047
            ],
            [
              80.031653,
              12.830696
            ],
            [
              80.03457,
              12.829696
            ],
            [
              80.034202,
              12.828353
            ],
            [
              80.033202,
              12.829348
            ],
            [
              80.031777,
              12.829121
            ],
            [
              80.031525,
              12.826696
            ],
            [
              80.03054,
              12.825696
            ],
            [
              80.031395,
              12.823504
            ],
            [
              80.029202,
              12.8216
            ],
            [
              80.028969,
              12.822464
            ],
            [
              80.027286,
              12.822612
            ],
            [
              80.024994,
              12.820696
            ],
            [
              80.026928,
              12.818696
            ],
            [
              80.026824,
              12.816696
            ],
            [
              80.024001,
              12.815897
            ],
            [
              80.02378,
              12.813696
            ],
            [
              80.022572,
              12.812326
            ],
            [
              80.020202,
              12.812061
            ],
            [
              80.019202,
              12.812975
            ],
            [
              80.018202,
              12.811958
            ],
            [
              80.016242,
              12.812656
            ],
            [
              80.015174,
              12.811696
            ],
            [
              80.01779,
              12.810285
            ],
            [
              80.019202,
              12.807373
            ],
            [
              80.022202,
              12.807276
            ],
            [
              80.023202,
              12.808211
            ],
            [
              80.025626,
              12.807696
            ],
            [
              80.024667,
              12.805696
            ],
            [
              80.024581,
              12.803318
            ],
            [
              80.020248,
              12.796696
            ],
            [
              80.020202,
              12.794743
            ],
            [
              80.026202,
              12.795609
            ],
            [
              80.028202,
              12.797104
            ],
            [
              80.03019,
              12.796684
            ],
            [
              80.030433,
              12.799465
            ],
            [
              80.031239,
              12.79966
            ],
            [
              80.0318,
              12.801099
            ],
            [
              80.034202,
              12.801353
            ],
            [
              80.035202,
              12.800454
            ],
            [
              80.036383,
              12.800516
            ],
            [
              80.035755,
              12.802143
            ],
            [
              80.037387,
              12.802511
            ],
            [
              80.039202,
              12.804385
            ],
            [
              80.040503,
              12.803395
            ],
            [
              80.041478,
              12.805421
            ],
            [
              80.042346,
              12.805696
            ],
            [
              80.042552,
              12.807347
            ],
            [
              80.04421,
              12.807696
            ],
            [
              80.043202,
              12.809187
            ],
            [
              80.042953,
              12.807946
            ],
            [
              80.041202,
              12.806985
            ],
            [
              80.040368,
              12.808862
            ],
            [
              80.038534,
              12.809696
            ],
            [
              80.040345,
              12.810696
            ],
            [
              80.039712,
              12.812206
            ],
            [
              80.041911,
              12.815696
            ],
            [
              80.042041,
              12.818857
            ],
            [
              80.050498,
              12.818993
            ],
            [
              80.050735,
              12.818164
            ],
            [
              80.049165,
              12.816733
            ],
            [
              80.049267,
              12.815761
            ],
            [
              80.051537,
              12.817361
            ],
            [
              80.053302,
              12.817597
            ],
            [
              80.055202,
              12.819372
            ],
            [
              80.059341,
              12.819557
            ],
            [
              80.05855,
              12.821696
            ],
            [
              80.060202,
              12.823329
            ],
            [
              80.064033,
              12.823527
            ],
            [
              80.064741,
              12.822696
            ],
            [
              80.064202,
              12.823774
            ],
            [
              80.057845,
              12.824339
            ],
            [
              80.057873,
              12.825025
            ],
            [
              80.059693,
              12.825696
            ],
            [
              80.05966,
              12.828696
            ],
            [
              80.059202,
              12.829154
            ],
            [
              80.056929,
              12.827423
            ],
            [
              80.056839,
              12.829696
            ],
            [
              80.057799,
              12.830696
            ],
            [
              80.057859,
              12.832696
            ],
            [
              80.056889,
              12.833696
            ],
            [
              80.0579,
              12.834999
            ],
            [
              80.062658,
              12.83624
            ],
            [
              80.063578,
              12.83832
            ],
            [
              80.064984,
              12.838479
            ],
            [
              80.065474,
              12.837425
            ],
            [
              80.066152,
              12.838696
            ],
            [
              80.065125,
              12.840619
            ],
            [
              80.065158,
              12.841696
            ],
            [
              80.065235,
              12.841664
            ],
            [
              80.065313,
              12.840808
            ],
            [
              80.066799,
              12.840293
            ],
            [
              80.070756,
              12.840696
            ],
            [
              80.072115,
              12.844696
            ],
            [
              80.073354,
              12.845544
            ],
            [
              80.074335,
              12.847696
            ],
            [
              80.073569,
              12.848064
            ],
            [
              80.073294,
              12.849788
            ],
            [
              80.070832,
              12.850326
            ],
            [
              80.070202,
              12.852313
            ],
            [
              80.067959,
              12.852696
            ],
            [
              80.069063,
              12.854835
            ],
            [
              80.070855,
              12.856043
            ],
            [
              80.07179,
              12.859108
            ],
            [
              80.072675,
              12.859169
            ],
            [
              80.073202,
              12.857046
            ],
            [
              80.076235,
              12.857696
            ],
            [
              80.074202,
              12.864295
            ]
          ]
        ],
        "type": "Polygon"
      },
      "type": "Feature"
    },
    {
      "properties": {
        "fill-opacity": 0.33,
        "fillColor": "#bf4040",
        "opacity": 0.33,
        "fill": "#bf4040",
        "fillOpacity": 0.33,
        "color": "#bf4040",
        "contour": 6.0,
        "metric": "distance",
        "provider_name": "The Biryani Life",
        "zone_type": "distance",
        "distance_km": 6,
        "mode": "motorcycle",
        "center_lat": 12.82969677,
        "center_lon": 80.04520252,
        "label": "6km"
      },
      "geometry": {
        "coordinates": [
          [
            [
              80.077202,
              12.87269
            ],
            [
              80.073021,
              12.869696
            ],
            [
              80.072582,
              12.867316
            ],
            [
              80.070851,
              12.867048
            ],
            [
              80.070559,
              12.86534
            ],
            [
              80.068957,
              12.863941
            ],
            [
              80.067429,
              12.86047
            ],
            [
              80.065728,
              12.85917
            ],
            [
              80.06536,
              12.857539
            ],
            [
              80.064202,
              12.856419
            ],
            [
              80.06369,
              12.858185
            ],
            [
              80.062106,
              12.8596
            ],
            [
              80.062321,
              12.860696
            ],
            [
              80.061307,
              12.861801
            ],
            [
              80.061202,
              12.863709
            ],
            [
              80.060071,
              12.864566
            ],
            [
              80.060101,
              12.865696
            ],
            [
              80.058312,
              12.866806
            ],
            [
              80.057202,
              12.868807
            ],
            [
              80.055202,
              12.867805
            ],
            [
              80.053774,
              12.868268
            ],
            [
              80.053202,
              12.870031
            ],
            [
              80.051992,
              12.867907
            ],
            [
              80.053659,
              12.867153
            ],
            [
              80.053758,
              12.864696
            ],
            [
              80.051487,
              12.860412
            ],
            [
              80.049202,
              12.861189
            ],
            [
              80.048202,
              12.8602
            ],
            [
              80.047202,
              12.861147
            ],
            [
              80.046202,
              12.86014
            ],
            [
              80.041552,
              12.860046
            ],
            [
              80.041202,
              12.861441
            ],
            [
              80.040941,
              12.859958
            ],
            [
              80.038202,
              12.859517
            ],
            [
              80.035202,
              12.856523
            ],
            [
              80.034258,
              12.856641
            ],
            [
              80.033397,
              12.855696
            ],
            [
              80.034118,
              12.855612
            ],
            [
              80.034202,
              12.853581
            ],
            [
              80.034383,
              12.854515
            ],
            [
              80.035202,
              12.854511
            ],
            [
              80.037616,
              12.853111
            ],
            [
              80.037786,
              12.850696
            ],
            [
              80.036664,
              12.849235
            ],
            [
              80.034813,
              12.848696
            ],
            [
              80.034284,
              12.845696
            ],
            [
              80.035252,
              12.843746
            ],
            [
              80.034453,
              12.842696
            ],
            [
              80.03485,
              12.841696
            ],
            [
              80.032522,
              12.838376
            ],
            [
              80.030891,
              12.838007
            ],
            [
              80.030738,
              12.835696
            ],
            [
              80.029702,
              12.834696
            ],
            [
              80.031432,
              12.832926
            ],
            [
              80.031744,
              12.831239
            ],
            [
              80.034388,
              12.829882
            ],
            [
              80.034463,
              12.828696
            ],
            [
              80.033202,
              12.829438
            ],
            [
              80.031713,
              12.829186
            ],
            [
              80.031446,
              12.826696
            ],
            [
              80.030455,
              12.825696
            ],
            [
              80.03068,
              12.824174
            ],
            [
              80.031427,
              12.823696
            ],
            [
              80.02995,
              12.822444
            ],
            [
              80.029202,
              12.823116
            ],
            [
              80.025818,
              12.823312
            ],
            [
              80.025202,
              12.829064
            ],
            [
              80.023202,
              12.827914
            ],
            [
              80.021931,
              12.826696
            ],
            [
              80.022849,
              12.825696
            ],
            [
              80.021916,
              12.822696
            ],
            [
              80.02376,
              12.821696
            ],
            [
              80.022587,
              12.820312
            ],
            [
              80.020978,
              12.81992
            ],
            [
              80.020202,
              12.815586
            ],
            [
              80.022214,
              12.814685
            ],
            [
              80.022543,
              12.816356
            ],
            [
              80.023502,
              12.816397
            ],
            [
              80.023518,
              12.817696
            ],
            [
              80.025202,
              12.819204
            ],
            [
              80.026623,
              12.818696
            ],
            [
              80.026452,
              12.816446
            ],
            [
              80.023738,
              12.816161
            ],
            [
              80.023568,
              12.813696
            ],
            [
              80.022202,
              12.812339
            ],
            [
              80.020202,
              12.812308
            ],
            [
              80.019202,
              12.813277
            ],
            [
              80.018202,
              12.812272
            ],
            [
              80.017496,
              12.813991
            ],
            [
              80.015202,
              12.814151
            ],
            [
              80.013731,
              12.811696
            ],
            [
              80.014718,
              12.810696
            ],
            [
              80.013909,
              12.809403
            ],
            [
              80.016202,
              12.809225
            ],
            [
              80.017202,
              12.810158
            ],
            [
              80.019202,
              12.8071
            ],
            [
              80.022202,
              12.807063
            ],
            [
              80.023202,
              12.808036
            ],
            [
              80.0255,
              12.807696
            ],
            [
              80.024519,
              12.805696
            ],
            [
              80.024444,
              12.803455
            ],
            [
              80.021482,
              12.798417
            ],
            [
              80.019871,
              12.797028
            ],
            [
              80.019537,
              12.795361
            ],
            [
              80.018202,
              12.796112
            ],
            [
              80.016202,
              12.796035
            ],
            [
              80.015202,
              12.796967
            ],
            [
              80.012297,
              12.796791
            ],
            [
              80.011974,
              12.797696
            ],
            [
              80.011997,
              12.796696
            ],
            [
              80.01382,
              12.796315
            ],
            [
              80.014111,
              12.794605
            ],
            [
              80.016202,
              12.794397
            ],
            [
              80.016847,
              12.793696
            ],
            [
              80.016202,
              12.792961
            ],
            [
              80.013325,
              12.792696
            ],
            [
              80.014202,
              12.791417
            ],
            [
              80.015927,
              12.790696
            ],
            [
              80.015202,
              12.787214
            ],
            [
              80.017202,
              12.787932
            ],
            [
              80.018202,
              12.789467
            ],
            [
              80.01886,
              12.789354
            ],
            [
              80.019151,
              12.788645
            ],
            [
              80.020202,
              12.78829
            ],
            [
              80.020978,
              12.788696
            ],
            [
              80.019378,
              12.788872
            ],
            [
              80.018525,
              12.790696
            ],
            [
              80.018803,
              12.792096
            ],
            [
              80.021202,
              12.794211
            ],
            [
              80.023607,
              12.793101
            ],
            [
              80.023202,
              12.791463
            ],
            [
              80.024202,
              12.791401
            ],
            [
              80.025202,
              12.792347
            ],
            [
              80.028202,
              12.789987
            ],
            [
              80.033202,
              12.790649
            ],
            [
              80.033085,
              12.791696
            ],
            [
              80.027663,
              12.794696
            ],
            [
              80.030537,
              12.796362
            ],
            [
              80.030764,
              12.798696
            ],
            [
              80.031952,
              12.800946
            ],
            [
              80.034202,
              12.801093
            ],
            [
              80.035202,
              12.800128
            ],
            [
              80.036612,
              12.800106
            ],
            [
              80.03695,
              12.797949
            ],
            [
              80.036142,
              12.797637
            ],
            [
              80.037055,
              12.796549
            ],
            [
              80.042202,
              12.797713
            ],
            [
              80.043202,
              12.79895
            ],
            [
              80.043019,
              12.802696
            ],
            [
              80.041679,
              12.803696
            ],
            [
              80.042767,
              12.806696
            ],
            [
              80.044537,
              12.807362
            ],
            [
              80.044675,
              12.809696
            ],
            [
              80.0458,
              12.811098
            ],
            [
              80.04836,
              12.811539
            ],
            [
              80.0485,
              12.814398
            ],
            [
              80.051494,
              12.814405
            ],
            [
              80.051892,
              12.817006
            ],
            [
              80.053566,
              12.817332
            ],
            [
              80.055202,
              12.8191
            ],
            [
              80.059574,
              12.819324
            ],
            [
              80.058807,
              12.821696
            ],
            [
              80.060202,
              12.823084
            ],
            [
              80.063202,
              12.823146
            ],
            [
              80.064202,
              12.822189
            ],
            [
              80.067389,
              12.822509
            ],
            [
              80.067202,
              12.823126
            ],
            [
              80.065202,
              12.82319
            ],
            [
              80.064202,
              12.824217
            ],
            [
              80.057969,
              12.824464
            ],
            [
              80.059865,
              12.825696
            ],
            [
              80.059851,
              12.828696
            ],
            [
              80.059202,
              12.829345
            ],
            [
              80.057008,
              12.827502
            ],
            [
              80.057947,
              12.832696
            ],
            [
              80.056964,
              12.833696
            ],
            [
              80.05797,
              12.834929
            ],
            [
              80.060202,
              12.834933
            ],
            [
              80.062722,
              12.836176
            ],
            [
              80.064202,
              12.838142
            ],
            [
              80.065758,
              12.835696
            ],
            [
              80.066202,
              12.832924
            ],
            [
              80.068202,
              12.831571
            ],
            [
              80.070202,
              12.832249
            ],
            [
              80.072007,
              12.831696
            ],
            [
              80.070975,
              12.835924
            ],
            [
              80.072275,
              12.837624
            ],
            [
              80.071673,
              12.841696
            ],
            [
              80.073202,
              12.842245
            ],
            [
              80.074455,
              12.841443
            ],
            [
              80.074469,
              12.842963
            ],
            [
              80.072691,
              12.844696
            ],
            [
              80.074829,
              12.847696
            ],
            [
              80.073716,
              12.85021
            ],
            [
              80.071143,
              12.850696
            ],
            [
              80.070888,
              12.852696
            ],
            [
              80.071945,
              12.857953
            ],
            [
              80.072665,
              12.857696
            ],
            [
              80.072894,
              12.855388
            ],
            [
              80.074583,
              12.855078
            ],
            [
              80.07498,
              12.853475
            ],
            [
              80.077477,
              12.853421
            ],
            [
              80.077757,
              12.854141
            ],
            [
              80.078647,
              12.854141
            ],
            [
              80.078112,
              12.851606
            ],
            [
              80.079303,
              12.851595
            ],
            [
              80.080202,
              12.85343
            ],
            [
              80.081202,
              12.851966
            ],
            [
              80.08257,
              12.851696
            ],
            [
              80.082658,
              12.852696
            ],
            [
              80.081511,
              12.853005
            ],
            [
              80.080483,
              12.854696
            ],
            [
              80.082202,
              12.856318
            ],
            [
              80.084016,
              12.856883
            ],
            [
              80.084332,
              12.858567
            ],
            [
              80.085027,
              12.858696
            ],
            [
              80.083357,
              12.860696
            ],
            [
              80.078695,
              12.862696
            ],
            [
              80.078153,
              12.863696
            ],
            [
              80.081065,
              12.864833
            ],
            [
              80.081435,
              12.865696
            ],
            [
              80.079247,
              12.869696
            ],
            [
              80.077465,
              12.87096
            ],
            [
              80.077202,
              12.87269
            ]
          ]
        ],
        "type": "Polygon"
      },
      "type": "Feature"
    }
  ]
}