{
  "type": "FeatureCollection",
  "metadata": {
    "provider_name": "Doniel Pizza",
    "center_lat": 26.89861475,
    "center_lon": 80.97240156,
    "mode": "motorcycle",
    "total_zones": 4,
    "distance_zones": [
      3,
      4,
      5,
      6
    ],
    "generated_at": "2025-12-26T11:44:58.825164Z"
  },
  "features": [
    {
      "properties": {
        "fill-opacity": 0.33,
        "fillColor": "#bf4040",
        "opacity": 0.33,
        "fill": "#bf4040",
        "fillOpacity": 0.33,
        "color": "#bf4040",
        "contour": 3.0,
        "metric": "distance",
        "provider_name": "Doniel Pizza",
        "zone_type": "distance",
        "distance_km": 3,
        "mode": "motorcycle",
        "center_lat": 26.89861475,
        "center_lon": 80.97240156,
        "label": "3km"
      },
      "geometry": {
        "coordinates": [
          [
            [
              80.977401,
              26.918948
            ],
            [
              80.975401,
              26.91961
            ],
            [
              80.971408,
              26.918608
            ],
            [
              80.970401,
              26.917523
            ],
            [
              80.969401,
              26.918565
            ],
            [
              80.967401,
              26.918489
            ],
            [
              80.963627,
              26.916614
            ],
            [
              80.964718,
              26.913614
            ],
            [
              80.96111,
              26.913323
            ],
            [
              80.960401,
              26.914218
            ],
            [
              80.949607,
              26.910614
            ],
            [
              80.954401,
              26.902883
            ],
            [
              80.95464,
              26.899375
            ],
            [
              80.953401,
              26.898048
            ],
            [
              80.951703,
              26.897614
            ],
            [
              80.951836,
              26.894614
            ],
            [
              80.953104,
              26.893614
            ],
            [
              80.953194,
              26.890614
            ],
            [
              80.957737,
              26.889614
            ],
            [
              80.958401,
              26.886926
            ],
            [
              80.961401,
              26.887399
            ],
            [
              80.962048,
              26.886614
            ],
            [
              80.960401,
              26.88544
            ],
            [
              80.958401,
              26.885848
            ],
            [
              80.958244,
              26.883457
            ],
            [
              80.959401,
              26.8822
            ],
            [
              80.962516,
              26.88273
            ],
            [
              80.963334,
              26.881547
            ],
            [
              80.965401,
              26.880886
            ],
            [
              80.965967,
              26.883048
            ],
            [
              80.968213,
              26.884802
            ],
            [
              80.9695,
              26.884713
            ],
            [
              80.970712,
              26.882925
            ],
            [
              80.971747,
              26.882614
            ],
            [
              80.971528,
              26.880614
            ],
            [
              80.972621,
              26.878834
            ],
            [
              80.973401,
              26.878352
            ],
            [
              80.974401,
              26.878798
            ],
            [
              80.97562,
              26.876833
            ],
            [
              80.980401,
              26.877912
            ],
            [
              80.982168,
              26.879848
            ],
            [
              80.98706,
              26.881955
            ],
            [
              80.988349,
              26.885614
            ],
            [
              80.986401,
              26.886207
            ],
            [
              80.985401,
              26.887574
            ],
            [
              80.983295,
              26.887509
            ],
            [
              80.984172,
              26.887843
            ],
            [
              80.983958,
              26.890614
            ],
            [
              80.985822,
              26.891194
            ],
            [
              80.986401,
              26.894208
            ],
            [
              80.987401,
              26.892346
            ],
            [
              80.991401,
              26.892523
            ],
            [
              80.993126,
              26.893614
            ],
            [
              80.994606,
              26.89541
            ],
            [
              80.994208,
              26.898614
            ],
            [
              80.994933,
              26.899614
            ],
            [
              80.993401,
              26.900682
            ],
            [
              80.99108,
              26.900293
            ],
            [
              80.990401,
              26.901354
            ],
            [
              80.989401,
              26.901152
            ],
            [
              80.988401,
              26.90278
            ],
            [
              80.984401,
              26.903525
            ],
            [
              80.984348,
              26.902668
            ],
            [
              80.982618,
              26.902832
            ],
            [
              80.982401,
              26.903655
            ],
            [
              80.982259,
              26.901614
            ],
            [
              80.983871,
              26.900084
            ],
            [
              80.984908,
              26.896614
            ],
            [
              80.982401,
              26.896185
            ],
            [
              80.981401,
              26.895213
            ],
            [
              80.97918,
              26.895393
            ],
            [
              80.98007,
              26.896614
            ],
            [
              80.980075,
              26.898614
            ],
            [
              80.978101,
              26.901614
            ],
            [
              80.978042,
              26.905614
            ],
            [
              80.97998,
              26.909614
            ],
            [
              80.979878,
              26.912614
            ],
            [
              80.977804,
              26.914614
            ],
            [
              80.977677,
              26.915338
            ],
            [
              80.978783,
              26.915614
            ],
            [
              80.977534,
              26.915747
            ],
            [
              80.977595,
              26.917421
            ],
            [
              80.97824,
              26.917614
            ],
            [
              80.977401,
              26.918948
            ]
          ]
        ],
        "type": "Polygon"
      },
      "type": "Feature"
    },
    {
      "properties": {
        "fill-opacity": 0.33,
        "fillColor": "#bf4040",
        "opacity": 0.33,
        "fill": "#bf4040",
        "fillOpacity": 0.33,
        "color": "#bf4040",
        "contour": 4.0,
        "metric": "distance",
        "provider_name": "Doniel Pizza",
        "zone_type": "distance",
        "distance_km": 4,
        "mode": "motorcycle",
        "center_lat": 26.89861475,
        "center_lon": 80.97240156,
        "label": "4km"
      },
      "geometry": {
        "coordinates": [
          [
            [
              80.979401,
              26.927172
            ],
            [
              80.977401,
              26.925941
            ],
            [
              80.974401,
              26.926414
            ],
            [
              80.972401,
              26.924746
            ],
            [
              80.970401,
              26.925243
            ],
            [
              80.970226,
              26.923789
            ],
            [
              80.968263,
              26.923753
            ],
            [
              80.966411,
              26.921604
            ],
            [
              80.961401,
              26.920807
            ],
            [
              80.960401,
              26.919693
            ],
            [
              80.959401,
              26.920522
            ],
            [
              80.954401,
              26.919387
            ],
            [
              80.95407,
              26.917946
            ],
            [
              80.952401,
              26.917751
            ],
            [
              80.951289,
              26.916727
            ],
            [
              80.950787,
              26.913614
            ],
            [
              80.949582,
              26.912614
            ],
            [
              80.950401,
              26.911456
            ],
            [
              80.948806,
              26.911614
            ],
            [
              80.947401,
              26.913858
            ],
            [
              80.944401,
              26.915908
            ],
            [
              80.943658,
              26.912358
            ],
            [
              80.94143,
              26.913585
            ],
            [
              80.939959,
              26.912614
            ],
            [
              80.944401,
              26.906921
            ],
            [
              80.945401,
              26.907978
            ],
            [
              80.949401,
              26.908192
            ],
            [
              80.949045,
              26.903614
            ],
            [
              80.951343,
              26.902614
            ],
            [
              80.951223,
              26.900614
            ],
            [
              80.951062,
              26.899954
            ],
            [
              80.949645,
              26.899614
            ],
            [
              80.949502,
              26.896513
            ],
            [
              80.947153,
              26.894862
            ],
            [
              80.947946,
              26.892614
            ],
            [
              80.946994,
              26.891614
            ],
            [
              80.948401,
              26.889775
            ],
            [
              80.949892,
              26.889614
            ],
            [
              80.949001,
              26.889015
            ],
            [
              80.949098,
              26.887614
            ],
            [
              80.951091,
              26.884614
            ],
            [
              80.950768,
              26.880981
            ],
            [
              80.95217,
              26.878614
            ],
            [
              80.956833,
              26.875046
            ],
            [
              80.957401,
              26.87374
            ],
            [
              80.958474,
              26.873541
            ],
            [
              80.960044,
              26.873972
            ],
            [
              80.961401,
              26.875891
            ],
            [
              80.963401,
              26.87621
            ],
            [
              80.965401,
              26.874971
            ],
            [
              80.966401,
              26.878402
            ],
            [
              80.967862,
              26.876614
            ],
            [
              80.968243,
              26.874614
            ],
            [
              80.970029,
              26.873242
            ],
            [
              80.970401,
              26.871562
            ],
            [
              80.975486,
              26.869529
            ],
            [
              80.978522,
              26.869493
            ],
            [
              80.979217,
              26.870799
            ],
            [
              80.984,
              26.873614
            ],
            [
              80.98265,
              26.873863
            ],
            [
              80.982888,
              26.875127
            ],
            [
              80.983901,
              26.875114
            ],
            [
              80.985401,
              26.873179
            ],
            [
              80.988319,
              26.875697
            ],
            [
              80.989401,
              26.877039
            ],
            [
              80.989934,
              26.880082
            ],
            [
              80.991715,
              26.880614
            ],
            [
              80.990025,
              26.881238
            ],
            [
              80.989007,
              26.883614
            ],
            [
              80.989401,
              26.885032
            ],
            [
              80.995892,
              26.884614
            ],
            [
              80.996241,
              26.885614
            ],
            [
              80.993401,
              26.888623
            ],
            [
              80.992269,
              26.888482
            ],
            [
              80.992237,
              26.889614
            ],
            [
              80.989401,
              26.888902
            ],
            [
              80.986969,
              26.890182
            ],
            [
              80.986161,
              26.893854
            ],
            [
              80.987401,
              26.892037
            ],
            [
              80.991401,
              26.89209
            ],
            [
              80.993401,
              26.893134
            ],
            [
              80.994401,
              26.890942
            ],
            [
              80.995401,
              26.891021
            ],
            [
              80.996401,
              26.892208
            ],
            [
              80.999401,
              26.892455
            ],
            [
              81.000656,
              26.89436
            ],
            [
              81.002324,
              26.894614
            ],
            [
              81.001869,
              26.896614
            ],
            [
              81.004135,
              26.902614
            ],
            [
              81.003749,
              26.903614
            ],
            [
              80.999401,
              26.904639
            ],
            [
              80.997401,
              26.903269
            ],
            [
              80.993925,
              26.904139
            ],
            [
              80.992401,
              26.908808
            ],
            [
              80.992298,
              26.907717
            ],
            [
              80.991284,
              26.907732
            ],
            [
              80.989889,
              26.906126
            ],
            [
              80.986401,
              26.905042
            ],
            [
              80.983401,
              26.903146
            ],
            [
              80.98303,
              26.904986
            ],
            [
              80.986661,
              26.909354
            ],
            [
              80.987985,
              26.909614
            ],
            [
              80.987438,
              26.910614
            ],
            [
              80.982793,
              26.906222
            ],
            [
              80.981401,
              26.907011
            ],
            [
              80.979401,
              26.906941
            ],
            [
              80.980058,
              26.912614
            ],
            [
              80.978966,
              26.914049
            ],
            [
              80.98182,
              26.915614
            ],
            [
              80.98078,
              26.919235
            ],
            [
              80.981711,
              26.921614
            ],
            [
              80.980731,
              26.922614
            ],
            [
              80.979401,
              26.927172
            ]
          ]
        ],
        "type": "Polygon"
      },
      "type": "Feature"
    },
    {
      "properties": {
        "fill-opacity": 0.33,
        "fillColor": "#bf4040",
        "opacity": 0.33,
        "fill": "#bf4040",
        "fillOpacity": 0.33,
        "color": "#bf4040",
        "contour": 5.0,
        "metric": "distance",
        "provider_name": "Doniel Pizza",
        "zone_type": "distance",
        "distance_km": 5,
        "mode": "motorcycle",
        "center_lat": 26.89861475,
        "center_lon": 80.97240156,
        "label": "5km"
      },
      "geometry": {
        "coordinates": [
          [
            [
              80.978401,
              26.931894
            ],
            [
              80.977207,
              26.931809
            ],
            [
              80.975865,
              26.930151
            ],
            [
              80.974315,
              26.9297
            ],
            [
              80.974099,
              26.928614
            ],
            [
              80.972401,
              26.928532
            ],
            [
              80.971401,
              26.927464
            ],
            [
              80.969376,
              26.927639
            ],
            [
              80.968681,
              26.925334
            ],
            [
              80.966823,
              26.926036
            ],
            [
              80.965401,
              26.928207
            ],
            [
              80.964542,
              26.927473
            ],
            [
              80.959362,
              26.926654
            ],
            [
              80.957937,
              26.925078
            ],
            [
              80.956084,
              26.924614
            ],
            [
              80.955997,
              26.923614
            ],
            [
              80.957758,
              26.921258
            ],
            [
              80.956401,
              26.920216
            ],
            [
              80.955401,
              26.921214
            ],
            [
              80.952905,
              26.92111
            ],
            [
              80.952423,
              26.918636
            ],
            [
              80.953401,
              26.918506
            ],
            [
              80.951111,
              26.918324
            ],
            [
              80.950401,
              26.92191
            ],
            [
              80.946273,
              26.921486
            ],
            [
              80.944737,
              26.92295
            ],
            [
              80.943401,
              26.92315
            ],
            [
              80.940239,
              26.921614
            ],
            [
              80.941954,
              26.920614
            ],
            [
              80.940707,
              26.919309
            ],
            [
              80.939401,
              26.920194
            ],
            [
              80.93903,
              26.918985
            ],
            [
              80.937674,
              26.918887
            ],
            [
              80.937401,
              26.920449
            ],
            [
              80.936418,
              26.918614
            ],
            [
              80.9375,
              26.916614
            ],
            [
              80.936756,
              26.915614
            ],
            [
              80.936867,
              26.91308
            ],
            [
              80.939832,
              26.911614
            ],
            [
              80.940263,
              26.903614
            ],
            [
              80.941097,
              26.90331
            ],
            [
              80.941379,
              26.899592
            ],
            [
              80.94651,
              26.899723
            ],
            [
              80.945709,
              26.899306
            ],
            [
              80.9457,
              26.897315
            ],
            [
              80.94424,
              26.895775
            ],
            [
              80.943253,
              26.889762
            ],
            [
              80.941795,
              26.889614
            ],
            [
              80.942081,
              26.885614
            ],
            [
              80.943617,
              26.88483
            ],
            [
              80.944399,
              26.878614
            ],
            [
              80.946009,
              26.877614
            ],
            [
              80.947401,
              26.871349
            ],
            [
              80.949401,
              26.872229
            ],
            [
              80.951636,
              26.871379
            ],
            [
              80.955401,
              26.872224
            ],
            [
              80.957401,
              26.870009
            ],
            [
              80.964401,
              26.868682
            ],
            [
              80.966401,
              26.868943
            ],
            [
              80.967401,
              26.870343
            ],
            [
              80.969154,
              26.867367
            ],
            [
              80.976401,
              26.866054
            ],
            [
              80.977401,
              26.864989
            ],
            [
              80.979305,
              26.864614
            ],
            [
              80.981401,
              26.862517
            ],
            [
              80.983431,
              26.863614
            ],
            [
              80.983446,
              26.866569
            ],
            [
              80.984431,
              26.866614
            ],
            [
              80.982064,
              26.871952
            ],
            [
              80.991287,
              26.872728
            ],
            [
              80.990016,
              26.875614
            ],
            [
              80.992091,
              26.876614
            ],
            [
              80.991401,
              26.87744
            ],
            [
              80.990235,
              26.877449
            ],
            [
              80.990385,
              26.87963
            ],
            [
              80.992579,
              26.878792
            ],
            [
              80.993401,
              26.877206
            ],
            [
              80.995359,
              26.876572
            ],
            [
              80.995401,
              26.87567
            ],
            [
              80.99966,
              26.880356
            ],
            [
              81.001433,
              26.880583
            ],
            [
              81.001617,
              26.882398
            ],
            [
              81.004021,
              26.882614
            ],
            [
              81.004278,
              26.883738
            ],
            [
              81.005601,
              26.884614
            ],
            [
              81.005885,
              26.885614
            ],
            [
              80.99964,
              26.891614
            ],
            [
              81.001401,
              26.893854
            ],
            [
              81.002401,
              26.89297
            ],
            [
              81.003401,
              26.894029
            ],
            [
              81.005401,
              26.894254
            ],
            [
              81.006401,
              26.895427
            ],
            [
              81.008491,
              26.895525
            ],
            [
              81.008621,
              26.897394
            ],
            [
              81.011184,
              26.898831
            ],
            [
              81.012612,
              26.905403
            ],
            [
              81.012203,
              26.907416
            ],
            [
              81.007875,
              26.907088
            ],
            [
              81.007593,
              26.908422
            ],
            [
              81.00862,
              26.908614
            ],
            [
              81.008401,
              26.909093
            ],
            [
              81.003294,
              26.908721
            ],
            [
              81.002401,
              26.906589
            ],
            [
              81.001845,
              26.908058
            ],
            [
              80.999749,
              26.908614
            ],
            [
              80.999401,
              26.910905
            ],
            [
              80.998111,
              26.909904
            ],
            [
              80.994977,
              26.91019
            ],
            [
              80.997401,
              26.916209
            ],
            [
              80.996336,
              26.91568
            ],
            [
              80.994837,
              26.912179
            ],
            [
              80.992084,
              26.909932
            ],
            [
              80.991722,
              26.908293
            ],
            [
              80.989823,
              26.906193
            ],
            [
              80.988401,
              26.906218
            ],
            [
              80.983186,
              26.903399
            ],
            [
              80.983163,
              26.904853
            ],
            [
              80.987092,
              26.908923
            ],
            [
              80.988401,
              26.909135
            ],
            [
              80.989401,
              26.908184
            ],
            [
              80.990883,
              26.908132
            ],
            [
              80.990823,
              26.908614
            ],
            [
              80.98873,
              26.910943
            ],
            [
              80.987401,
              26.911115
            ],
            [
              80.982401,
              26.906252
            ],
            [
              80.981401,
              26.907238
            ],
            [
              80.97919,
              26.907403
            ],
            [
              80.979182,
              26.908614
            ],
            [
              80.980172,
              26.909614
            ],
            [
              80.980154,
              26.912368
            ],
            [
              80.979098,
              26.913917
            ],
            [
              80.982034,
              26.915614
            ],
            [
              80.982013,
              26.917614
            ],
            [
              80.981019,
              26.918997
            ],
            [
              80.981993,
              26.921614
            ],
            [
              80.979939,
              26.925614
            ],
            [
              80.981741,
              26.928614
            ],
            [
              80.978401,
              26.931894
            ]
          ]
        ],
        "type": "Polygon"
      },
      "type": "Feature"
    },
    {
      "properties": {
        "fill-opacity": 0.33,
        "fillColor": "#bf4040",
        "opacity": 0.33,
        "fill": "#bf4040",
        "fillOpacity": 0.33,
        "color": "#bf4040",
        "contour": 6.0,
        "metric": "distance",
        "provider_name": "Doniel Pizza",
        "zone_type": "distance",
        "distance_km": 6,
        "mode": "motorcycle",
        "center_lat": 26.89861475,
        "center_lon": 80.97240156,
        "label": "6km"
      },
      "geometry": {
        "coordinates": [
          [
            [
              80.965401,
              26.935687
            ],
            [
              80.961401,
              26.936485
            ],
            [
              80.960276,
              26.933614
            ],
            [
              80.960908,
              26.929614
            ],
            [
              80.959582,
              26.927433
            ],
            [
              80.957509,
              26.926506
            ],
            [
              80.957401,
              26.925589
            ],
            [
              80.955222,
              26.925435
            ],
            [
              80.953604,
              26.926817
            ],
            [
              80.950755,
              26.926968
            ],
            [
              80.950555,
              26.92846
            ],
            [
              80.951782,
              26.928614
            ],
            [
              80.951401,
              26.928971
            ],
            [
              80.949401,
              26.928561
            ],
            [
              80.947059,
              26.929273
            ],
            [
              80.945779,
              26.930614
            ],
            [
              80.943642,
              26.930614
            ],
            [
              80.943281,
              26.929735
            ],
            [
              80.941401,
              26.929532
            ],
            [
              80.941241,
              26.928775
            ],
            [
              80.939314,
              26.928614
            ],
            [
              80.938401,
              26.926727
            ],
            [
              80.937725,
              26.926939
            ],
            [
              80.937401,
              26.928749
            ],
            [
              80.936401,
              26.928153
            ],
            [
              80.935047,
              26.928968
            ],
            [
              80.935037,
              26.926978
            ],
            [
              80.933463,
              26.926676
            ],
            [
              80.933109,
              26.927614
            ],
            [
              80.931228,
              26.922788
            ],
            [
              80.928673,
              26.921614
            ],
            [
              80.928641,
              26.918614
            ],
            [
              80.931478,
              26.911691
            ],
            [
              80.935401,
              26.908643
            ],
            [
              80.936401,
              26.9084
            ],
            [
              80.936607,
              26.909408
            ],
            [
              80.937911,
              26.909125
            ],
            [
              80.938401,
              26.907183
            ],
            [
              80.938919,
              26.908096
            ],
            [
              80.939703,
              26.907916
            ],
            [
              80.939067,
              26.906614
            ],
            [
              80.939486,
              26.903614
            ],
            [
              80.940671,
              26.902614
            ],
            [
              80.941055,
              26.899268
            ],
            [
              80.942084,
              26.898614
            ],
            [
              80.94112,
              26.897614
            ],
            [
              80.943077,
              26.896614
            ],
            [
              80.94216,
              26.895614
            ],
            [
              80.942293,
              26.894506
            ],
            [
              80.943401,
              26.895409
            ],
            [
              80.943983,
              26.894614
            ],
            [
              80.942819,
              26.890196
            ],
            [
              80.940115,
              26.889614
            ],
            [
              80.941129,
              26.888342
            ],
            [
              80.941147,
              26.885614
            ],
            [
              80.940197,
              26.884614
            ],
            [
              80.941216,
              26.883614
            ],
            [
              80.939282,
              26.881614
            ],
            [
              80.940277,
              26.880614
            ],
            [
              80.940213,
              26.879803
            ],
            [
              80.939326,
              26.879614
            ],
            [
              80.940219,
              26.876797
            ],
            [
              80.939329,
              26.876614
            ],
            [
              80.939383,
              26.875596
            ],
            [
              80.940328,
              26.875541
            ],
            [
              80.940352,
              26.873663
            ],
            [
              80.93905,
              26.873614
            ],
            [
              80.939522,
              26.872614
            ],
            [
              80.937858,
              26.871614
            ],
            [
              80.938401,
              26.870576
            ],
            [
              80.938508,
              26.871508
            ],
            [
              80.940034,
              26.871247
            ],
            [
              80.940189,
              26.868402
            ],
            [
              80.942401,
              26.868856
            ],
            [
              80.942129,
              26.867342
            ],
            [
              80.947401,
              26.864793
            ],
            [
              80.948401,
              26.865711
            ],
            [
              80.950484,
              26.865532
            ],
            [
              80.953401,
              26.867908
            ],
            [
              80.955064,
              26.866614
            ],
            [
              80.955401,
              26.863438
            ],
            [
              80.956401,
              26.863953
            ],
            [
              80.956715,
              26.8653
            ],
            [
              80.95811,
              26.865614
            ],
            [
              80.958062,
              26.866954
            ],
            [
              80.960169,
              26.867382
            ],
            [
              80.960401,
              26.866476
            ],
            [
              80.962401,
              26.867781
            ],
            [
              80.966401,
              26.868102
            ],
            [
              80.967401,
              26.870036
            ],
            [
              80.968121,
              26.864335
            ],
            [
              80.968898,
              26.863614
            ],
            [
              80.968134,
              26.862614
            ],
            [
              80.968401,
              26.86117
            ],
            [
              80.969401,
              26.861793
            ],
            [
              80.969608,
              26.863407
            ],
            [
              80.968777,
              26.866614
            ],
            [
              80.971401,
              26.867046
            ],
            [
              80.974834,
              26.865047
            ],
            [
              80.976156,
              26.862369
            ],
            [
              80.979806,
              26.861019
            ],
            [
              80.980401,
              26.859291
            ],
            [
              80.981401,
              26.860199
            ],
            [
              80.98348,
              26.860536
            ],
            [
              80.983652,
              26.861364
            ],
            [
              80.986211,
              26.861424
            ],
            [
              80.986401,
              26.860536
            ],
            [
              80.987591,
              26.862424
            ],
            [
              80.991437,
              26.862614
            ],
            [
              80.988575,
              26.862788
            ],
            [
              80.988401,
              26.863955
            ],
            [
              80.983726,
              26.863939
            ],
            [
              80.983581,
              26.865614
            ],
            [
              80.98461,
              26.867614
            ],
            [
              80.982177,
              26.871838
            ],
            [
              80.994928,
              26.872614
            ],
            [
              80.993485,
              26.872698
            ],
            [
              80.993592,
              26.874423
            ],
            [
              80.994401,
              26.874549
            ],
            [
              80.996201,
              26.872414
            ],
            [
              80.997506,
              26.872509
            ],
            [
              80.998401,
              26.873471
            ],
            [
              81.003021,
              26.873614
            ],
            [
              81.001047,
              26.87426
            ],
            [
              81.000401,
              26.875529
            ],
            [
              81.000115,
              26.873901
            ],
            [
              80.997923,
              26.874137
            ],
            [
              80.998717,
              26.875614
            ],
            [
              80.997805,
              26.876614
            ],
            [
              80.998111,
              26.877905
            ],
            [
              81.000132,
              26.879883
            ],
            [
              81.001781,
              26.880234
            ],
            [
              81.002401,
              26.882074
            ],
            [
              81.005401,
              26.881141
            ],
            [
              81.006401,
              26.882216
            ],
            [
              81.010401,
              26.882383
            ],
            [
              81.012457,
              26.884559
            ],
            [
              81.012872,
              26.889614
            ],
            [
              81.011401,
              26.890711
            ],
            [
              81.009401,
              26.890918
            ],
            [
              81.006487,
              26.894614
            ],
            [
              81.009049,
              26.894967
            ],
            [
              81.009401,
              26.896914
            ],
            [
              81.010401,
              26.895947
            ],
            [
              81.01381,
              26.895023
            ],
            [
              81.014401,
              26.893284
            ],
            [
              81.015401,
              26.896345
            ],
            [
              81.017228,
              26.895442
            ],
            [
              81.017436,
              26.894579
            ],
            [
              81.017708,
              26.898307
            ],
            [
              81.019977,
              26.899614
            ],
            [
              81.020336,
              26.900614
            ],
            [
              81.019289,
              26.902614
            ],
            [
              81.020242,
              26.904614
            ],
            [
              81.020043,
              26.906614
            ],
            [
              81.019401,
              26.90788
            ],
            [
              81.01924,
              26.906775
            ],
            [
              81.016958,
              26.907171
            ],
            [
              81.016769,
              26.908614
            ],
            [
              81.01767,
              26.909884
            ],
            [
              81.015142,
              26.911614
            ],
            [
              81.015743,
              26.912614
            ],
            [
              81.014405,
              26.915618
            ],
            [
              81.012401,
              26.915463
            ],
            [
              81.011401,
              26.914381
            ],
            [
              81.009827,
              26.915614
            ],
            [
              81.008401,
              26.914793
            ],
            [
              81.010095,
              26.912614
            ],
            [
              81.009401,
              26.91106
            ],
            [
              81.005927,
              26.91214
            ],
            [
              81.004824,
              26.913038
            ],
            [
              81.004652,
              26.914614
            ],
            [
              81.00564,
              26.916375
            ],
            [
              81.006736,
              26.916614
            ],
            [
              81.006401,
              26.917288
            ],
            [
              81.006295,
              26.916721
            ],
            [
              81.005319,
              26.916696
            ],
            [
              81.000772,
              26.912243
            ],
            [
              80.999081,
              26.911934
            ],
            [
              80.997708,
              26.910308
            ],
            [
              80.995142,
              26.910355
            ],
            [
              80.997089,
              26.914926
            ],
            [
              81.002538,
              26.920477
            ],
            [
              81.002634,
              26.922381
            ],
            [
              81.004083,
              26.922614
            ],
            [
              81.003535,
              26.922748
            ],
            [
              81.002329,
              26.922686
            ],
            [
              81.001951,
              26.921064
            ],
            [
              80.996051,
              26.915965
            ],
            [
              80.994665,
              26.912351
            ],
            [
              80.991964,
              26.910052
            ],
            [
              80.991618,
              26.908398
            ],
            [
              80.988844,
              26.911057
            ],
            [
              80.987401,
              26.911281
            ],
            [
              80.982581,
              26.906434
            ],
            [
              80.981401,
              26.907341
            ],
            [
              80.979401,
              26.907327
            ],
            [
              80.980197,
              26.912614
            ],
            [
              80.979169,
              26.913847
            ],
            [
              80.982132,
              26.915614
            ],
            [
              80.982122,
              26.917614
            ],
            [
              80.981125,
              26.918891
            ],
            [
              80.982111,
              26.921614
            ],
            [
              80.980085,
              26.925614
            ],
            [
              80.982204,
              26.928614
            ],
            [
              80.979708,
              26.931614
            ],
            [
              80.980505,
              26.932614
            ],
            [
              80.979682,
              26.932895
            ],
            [
              80.979401,
              26.935223
            ],
            [
              80.979219,
              26.933797
            ],
            [
              80.977572,
              26.933785
            ],
            [
              80.97736,
              26.934656
            ],
            [
              80.975401,
              26.933627
            ],
            [
              80.976204,
              26.933417
            ],
            [
              80.975401,
              26.931927
            ],
            [
              80.973401,
              26.934322
            ],
            [
              80.969115,
              26.933901
            ],
            [
              80.96922,
              26.932614
            ],
            [
              80.968401,
              26.931861
            ],
            [
              80.96749,
              26.932614
            ],
            [
              80.968268,
              26.933614
            ],
            [
              80.965985,
              26.934198
            ],
            [
              80.965401,
              26.935687
            ]
          ]
        ],
        "type": "Polygon"
      },
      "type": "Feature"
    }
  ]
}