{
  "type": "FeatureCollection",
  "metadata": {
    "provider_name": "Taco Bell",
    "center_lat": 26.7843748,
    "center_lon": 80.9915486,
    "mode": "motorcycle",
    "total_zones": 4,
    "distance_zones": [
      3,
      4,
      5,
      6
    ],
    "generated_at": "2025-12-24T11:27:29.961616Z"
  },
  "features": [
    {
      "properties": {
        "fill-opacity": 0.33,
        "fillColor": "#bf4040",
        "opacity": 0.33,
        "fill": "#bf4040",
        "fillOpacity": 0.33,
        "color": "#bf4040",
        "contour": 3.0,
        "metric": "distance",
        "provider_name": "Taco Bell",
        "zone_type": "distance",
        "distance_km": 3,
        "mode": "motorcycle",
        "center_lat": 26.7843748,
        "center_lon": 80.9915486,
        "label": "3km"
      },
      "geometry": {
        "coordinates": [
          [
            [
              81.007548,
              26.800485
            ],
            [
              81.005367,
              26.801194
            ],
            [
              81.002548,
              26.799993
            ],
            [
              80.999228,
              26.796694
            ],
            [
              80.998589,
              26.794333
            ],
            [
              80.996108,
              26.792814
            ],
            [
              80.995601,
              26.791321
            ],
            [
              80.994548,
              26.790389
            ],
            [
              80.990889,
              26.790034
            ],
            [
              80.990548,
              26.789233
            ],
            [
              80.991527,
              26.788353
            ],
            [
              80.989548,
              26.788048
            ],
            [
              80.988548,
              26.788696
            ],
            [
              80.987001,
              26.785922
            ],
            [
              80.98514,
              26.786966
            ],
            [
              80.984548,
              26.789023
            ],
            [
              80.982596,
              26.788422
            ],
            [
              80.982606,
              26.789432
            ],
            [
              80.98095,
              26.790374
            ],
            [
              80.976439,
              26.789483
            ],
            [
              80.975701,
              26.785221
            ],
            [
              80.972591,
              26.785332
            ],
            [
              80.969279,
              26.782374
            ],
            [
              80.970706,
              26.778374
            ],
            [
              80.973072,
              26.775898
            ],
            [
              80.973047,
              26.774374
            ],
            [
              80.976241,
              26.774068
            ],
            [
              80.976283,
              26.773374
            ],
            [
              80.975548,
              26.772602
            ],
            [
              80.972548,
              26.77266
            ],
            [
              80.972253,
              26.771669
            ],
            [
              80.968981,
              26.771374
            ],
            [
              80.973067,
              26.770893
            ],
            [
              80.974341,
              26.769374
            ],
            [
              80.974548,
              26.767022
            ],
            [
              80.974789,
              26.770374
            ],
            [
              80.976548,
              26.771926
            ],
            [
              80.977237,
              26.769374
            ],
            [
              80.978437,
              26.767263
            ],
            [
              80.97932,
              26.767146
            ],
            [
              80.979548,
              26.765866
            ],
            [
              80.979659,
              26.767374
            ],
            [
              80.978901,
              26.767727
            ],
            [
              80.978826,
              26.769374
            ],
            [
              80.980548,
              26.770271
            ],
            [
              80.983548,
              26.76688
            ],
            [
              80.984548,
              26.766787
            ],
            [
              80.985035,
              26.767888
            ],
            [
              80.986548,
              26.768111
            ],
            [
              80.98742,
              26.767374
            ],
            [
              80.986548,
              26.766304
            ],
            [
              80.987548,
              26.765795
            ],
            [
              80.98963,
              26.766292
            ],
            [
              80.989572,
              26.767374
            ],
            [
              80.990548,
              26.76755
            ],
            [
              80.993548,
              26.765131
            ],
            [
              80.995548,
              26.768979
            ],
            [
              80.996548,
              26.76778
            ],
            [
              80.997548,
              26.769002
            ],
            [
              80.999046,
              26.768872
            ],
            [
              80.999191,
              26.767732
            ],
            [
              80.998349,
              26.767374
            ],
            [
              80.998548,
              26.765727
            ],
            [
              80.998767,
              26.767155
            ],
            [
              81.001548,
              26.769062
            ],
            [
              81.003548,
              26.766414
            ],
            [
              81.003669,
              26.767374
            ],
            [
              81.002785,
              26.768374
            ],
            [
              81.004584,
              26.76941
            ],
            [
              81.001548,
              26.769687
            ],
            [
              81.000919,
              26.770374
            ],
            [
              81.005385,
              26.773374
            ],
            [
              81.00485,
              26.775374
            ],
            [
              81.005548,
              26.776149
            ],
            [
              81.006548,
              26.77367
            ],
            [
              81.00668,
              26.774242
            ],
            [
              81.008316,
              26.774374
            ],
            [
              81.007703,
              26.774529
            ],
            [
              81.007132,
              26.777791
            ],
            [
              81.00894,
              26.777767
            ],
            [
              81.010548,
              26.775994
            ],
            [
              81.014331,
              26.775158
            ],
            [
              81.015131,
              26.774374
            ],
            [
              81.014443,
              26.779374
            ],
            [
              81.013725,
              26.779551
            ],
            [
              81.013548,
              26.781342
            ],
            [
              81.012717,
              26.781543
            ],
            [
              81.011759,
              26.783374
            ],
            [
              81.01167,
              26.785253
            ],
            [
              81.013172,
              26.785374
            ],
            [
              81.00986,
              26.789374
            ],
            [
              81.011892,
              26.791374
            ],
            [
              81.012229,
              26.793374
            ],
            [
              81.00968,
              26.796374
            ],
            [
              81.009548,
              26.798615
            ],
            [
              81.008548,
              26.798479
            ],
            [
              81.007548,
              26.800485
            ]
          ]
        ],
        "type": "Polygon"
      },
      "type": "Feature"
    },
    {
      "properties": {
        "fill-opacity": 0.33,
        "fillColor": "#bf4040",
        "opacity": 0.33,
        "fill": "#bf4040",
        "fillOpacity": 0.33,
        "color": "#bf4040",
        "contour": 4.0,
        "metric": "distance",
        "provider_name": "Taco Bell",
        "zone_type": "distance",
        "distance_km": 4,
        "mode": "motorcycle",
        "center_lat": 26.7843748,
        "center_lon": 80.9915486,
        "label": "4km"
      },
      "geometry": {
        "coordinates": [
          [
            [
              81.009548,
              26.807179
            ],
            [
              81.009513,
              26.806409
            ],
            [
              81.008461,
              26.806462
            ],
            [
              81.007369,
              26.805553
            ],
            [
              81.004181,
              26.805742
            ],
            [
              81.004328,
              26.804374
            ],
            [
              81.003548,
              26.803697
            ],
            [
              81.002548,
              26.805374
            ],
            [
              81.001514,
              26.805408
            ],
            [
              80.996875,
              26.803374
            ],
            [
              80.997548,
              26.801151
            ],
            [
              80.999548,
              26.800708
            ],
            [
              81.001548,
              26.801921
            ],
            [
              81.002828,
              26.800374
            ],
            [
              80.998548,
              26.795857
            ],
            [
              80.996548,
              26.796888
            ],
            [
              80.994019,
              26.796374
            ],
            [
              80.994089,
              26.795374
            ],
            [
              80.996148,
              26.794974
            ],
            [
              80.996304,
              26.794374
            ],
            [
              80.996141,
              26.792374
            ],
            [
              80.993548,
              26.78991
            ],
            [
              80.991829,
              26.792655
            ],
            [
              80.989548,
              26.79276
            ],
            [
              80.988548,
              26.793672
            ],
            [
              80.986372,
              26.79355
            ],
            [
              80.986006,
              26.790917
            ],
            [
              80.983548,
              26.788962
            ],
            [
              80.981548,
              26.790859
            ],
            [
              80.979548,
              26.790875
            ],
            [
              80.978227,
              26.790053
            ],
            [
              80.978004,
              26.791374
            ],
            [
              80.978827,
              26.792653
            ],
            [
              80.977548,
              26.7928
            ],
            [
              80.976548,
              26.791813
            ],
            [
              80.972776,
              26.793602
            ],
            [
              80.972529,
              26.794393
            ],
            [
              80.970552,
              26.79437
            ],
            [
              80.969548,
              26.792753
            ],
            [
              80.9672,
              26.792723
            ],
            [
              80.966206,
              26.790374
            ],
            [
              80.967202,
              26.787374
            ],
            [
              80.963548,
              26.788254
            ],
            [
              80.962384,
              26.787374
            ],
            [
              80.961383,
              26.784374
            ],
            [
              80.96232,
              26.782374
            ],
            [
              80.962764,
              26.783159
            ],
            [
              80.964123,
              26.782949
            ],
            [
              80.964406,
              26.779232
            ],
            [
              80.964125,
              26.777798
            ],
            [
              80.961654,
              26.777374
            ],
            [
              80.966548,
              26.776999
            ],
            [
              80.967548,
              26.775988
            ],
            [
              80.969548,
              26.777034
            ],
            [
              80.972026,
              26.774853
            ],
            [
              80.972469,
              26.773374
            ],
            [
              80.971548,
              26.77198
            ],
            [
              80.962548,
              26.772019
            ],
            [
              80.961548,
              26.772868
            ],
            [
              80.961016,
              26.771907
            ],
            [
              80.958925,
              26.771374
            ],
            [
              80.959151,
              26.770374
            ],
            [
              80.961548,
              26.76841
            ],
            [
              80.962946,
              26.769374
            ],
            [
              80.962749,
              26.770374
            ],
            [
              80.963548,
              26.771055
            ],
            [
              80.972548,
              26.770523
            ],
            [
              80.97399,
              26.769374
            ],
            [
              80.974352,
              26.763178
            ],
            [
              80.975377,
              26.762203
            ],
            [
              80.977139,
              26.761966
            ],
            [
              80.977548,
              26.760003
            ],
            [
              80.977682,
              26.76124
            ],
            [
              80.98041,
              26.761236
            ],
            [
              80.980548,
              26.760625
            ],
            [
              80.981744,
              26.761179
            ],
            [
              80.984548,
              26.760152
            ],
            [
              80.985548,
              26.760204
            ],
            [
              80.985679,
              26.761243
            ],
            [
              80.987548,
              26.76117
            ],
            [
              80.989346,
              26.759173
            ],
            [
              80.991548,
              26.759015
            ],
            [
              80.991541,
              26.760381
            ],
            [
              80.993548,
              26.760213
            ],
            [
              80.996548,
              26.762021
            ],
            [
              80.997393,
              26.76053
            ],
            [
              80.996548,
              26.760024
            ],
            [
              80.998715,
              26.760208
            ],
            [
              80.999184,
              26.762739
            ],
            [
              81.002548,
              26.76501
            ],
            [
              81.003548,
              26.764069
            ],
            [
              81.005155,
              26.763981
            ],
            [
              81.005548,
              26.762565
            ],
            [
              81.006638,
              26.762374
            ],
            [
              81.007119,
              26.763374
            ],
            [
              81.004076,
              26.764902
            ],
            [
              81.005047,
              26.766374
            ],
            [
              81.003254,
              26.768669
            ],
            [
              81.00594,
              26.768766
            ],
            [
              81.00725,
              26.767374
            ],
            [
              81.00805,
              26.764374
            ],
            [
              81.009236,
              26.764374
            ],
            [
              81.007846,
              26.767374
            ],
            [
              81.00971,
              26.768213
            ],
            [
              81.0101,
              26.770822
            ],
            [
              81.014756,
              26.771167
            ],
            [
              81.013619,
              26.772374
            ],
            [
              81.014085,
              26.773838
            ],
            [
              81.016183,
              26.772374
            ],
            [
              81.015407,
              26.769233
            ],
            [
              81.017211,
              26.769037
            ],
            [
              81.017548,
              26.767898
            ],
            [
              81.019179,
              26.768743
            ],
            [
              81.019829,
              26.770093
            ],
            [
              81.021674,
              26.770248
            ],
            [
              81.022562,
              26.772388
            ],
            [
              81.021206,
              26.773032
            ],
            [
              81.02102,
              26.775374
            ],
            [
              81.022077,
              26.777374
            ],
            [
              81.020776,
              26.777602
            ],
            [
              81.020691,
              26.778374
            ],
            [
              81.020812,
              26.77911
            ],
            [
              81.022324,
              26.779374
            ],
            [
              81.018237,
              26.779686
            ],
            [
              81.017548,
              26.778733
            ],
            [
              81.016954,
              26.779374
            ],
            [
              81.018548,
              26.781106
            ],
            [
              81.021876,
              26.781374
            ],
            [
              81.01992,
              26.781746
            ],
            [
              81.020855,
              26.784374
            ],
            [
              81.020504,
              26.784419
            ],
            [
              81.018548,
              26.782649
            ],
            [
              81.017922,
              26.784748
            ],
            [
              81.015548,
              26.7848
            ],
            [
              81.014918,
              26.785744
            ],
            [
              81.013221,
              26.786047
            ],
            [
              81.012624,
              26.787374
            ],
            [
              81.015548,
              26.790011
            ],
            [
              81.016383,
              26.788374
            ],
            [
              81.015548,
              26.78684
            ],
            [
              81.016548,
              26.786982
            ],
            [
              81.017548,
              26.788191
            ],
            [
              81.019691,
              26.787231
            ],
            [
              81.019601,
              26.788427
            ],
            [
              81.017936,
              26.788762
            ],
            [
              81.0159,
              26.791374
            ],
            [
              81.017548,
              26.79218
            ],
            [
              81.018347,
              26.792173
            ],
            [
              81.018548,
              26.791329
            ],
            [
              81.019416,
              26.791374
            ],
            [
              81.018633,
              26.79146
            ],
            [
              81.01861,
              26.792437
            ],
            [
              81.017069,
              26.792895
            ],
            [
              81.015739,
              26.794565
            ],
            [
              81.013657,
              26.795374
            ],
            [
              81.011311,
              26.798137
            ],
            [
              81.009731,
              26.800374
            ],
            [
              81.011044,
              26.801374
            ],
            [
              81.010927,
              26.803374
            ],
            [
              81.009548,
              26.804034
            ],
            [
              81.007107,
              26.802933
            ],
            [
              81.007082,
              26.803841
            ],
            [
              81.008649,
              26.805274
            ],
            [
              81.008665,
              26.806258
            ],
            [
              81.00957,
              26.806374
            ],
            [
              81.009548,
              26.807179
            ]
          ]
        ],
        "type": "Polygon"
      },
      "type": "Feature"
    },
    {
      "properties": {
        "fill-opacity": 0.33,
        "fillColor": "#bf4040",
        "opacity": 0.33,
        "fill": "#bf4040",
        "fillOpacity": 0.33,
        "color": "#bf4040",
        "contour": 5.0,
        "metric": "distance",
        "provider_name": "Taco Bell",
        "zone_type": "distance",
        "distance_km": 5,
        "mode": "motorcycle",
        "center_lat": 26.7843748,
        "center_lon": 80.9915486,
        "label": "5km"
      },
      "geometry": {
        "coordinates": [
          [
            [
              80.999548,
              26.810429
            ],
            [
              80.993912,
              26.81001
            ],
            [
              80.992941,
              26.808982
            ],
            [
              80.993289,
              26.807374
            ],
            [
              80.992548,
              26.806703
            ],
            [
              80.991548,
              26.809303
            ],
            [
              80.988219,
              26.808374
            ],
            [
              80.988968,
              26.807794
            ],
            [
              80.98894,
              26.804374
            ],
            [
              80.989759,
              26.803163
            ],
            [
              80.988969,
              26.801953
            ],
            [
              80.987548,
              26.801634
            ],
            [
              80.987269,
              26.799654
            ],
            [
              80.986345,
              26.799374
            ],
            [
              80.986553,
              26.796379
            ],
            [
              80.991548,
              26.79797
            ],
            [
              80.99306,
              26.796374
            ],
            [
              80.992111,
              26.795374
            ],
            [
              80.992263,
              26.794089
            ],
            [
              80.994548,
              26.793939
            ],
            [
              80.995844,
              26.79467
            ],
            [
              80.99592,
              26.792374
            ],
            [
              80.993548,
              26.790057
            ],
            [
              80.991971,
              26.792797
            ],
            [
              80.989548,
              26.792994
            ],
            [
              80.988548,
              26.793962
            ],
            [
              80.986115,
              26.793807
            ],
            [
              80.98582,
              26.791103
            ],
            [
              80.983548,
              26.789082
            ],
            [
              80.981548,
              26.791034
            ],
            [
              80.979548,
              26.791041
            ],
            [
              80.978548,
              26.790056
            ],
            [
              80.978196,
              26.791374
            ],
            [
              80.978969,
              26.792796
            ],
            [
              80.977548,
              26.79301
            ],
            [
              80.976548,
              26.792015
            ],
            [
              80.970548,
              26.796097
            ],
            [
              80.969548,
              26.794818
            ],
            [
              80.967548,
              26.794804
            ],
            [
              80.967073,
              26.796849
            ],
            [
              80.970548,
              26.797347
            ],
            [
              80.970333,
              26.798159
            ],
            [
              80.969544,
              26.798379
            ],
            [
              80.969344,
              26.797578
            ],
            [
              80.965969,
              26.797795
            ],
            [
              80.963568,
              26.800394
            ],
            [
              80.962672,
              26.80025
            ],
            [
              80.962231,
              26.799374
            ],
            [
              80.963258,
              26.799084
            ],
            [
              80.963095,
              26.797827
            ],
            [
              80.961799,
              26.797625
            ],
            [
              80.961548,
              26.79914
            ],
            [
              80.961294,
              26.797629
            ],
            [
              80.962382,
              26.795208
            ],
            [
              80.963985,
              26.794811
            ],
            [
              80.965139,
              26.793374
            ],
            [
              80.963942,
              26.79098
            ],
            [
              80.962548,
              26.789656
            ],
            [
              80.957323,
              26.790149
            ],
            [
              80.955131,
              26.789374
            ],
            [
              80.954841,
              26.788374
            ],
            [
              80.955548,
              26.785436
            ],
            [
              80.959548,
              26.786068
            ],
            [
              80.960086,
              26.785374
            ],
            [
              80.95922,
              26.783703
            ],
            [
              80.957548,
              26.784041
            ],
            [
              80.957322,
              26.7816
            ],
            [
              80.955461,
              26.780374
            ],
            [
              80.955455,
              26.777282
            ],
            [
              80.958309,
              26.775374
            ],
            [
              80.955514,
              26.774409
            ],
            [
              80.955502,
              26.773421
            ],
            [
              80.954349,
              26.772574
            ],
            [
              80.95003,
              26.772374
            ],
            [
              80.950319,
              26.770603
            ],
            [
              80.949089,
              26.769374
            ],
            [
              80.950548,
              26.769338
            ],
            [
              80.951548,
              26.77018
            ],
            [
              80.952548,
              26.76785
            ],
            [
              80.953548,
              26.767681
            ],
            [
              80.954066,
              26.769857
            ],
            [
              80.955956,
              26.769782
            ],
            [
              80.955062,
              26.767861
            ],
            [
              80.953666,
              26.767374
            ],
            [
              80.954175,
              26.766002
            ],
            [
              80.959524,
              26.76135
            ],
            [
              80.961857,
              26.760684
            ],
            [
              80.962548,
              26.759475
            ],
            [
              80.962791,
              26.761132
            ],
            [
              80.964312,
              26.761374
            ],
            [
              80.963763,
              26.762374
            ],
            [
              80.964548,
              26.764192
            ],
            [
              80.966548,
              26.762354
            ],
            [
              80.969857,
              26.765374
            ],
            [
              80.968872,
              26.766374
            ],
            [
              80.969366,
              26.767557
            ],
            [
              80.972727,
              26.766553
            ],
            [
              80.973548,
              26.765897
            ],
            [
              80.974097,
              26.762923
            ],
            [
              80.977032,
              26.761374
            ],
            [
              80.977117,
              26.759374
            ],
            [
              80.975548,
              26.757817
            ],
            [
              80.970458,
              26.757465
            ],
            [
              80.970354,
              26.756568
            ],
            [
              80.969232,
              26.756374
            ],
            [
              80.970548,
              26.7563
            ],
            [
              80.971548,
              26.756847
            ],
            [
              80.976548,
              26.756842
            ],
            [
              80.977991,
              26.758374
            ],
            [
              80.97823,
              26.760693
            ],
            [
              80.979548,
              26.760848
            ],
            [
              80.980268,
              26.758094
            ],
            [
              80.982787,
              26.758136
            ],
            [
              80.983548,
              26.759863
            ],
            [
              80.98617,
              26.757374
            ],
            [
              80.984402,
              26.756521
            ],
            [
              80.984227,
              26.755695
            ],
            [
              80.982015,
              26.755374
            ],
            [
              80.984635,
              26.755287
            ],
            [
              80.988821,
              26.757102
            ],
            [
              80.990548,
              26.758859
            ],
            [
              80.99106,
              26.758374
            ],
            [
              80.990257,
              26.757665
            ],
            [
              80.990426,
              26.756252
            ],
            [
              80.991548,
              26.756909
            ],
            [
              80.993503,
              26.755374
            ],
            [
              80.992994,
              26.753374
            ],
            [
              80.994548,
              26.753301
            ],
            [
              80.994888,
              26.754035
            ],
            [
              80.996147,
              26.753973
            ],
            [
              80.996548,
              26.752109
            ],
            [
              80.996908,
              26.756014
            ],
            [
              80.998724,
              26.756198
            ],
            [
              81.006204,
              26.761719
            ],
            [
              81.010548,
              26.762019
            ],
            [
              81.013548,
              26.759437
            ],
            [
              81.014628,
              26.760374
            ],
            [
              81.014548,
              26.762423
            ],
            [
              81.009161,
              26.762988
            ],
            [
              81.011548,
              26.765956
            ],
            [
              81.015548,
              26.766148
            ],
            [
              81.016548,
              26.767202
            ],
            [
              81.018548,
              26.766899
            ],
            [
              81.020548,
              26.767553
            ],
            [
              81.022548,
              26.766027
            ],
            [
              81.024548,
              26.76608
            ],
            [
              81.025548,
              26.765207
            ],
            [
              81.028152,
              26.765374
            ],
            [
              81.025899,
              26.765725
            ],
            [
              81.024831,
              26.767374
            ],
            [
              81.025548,
              26.768114
            ],
            [
              81.029091,
              26.768374
            ],
            [
              81.020548,
              26.768839
            ],
            [
              81.020049,
              26.769374
            ],
            [
              81.022901,
              26.771022
            ],
            [
              81.023013,
              26.773374
            ],
            [
              81.024548,
              26.775031
            ],
            [
              81.026069,
              26.774895
            ],
            [
              81.027548,
              26.773366
            ],
            [
              81.029548,
              26.774281
            ],
            [
              81.028548,
              26.776135
            ],
            [
              81.028328,
              26.774595
            ],
            [
              81.026938,
              26.774765
            ],
            [
              81.026888,
              26.777374
            ],
            [
              81.027548,
              26.778126
            ],
            [
              81.028548,
              26.777067
            ],
            [
              81.029548,
              26.777168
            ],
            [
              81.03071,
              26.778374
            ],
            [
              81.029719,
              26.778545
            ],
            [
              81.027655,
              26.782374
            ],
            [
              81.028833,
              26.785374
            ],
            [
              81.028433,
              26.784489
            ],
            [
              81.026971,
              26.784797
            ],
            [
              81.026548,
              26.785579
            ],
            [
              81.025548,
              26.78469
            ],
            [
              81.024138,
              26.784964
            ],
            [
              81.022977,
              26.786374
            ],
            [
              81.024992,
              26.788374
            ],
            [
              81.024743,
              26.789569
            ],
            [
              81.022882,
              26.789708
            ],
            [
              81.020973,
              26.7918
            ],
            [
              81.019505,
              26.792331
            ],
            [
              81.018619,
              26.793374
            ],
            [
              81.018008,
              26.798374
            ],
            [
              81.016548,
              26.797569
            ],
            [
              81.015811,
              26.798374
            ],
            [
              81.016019,
              26.800374
            ],
            [
              81.01413,
              26.799956
            ],
            [
              81.014125,
              26.801797
            ],
            [
              81.017897,
              26.802374
            ],
            [
              81.017589,
              26.803416
            ],
            [
              81.015625,
              26.803451
            ],
            [
              81.015548,
              26.804396
            ],
            [
              81.015437,
              26.803485
            ],
            [
              81.014352,
              26.80357
            ],
            [
              81.013548,
              26.802753
            ],
            [
              81.012548,
              26.803805
            ],
            [
              81.010197,
              26.804023
            ],
            [
              81.009048,
              26.804875
            ],
            [
              81.010054,
              26.806374
            ],
            [
              81.009548,
              26.808034
            ],
            [
              81.006548,
              26.805893
            ],
            [
              81.005198,
              26.806024
            ],
            [
              81.004548,
              26.807709
            ],
            [
              81.002902,
              26.80602
            ],
            [
              81.001548,
              26.80588
            ],
            [
              81.000792,
              26.807374
            ],
            [
              81.001635,
              26.808374
            ],
            [
              80.999846,
              26.808672
            ],
            [
              80.999548,
              26.810429
            ]
          ]
        ],
        "type": "Polygon"
      },
      "type": "Feature"
    },
    {
      "properties": {
        "fill-opacity": 0.33,
        "fillColor": "#bf4040",
        "opacity": 0.33,
        "fill": "#bf4040",
        "fillOpacity": 0.33,
        "color": "#bf4040",
        "contour": 6.0,
        "metric": "distance",
        "provider_name": "Taco Bell",
        "zone_type": "distance",
        "distance_km": 6,
        "mode": "motorcycle",
        "center_lat": 26.7843748,
        "center_lon": 80.9915486,
        "label": "6km"
      },
      "geometry": {
        "coordinates": [
          [
            [
              80.994548,
              26.815419
            ],
            [
              80.993062,
              26.815374
            ],
            [
              80.992273,
              26.813374
            ],
            [
              80.991548,
              26.812714
            ],
            [
              80.990757,
              26.814165
            ],
            [
              80.992482,
              26.814374
            ],
            [
              80.989433,
              26.814489
            ],
            [
              80.988376,
              26.813546
            ],
            [
              80.988187,
              26.811374
            ],
            [
              80.986548,
              26.808827
            ],
            [
              80.982548,
              26.81062
            ],
            [
              80.97973,
              26.810556
            ],
            [
              80.979579,
              26.811406
            ],
            [
              80.978791,
              26.811374
            ],
            [
              80.979456,
              26.811282
            ],
            [
              80.979491,
              26.810317
            ],
            [
              80.983548,
              26.804397
            ],
            [
              80.983849,
              26.807374
            ],
            [
              80.984548,
              26.807994
            ],
            [
              80.986906,
              26.807733
            ],
            [
              80.987116,
              26.805374
            ],
            [
              80.988063,
              26.804374
            ],
            [
              80.987135,
              26.803374
            ],
            [
              80.986861,
              26.800062
            ],
            [
              80.985254,
              26.799668
            ],
            [
              80.983188,
              26.795374
            ],
            [
              80.984268,
              26.794094
            ],
            [
              80.985937,
              26.793763
            ],
            [
              80.985741,
              26.791181
            ],
            [
              80.983548,
              26.789148
            ],
            [
              80.981548,
              26.79112
            ],
            [
              80.979548,
              26.791124
            ],
            [
              80.978385,
              26.790211
            ],
            [
              80.979035,
              26.792862
            ],
            [
              80.977548,
              26.793107
            ],
            [
              80.976548,
              26.79211
            ],
            [
              80.973217,
              26.794374
            ],
            [
              80.973548,
              26.795224
            ],
            [
              80.977548,
              26.794958
            ],
            [
              80.977781,
              26.796142
            ],
            [
              80.979297,
              26.797374
            ],
            [
              80.977889,
              26.797716
            ],
            [
              80.977548,
              26.799396
            ],
            [
              80.977304,
              26.798619
            ],
            [
              80.975799,
              26.799374
            ],
            [
              80.976176,
              26.804374
            ],
            [
              80.974548,
              26.804492
            ],
            [
              80.974191,
              26.803732
            ],
            [
              80.971521,
              26.803401
            ],
            [
              80.973262,
              26.802374
            ],
            [
              80.968548,
              26.797926
            ],
            [
              80.966255,
              26.798081
            ],
            [
              80.963022,
              26.801374
            ],
            [
              80.963959,
              26.803964
            ],
            [
              80.966218,
              26.806374
            ],
            [
              80.964788,
              26.806615
            ],
            [
              80.962548,
              26.809232
            ],
            [
              80.962241,
              26.807681
            ],
            [
              80.959085,
              26.806374
            ],
            [
              80.96031,
              26.806136
            ],
            [
              80.959991,
              26.802931
            ],
            [
              80.958094,
              26.802921
            ],
            [
              80.956548,
              26.80441
            ],
            [
              80.957211,
              26.801038
            ],
            [
              80.960548,
              26.800972
            ],
            [
              80.961082,
              26.800374
            ],
            [
              80.958548,
              26.798593
            ],
            [
              80.956971,
              26.798797
            ],
            [
              80.956548,
              26.799694
            ],
            [
              80.954208,
              26.799374
            ],
            [
              80.95534,
              26.799167
            ],
            [
              80.955473,
              26.79745
            ],
            [
              80.954889,
              26.797374
            ],
            [
              80.956199,
              26.797025
            ],
            [
              80.956289,
              26.795115
            ],
            [
              80.957962,
              26.794374
            ],
            [
              80.957489,
              26.793374
            ],
            [
              80.96001,
              26.792374
            ],
            [
              80.96107,
              26.793374
            ],
            [
              80.960782,
              26.795374
            ],
            [
              80.961548,
              26.796137
            ],
            [
              80.962167,
              26.794993
            ],
            [
              80.963812,
              26.794638
            ],
            [
              80.96492,
              26.793374
            ],
            [
              80.962548,
              26.789961
            ],
            [
              80.959548,
              26.789934
            ],
            [
              80.958934,
              26.79076
            ],
            [
              80.957197,
              26.791023
            ],
            [
              80.956548,
              26.79216
            ],
            [
              80.955548,
              26.790823
            ],
            [
              80.953548,
              26.790804
            ],
            [
              80.951548,
              26.789706
            ],
            [
              80.951422,
              26.787248
            ],
            [
              80.954354,
              26.78418
            ],
            [
              80.956548,
              26.784114
            ],
            [
              80.95715,
              26.783374
            ],
            [
              80.956958,
              26.781964
            ],
            [
              80.955025,
              26.780374
            ],
            [
              80.954725,
              26.776552
            ],
            [
              80.955612,
              26.776438
            ],
            [
              80.955548,
              26.775623
            ],
            [
              80.953703,
              26.776374
            ],
            [
              80.949548,
              26.776572
            ],
            [
              80.948548,
              26.77475
            ],
            [
              80.94635,
              26.776572
            ],
            [
              80.94533,
              26.775156
            ],
            [
              80.947848,
              26.773674
            ],
            [
              80.948877,
              26.772046
            ],
            [
              80.945548,
              26.771197
            ],
            [
              80.94449,
              26.773374
            ],
            [
              80.942456,
              26.771374
            ],
            [
              80.939723,
              26.766374
            ],
            [
              80.941548,
              26.765325
            ],
            [
              80.945548,
              26.764635
            ],
            [
              80.947548,
              26.762781
            ],
            [
              80.94872,
              26.764374
            ],
            [
              80.949062,
              26.768374
            ],
            [
              80.950469,
              26.768453
            ],
            [
              80.95158,
              26.769406
            ],
            [
              80.951827,
              26.766374
            ],
            [
              80.952977,
              26.765374
            ],
            [
              80.953236,
              26.761374
            ],
            [
              80.954205,
              26.761031
            ],
            [
              80.954423,
              26.758374
            ],
            [
              80.95631,
              26.757136
            ],
            [
              80.956548,
              26.755244
            ],
            [
              80.956764,
              26.756159
            ],
            [
              80.959055,
              26.755882
            ],
            [
              80.959265,
              26.754658
            ],
            [
              80.958079,
              26.754374
            ],
            [
              80.95945,
              26.754276
            ],
            [
              80.959548,
              26.753354
            ],
            [
              80.962132,
              26.752958
            ],
            [
              80.962548,
              26.750474
            ],
            [
              80.962954,
              26.752968
            ],
            [
              80.965147,
              26.752973
            ],
            [
              80.965257,
              26.750374
            ],
            [
              80.967242,
              26.750068
            ],
            [
              80.967548,
              26.748441
            ],
            [
              80.969906,
              26.750374
            ],
            [
              80.969905,
              26.752018
            ],
            [
              80.971245,
              26.752071
            ],
            [
              80.971548,
              26.751022
            ],
            [
              80.971822,
              26.7521
            ],
            [
              80.973548,
              26.752325
            ],
            [
              80.974244,
              26.756678
            ],
            [
              80.975845,
              26.756671
            ],
            [
              80.977548,
              26.755027
            ],
            [
              80.984548,
              26.75463
            ],
            [
              80.988306,
              26.757616
            ],
            [
              80.989934,
              26.75776
            ],
            [
              80.990315,
              26.754374
            ],
            [
              80.988975,
              26.751947
            ],
            [
              80.988083,
              26.751909
            ],
            [
              80.986548,
              26.753487
            ],
            [
              80.98616,
              26.752763
            ],
            [
              80.983557,
              26.752374
            ],
            [
              80.985251,
              26.752077
            ],
            [
              80.986521,
              26.748347
            ],
            [
              80.987535,
              26.747361
            ],
            [
              80.988286,
              26.747374
            ],
            [
              80.987593,
              26.747419
            ],
            [
              80.988047,
              26.749876
            ],
            [
              80.990548,
              26.750974
            ],
            [
              80.992029,
              26.749855
            ],
            [
              80.994548,
              26.744726
            ],
            [
              80.994804,
              26.746119
            ],
            [
              80.995548,
              26.746191
            ],
            [
              80.996307,
              26.746133
            ],
            [
              80.996548,
              26.744223
            ],
            [
              80.999548,
              26.744946
            ],
            [
              81.001656,
              26.744267
            ],
            [
              81.000923,
              26.746999
            ],
            [
              81.002347,
              26.747173
            ],
            [
              81.002548,
              26.746503
            ],
            [
              81.002705,
              26.748217
            ],
            [
              81.003599,
              26.748374
            ],
            [
              81.002548,
              26.748457
            ],
            [
              81.002326,
              26.747596
            ],
            [
              81.001548,
              26.747541
            ],
            [
              80.999116,
              26.748942
            ],
            [
              80.999889,
              26.750374
            ],
            [
              80.997083,
              26.753374
            ],
            [
              80.997249,
              26.755673
            ],
            [
              80.998932,
              26.75599
            ],
            [
              81.001157,
              26.758766
            ],
            [
              81.002949,
              26.758973
            ],
            [
              81.004305,
              26.760618
            ],
            [
              81.006548,
              26.761707
            ],
            [
              81.010548,
              26.761766
            ],
            [
              81.013051,
              26.759374
            ],
            [
              81.012951,
              26.756972
            ],
            [
              81.011244,
              26.755374
            ],
            [
              81.012548,
              26.75507
            ],
            [
              81.013934,
              26.756374
            ],
            [
              81.014548,
              26.759871
            ],
            [
              81.018548,
              26.76002
            ],
            [
              81.019832,
              26.75909
            ],
            [
              81.02232,
              26.760146
            ],
            [
              81.022537,
              26.759363
            ],
            [
              81.02367,
              26.759374
            ],
            [
              81.022585,
              26.759412
            ],
            [
              81.022548,
              26.760488
            ],
            [
              81.016548,
              26.760809
            ],
            [
              81.014548,
              26.762887
            ],
            [
              81.009303,
              26.76313
            ],
            [
              81.011307,
              26.765615
            ],
            [
              81.015548,
              26.765811
            ],
            [
              81.016548,
              26.766827
            ],
            [
              81.021548,
              26.766742
            ],
            [
              81.022548,
              26.765769
            ],
            [
              81.027884,
              26.76471
            ],
            [
              81.030548,
              26.761593
            ],
            [
              81.031436,
              26.764262
            ],
            [
              81.029155,
              26.765981
            ],
            [
              81.02916,
              26.766762
            ],
            [
              81.031548,
              26.768942
            ],
            [
              81.032349,
              26.767175
            ],
            [
              81.033548,
              26.766876
            ],
            [
              81.033969,
              26.767374
            ],
            [
              81.033129,
              26.768794
            ],
            [
              81.037548,
              26.768908
            ],
            [
              81.038591,
              26.769332
            ],
            [
              81.038877,
              26.770374
            ],
            [
              81.037735,
              26.770561
            ],
            [
              81.036548,
              26.769567
            ],
            [
              81.032548,
              26.769767
            ],
            [
              81.031935,
              26.770374
            ],
            [
              81.032891,
              26.771374
            ],
            [
              81.033052,
              26.77387
            ],
            [
              81.034475,
              26.775374
            ],
            [
              81.033726,
              26.775552
            ],
            [
              81.03409,
              26.777833
            ],
            [
              81.035172,
              26.778751
            ],
            [
              81.034113,
              26.780374
            ],
            [
              81.034879,
              26.781705
            ],
            [
              81.032097,
              26.781923
            ],
            [
              81.032118,
              26.782805
            ],
            [
              81.033733,
              26.78319
            ],
            [
              81.032842,
              26.785668
            ],
            [
              81.031548,
              26.78691
            ],
            [
              81.029114,
              26.78694
            ],
            [
              81.027128,
              26.787954
            ],
            [
              81.026819,
              26.789104
            ],
            [
              81.02755,
              26.789376
            ],
            [
              81.026721,
              26.789547
            ],
            [
              81.026548,
              26.791003
            ],
            [
              81.024481,
              26.791307
            ],
            [
              81.026489,
              26.793374
            ],
            [
              81.024887,
              26.793714
            ],
            [
              81.025548,
              26.796653
            ],
            [
              81.024157,
              26.794766
            ],
            [
              81.020292,
              26.792118
            ],
            [
              81.019067,
              26.793374
            ],
            [
              81.020825,
              26.797374
            ],
            [
              81.017907,
              26.800374
            ],
            [
              81.018892,
              26.801374
            ],
            [
              81.018893,
              26.802719
            ],
            [
              81.015548,
              26.80488
            ],
            [
              81.013548,
              26.802991
            ],
            [
              81.00949,
              26.805316
            ],
            [
              81.010276,
              26.805646
            ],
            [
              81.010548,
              26.807126
            ],
            [
              81.011548,
              26.805528
            ],
            [
              81.013548,
              26.80636
            ],
            [
              81.011832,
              26.806658
            ],
            [
              81.011729,
              26.807374
            ],
            [
              81.013059,
              26.811374
            ],
            [
              81.010678,
              26.810504
            ],
            [
              81.010518,
              26.811404
            ],
            [
              81.01042,
              26.810503
            ],
            [
              81.009548,
              26.810524
            ],
            [
              81.007324,
              26.811598
            ],
            [
              81.006533,
              26.810389
            ],
            [
              81.00696,
              26.809374
            ],
            [
              81.00644,
              26.808374
            ],
            [
              81.006548,
              26.807809
            ],
            [
              81.006581,
              26.808341
            ],
            [
              81.007548,
              26.808264
            ],
            [
              81.008152,
              26.807374
            ],
            [
              81.006272,
              26.806098
            ],
            [
              81.005462,
              26.806374
            ],
            [
              81.00539,
              26.808216
            ],
            [
              81.004548,
              26.808231
            ],
            [
              81.002779,
              26.806143
            ],
            [
              81.001548,
              26.806043
            ],
            [
              81.001117,
              26.807374
            ],
            [
              81.001987,
              26.808813
            ],
            [
              81.000284,
              26.80911
            ],
            [
              80.999933,
              26.810759
            ],
            [
              80.99617,
              26.811996
            ],
            [
              80.995548,
              26.813322
            ],
            [
              80.994119,
              26.812945
            ],
            [
              80.993975,
              26.813948
            ],
            [
              80.995548,
              26.813841
            ],
            [
              80.995565,
              26.814391
            ],
            [
              80.994708,
              26.814534
            ],
            [
              80.994548,
              26.815419
            ]
          ]
        ],
        "type": "Polygon"
      },
      "type": "Feature"
    }
  ]
}