{
  "type": "FeatureCollection",
  "metadata": {
    "provider_name": "Domino's Pizza",
    "center_lat": 16.5156530756538,
    "center_lon": 80.63847468909802,
    "mode": "motorcycle",
    "total_zones": 4,
    "distance_zones": [
      3,
      4,
      5,
      6
    ],
    "generated_at": "2025-12-31T05:14:18.546348Z"
  },
  "features": [
    {
      "properties": {
        "fill-opacity": 0.33,
        "fillColor": "#bf4040",
        "opacity": 0.33,
        "fill": "#bf4040",
        "fillOpacity": 0.33,
        "color": "#bf4040",
        "contour": 3.0,
        "metric": "distance",
        "provider_name": "Domino's Pizza",
        "zone_type": "distance",
        "distance_km": 3,
        "mode": "motorcycle",
        "center_lat": 16.5156530756538,
        "center_lon": 80.63847468909802,
        "label": "3km"
      },
      "geometry": {
        "coordinates": [
          [
            [
              80.636474,
              16.539765
            ],
            [
              80.631474,
              16.537106
            ],
            [
              80.631572,
              16.535653
            ],
            [
              80.634738,
              16.530653
            ],
            [
              80.634474,
              16.528791
            ],
            [
              80.630056,
              16.528234
            ],
            [
              80.62911,
              16.530289
            ],
            [
              80.62775,
              16.530929
            ],
            [
              80.626411,
              16.530653
            ],
            [
              80.625273,
              16.528854
            ],
            [
              80.622484,
              16.529653
            ],
            [
              80.624095,
              16.528274
            ],
            [
              80.624198,
              16.526653
            ],
            [
              80.622329,
              16.524653
            ],
            [
              80.622308,
              16.522819
            ],
            [
              80.621381,
              16.522746
            ],
            [
              80.62019,
              16.520653
            ],
            [
              80.619879,
              16.518247
            ],
            [
              80.61852,
              16.516607
            ],
            [
              80.616404,
              16.515653
            ],
            [
              80.61584,
              16.513287
            ],
            [
              80.614474,
              16.512403
            ],
            [
              80.611474,
              16.512422
            ],
            [
              80.610815,
              16.511653
            ],
            [
              80.614802,
              16.510981
            ],
            [
              80.614148,
              16.509653
            ],
            [
              80.614474,
              16.507863
            ],
            [
              80.615474,
              16.509195
            ],
            [
              80.617244,
              16.508653
            ],
            [
              80.616474,
              16.507449
            ],
            [
              80.618881,
              16.50806
            ],
            [
              80.620374,
              16.506552
            ],
            [
              80.620471,
              16.504653
            ],
            [
              80.622315,
              16.502493
            ],
            [
              80.626023,
              16.501201
            ],
            [
              80.626474,
              16.500456
            ],
            [
              80.62943,
              16.500653
            ],
            [
              80.630428,
              16.502699
            ],
            [
              80.630514,
              16.501693
            ],
            [
              80.632657,
              16.501835
            ],
            [
              80.629416,
              16.497711
            ],
            [
              80.629474,
              16.496159
            ],
            [
              80.629664,
              16.497463
            ],
            [
              80.630474,
              16.497481
            ],
            [
              80.633474,
              16.500305
            ],
            [
              80.635474,
              16.500252
            ],
            [
              80.643197,
              16.496376
            ],
            [
              80.645474,
              16.496441
            ],
            [
              80.645352,
              16.499653
            ],
            [
              80.646458,
              16.497637
            ],
            [
              80.648474,
              16.498024
            ],
            [
              80.650263,
              16.499653
            ],
            [
              80.650474,
              16.500986
            ],
            [
              80.651474,
              16.500229
            ],
            [
              80.655535,
              16.500592
            ],
            [
              80.654931,
              16.503653
            ],
            [
              80.656474,
              16.503698
            ],
            [
              80.656535,
              16.504592
            ],
            [
              80.654823,
              16.505002
            ],
            [
              80.654754,
              16.506373
            ],
            [
              80.656885,
              16.506653
            ],
            [
              80.655474,
              16.512705
            ],
            [
              80.652466,
              16.512661
            ],
            [
              80.651939,
              16.510188
            ],
            [
              80.650474,
              16.510013
            ],
            [
              80.648201,
              16.511379
            ],
            [
              80.648849,
              16.513027
            ],
            [
              80.643474,
              16.51232
            ],
            [
              80.643273,
              16.513854
            ],
            [
              80.644474,
              16.514974
            ],
            [
              80.646909,
              16.515217
            ],
            [
              80.647474,
              16.516027
            ],
            [
              80.650474,
              16.516174
            ],
            [
              80.651474,
              16.515204
            ],
            [
              80.652164,
              16.516963
            ],
            [
              80.654179,
              16.518948
            ],
            [
              80.655824,
              16.519303
            ],
            [
              80.658474,
              16.521234
            ],
            [
              80.660474,
              16.519434
            ],
            [
              80.661474,
              16.520408
            ],
            [
              80.662474,
              16.519051
            ],
            [
              80.663474,
              16.518843
            ],
            [
              80.66441,
              16.519653
            ],
            [
              80.663474,
              16.521113
            ],
            [
              80.661267,
              16.521445
            ],
            [
              80.661474,
              16.522408
            ],
            [
              80.662446,
              16.522681
            ],
            [
              80.660513,
              16.525653
            ],
            [
              80.65493,
              16.528653
            ],
            [
              80.651762,
              16.533653
            ],
            [
              80.652246,
              16.534653
            ],
            [
              80.649474,
              16.53796
            ],
            [
              80.646859,
              16.536653
            ],
            [
              80.646474,
              16.535159
            ],
            [
              80.642474,
              16.533286
            ],
            [
              80.642183,
              16.534653
            ],
            [
              80.639474,
              16.536605
            ],
            [
              80.638138,
              16.536653
            ],
            [
              80.638672,
              16.53785
            ],
            [
              80.636474,
              16.539765
            ]
          ]
        ],
        "type": "Polygon"
      },
      "type": "Feature"
    },
    {
      "properties": {
        "fill-opacity": 0.33,
        "fillColor": "#bf4040",
        "opacity": 0.33,
        "fill": "#bf4040",
        "fillOpacity": 0.33,
        "color": "#bf4040",
        "contour": 4.0,
        "metric": "distance",
        "provider_name": "Domino's Pizza",
        "zone_type": "distance",
        "distance_km": 4,
        "mode": "motorcycle",
        "center_lat": 16.5156530756538,
        "center_lon": 80.63847468909802,
        "label": "4km"
      },
      "geometry": {
        "coordinates": [
          [
            [
              80.638474,
              16.547793
            ],
            [
              80.637474,
              16.547932
            ],
            [
              80.631444,
              16.544653
            ],
            [
              80.629474,
              16.542405
            ],
            [
              80.629197,
              16.540653
            ],
            [
              80.628218,
              16.539653
            ],
            [
              80.629624,
              16.537653
            ],
            [
              80.628401,
              16.536653
            ],
            [
              80.628643,
              16.535653
            ],
            [
              80.631526,
              16.534601
            ],
            [
              80.629018,
              16.532653
            ],
            [
              80.626074,
              16.531252
            ],
            [
              80.624804,
              16.533653
            ],
            [
              80.622474,
              16.535621
            ],
            [
              80.621237,
              16.535415
            ],
            [
              80.620474,
              16.536614
            ],
            [
              80.62088,
              16.531247
            ],
            [
              80.614159,
              16.530653
            ],
            [
              80.614425,
              16.529653
            ],
            [
              80.616094,
              16.529272
            ],
            [
              80.616474,
              16.528438
            ],
            [
              80.620847,
              16.528026
            ],
            [
              80.621474,
              16.526341
            ],
            [
              80.623118,
              16.528009
            ],
            [
              80.623907,
              16.527653
            ],
            [
              80.623749,
              16.526378
            ],
            [
              80.622115,
              16.525012
            ],
            [
              80.62179,
              16.523337
            ],
            [
              80.620065,
              16.521062
            ],
            [
              80.619854,
              16.518653
            ],
            [
              80.618758,
              16.517369
            ],
            [
              80.616703,
              16.517653
            ],
            [
              80.615474,
              16.520983
            ],
            [
              80.613474,
              16.520209
            ],
            [
              80.610474,
              16.520635
            ],
            [
              80.608474,
              16.518433
            ],
            [
              80.60867,
              16.515457
            ],
            [
              80.605964,
              16.513163
            ],
            [
              80.603474,
              16.513153
            ],
            [
              80.603461,
              16.51264
            ],
            [
              80.605474,
              16.512446
            ],
            [
              80.606166,
              16.511653
            ],
            [
              80.606054,
              16.510073
            ],
            [
              80.605311,
              16.509653
            ],
            [
              80.605474,
              16.507657
            ],
            [
              80.605801,
              16.509326
            ],
            [
              80.606608,
              16.509519
            ],
            [
              80.607474,
              16.511299
            ],
            [
              80.610865,
              16.509043
            ],
            [
              80.611265,
              16.507444
            ],
            [
              80.613474,
              16.506243
            ],
            [
              80.617871,
              16.50605
            ],
            [
              80.622096,
              16.502274
            ],
            [
              80.626474,
              16.500098
            ],
            [
              80.628807,
              16.499985
            ],
            [
              80.629806,
              16.498984
            ],
            [
              80.628962,
              16.496165
            ],
            [
              80.62624,
              16.493887
            ],
            [
              80.626152,
              16.491975
            ],
            [
              80.623474,
              16.489385
            ],
            [
              80.624534,
              16.489593
            ],
            [
              80.626656,
              16.491471
            ],
            [
              80.627049,
              16.493077
            ],
            [
              80.629795,
              16.495331
            ],
            [
              80.63016,
              16.496967
            ],
            [
              80.633474,
              16.499804
            ],
            [
              80.6355,
              16.499678
            ],
            [
              80.636649,
              16.497827
            ],
            [
              80.636162,
              16.495653
            ],
            [
              80.638474,
              16.495429
            ],
            [
              80.639474,
              16.494377
            ],
            [
              80.641474,
              16.494275
            ],
            [
              80.646474,
              16.492
            ],
            [
              80.648678,
              16.492448
            ],
            [
              80.650474,
              16.494698
            ],
            [
              80.659125,
              16.496002
            ],
            [
              80.660127,
              16.498
            ],
            [
              80.661608,
              16.498653
            ],
            [
              80.660367,
              16.499546
            ],
            [
              80.661019,
              16.503653
            ],
            [
              80.662939,
              16.505188
            ],
            [
              80.663704,
              16.508423
            ],
            [
              80.664298,
              16.508653
            ],
            [
              80.662865,
              16.509044
            ],
            [
              80.661109,
              16.511018
            ],
            [
              80.662474,
              16.512951
            ],
            [
              80.663474,
              16.511186
            ],
            [
              80.667535,
              16.513592
            ],
            [
              80.667779,
              16.515348
            ],
            [
              80.668794,
              16.515653
            ],
            [
              80.667591,
              16.518653
            ],
            [
              80.667736,
              16.519391
            ],
            [
              80.668742,
              16.519653
            ],
            [
              80.66767,
              16.519848
            ],
            [
              80.667568,
              16.521653
            ],
            [
              80.668474,
              16.52261
            ],
            [
              80.671796,
              16.523653
            ],
            [
              80.667474,
              16.527608
            ],
            [
              80.6666,
              16.526527
            ],
            [
              80.665474,
              16.527219
            ],
            [
              80.664256,
              16.525871
            ],
            [
              80.662474,
              16.525977
            ],
            [
              80.658996,
              16.528174
            ],
            [
              80.658654,
              16.529653
            ],
            [
              80.659652,
              16.530653
            ],
            [
              80.659213,
              16.531914
            ],
            [
              80.659859,
              16.532653
            ],
            [
              80.658742,
              16.532921
            ],
            [
              80.65863,
              16.533653
            ],
            [
              80.659503,
              16.535653
            ],
            [
              80.657012,
              16.535191
            ],
            [
              80.656663,
              16.538842
            ],
            [
              80.655562,
              16.53974
            ],
            [
              80.654474,
              16.544591
            ],
            [
              80.652474,
              16.543786
            ],
            [
              80.650688,
              16.543867
            ],
            [
              80.65025,
              16.544653
            ],
            [
              80.647474,
              16.544295
            ],
            [
              80.645474,
              16.541121
            ],
            [
              80.64197,
              16.542653
            ],
            [
              80.643961,
              16.544653
            ],
            [
              80.64047,
              16.544648
            ],
            [
              80.639316,
              16.547495
            ],
            [
              80.638474,
              16.547793
            ]
          ]
        ],
        "type": "Polygon"
      },
      "type": "Feature"
    },
    {
      "properties": {
        "fill-opacity": 0.33,
        "fillColor": "#bf4040",
        "opacity": 0.33,
        "fill": "#bf4040",
        "fillOpacity": 0.33,
        "color": "#bf4040",
        "contour": 5.0,
        "metric": "distance",
        "provider_name": "Domino's Pizza",
        "zone_type": "distance",
        "distance_km": 5,
        "mode": "motorcycle",
        "center_lat": 16.5156530756538,
        "center_lon": 80.63847468909802,
        "label": "5km"
      },
      "geometry": {
        "coordinates": [
          [
            [
              80.640474,
              16.555077
            ],
            [
              80.639474,
              16.555036
            ],
            [
              80.638231,
              16.550653
            ],
            [
              80.636474,
              16.548987
            ],
            [
              80.632474,
              16.550836
            ],
            [
              80.629572,
              16.550751
            ],
            [
              80.629474,
              16.551573
            ],
            [
              80.62927,
              16.550653
            ],
            [
              80.630699,
              16.547653
            ],
            [
              80.629871,
              16.547256
            ],
            [
              80.629648,
              16.545478
            ],
            [
              80.628474,
              16.547253
            ],
            [
              80.627014,
              16.545653
            ],
            [
              80.629955,
              16.542653
            ],
            [
              80.628474,
              16.540917
            ],
            [
              80.627286,
              16.540841
            ],
            [
              80.626474,
              16.539022
            ],
            [
              80.624747,
              16.538926
            ],
            [
              80.624474,
              16.539512
            ],
            [
              80.622388,
              16.538653
            ],
            [
              80.621953,
              16.537174
            ],
            [
              80.620161,
              16.537966
            ],
            [
              80.61992,
              16.533653
            ],
            [
              80.620881,
              16.532653
            ],
            [
              80.620727,
              16.5314
            ],
            [
              80.616918,
              16.531653
            ],
            [
              80.617813,
              16.533653
            ],
            [
              80.617552,
              16.537653
            ],
            [
              80.616193,
              16.537934
            ],
            [
              80.61513,
              16.537653
            ],
            [
              80.614907,
              16.53622
            ],
            [
              80.613474,
              16.536719
            ],
            [
              80.611474,
              16.535049
            ],
            [
              80.610311,
              16.533653
            ],
            [
              80.610123,
              16.532004
            ],
            [
              80.608409,
              16.531718
            ],
            [
              80.608459,
              16.531638
            ],
            [
              80.609474,
              16.531545
            ],
            [
              80.610122,
              16.531301
            ],
            [
              80.61034,
              16.529787
            ],
            [
              80.609448,
              16.529626
            ],
            [
              80.610474,
              16.529467
            ],
            [
              80.611474,
              16.528002
            ],
            [
              80.613474,
              16.527732
            ],
            [
              80.615474,
              16.529122
            ],
            [
              80.616474,
              16.528092
            ],
            [
              80.61942,
              16.527653
            ],
            [
              80.619207,
              16.52692
            ],
            [
              80.617474,
              16.526834
            ],
            [
              80.616474,
              16.525937
            ],
            [
              80.614815,
              16.525994
            ],
            [
              80.613474,
              16.527153
            ],
            [
              80.610474,
              16.525935
            ],
            [
              80.610132,
              16.523995
            ],
            [
              80.609342,
              16.523653
            ],
            [
              80.608801,
              16.519325
            ],
            [
              80.606244,
              16.518653
            ],
            [
              80.60686,
              16.515267
            ],
            [
              80.604474,
              16.51407
            ],
            [
              80.603235,
              16.515653
            ],
            [
              80.603362,
              16.52154
            ],
            [
              80.601883,
              16.520244
            ],
            [
              80.599745,
              16.519653
            ],
            [
              80.600422,
              16.518653
            ],
            [
              80.599999,
              16.517653
            ],
            [
              80.601891,
              16.516069
            ],
            [
              80.603138,
              16.512316
            ],
            [
              80.605883,
              16.511653
            ],
            [
              80.60493,
              16.509653
            ],
            [
              80.604974,
              16.507653
            ],
            [
              80.604012,
              16.506653
            ],
            [
              80.604075,
              16.504653
            ],
            [
              80.603143,
              16.503653
            ],
            [
              80.602338,
              16.499789
            ],
            [
              80.601695,
              16.499653
            ],
            [
              80.602474,
              16.499079
            ],
            [
              80.602738,
              16.500389
            ],
            [
              80.604672,
              16.501653
            ],
            [
              80.603766,
              16.502653
            ],
            [
              80.60483,
              16.503653
            ],
            [
              80.604911,
              16.505653
            ],
            [
              80.605944,
              16.506653
            ],
            [
              80.606007,
              16.508653
            ],
            [
              80.607474,
              16.511045
            ],
            [
              80.610721,
              16.508899
            ],
            [
              80.611079,
              16.507257
            ],
            [
              80.613474,
              16.506024
            ],
            [
              80.617723,
              16.505901
            ],
            [
              80.622009,
              16.502187
            ],
            [
              80.626474,
              16.499961
            ],
            [
              80.628474,
              16.499974
            ],
            [
              80.629696,
              16.498874
            ],
            [
              80.628778,
              16.496349
            ],
            [
              80.62607,
              16.494057
            ],
            [
              80.625763,
              16.492363
            ],
            [
              80.623138,
              16.489988
            ],
            [
              80.622729,
              16.488398
            ],
            [
              80.618527,
              16.484653
            ],
            [
              80.618474,
              16.481623
            ],
            [
              80.618773,
              16.482354
            ],
            [
              80.621474,
              16.482168
            ],
            [
              80.621021,
              16.485106
            ],
            [
              80.623775,
              16.487352
            ],
            [
              80.624145,
              16.488982
            ],
            [
              80.62686,
              16.491267
            ],
            [
              80.627215,
              16.492912
            ],
            [
              80.629913,
              16.495214
            ],
            [
              80.630261,
              16.496866
            ],
            [
              80.631474,
              16.497392
            ],
            [
              80.632897,
              16.497076
            ],
            [
              80.634474,
              16.495273
            ],
            [
              80.638474,
              16.49509
            ],
            [
              80.639474,
              16.494073
            ],
            [
              80.641474,
              16.494036
            ],
            [
              80.647834,
              16.491013
            ],
            [
              80.649291,
              16.48847
            ],
            [
              80.652474,
              16.487037
            ],
            [
              80.653837,
              16.48829
            ],
            [
              80.655243,
              16.488421
            ],
            [
              80.655474,
              16.487742
            ],
            [
              80.657421,
              16.488653
            ],
            [
              80.656223,
              16.490653
            ],
            [
              80.657474,
              16.492354
            ],
            [
              80.659474,
              16.489525
            ],
            [
              80.660602,
              16.489653
            ],
            [
              80.661041,
              16.491086
            ],
            [
              80.663222,
              16.492904
            ],
            [
              80.664607,
              16.492786
            ],
            [
              80.665474,
              16.491827
            ],
            [
              80.667277,
              16.492653
            ],
            [
              80.665101,
              16.499026
            ],
            [
              80.668474,
              16.501439
            ],
            [
              80.670775,
              16.501653
            ],
            [
              80.669689,
              16.505868
            ],
            [
              80.668412,
              16.507653
            ],
            [
              80.669292,
              16.508653
            ],
            [
              80.668255,
              16.512434
            ],
            [
              80.6676,
              16.512653
            ],
            [
              80.668355,
              16.512772
            ],
            [
              80.668172,
              16.514653
            ],
            [
              80.669878,
              16.515249
            ],
            [
              80.672207,
              16.52092
            ],
            [
              80.675474,
              16.520192
            ],
            [
              80.675855,
              16.521271
            ],
            [
              80.680911,
              16.524653
            ],
            [
              80.677474,
              16.528689
            ],
            [
              80.675474,
              16.528764
            ],
            [
              80.672474,
              16.527059
            ],
            [
              80.671097,
              16.527275
            ],
            [
              80.67107,
              16.528057
            ],
            [
              80.67278,
              16.528347
            ],
            [
              80.671474,
              16.53103
            ],
            [
              80.670076,
              16.529653
            ],
            [
              80.669838,
              16.527288
            ],
            [
              80.669132,
              16.52731
            ],
            [
              80.668916,
              16.530653
            ],
            [
              80.667069,
              16.531653
            ],
            [
              80.666565,
              16.533653
            ],
            [
              80.665474,
              16.534569
            ],
            [
              80.662474,
              16.532691
            ],
            [
              80.659162,
              16.53334
            ],
            [
              80.660122,
              16.534653
            ],
            [
              80.659812,
              16.535991
            ],
            [
              80.658474,
              16.536184
            ],
            [
              80.657474,
              16.535231
            ],
            [
              80.65708,
              16.535653
            ],
            [
              80.657134,
              16.538993
            ],
            [
              80.658881,
              16.539653
            ],
            [
              80.656139,
              16.540317
            ],
            [
              80.656123,
              16.541004
            ],
            [
              80.657629,
              16.541807
            ],
            [
              80.654993,
              16.543653
            ],
            [
              80.656622,
              16.546505
            ],
            [
              80.656474,
              16.548235
            ],
            [
              80.655474,
              16.549169
            ],
            [
              80.653559,
              16.547568
            ],
            [
              80.652661,
              16.547653
            ],
            [
              80.647474,
              16.550274
            ],
            [
              80.645474,
              16.552217
            ],
            [
              80.641474,
              16.55147
            ],
            [
              80.639739,
              16.552653
            ],
            [
              80.639608,
              16.554519
            ],
            [
              80.640474,
              16.555077
            ]
          ]
        ],
        "type": "Polygon"
      },
      "type": "Feature"
    },
    {
      "properties": {
        "fill-opacity": 0.33,
        "fillColor": "#bf4040",
        "opacity": 0.33,
        "fill": "#bf4040",
        "fillOpacity": 0.33,
        "color": "#bf4040",
        "contour": 6.0,
        "metric": "distance",
        "provider_name": "Domino's Pizza",
        "zone_type": "distance",
        "distance_km": 6,
        "mode": "motorcycle",
        "center_lat": 16.5156530756538,
        "center_lon": 80.63847468909802,
        "label": "6km"
      },
      "geometry": {
        "coordinates": [
          [
            [
              80.644474,
              16.561393
            ],
            [
              80.642351,
              16.559776
            ],
            [
              80.641474,
              16.558053
            ],
            [
              80.638571,
              16.56075
            ],
            [
              80.637371,
              16.560653
            ],
            [
              80.640128,
              16.557653
            ],
            [
              80.639829,
              16.556297
            ],
            [
              80.638017,
              16.555653
            ],
            [
              80.638928,
              16.553653
            ],
            [
              80.637968,
              16.552653
            ],
            [
              80.637718,
              16.550409
            ],
            [
              80.636474,
              16.549383
            ],
            [
              80.635474,
              16.550376
            ],
            [
              80.630467,
              16.551645
            ],
            [
              80.629458,
              16.553653
            ],
            [
              80.625474,
              16.553937
            ],
            [
              80.624474,
              16.552978
            ],
            [
              80.623474,
              16.553888
            ],
            [
              80.620157,
              16.553653
            ],
            [
              80.62156,
              16.552739
            ],
            [
              80.622505,
              16.550653
            ],
            [
              80.622097,
              16.549653
            ],
            [
              80.623325,
              16.549503
            ],
            [
              80.623474,
              16.548613
            ],
            [
              80.626906,
              16.548084
            ],
            [
              80.627137,
              16.546653
            ],
            [
              80.626236,
              16.545653
            ],
            [
              80.626212,
              16.543914
            ],
            [
              80.62524,
              16.543653
            ],
            [
              80.625474,
              16.542889
            ],
            [
              80.626474,
              16.543164
            ],
            [
              80.626679,
              16.544653
            ],
            [
              80.627474,
              16.545039
            ],
            [
              80.629689,
              16.542438
            ],
            [
              80.628474,
              16.541229
            ],
            [
              80.627034,
              16.541093
            ],
            [
              80.626474,
              16.539266
            ],
            [
              80.624969,
              16.539653
            ],
            [
              80.625901,
              16.540653
            ],
            [
              80.624474,
              16.542494
            ],
            [
              80.623161,
              16.541966
            ],
            [
              80.622474,
              16.539155
            ],
            [
              80.621743,
              16.540921
            ],
            [
              80.620257,
              16.54187
            ],
            [
              80.61908,
              16.539653
            ],
            [
              80.621002,
              16.538653
            ],
            [
              80.619821,
              16.537653
            ],
            [
              80.619785,
              16.534653
            ],
            [
              80.620773,
              16.533653
            ],
            [
              80.620753,
              16.531653
            ],
            [
              80.617474,
              16.531327
            ],
            [
              80.617107,
              16.532653
            ],
            [
              80.618076,
              16.533653
            ],
            [
              80.617994,
              16.537653
            ],
            [
              80.61566,
              16.539838
            ],
            [
              80.613956,
              16.540135
            ],
            [
              80.6138,
              16.544653
            ],
            [
              80.613002,
              16.545125
            ],
            [
              80.612798,
              16.543653
            ],
            [
              80.611227,
              16.5419
            ],
            [
              80.61096,
              16.534653
            ],
            [
              80.609474,
              16.532181
            ],
            [
              80.608474,
              16.534074
            ],
            [
              80.606695,
              16.532653
            ],
            [
              80.607024,
              16.530203
            ],
            [
              80.609056,
              16.531071
            ],
            [
              80.609919,
              16.530653
            ],
            [
              80.608199,
              16.528928
            ],
            [
              80.607895,
              16.527232
            ],
            [
              80.60587,
              16.527049
            ],
            [
              80.605474,
              16.530286
            ],
            [
              80.603474,
              16.529672
            ],
            [
              80.600474,
              16.528021
            ],
            [
              80.600195,
              16.525931
            ],
            [
              80.599337,
              16.525653
            ],
            [
              80.599211,
              16.523653
            ],
            [
              80.600862,
              16.521265
            ],
            [
              80.599049,
              16.521227
            ],
            [
              80.596474,
              16.523358
            ],
            [
              80.595831,
              16.522653
            ],
            [
              80.597237,
              16.519415
            ],
            [
              80.601731,
              16.515909
            ],
            [
              80.601926,
              16.513653
            ],
            [
              80.603028,
              16.512207
            ],
            [
              80.605764,
              16.511653
            ],
            [
              80.604787,
              16.509653
            ],
            [
              80.604808,
              16.507653
            ],
            [
              80.603824,
              16.506653
            ],
            [
              80.60385,
              16.504653
            ],
            [
              80.601796,
              16.500331
            ],
            [
              80.598474,
              16.500043
            ],
            [
              80.595474,
              16.501765
            ],
            [
              80.592732,
              16.500653
            ],
            [
              80.594204,
              16.500383
            ],
            [
              80.594474,
              16.499478
            ],
            [
              80.596474,
              16.499359
            ],
            [
              80.597474,
              16.498355
            ],
            [
              80.599474,
              16.499232
            ],
            [
              80.60088,
              16.499058
            ],
            [
              80.600917,
              16.495653
            ],
            [
              80.602185,
              16.493941
            ],
            [
              80.602034,
              16.493093
            ],
            [
              80.600732,
              16.492653
            ],
            [
              80.601333,
              16.490512
            ],
            [
              80.603873,
              16.491653
            ],
            [
              80.603128,
              16.492306
            ],
            [
              80.602976,
              16.495653
            ],
            [
              80.602062,
              16.49624
            ],
            [
              80.601929,
              16.497653
            ],
            [
              80.604474,
              16.501147
            ],
            [
              80.605165,
              16.498653
            ],
            [
              80.604114,
              16.496653
            ],
            [
              80.604987,
              16.494165
            ],
            [
              80.60742,
              16.494707
            ],
            [
              80.608474,
              16.49737
            ],
            [
              80.609297,
              16.496653
            ],
            [
              80.609336,
              16.495791
            ],
            [
              80.608675,
              16.495653
            ],
            [
              80.610545,
              16.495653
            ],
            [
              80.610528,
              16.496707
            ],
            [
              80.606759,
              16.500937
            ],
            [
              80.60406,
              16.502653
            ],
            [
              80.605082,
              16.503653
            ],
            [
              80.605114,
              16.505653
            ],
            [
              80.606128,
              16.506653
            ],
            [
              80.606156,
              16.508653
            ],
            [
              80.607474,
              16.510935
            ],
            [
              80.609652,
              16.509831
            ],
            [
              80.612988,
              16.506166
            ],
            [
              80.617474,
              16.505917
            ],
            [
              80.621938,
              16.502116
            ],
            [
              80.623474,
              16.501877
            ],
            [
              80.626474,
              16.499888
            ],
            [
              80.628474,
              16.499896
            ],
            [
              80.629709,
              16.498653
            ],
            [
              80.625498,
              16.492629
            ],
            [
              80.620474,
              16.487088
            ],
            [
              80.619083,
              16.487261
            ],
            [
              80.61968,
              16.488858
            ],
            [
              80.61801,
              16.489188
            ],
            [
              80.617596,
              16.490775
            ],
            [
              80.616722,
              16.4909
            ],
            [
              80.616474,
              16.491708
            ],
            [
              80.612281,
              16.490846
            ],
            [
              80.612159,
              16.489653
            ],
            [
              80.613274,
              16.488653
            ],
            [
              80.612021,
              16.487653
            ],
            [
              80.613326,
              16.487505
            ],
            [
              80.614313,
              16.482653
            ],
            [
              80.613474,
              16.481868
            ],
            [
              80.61078,
              16.481653
            ],
            [
              80.612943,
              16.480121
            ],
            [
              80.613474,
              16.478565
            ],
            [
              80.61573,
              16.478397
            ],
            [
              80.616005,
              16.479121
            ],
            [
              80.6169,
              16.479078
            ],
            [
              80.616929,
              16.478198
            ],
            [
              80.616187,
              16.47794
            ],
            [
              80.61609,
              16.475037
            ],
            [
              80.615367,
              16.474653
            ],
            [
              80.615474,
              16.4729
            ],
            [
              80.618614,
              16.474513
            ],
            [
              80.617629,
              16.475653
            ],
            [
              80.618474,
              16.479234
            ],
            [
              80.619141,
              16.478653
            ],
            [
              80.619474,
              16.475445
            ],
            [
              80.622148,
              16.476326
            ],
            [
              80.623474,
              16.474348
            ],
            [
              80.623641,
              16.475486
            ],
            [
              80.627474,
              16.475362
            ],
            [
              80.625009,
              16.478187
            ],
            [
              80.623714,
              16.483893
            ],
            [
              80.621059,
              16.484653
            ],
            [
              80.623905,
              16.487222
            ],
            [
              80.624254,
              16.488873
            ],
            [
              80.626943,
              16.491183
            ],
            [
              80.627287,
              16.492839
            ],
            [
              80.629971,
              16.495156
            ],
            [
              80.630313,
              16.496814
            ],
            [
              80.631474,
              16.497883
            ],
            [
              80.634474,
              16.495035
            ],
            [
              80.638474,
              16.494957
            ],
            [
              80.639474,
              16.493948
            ],
            [
              80.641474,
              16.49393
            ],
            [
              80.647708,
              16.490886
            ],
            [
              80.649088,
              16.488266
            ],
            [
              80.650764,
              16.487943
            ],
            [
              80.652474,
              16.486178
            ],
            [
              80.654791,
              16.487969
            ],
            [
              80.654018,
              16.486653
            ],
            [
              80.655114,
              16.485653
            ],
            [
              80.655257,
              16.484435
            ],
            [
              80.656968,
              16.484147
            ],
            [
              80.658474,
              16.482807
            ],
            [
              80.660474,
              16.482875
            ],
            [
              80.662474,
              16.484361
            ],
            [
              80.664474,
              16.484284
            ],
            [
              80.666474,
              16.486339
            ],
            [
              80.670474,
              16.48715
            ],
            [
              80.671086,
              16.489041
            ],
            [
              80.675727,
              16.488653
            ],
            [
              80.675474,
              16.489574
            ],
            [
              80.675409,
              16.488718
            ],
            [
              80.673708,
              16.488886
            ],
            [
              80.673819,
              16.490308
            ],
            [
              80.674911,
              16.490653
            ],
            [
              80.674517,
              16.493695
            ],
            [
              80.673474,
              16.494282
            ],
            [
              80.672431,
              16.49761
            ],
            [
              80.671252,
              16.498653
            ],
            [
              80.673887,
              16.50124
            ],
            [
              80.675641,
              16.505653
            ],
            [
              80.675474,
              16.507444
            ],
            [
              80.675289,
              16.506837
            ],
            [
              80.67389,
              16.507068
            ],
            [
              80.673474,
              16.509203
            ],
            [
              80.672812,
              16.508314
            ],
            [
              80.672195,
              16.508653
            ],
            [
              80.672474,
              16.510598
            ],
            [
              80.674451,
              16.511653
            ],
            [
              80.673897,
              16.514653
            ],
            [
              80.674787,
              16.515653
            ],
            [
              80.674894,
              16.517653
            ],
            [
              80.675474,
              16.517975
            ],
            [
              80.678376,
              16.516554
            ],
            [
              80.681951,
              16.517175
            ],
            [
              80.683474,
              16.519664
            ],
            [
              80.683588,
              16.520653
            ],
            [
              80.682669,
              16.521653
            ],
            [
              80.682745,
              16.523653
            ],
            [
              80.683474,
              16.524252
            ],
            [
              80.687474,
              16.522399
            ],
            [
              80.689664,
              16.522463
            ],
            [
              80.689352,
              16.524653
            ],
            [
              80.688074,
              16.525653
            ],
            [
              80.688361,
              16.526653
            ],
            [
              80.685486,
              16.529664
            ],
            [
              80.683474,
              16.529912
            ],
            [
              80.682922,
              16.528205
            ],
            [
              80.682062,
              16.528241
            ],
            [
              80.681775,
              16.531352
            ],
            [
              80.68251,
              16.531617
            ],
            [
              80.682474,
              16.532746
            ],
            [
              80.681474,
              16.533422
            ],
            [
              80.680724,
              16.531653
            ],
            [
              80.681117,
              16.528653
            ],
            [
              80.680474,
              16.528094
            ],
            [
              80.678145,
              16.528323
            ],
            [
              80.677816,
              16.529994
            ],
            [
              80.676754,
              16.530653
            ],
            [
              80.677601,
              16.531653
            ],
            [
              80.677474,
              16.53343
            ],
            [
              80.675474,
              16.532604
            ],
            [
              80.676174,
              16.529653
            ],
            [
              80.674768,
              16.528359
            ],
            [
              80.673067,
              16.528245
            ],
            [
              80.672069,
              16.529653
            ],
            [
              80.672711,
              16.532653
            ],
            [
              80.670695,
              16.534653
            ],
            [
              80.671474,
              16.536572
            ],
            [
              80.670316,
              16.535811
            ],
            [
              80.669945,
              16.534182
            ],
            [
              80.668111,
              16.53329
            ],
            [
              80.666948,
              16.534653
            ],
            [
              80.668061,
              16.537065
            ],
            [
              80.669711,
              16.536416
            ],
            [
              80.670474,
              16.537402
            ],
            [
              80.671474,
              16.536707
            ],
            [
              80.671756,
              16.537371
            ],
            [
              80.673439,
              16.537653
            ],
            [
              80.669023,
              16.538201
            ],
            [
              80.668906,
              16.540221
            ],
            [
              80.669689,
              16.541438
            ],
            [
              80.670854,
              16.541653
            ],
            [
              80.670262,
              16.542441
            ],
            [
              80.669474,
              16.542375
            ],
            [
              80.667934,
              16.539192
            ],
            [
              80.666297,
              16.538829
            ],
            [
              80.66687,
              16.537257
            ],
            [
              80.661474,
              16.53604
            ],
            [
              80.660474,
              16.534931
            ],
            [
              80.659474,
              16.536323
            ],
            [
              80.657281,
              16.535459
            ],
            [
              80.657249,
              16.538878
            ],
            [
              80.659102,
              16.539653
            ],
            [
              80.656251,
              16.540429
            ],
            [
              80.658,
              16.541653
            ],
            [
              80.65689,
              16.543068
            ],
            [
              80.655149,
              16.543653
            ],
            [
              80.657474,
              16.547472
            ],
            [
              80.660387,
              16.547565
            ],
            [
              80.660906,
              16.546653
            ],
            [
              80.660883,
              16.547653
            ],
            [
              80.657474,
              16.547775
            ],
            [
              80.656641,
              16.548653
            ],
            [
              80.657706,
              16.55042
            ],
            [
              80.659527,
              16.5506
            ],
            [
              80.660474,
              16.552306
            ],
            [
              80.658474,
              16.552627
            ],
            [
              80.657474,
              16.554766
            ],
            [
              80.653474,
              16.553148
            ],
            [
              80.649488,
              16.558667
            ],
            [
              80.64635,
              16.557653
            ],
            [
              80.644474,
              16.561393
            ]
          ]
        ],
        "type": "Polygon"
      },
      "type": "Feature"
    }
  ]
}