{
  "type": "FeatureCollection",
  "metadata": {
    "provider_name": "Vintage Cafe",
    "center_lat": 18.45019613,
    "center_lon": 73.88094541,
    "mode": "motorcycle",
    "total_zones": 4,
    "distance_zones": [
      3,
      4,
      5,
      6
    ],
    "generated_at": "2025-12-24T09:20:41.064123Z"
  },
  "features": [
    {
      "properties": {
        "fill-opacity": 0.33,
        "fillColor": "#bf4040",
        "opacity": 0.33,
        "fill": "#bf4040",
        "fillOpacity": 0.33,
        "color": "#bf4040",
        "contour": 3.0,
        "metric": "distance",
        "provider_name": "Vintage Cafe",
        "zone_type": "distance",
        "distance_km": 3,
        "mode": "motorcycle",
        "center_lat": 18.45019613,
        "center_lon": 73.88094541,
        "label": "3km"
      },
      "geometry": {
        "coordinates": [
          [
            [
              73.875945,
              18.470261
            ],
            [
              73.874008,
              18.467196
            ],
            [
              73.874625,
              18.466876
            ],
            [
              73.874587,
              18.465554
            ],
            [
              73.871945,
              18.463502
            ],
            [
              73.869945,
              18.463725
            ],
            [
              73.867771,
              18.461196
            ],
            [
              73.868945,
              18.459579
            ],
            [
              73.870804,
              18.459196
            ],
            [
              73.870092,
              18.459049
            ],
            [
              73.869945,
              18.457932
            ],
            [
              73.868945,
              18.459128
            ],
            [
              73.866945,
              18.458501
            ],
            [
              73.865945,
              18.459351
            ],
            [
              73.863932,
              18.459196
            ],
            [
              73.862945,
              18.458047
            ],
            [
              73.862924,
              18.456175
            ],
            [
              73.864866,
              18.455196
            ],
            [
              73.861295,
              18.447846
            ],
            [
              73.858295,
              18.449546
            ],
            [
              73.857945,
              18.452123
            ],
            [
              73.85416,
              18.449196
            ],
            [
              73.854298,
              18.448196
            ],
            [
              73.855945,
              18.444579
            ],
            [
              73.856945,
              18.44462
            ],
            [
              73.857274,
              18.446196
            ],
            [
              73.858264,
              18.446515
            ],
            [
              73.859006,
              18.442135
            ],
            [
              73.859945,
              18.442067
            ],
            [
              73.86234,
              18.445196
            ],
            [
              73.862608,
              18.447532
            ],
            [
              73.863262,
              18.447513
            ],
            [
              73.863613,
              18.442196
            ],
            [
              73.862009,
              18.440196
            ],
            [
              73.862945,
              18.438163
            ],
            [
              73.864087,
              18.438054
            ],
            [
              73.86455,
              18.43959
            ],
            [
              73.86641,
              18.440196
            ],
            [
              73.866386,
              18.441196
            ],
            [
              73.868945,
              18.439568
            ],
            [
              73.871945,
              18.440704
            ],
            [
              73.87439,
              18.439196
            ],
            [
              73.872601,
              18.43854
            ],
            [
              73.871463,
              18.436196
            ],
            [
              73.873945,
              18.435757
            ],
            [
              73.876311,
              18.43783
            ],
            [
              73.876945,
              18.441543
            ],
            [
              73.877945,
              18.437606
            ],
            [
              73.879945,
              18.437629
            ],
            [
              73.880945,
              18.436666
            ],
            [
              73.881666,
              18.438475
            ],
            [
              73.883945,
              18.439103
            ],
            [
              73.884945,
              18.438191
            ],
            [
              73.888945,
              18.437016
            ],
            [
              73.889601,
              18.438196
            ],
            [
              73.88919,
              18.43995
            ],
            [
              73.889998,
              18.440196
            ],
            [
              73.888851,
              18.44129
            ],
            [
              73.887949,
              18.441199
            ],
            [
              73.888501,
              18.443639
            ],
            [
              73.89014,
              18.444001
            ],
            [
              73.890195,
              18.445196
            ],
            [
              73.888679,
              18.44593
            ],
            [
              73.888886,
              18.447196
            ],
            [
              73.886641,
              18.447892
            ],
            [
              73.885674,
              18.449466
            ],
            [
              73.887317,
              18.449823
            ],
            [
              73.887945,
              18.450873
            ],
            [
              73.888945,
              18.448981
            ],
            [
              73.889945,
              18.449996
            ],
            [
              73.890678,
              18.449196
            ],
            [
              73.889597,
              18.447196
            ],
            [
              73.892593,
              18.446843
            ],
            [
              73.892879,
              18.445196
            ],
            [
              73.893756,
              18.445196
            ],
            [
              73.894186,
              18.446955
            ],
            [
              73.895436,
              18.447196
            ],
            [
              73.893367,
              18.447618
            ],
            [
              73.892511,
              18.44963
            ],
            [
              73.893945,
              18.450856
            ],
            [
              73.894945,
              18.448998
            ],
            [
              73.895945,
              18.44886
            ],
            [
              73.898923,
              18.451196
            ],
            [
              73.897959,
              18.45221
            ],
            [
              73.895455,
              18.451706
            ],
            [
              73.896048,
              18.453298
            ],
            [
              73.89437,
              18.453621
            ],
            [
              73.893945,
              18.455203
            ],
            [
              73.89191,
              18.455161
            ],
            [
              73.893815,
              18.457196
            ],
            [
              73.893541,
              18.458196
            ],
            [
              73.890923,
              18.460173
            ],
            [
              73.885726,
              18.460977
            ],
            [
              73.885996,
              18.463196
            ],
            [
              73.885225,
              18.464196
            ],
            [
              73.883945,
              18.463956
            ],
            [
              73.878945,
              18.468222
            ],
            [
              73.878732,
              18.467408
            ],
            [
              73.877369,
              18.467619
            ],
            [
              73.875945,
              18.470261
            ]
          ]
        ],
        "type": "Polygon"
      },
      "type": "Feature"
    },
    {
      "properties": {
        "fill-opacity": 0.33,
        "fillColor": "#bf4040",
        "opacity": 0.33,
        "fill": "#bf4040",
        "fillOpacity": 0.33,
        "color": "#bf4040",
        "contour": 4.0,
        "metric": "distance",
        "provider_name": "Vintage Cafe",
        "zone_type": "distance",
        "distance_km": 4,
        "mode": "motorcycle",
        "center_lat": 18.45019613,
        "center_lon": 73.88094541,
        "label": "4km"
      },
      "geometry": {
        "coordinates": [
          [
            [
              73.872945,
              18.478827
            ],
            [
              73.872029,
              18.477196
            ],
            [
              73.873595,
              18.476846
            ],
            [
              73.873438,
              18.475703
            ],
            [
              73.871824,
              18.475317
            ],
            [
              73.868689,
              18.472196
            ],
            [
              73.868897,
              18.469196
            ],
            [
              73.869851,
              18.468196
            ],
            [
              73.865945,
              18.46593
            ],
            [
              73.865902,
              18.467196
            ],
            [
              73.863945,
              18.46824
            ],
            [
              73.86219,
              18.465951
            ],
            [
              73.862726,
              18.462196
            ],
            [
              73.863716,
              18.461196
            ],
            [
              73.863373,
              18.459768
            ],
            [
              73.858945,
              18.459231
            ],
            [
              73.85826,
              18.459511
            ],
            [
              73.857945,
              18.461097
            ],
            [
              73.855433,
              18.459196
            ],
            [
              73.854291,
              18.456849
            ],
            [
              73.852945,
              18.456675
            ],
            [
              73.851945,
              18.4555
            ],
            [
              73.850945,
              18.456275
            ],
            [
              73.848673,
              18.453467
            ],
            [
              73.845366,
              18.452196
            ],
            [
              73.844812,
              18.449196
            ],
            [
              73.848945,
              18.446208
            ],
            [
              73.851133,
              18.446383
            ],
            [
              73.85144,
              18.444701
            ],
            [
              73.849905,
              18.443196
            ],
            [
              73.850029,
              18.441196
            ],
            [
              73.855464,
              18.435715
            ],
            [
              73.858945,
              18.435885
            ],
            [
              73.859303,
              18.433553
            ],
            [
              73.861945,
              18.434667
            ],
            [
              73.862945,
              18.434306
            ],
            [
              73.863945,
              18.435432
            ],
            [
              73.86566,
              18.434196
            ],
            [
              73.865639,
              18.43289
            ],
            [
              73.867945,
              18.431713
            ],
            [
              73.868584,
              18.433557
            ],
            [
              73.869945,
              18.432739
            ],
            [
              73.870877,
              18.433196
            ],
            [
              73.870114,
              18.433365
            ],
            [
              73.870059,
              18.434309
            ],
            [
              73.868423,
              18.434674
            ],
            [
              73.868485,
              18.435656
            ],
            [
              73.869945,
              18.435917
            ],
            [
              73.870812,
              18.435063
            ],
            [
              73.87464,
              18.435501
            ],
            [
              73.874722,
              18.436418
            ],
            [
              73.876634,
              18.438196
            ],
            [
              73.876945,
              18.441454
            ],
            [
              73.877236,
              18.438196
            ],
            [
              73.877945,
              18.437486
            ],
            [
              73.879945,
              18.437498
            ],
            [
              73.880945,
              18.436516
            ],
            [
              73.881748,
              18.438393
            ],
            [
              73.883945,
              18.438671
            ],
            [
              73.886274,
              18.437525
            ],
            [
              73.886333,
              18.435808
            ],
            [
              73.882802,
              18.435339
            ],
            [
              73.882945,
              18.433136
            ],
            [
              73.885945,
              18.434914
            ],
            [
              73.887211,
              18.434929
            ],
            [
              73.887945,
              18.436682
            ],
            [
              73.889945,
              18.435644
            ],
            [
              73.890585,
              18.436196
            ],
            [
              73.889451,
              18.437196
            ],
            [
              73.890753,
              18.438196
            ],
            [
              73.889472,
              18.439196
            ],
            [
              73.890438,
              18.440689
            ],
            [
              73.888635,
              18.441886
            ],
            [
              73.888553,
              18.443196
            ],
            [
              73.890425,
              18.443716
            ],
            [
              73.890945,
              18.444985
            ],
            [
              73.891651,
              18.444196
            ],
            [
              73.890506,
              18.443635
            ],
            [
              73.890688,
              18.440939
            ],
            [
              73.891749,
              18.441
            ],
            [
              73.891945,
              18.438858
            ],
            [
              73.895945,
              18.43639
            ],
            [
              73.89728,
              18.438196
            ],
            [
              73.896921,
              18.43922
            ],
            [
              73.898036,
              18.440104
            ],
            [
              73.896417,
              18.440668
            ],
            [
              73.896531,
              18.443609
            ],
            [
              73.898415,
              18.443666
            ],
            [
              73.898828,
              18.442079
            ],
            [
              73.899902,
              18.441153
            ],
            [
              73.900945,
              18.440979
            ],
            [
              73.901026,
              18.441196
            ],
            [
              73.900084,
              18.441335
            ],
            [
              73.899707,
              18.443196
            ],
            [
              73.900945,
              18.444463
            ],
            [
              73.90145,
              18.44669
            ],
            [
              73.903636,
              18.446887
            ],
            [
              73.903945,
              18.445971
            ],
            [
              73.904945,
              18.446049
            ],
            [
              73.907994,
              18.449196
            ],
            [
              73.906945,
              18.450596
            ],
            [
              73.905278,
              18.450528
            ],
            [
              73.90555,
              18.453196
            ],
            [
              73.902361,
              18.454612
            ],
            [
              73.901945,
              18.45583
            ],
            [
              73.898773,
              18.455367
            ],
            [
              73.897945,
              18.452698
            ],
            [
              73.896484,
              18.452734
            ],
            [
              73.896306,
              18.453557
            ],
            [
              73.894487,
              18.454196
            ],
            [
              73.897169,
              18.454971
            ],
            [
              73.89633,
              18.456196
            ],
            [
              73.896549,
              18.457592
            ],
            [
              73.89816,
              18.45798
            ],
            [
              73.899945,
              18.459731
            ],
            [
              73.900945,
              18.458106
            ],
            [
              73.901945,
              18.458113
            ],
            [
              73.902675,
              18.460196
            ],
            [
              73.901024,
              18.461275
            ],
            [
              73.900624,
              18.460516
            ],
            [
              73.898466,
              18.460717
            ],
            [
              73.896945,
              18.46253
            ],
            [
              73.893967,
              18.464196
            ],
            [
              73.894041,
              18.465196
            ],
            [
              73.892945,
              18.466093
            ],
            [
              73.890945,
              18.467429
            ],
            [
              73.889705,
              18.466955
            ],
            [
              73.888945,
              18.468958
            ],
            [
              73.888203,
              18.466938
            ],
            [
              73.889447,
              18.465698
            ],
            [
              73.889398,
              18.464743
            ],
            [
              73.886637,
              18.464887
            ],
            [
              73.885479,
              18.466196
            ],
            [
              73.88562,
              18.467521
            ],
            [
              73.88652,
              18.468196
            ],
            [
              73.884572,
              18.468823
            ],
            [
              73.882945,
              18.473166
            ],
            [
              73.879723,
              18.472418
            ],
            [
              73.877501,
              18.472751
            ],
            [
              73.87617,
              18.475196
            ],
            [
              73.8762,
              18.477196
            ],
            [
              73.874945,
              18.478122
            ],
            [
              73.87362,
              18.47787
            ],
            [
              73.872945,
              18.478827
            ]
          ]
        ],
        "type": "Polygon"
      },
      "type": "Feature"
    },
    {
      "properties": {
        "fill-opacity": 0.33,
        "fillColor": "#bf4040",
        "opacity": 0.33,
        "fill": "#bf4040",
        "fillOpacity": 0.33,
        "color": "#bf4040",
        "contour": 5.0,
        "metric": "distance",
        "provider_name": "Vintage Cafe",
        "zone_type": "distance",
        "distance_km": 5,
        "mode": "motorcycle",
        "center_lat": 18.45019613,
        "center_lon": 73.88094541,
        "label": "5km"
      },
      "geometry": {
        "coordinates": [
          [
            [
              73.870945,
              18.487437
            ],
            [
              73.868075,
              18.485066
            ],
            [
              73.867361,
              18.48178
            ],
            [
              73.864999,
              18.481142
            ],
            [
              73.865199,
              18.480196
            ],
            [
              73.867945,
              18.47996
            ],
            [
              73.870393,
              18.478644
            ],
            [
              73.870801,
              18.477051
            ],
            [
              73.872945,
              18.476672
            ],
            [
              73.873228,
              18.475912
            ],
            [
              73.871578,
              18.475562
            ],
            [
              73.869945,
              18.473731
            ],
            [
              73.864945,
              18.473607
            ],
            [
              73.862275,
              18.475526
            ],
            [
              73.861945,
              18.476959
            ],
            [
              73.859869,
              18.474196
            ],
            [
              73.860192,
              18.469949
            ],
            [
              73.858945,
              18.469212
            ],
            [
              73.857056,
              18.469307
            ],
            [
              73.856945,
              18.469931
            ],
            [
              73.854945,
              18.467505
            ],
            [
              73.852625,
              18.466196
            ],
            [
              73.853102,
              18.464039
            ],
            [
              73.848024,
              18.461116
            ],
            [
              73.845414,
              18.457726
            ],
            [
              73.844945,
              18.455224
            ],
            [
              73.843945,
              18.456281
            ],
            [
              73.841824,
              18.455075
            ],
            [
              73.839945,
              18.456702
            ],
            [
              73.836601,
              18.45454
            ],
            [
              73.837101,
              18.453196
            ],
            [
              73.839389,
              18.451196
            ],
            [
              73.837945,
              18.449664
            ],
            [
              73.835721,
              18.449196
            ],
            [
              73.837945,
              18.446866
            ],
            [
              73.841945,
              18.448785
            ],
            [
              73.84266,
              18.446911
            ],
            [
              73.843945,
              18.447725
            ],
            [
              73.845694,
              18.447196
            ],
            [
              73.843726,
              18.446415
            ],
            [
              73.843751,
              18.443002
            ],
            [
              73.844368,
              18.440196
            ],
            [
              73.845688,
              18.439939
            ],
            [
              73.845945,
              18.43716
            ],
            [
              73.84836,
              18.437196
            ],
            [
              73.847761,
              18.436196
            ],
            [
              73.848715,
              18.435966
            ],
            [
              73.848585,
              18.434556
            ],
            [
              73.847275,
              18.434196
            ],
            [
              73.848595,
              18.430845
            ],
            [
              73.850945,
              18.428977
            ],
            [
              73.853939,
              18.42919
            ],
            [
              73.854776,
              18.434364
            ],
            [
              73.857823,
              18.433196
            ],
            [
              73.855701,
              18.431196
            ],
            [
              73.856582,
              18.430196
            ],
            [
              73.855673,
              18.429196
            ],
            [
              73.856765,
              18.427196
            ],
            [
              73.856747,
              18.426394
            ],
            [
              73.855945,
              18.42613
            ],
            [
              73.858945,
              18.425461
            ],
            [
              73.859164,
              18.426196
            ],
            [
              73.858128,
              18.426379
            ],
            [
              73.858346,
              18.427795
            ],
            [
              73.861167,
              18.427974
            ],
            [
              73.861029,
              18.429196
            ],
            [
              73.862945,
              18.430957
            ],
            [
              73.863866,
              18.429117
            ],
            [
              73.865945,
              18.427473
            ],
            [
              73.866945,
              18.428816
            ],
            [
              73.869418,
              18.426669
            ],
            [
              73.869571,
              18.42557
            ],
            [
              73.86882,
              18.425196
            ],
            [
              73.868945,
              18.423388
            ],
            [
              73.8692,
              18.42494
            ],
            [
              73.871088,
              18.426052
            ],
            [
              73.871255,
              18.427886
            ],
            [
              73.872569,
              18.42782
            ],
            [
              73.872945,
              18.426317
            ],
            [
              73.876101,
              18.426039
            ],
            [
              73.876316,
              18.427196
            ],
            [
              73.875218,
              18.427469
            ],
            [
              73.875238,
              18.429902
            ],
            [
              73.876621,
              18.430196
            ],
            [
              73.876728,
              18.431413
            ],
            [
              73.87843,
              18.432196
            ],
            [
              73.877276,
              18.433196
            ],
            [
              73.878239,
              18.434196
            ],
            [
              73.878135,
              18.435386
            ],
            [
              73.87468,
              18.435931
            ],
            [
              73.876708,
              18.438196
            ],
            [
              73.876945,
              18.441401
            ],
            [
              73.877395,
              18.437646
            ],
            [
              73.879945,
              18.437428
            ],
            [
              73.880945,
              18.436438
            ],
            [
              73.881945,
              18.438423
            ],
            [
              73.883945,
              18.438518
            ],
            [
              73.886164,
              18.437415
            ],
            [
              73.885945,
              18.435812
            ],
            [
              73.882572,
              18.435569
            ],
            [
              73.882945,
              18.43259
            ],
            [
              73.883647,
              18.433494
            ],
            [
              73.884945,
              18.433481
            ],
            [
              73.885945,
              18.434449
            ],
            [
              73.887921,
              18.434219
            ],
            [
              73.887945,
              18.434764
            ],
            [
              73.888945,
              18.432401
            ],
            [
              73.892945,
              18.432508
            ],
            [
              73.895662,
              18.429196
            ],
            [
              73.898067,
              18.429318
            ],
            [
              73.898751,
              18.428196
            ],
            [
              73.899945,
              18.428072
            ],
            [
              73.899945,
              18.428402
            ],
            [
              73.899591,
              18.428841
            ],
            [
              73.899625,
              18.429196
            ],
            [
              73.89917,
              18.429421
            ],
            [
              73.899315,
              18.430825
            ],
            [
              73.901945,
              18.43194
            ],
            [
              73.903998,
              18.434196
            ],
            [
              73.904179,
              18.436429
            ],
            [
              73.903395,
              18.438196
            ],
            [
              73.904945,
              18.438646
            ],
            [
              73.905112,
              18.439363
            ],
            [
              73.903467,
              18.439718
            ],
            [
              73.903509,
              18.441632
            ],
            [
              73.905442,
              18.441693
            ],
            [
              73.906023,
              18.440118
            ],
            [
              73.908488,
              18.443196
            ],
            [
              73.908556,
              18.447585
            ],
            [
              73.9098,
              18.447196
            ],
            [
              73.909896,
              18.445196
            ],
            [
              73.910739,
              18.44499
            ],
            [
              73.910945,
              18.44401
            ],
            [
              73.912964,
              18.446196
            ],
            [
              73.911327,
              18.446578
            ],
            [
              73.911473,
              18.447668
            ],
            [
              73.916333,
              18.449808
            ],
            [
              73.916441,
              18.451196
            ],
            [
              73.914945,
              18.451152
            ],
            [
              73.913058,
              18.453308
            ],
            [
              73.912945,
              18.45538
            ],
            [
              73.909945,
              18.453739
            ],
            [
              73.910407,
              18.451734
            ],
            [
              73.908945,
              18.451605
            ],
            [
              73.907945,
              18.452596
            ],
            [
              73.905636,
              18.450887
            ],
            [
              73.906472,
              18.456669
            ],
            [
              73.907467,
              18.456718
            ],
            [
              73.907945,
              18.455109
            ],
            [
              73.908382,
              18.456758
            ],
            [
              73.910237,
              18.457196
            ],
            [
              73.909945,
              18.458239
            ],
            [
              73.909673,
              18.457468
            ],
            [
              73.90847,
              18.45772
            ],
            [
              73.907945,
              18.459423
            ],
            [
              73.906945,
              18.458513
            ],
            [
              73.904565,
              18.458815
            ],
            [
              73.905497,
              18.461644
            ],
            [
              73.907038,
              18.462103
            ],
            [
              73.906866,
              18.464117
            ],
            [
              73.902827,
              18.465196
            ],
            [
              73.901945,
              18.462196
            ],
            [
              73.899945,
              18.460761
            ],
            [
              73.898666,
              18.460917
            ],
            [
              73.8975,
              18.462196
            ],
            [
              73.897224,
              18.465475
            ],
            [
              73.894414,
              18.466196
            ],
            [
              73.893945,
              18.470084
            ],
            [
              73.891945,
              18.469578
            ],
            [
              73.891348,
              18.470196
            ],
            [
              73.892919,
              18.471169
            ],
            [
              73.893945,
              18.470812
            ],
            [
              73.894478,
              18.472196
            ],
            [
              73.894005,
              18.473256
            ],
            [
              73.892826,
              18.473196
            ],
            [
              73.890945,
              18.475106
            ],
            [
              73.889945,
              18.477722
            ],
            [
              73.886945,
              18.476122
            ],
            [
              73.884858,
              18.473196
            ],
            [
              73.883945,
              18.472943
            ],
            [
              73.882945,
              18.473964
            ],
            [
              73.879945,
              18.473726
            ],
            [
              73.878945,
              18.472698
            ],
            [
              73.877678,
              18.472929
            ],
            [
              73.876508,
              18.475196
            ],
            [
              73.877419,
              18.476196
            ],
            [
              73.877311,
              18.479196
            ],
            [
              73.87867,
              18.482921
            ],
            [
              73.876945,
              18.483502
            ],
            [
              73.876595,
              18.482545
            ],
            [
              73.875421,
              18.482672
            ],
            [
              73.875016,
              18.484266
            ],
            [
              73.873288,
              18.484539
            ],
            [
              73.870945,
              18.487437
            ]
          ]
        ],
        "type": "Polygon"
      },
      "type": "Feature"
    },
    {
      "properties": {
        "fill-opacity": 0.33,
        "fillColor": "#bf4040",
        "opacity": 0.33,
        "fill": "#bf4040",
        "fillOpacity": 0.33,
        "color": "#bf4040",
        "contour": 6.0,
        "metric": "distance",
        "provider_name": "Vintage Cafe",
        "zone_type": "distance",
        "distance_km": 6,
        "mode": "motorcycle",
        "center_lat": 18.45019613,
        "center_lon": 73.88094541,
        "label": "6km"
      },
      "geometry": {
        "coordinates": [
          [
            [
              73.868945,
              18.496395
            ],
            [
              73.868358,
              18.494782
            ],
            [
              73.867058,
              18.494083
            ],
            [
              73.866698,
              18.492442
            ],
            [
              73.865836,
              18.492196
            ],
            [
              73.866172,
              18.489968
            ],
            [
              73.862751,
              18.489196
            ],
            [
              73.862145,
              18.485196
            ],
            [
              73.862632,
              18.482509
            ],
            [
              73.860327,
              18.482578
            ],
            [
              73.858945,
              18.48571
            ],
            [
              73.858553,
              18.483588
            ],
            [
              73.856964,
              18.483196
            ],
            [
              73.858629,
              18.482196
            ],
            [
              73.85918,
              18.475961
            ],
            [
              73.857324,
              18.476196
            ],
            [
              73.856945,
              18.478735
            ],
            [
              73.856466,
              18.477675
            ],
            [
              73.854106,
              18.477196
            ],
            [
              73.851732,
              18.475196
            ],
            [
              73.851609,
              18.474196
            ],
            [
              73.852681,
              18.472931
            ],
            [
              73.852342,
              18.469799
            ],
            [
              73.850945,
              18.469531
            ],
            [
              73.848786,
              18.470354
            ],
            [
              73.846728,
              18.468196
            ],
            [
              73.848005,
              18.467196
            ],
            [
              73.847656,
              18.466196
            ],
            [
              73.845945,
              18.465887
            ],
            [
              73.844945,
              18.464737
            ],
            [
              73.841944,
              18.465197
            ],
            [
              73.841622,
              18.463519
            ],
            [
              73.839664,
              18.463196
            ],
            [
              73.837945,
              18.461089
            ],
            [
              73.835945,
              18.462831
            ],
            [
              73.834804,
              18.460337
            ],
            [
              73.832823,
              18.460073
            ],
            [
              73.831945,
              18.460796
            ],
            [
              73.830945,
              18.459597
            ],
            [
              73.829945,
              18.459618
            ],
            [
              73.829176,
              18.457965
            ],
            [
              73.827458,
              18.457683
            ],
            [
              73.829945,
              18.455028
            ],
            [
              73.833022,
              18.453273
            ],
            [
              73.833692,
              18.451196
            ],
            [
              73.832945,
              18.450449
            ],
            [
              73.831333,
              18.450584
            ],
            [
              73.830945,
              18.451743
            ],
            [
              73.828921,
              18.45322
            ],
            [
              73.828815,
              18.450326
            ],
            [
              73.827713,
              18.449196
            ],
            [
              73.826821,
              18.446196
            ],
            [
              73.827945,
              18.445843
            ],
            [
              73.828945,
              18.446429
            ],
            [
              73.829945,
              18.444852
            ],
            [
              73.832945,
              18.445461
            ],
            [
              73.836945,
              18.443211
            ],
            [
              73.837913,
              18.443228
            ],
            [
              73.837922,
              18.444219
            ],
            [
              73.837999,
              18.443249
            ],
            [
              73.840315,
              18.444566
            ],
            [
              73.841566,
              18.443816
            ],
            [
              73.841827,
              18.442313
            ],
            [
              73.839532,
              18.441609
            ],
            [
              73.839461,
              18.439196
            ],
            [
              73.841945,
              18.438798
            ],
            [
              73.842945,
              18.439736
            ],
            [
              73.845263,
              18.439513
            ],
            [
              73.845295,
              18.436845
            ],
            [
              73.84368,
              18.436461
            ],
            [
              73.843375,
              18.434766
            ],
            [
              73.841553,
              18.432196
            ],
            [
              73.842522,
              18.431196
            ],
            [
              73.84385,
              18.431101
            ],
            [
              73.844945,
              18.428687
            ],
            [
              73.845865,
              18.429275
            ],
            [
              73.846945,
              18.428805
            ],
            [
              73.847945,
              18.429729
            ],
            [
              73.849308,
              18.428559
            ],
            [
              73.849543,
              18.427196
            ],
            [
              73.848598,
              18.426196
            ],
            [
              73.849407,
              18.424733
            ],
            [
              73.846936,
              18.423196
            ],
            [
              73.847945,
              18.420981
            ],
            [
              73.850002,
              18.422138
            ],
            [
              73.850455,
              18.423685
            ],
            [
              73.852151,
              18.42399
            ],
            [
              73.853422,
              18.428196
            ],
            [
              73.854446,
              18.429196
            ],
            [
              73.854621,
              18.431519
            ],
            [
              73.855431,
              18.43171
            ],
            [
              73.854553,
              18.433196
            ],
            [
              73.854945,
              18.433775
            ],
            [
              73.857412,
              18.433196
            ],
            [
              73.855451,
              18.431689
            ],
            [
              73.856334,
              18.430196
            ],
            [
              73.855366,
              18.429196
            ],
            [
              73.856372,
              18.428196
            ],
            [
              73.8556,
              18.425851
            ],
            [
              73.857458,
              18.425196
            ],
            [
              73.854949,
              18.423196
            ],
            [
              73.857444,
              18.422694
            ],
            [
              73.857673,
              18.420468
            ],
            [
              73.856715,
              18.420196
            ],
            [
              73.856945,
              18.41953
            ],
            [
              73.857945,
              18.418997
            ],
            [
              73.858209,
              18.419932
            ],
            [
              73.860509,
              18.41976
            ],
            [
              73.860782,
              18.418358
            ],
            [
              73.859945,
              18.418086
            ],
            [
              73.860945,
              18.417552
            ],
            [
              73.863778,
              18.420196
            ],
            [
              73.86221,
              18.422196
            ],
            [
              73.863699,
              18.423441
            ],
            [
              73.863831,
              18.426196
            ],
            [
              73.866945,
              18.425787
            ],
            [
              73.867477,
              18.427663
            ],
            [
              73.869374,
              18.426196
            ],
            [
              73.868279,
              18.423862
            ],
            [
              73.866662,
              18.423479
            ],
            [
              73.86651,
              18.422196
            ],
            [
              73.868321,
              18.421571
            ],
            [
              73.870401,
              18.419652
            ],
            [
              73.870816,
              18.417196
            ],
            [
              73.871818,
              18.417069
            ],
            [
              73.871945,
              18.416101
            ],
            [
              73.871986,
              18.417237
            ],
            [
              73.87121,
              18.417461
            ],
            [
              73.871269,
              18.420196
            ],
            [
              73.869393,
              18.422196
            ],
            [
              73.870418,
              18.423196
            ],
            [
              73.869466,
              18.424196
            ],
            [
              73.871318,
              18.425822
            ],
            [
              73.871644,
              18.427496
            ],
            [
              73.872248,
              18.427499
            ],
            [
              73.873489,
              18.425196
            ],
            [
              73.873729,
              18.42198
            ],
            [
              73.875429,
              18.42168
            ],
            [
              73.876846,
              18.420097
            ],
            [
              73.877779,
              18.42003
            ],
            [
              73.877945,
              18.419189
            ],
            [
              73.878945,
              18.419506
            ],
            [
              73.880069,
              18.420196
            ],
            [
              73.879256,
              18.420507
            ],
            [
              73.880149,
              18.422196
            ],
            [
              73.879299,
              18.424196
            ],
            [
              73.881174,
              18.426196
            ],
            [
              73.879525,
              18.427775
            ],
            [
              73.879512,
              18.428629
            ],
            [
              73.881072,
              18.429069
            ],
            [
              73.881187,
              18.429953
            ],
            [
              73.885945,
              18.430802
            ],
            [
              73.886392,
              18.429748
            ],
            [
              73.884794,
              18.429196
            ],
            [
              73.884945,
              18.42655
            ],
            [
              73.885945,
              18.425656
            ],
            [
              73.886271,
              18.42687
            ],
            [
              73.888135,
              18.427196
            ],
            [
              73.887218,
              18.428196
            ],
            [
              73.888295,
              18.429196
            ],
            [
              73.888335,
              18.430586
            ],
            [
              73.887374,
              18.431196
            ],
            [
              73.887945,
              18.431725
            ],
            [
              73.890383,
              18.429634
            ],
            [
              73.89075,
              18.428
            ],
            [
              73.892945,
              18.426868
            ],
            [
              73.894194,
              18.426946
            ],
            [
              73.894945,
              18.428716
            ],
            [
              73.899109,
              18.427359
            ],
            [
              73.896731,
              18.426409
            ],
            [
              73.895849,
              18.425196
            ],
            [
              73.896945,
              18.422021
            ],
            [
              73.897143,
              18.422997
            ],
            [
              73.897993,
              18.423196
            ],
            [
              73.897492,
              18.425649
            ],
            [
              73.901345,
              18.425596
            ],
            [
              73.901459,
              18.423681
            ],
            [
              73.899924,
              18.422217
            ],
            [
              73.899889,
              18.421196
            ],
            [
              73.901722,
              18.420973
            ],
            [
              73.901945,
              18.419849
            ],
            [
              73.902304,
              18.421837
            ],
            [
              73.903664,
              18.421915
            ],
            [
              73.903945,
              18.420831
            ],
            [
              73.905479,
              18.422196
            ],
            [
              73.904206,
              18.422457
            ],
            [
              73.903387,
              18.423638
            ],
            [
              73.903281,
              18.428196
            ],
            [
              73.902366,
              18.429196
            ],
            [
              73.904379,
              18.432196
            ],
            [
              73.904605,
              18.434536
            ],
            [
              73.907157,
              18.432983
            ],
            [
              73.908305,
              18.435196
            ],
            [
              73.907568,
              18.435818
            ],
            [
              73.907514,
              18.437627
            ],
            [
              73.908439,
              18.437689
            ],
            [
              73.908655,
              18.435906
            ],
            [
              73.909945,
              18.435185
            ],
            [
              73.910076,
              18.436065
            ],
            [
              73.913574,
              18.438196
            ],
            [
              73.913392,
              18.439196
            ],
            [
              73.911945,
              18.439348
            ],
            [
              73.91127,
              18.440196
            ],
            [
              73.913254,
              18.441886
            ],
            [
              73.912279,
              18.443196
            ],
            [
              73.914751,
              18.444196
            ],
            [
              73.914945,
              18.445744
            ],
            [
              73.915945,
              18.442807
            ],
            [
              73.917945,
              18.441719
            ],
            [
              73.918945,
              18.441959
            ],
            [
              73.92114,
              18.446
            ],
            [
              73.920945,
              18.447287
            ],
            [
              73.920749,
              18.446391
            ],
            [
              73.919414,
              18.446664
            ],
            [
              73.919506,
              18.448635
            ],
            [
              73.921162,
              18.448979
            ],
            [
              73.922452,
              18.451689
            ],
            [
              73.923655,
              18.451906
            ],
            [
              73.923945,
              18.451376
            ],
            [
              73.925702,
              18.453196
            ],
            [
              73.920467,
              18.453717
            ],
            [
              73.921316,
              18.457566
            ],
            [
              73.920945,
              18.458006
            ],
            [
              73.919764,
              18.457377
            ],
            [
              73.919286,
              18.455855
            ],
            [
              73.918579,
              18.45583
            ],
            [
              73.917216,
              18.457467
            ],
            [
              73.916945,
              18.459113
            ],
            [
              73.915945,
              18.458912
            ],
            [
              73.915985,
              18.461236
            ],
            [
              73.914945,
              18.463392
            ],
            [
              73.907547,
              18.460593
            ],
            [
              73.906945,
              18.45879
            ],
            [
              73.904702,
              18.458953
            ],
            [
              73.905677,
              18.461464
            ],
            [
              73.907576,
              18.461564
            ],
            [
              73.907643,
              18.462498
            ],
            [
              73.90944,
              18.4627
            ],
            [
              73.910282,
              18.463858
            ],
            [
              73.908446,
              18.466196
            ],
            [
              73.909175,
              18.467425
            ],
            [
              73.907458,
              18.467709
            ],
            [
              73.906358,
              18.469609
            ],
            [
              73.902945,
              18.46956
            ],
            [
              73.901945,
              18.468618
            ],
            [
              73.900945,
              18.469631
            ],
            [
              73.89866,
              18.469481
            ],
            [
              73.898737,
              18.466988
            ],
            [
              73.90132,
              18.46657
            ],
            [
              73.902413,
              18.464196
            ],
            [
              73.900154,
              18.460987
            ],
            [
              73.898748,
              18.460999
            ],
            [
              73.897637,
              18.462196
            ],
            [
              73.897367,
              18.465617
            ],
            [
              73.894598,
              18.466196
            ],
            [
              73.894425,
              18.470196
            ],
            [
              73.896945,
              18.47082
            ],
            [
              73.89822,
              18.469921
            ],
            [
              73.898631,
              18.473882
            ],
            [
              73.895945,
              18.473638
            ],
            [
              73.895385,
              18.474196
            ],
            [
              73.896945,
              18.476005
            ],
            [
              73.897749,
              18.476
            ],
            [
              73.898209,
              18.474931
            ],
            [
              73.899288,
              18.477196
            ],
            [
              73.898792,
              18.478196
            ],
            [
              73.895945,
              18.480112
            ],
            [
              73.8944,
              18.47774
            ],
            [
              73.893532,
              18.477783
            ],
            [
              73.893525,
              18.478615
            ],
            [
              73.894928,
              18.479196
            ],
            [
              73.893484,
              18.480196
            ],
            [
              73.894176,
              18.481427
            ],
            [
              73.8903,
              18.48455
            ],
            [
              73.889945,
              18.485726
            ],
            [
              73.888945,
              18.485974
            ],
            [
              73.888174,
              18.484196
            ],
            [
              73.888698,
              18.483196
            ],
            [
              73.887935,
              18.482196
            ],
            [
              73.888845,
              18.480196
            ],
            [
              73.883945,
              18.479489
            ],
            [
              73.882945,
              18.480369
            ],
            [
              73.882539,
              18.479602
            ],
            [
              73.880945,
              18.479373
            ],
            [
              73.880299,
              18.480196
            ],
            [
              73.882579,
              18.483562
            ],
            [
              73.887739,
              18.484196
            ],
            [
              73.887536,
              18.485196
            ],
            [
              73.886945,
              18.485483
            ],
            [
              73.886708,
              18.484433
            ],
            [
              73.885383,
              18.484633
            ],
            [
              73.885076,
              18.486327
            ],
            [
              73.882124,
              18.488375
            ],
            [
              73.881945,
              18.489213
            ],
            [
              73.881425,
              18.488196
            ],
            [
              73.882653,
              18.487904
            ],
            [
              73.882447,
              18.486693
            ],
            [
              73.880561,
              18.486811
            ],
            [
              73.879945,
              18.488256
            ],
            [
              73.878909,
              18.488232
            ],
            [
              73.878548,
              18.486593
            ],
            [
              73.8775,
              18.48675
            ],
            [
              73.871268,
              18.492196
            ],
            [
              73.872391,
              18.494196
            ],
            [
              73.870455,
              18.494705
            ],
            [
              73.868945,
              18.496395
            ]
          ]
        ],
        "type": "Polygon"
      },
      "type": "Feature"
    }
  ]
}