{
  "type": "FeatureCollection",
  "metadata": {
    "provider_name": "Pizza Wave",
    "center_lat": 28.5218933,
    "center_lon": 77.3696701,
    "mode": "motorcycle",
    "total_zones": 4,
    "distance_zones": [
      3,
      4,
      5,
      6
    ],
    "generated_at": "2025-12-26T08:57:22.782833Z"
  },
  "features": [
    {
      "properties": {
        "fill-opacity": 0.33,
        "fillColor": "#bf4040",
        "opacity": 0.33,
        "fill": "#bf4040",
        "fillOpacity": 0.33,
        "color": "#bf4040",
        "contour": 3.0,
        "metric": "distance",
        "provider_name": "Pizza Wave",
        "zone_type": "distance",
        "distance_km": 3,
        "mode": "motorcycle",
        "center_lat": 28.5218933,
        "center_lon": 77.3696701,
        "label": "3km"
      },
      "geometry": {
        "coordinates": [
          [
            [
              77.36367,
              28.541928
            ],
            [
              77.359691,
              28.540893
            ],
            [
              77.361432,
              28.540656
            ],
            [
              77.363294,
              28.537893
            ],
            [
              77.36267,
              28.532455
            ],
            [
              77.36167,
              28.533414
            ],
            [
              77.36067,
              28.532446
            ],
            [
              77.35967,
              28.533817
            ],
            [
              77.357296,
              28.53452
            ],
            [
              77.35567,
              28.537166
            ],
            [
              77.35467,
              28.536248
            ],
            [
              77.350332,
              28.538555
            ],
            [
              77.347745,
              28.537893
            ],
            [
              77.349478,
              28.535893
            ],
            [
              77.349295,
              28.534268
            ],
            [
              77.348451,
              28.533675
            ],
            [
              77.34867,
              28.531225
            ],
            [
              77.34967,
              28.531779
            ],
            [
              77.351028,
              28.530893
            ],
            [
              77.34967,
              28.530053
            ],
            [
              77.34867,
              28.530471
            ],
            [
              77.347783,
              28.528893
            ],
            [
              77.34967,
              28.528797
            ],
            [
              77.349997,
              28.529566
            ],
            [
              77.351845,
              28.529717
            ],
            [
              77.35467,
              28.532414
            ],
            [
              77.356131,
              28.530893
            ],
            [
              77.351543,
              28.52702
            ],
            [
              77.35067,
              28.5245
            ],
            [
              77.35167,
              28.524625
            ],
            [
              77.352114,
              28.526448
            ],
            [
              77.353842,
              28.52672
            ],
            [
              77.357,
              28.529223
            ],
            [
              77.357297,
              28.525521
            ],
            [
              77.35867,
              28.526539
            ],
            [
              77.359201,
              28.525893
            ],
            [
              77.359235,
              28.519893
            ],
            [
              77.360274,
              28.518893
            ],
            [
              77.359705,
              28.517893
            ],
            [
              77.36027,
              28.517493
            ],
            [
              77.362044,
              28.517519
            ],
            [
              77.360138,
              28.520893
            ],
            [
              77.361154,
              28.521893
            ],
            [
              77.361379,
              28.524183
            ],
            [
              77.363977,
              28.523893
            ],
            [
              77.362984,
              28.522893
            ],
            [
              77.362993,
              28.521216
            ],
            [
              77.364009,
              28.519893
            ],
            [
              77.364037,
              28.517893
            ],
            [
              77.362236,
              28.517327
            ],
            [
              77.36067,
              28.514623
            ],
            [
              77.359454,
              28.515893
            ],
            [
              77.359606,
              28.517829
            ],
            [
              77.358831,
              28.518054
            ],
            [
              77.358846,
              28.51907
            ],
            [
              77.35706,
              28.519283
            ],
            [
              77.356458,
              28.520104
            ],
            [
              77.355375,
              28.519893
            ],
            [
              77.359215,
              28.513893
            ],
            [
              77.358228,
              28.512452
            ],
            [
              77.35992,
              28.511893
            ],
            [
              77.358564,
              28.510999
            ],
            [
              77.35867,
              28.50987
            ],
            [
              77.360813,
              28.50875
            ],
            [
              77.359232,
              28.50733
            ],
            [
              77.360091,
              28.504893
            ],
            [
              77.36267,
              28.502326
            ],
            [
              77.36567,
              28.501105
            ],
            [
              77.36767,
              28.502055
            ],
            [
              77.367222,
              28.504341
            ],
            [
              77.3692,
              28.503423
            ],
            [
              77.36967,
              28.502181
            ],
            [
              77.37167,
              28.503041
            ],
            [
              77.372206,
              28.504356
            ],
            [
              77.37467,
              28.506317
            ],
            [
              77.375409,
              28.504633
            ],
            [
              77.37667,
              28.505303
            ],
            [
              77.37767,
              28.504119
            ],
            [
              77.37867,
              28.504326
            ],
            [
              77.381927,
              28.507635
            ],
            [
              77.382274,
              28.509289
            ],
            [
              77.38467,
              28.51101
            ],
            [
              77.385663,
              28.509893
            ],
            [
              77.385538,
              28.507893
            ],
            [
              77.38648,
              28.507703
            ],
            [
              77.386151,
              28.504893
            ],
            [
              77.38667,
              28.504804
            ],
            [
              77.386895,
              28.505667
            ],
            [
              77.38867,
              28.505287
            ],
            [
              77.38967,
              28.506725
            ],
            [
              77.390462,
              28.506686
            ],
            [
              77.390577,
              28.5058
            ],
            [
              77.391716,
              28.505893
            ],
            [
              77.391012,
              28.509893
            ],
            [
              77.389142,
              28.510893
            ],
            [
              77.390733,
              28.512893
            ],
            [
              77.390769,
              28.516794
            ],
            [
              77.389941,
              28.517893
            ],
            [
              77.390451,
              28.519674
            ],
            [
              77.389539,
              28.519893
            ],
            [
              77.38867,
              28.518433
            ],
            [
              77.388053,
              28.519276
            ],
            [
              77.386301,
              28.519524
            ],
            [
              77.386244,
              28.520318
            ],
            [
              77.387979,
              28.520584
            ],
            [
              77.388549,
              28.521893
            ],
            [
              77.387137,
              28.52436
            ],
            [
              77.383801,
              28.526893
            ],
            [
              77.38584,
              28.529723
            ],
            [
              77.385778,
              28.531785
            ],
            [
              77.386571,
              28.531893
            ],
            [
              77.38467,
              28.532624
            ],
            [
              77.383956,
              28.529893
            ],
            [
              77.38267,
              28.529682
            ],
            [
              77.380626,
              28.531893
            ],
            [
              77.381043,
              28.532893
            ],
            [
              77.37867,
              28.533089
            ],
            [
              77.37167,
              28.536746
            ],
            [
              77.370243,
              28.535893
            ],
            [
              77.37067,
              28.534791
            ],
            [
              77.365722,
              28.534893
            ],
            [
              77.368098,
              28.538464
            ],
            [
              77.368415,
              28.540893
            ],
            [
              77.36667,
              28.541456
            ],
            [
              77.364599,
              28.539822
            ],
            [
              77.36367,
              28.541928
            ]
          ]
        ],
        "type": "Polygon"
      },
      "type": "Feature"
    },
    {
      "properties": {
        "fill-opacity": 0.33,
        "fillColor": "#bf4040",
        "opacity": 0.33,
        "fill": "#bf4040",
        "fillOpacity": 0.33,
        "color": "#bf4040",
        "contour": 4.0,
        "metric": "distance",
        "provider_name": "Pizza Wave",
        "zone_type": "distance",
        "distance_km": 4,
        "mode": "motorcycle",
        "center_lat": 28.5218933,
        "center_lon": 77.3696701,
        "label": "4km"
      },
      "geometry": {
        "coordinates": [
          [
            [
              77.37467,
              28.547682
            ],
            [
              77.3742,
              28.546363
            ],
            [
              77.371838,
              28.545893
            ],
            [
              77.372006,
              28.544557
            ],
            [
              77.36967,
              28.546307
            ],
            [
              77.367446,
              28.545893
            ],
            [
              77.36667,
              28.544108
            ],
            [
              77.36467,
              28.543854
            ],
            [
              77.364131,
              28.545432
            ],
            [
              77.365819,
              28.545893
            ],
            [
              77.36557,
              28.546893
            ],
            [
              77.362913,
              28.547137
            ],
            [
              77.36267,
              28.547711
            ],
            [
              77.35867,
              28.545499
            ],
            [
              77.35767,
              28.546393
            ],
            [
              77.356994,
              28.545568
            ],
            [
              77.355487,
              28.545711
            ],
            [
              77.35467,
              28.546862
            ],
            [
              77.35167,
              28.546306
            ],
            [
              77.352576,
              28.544799
            ],
            [
              77.354178,
              28.544401
            ],
            [
              77.355456,
              28.541679
            ],
            [
              77.35767,
              28.540473
            ],
            [
              77.35967,
              28.540393
            ],
            [
              77.36294,
              28.538163
            ],
            [
              77.36267,
              28.532588
            ],
            [
              77.36167,
              28.533569
            ],
            [
              77.360459,
              28.532682
            ],
            [
              77.35967,
              28.535336
            ],
            [
              77.35867,
              28.534402
            ],
            [
              77.35743,
              28.534654
            ],
            [
              77.35567,
              28.537472
            ],
            [
              77.35467,
              28.536501
            ],
            [
              77.352374,
              28.537597
            ],
            [
              77.351159,
              28.538893
            ],
            [
              77.351844,
              28.540068
            ],
            [
              77.346982,
              28.543205
            ],
            [
              77.34667,
              28.544741
            ],
            [
              77.34467,
              28.543974
            ],
            [
              77.345509,
              28.543732
            ],
            [
              77.34556,
              28.542893
            ],
            [
              77.34467,
              28.542131
            ],
            [
              77.34167,
              28.543695
            ],
            [
              77.340244,
              28.543318
            ],
            [
              77.339758,
              28.542893
            ],
            [
              77.341351,
              28.542575
            ],
            [
              77.342268,
              28.541491
            ],
            [
              77.341542,
              28.539765
            ],
            [
              77.34487,
              28.537093
            ],
            [
              77.34367,
              28.536029
            ],
            [
              77.341996,
              28.535893
            ],
            [
              77.341133,
              28.534893
            ],
            [
              77.34267,
              28.530949
            ],
            [
              77.34367,
              28.531669
            ],
            [
              77.344433,
              28.530893
            ],
            [
              77.34367,
              28.530016
            ],
            [
              77.342712,
              28.529935
            ],
            [
              77.34267,
              28.530575
            ],
            [
              77.342568,
              28.528893
            ],
            [
              77.345077,
              28.528893
            ],
            [
              77.344906,
              28.530893
            ],
            [
              77.346073,
              28.531296
            ],
            [
              77.345721,
              28.528893
            ],
            [
              77.347215,
              28.527893
            ],
            [
              77.348636,
              28.520859
            ],
            [
              77.34967,
              28.520641
            ],
            [
              77.350326,
              28.522237
            ],
            [
              77.352854,
              28.521893
            ],
            [
              77.353011,
              28.520893
            ],
            [
              77.351947,
              28.519893
            ],
            [
              77.352339,
              28.515562
            ],
            [
              77.35367,
              28.515181
            ],
            [
              77.35567,
              28.518418
            ],
            [
              77.357786,
              28.515893
            ],
            [
              77.357486,
              28.513076
            ],
            [
              77.355854,
              28.513078
            ],
            [
              77.355156,
              28.513893
            ],
            [
              77.355236,
              28.512326
            ],
            [
              77.352907,
              28.51313
            ],
            [
              77.35267,
              28.514009
            ],
            [
              77.351646,
              28.513893
            ],
            [
              77.352143,
              28.511893
            ],
            [
              77.353418,
              28.510641
            ],
            [
              77.35343,
              28.509133
            ],
            [
              77.352614,
              28.508893
            ],
            [
              77.352627,
              28.504893
            ],
            [
              77.353456,
              28.504679
            ],
            [
              77.353664,
              28.501888
            ],
            [
              77.35567,
              28.502038
            ],
            [
              77.355863,
              28.5027
            ],
            [
              77.35867,
              28.502521
            ],
            [
              77.36067,
              28.503471
            ],
            [
              77.361393,
              28.500893
            ],
            [
              77.36067,
              28.500112
            ],
            [
              77.358625,
              28.500938
            ],
            [
              77.359572,
              28.499795
            ],
            [
              77.361217,
              28.49944
            ],
            [
              77.36167,
              28.498599
            ],
            [
              77.36467,
              28.498419
            ],
            [
              77.36667,
              28.501077
            ],
            [
              77.36767,
              28.50016
            ],
            [
              77.36967,
              28.499832
            ],
            [
              77.37067,
              28.50045
            ],
            [
              77.371468,
              28.499893
            ],
            [
              77.371547,
              28.499016
            ],
            [
              77.370678,
              28.498893
            ],
            [
              77.37167,
              28.496935
            ],
            [
              77.37267,
              28.49709
            ],
            [
              77.37367,
              28.499563
            ],
            [
              77.37967,
              28.498486
            ],
            [
              77.380088,
              28.499474
            ],
            [
              77.381441,
              28.499664
            ],
            [
              77.38167,
              28.498371
            ],
            [
              77.382783,
              28.498893
            ],
            [
              77.382579,
              28.499893
            ],
            [
              77.38367,
              28.500617
            ],
            [
              77.38567,
              28.498535
            ],
            [
              77.387038,
              28.499261
            ],
            [
              77.387634,
              28.496893
            ],
            [
              77.38867,
              28.49659
            ],
            [
              77.392273,
              28.500893
            ],
            [
              77.390407,
              28.50163
            ],
            [
              77.391087,
              28.503476
            ],
            [
              77.390152,
              28.504893
            ],
            [
              77.39067,
              28.505368
            ],
            [
              77.392931,
              28.503893
            ],
            [
              77.392063,
              28.502893
            ],
            [
              77.392293,
              28.501516
            ],
            [
              77.39467,
              28.499223
            ],
            [
              77.395355,
              28.499893
            ],
            [
              77.39523,
              28.501893
            ],
            [
              77.396066,
              28.502496
            ],
            [
              77.398296,
              28.502519
            ],
            [
              77.39867,
              28.501199
            ],
            [
              77.400949,
              28.501893
            ],
            [
              77.39967,
              28.505267
            ],
            [
              77.398259,
              28.505893
            ],
            [
              77.3991,
              28.507893
            ],
            [
              77.39867,
              28.508022
            ],
            [
              77.39847,
              28.507093
            ],
            [
              77.39767,
              28.507084
            ],
            [
              77.396839,
              28.508062
            ],
            [
              77.39406,
              28.508893
            ],
            [
              77.395762,
              28.5098
            ],
            [
              77.395846,
              28.510893
            ],
            [
              77.39585,
              28.512893
            ],
            [
              77.394173,
              28.515389
            ],
            [
              77.395572,
              28.515795
            ],
            [
              77.39567,
              28.515101
            ],
            [
              77.39767,
              28.516099
            ],
            [
              77.39651,
              28.518893
            ],
            [
              77.397774,
              28.519893
            ],
            [
              77.395107,
              28.521331
            ],
            [
              77.393984,
              28.524207
            ],
            [
              77.392302,
              28.523525
            ],
            [
              77.391771,
              28.525791
            ],
            [
              77.39264,
              28.525893
            ],
            [
              77.389005,
              28.527893
            ],
            [
              77.390216,
              28.528893
            ],
            [
              77.389739,
              28.529962
            ],
            [
              77.388202,
              28.530425
            ],
            [
              77.387505,
              28.532058
            ],
            [
              77.38967,
              28.533966
            ],
            [
              77.392516,
              28.533739
            ],
            [
              77.39267,
              28.533231
            ],
            [
              77.393473,
              28.533893
            ],
            [
              77.392107,
              28.53733
            ],
            [
              77.390263,
              28.537486
            ],
            [
              77.38967,
              28.538781
            ],
            [
              77.38867,
              28.53785
            ],
            [
              77.387396,
              28.538619
            ],
            [
              77.388122,
              28.539893
            ],
            [
              77.38767,
              28.54098
            ],
            [
              77.38567,
              28.540585
            ],
            [
              77.385376,
              28.539187
            ],
            [
              77.383035,
              28.538893
            ],
            [
              77.383056,
              28.537893
            ],
            [
              77.385186,
              28.537409
            ],
            [
              77.38467,
              28.536249
            ],
            [
              77.383183,
              28.536407
            ],
            [
              77.38267,
              28.537748
            ],
            [
              77.380789,
              28.537013
            ],
            [
              77.379706,
              28.53693
            ],
            [
              77.37967,
              28.537512
            ],
            [
              77.379658,
              28.536882
            ],
            [
              77.380477,
              28.5367
            ],
            [
              77.381059,
              28.533893
            ],
            [
              77.37867,
              28.533447
            ],
            [
              77.37767,
              28.534455
            ],
            [
              77.37567,
              28.534496
            ],
            [
              77.37434,
              28.535563
            ],
            [
              77.37467,
              28.536766
            ],
            [
              77.376253,
              28.536893
            ],
            [
              77.374073,
              28.539893
            ],
            [
              77.376025,
              28.542248
            ],
            [
              77.373508,
              28.543731
            ],
            [
              77.37475,
              28.544893
            ],
            [
              77.37467,
              28.547682
            ]
          ]
        ],
        "type": "Polygon"
      },
      "type": "Feature"
    },
    {
      "properties": {
        "fill-opacity": 0.33,
        "fillColor": "#bf4040",
        "opacity": 0.33,
        "fill": "#bf4040",
        "fillOpacity": 0.33,
        "color": "#bf4040",
        "contour": 5.0,
        "metric": "distance",
        "provider_name": "Pizza Wave",
        "zone_type": "distance",
        "distance_km": 5,
        "mode": "motorcycle",
        "center_lat": 28.5218933,
        "center_lon": 77.3696701,
        "label": "5km"
      },
      "geometry": {
        "coordinates": [
          [
            [
              77.37767,
              28.556256
            ],
            [
              77.37302,
              28.554893
            ],
            [
              77.372848,
              28.552893
            ],
            [
              77.37367,
              28.552551
            ],
            [
              77.373872,
              28.553691
            ],
            [
              77.37524,
              28.553463
            ],
            [
              77.375093,
              28.551469
            ],
            [
              77.372513,
              28.551737
            ],
            [
              77.37167,
              28.55255
            ],
            [
              77.371159,
              28.550403
            ],
            [
              77.369937,
              28.550161
            ],
            [
              77.36967,
              28.551043
            ],
            [
              77.368692,
              28.550916
            ],
            [
              77.367676,
              28.549893
            ],
            [
              77.366829,
              28.548893
            ],
            [
              77.367713,
              28.547893
            ],
            [
              77.365508,
              28.547731
            ],
            [
              77.36467,
              28.549064
            ],
            [
              77.36367,
              28.548417
            ],
            [
              77.362837,
              28.549061
            ],
            [
              77.36267,
              28.550068
            ],
            [
              77.361425,
              28.549648
            ],
            [
              77.361133,
              28.550893
            ],
            [
              77.35667,
              28.555013
            ],
            [
              77.352843,
              28.552893
            ],
            [
              77.354074,
              28.551893
            ],
            [
              77.352944,
              28.550618
            ],
            [
              77.352247,
              28.550893
            ],
            [
              77.352336,
              28.552893
            ],
            [
              77.34967,
              28.552901
            ],
            [
              77.348556,
              28.551006
            ],
            [
              77.34939,
              28.550613
            ],
            [
              77.349239,
              28.549324
            ],
            [
              77.34667,
              28.55005
            ],
            [
              77.347193,
              28.548369
            ],
            [
              77.343576,
              28.547986
            ],
            [
              77.342299,
              28.546893
            ],
            [
              77.342152,
              28.544411
            ],
            [
              77.339362,
              28.544586
            ],
            [
              77.33667,
              28.54704
            ],
            [
              77.334775,
              28.546999
            ],
            [
              77.334303,
              28.547893
            ],
            [
              77.334668,
              28.545892
            ],
            [
              77.336452,
              28.544893
            ],
            [
              77.33467,
              28.542489
            ],
            [
              77.33567,
              28.54271
            ],
            [
              77.335979,
              28.543583
            ],
            [
              77.33767,
              28.543664
            ],
            [
              77.341861,
              28.540893
            ],
            [
              77.34067,
              28.539239
            ],
            [
              77.33867,
              28.538322
            ],
            [
              77.33667,
              28.53822
            ],
            [
              77.333709,
              28.539932
            ],
            [
              77.332626,
              28.538937
            ],
            [
              77.33367,
              28.537856
            ],
            [
              77.338166,
              28.536389
            ],
            [
              77.339247,
              28.533893
            ],
            [
              77.338505,
              28.532058
            ],
            [
              77.336611,
              28.531893
            ],
            [
              77.337452,
              28.528893
            ],
            [
              77.336559,
              28.526783
            ],
            [
              77.337075,
              28.527488
            ],
            [
              77.33867,
              28.527626
            ],
            [
              77.34067,
              28.526167
            ],
            [
              77.34167,
              28.52842
            ],
            [
              77.346652,
              28.527893
            ],
            [
              77.347999,
              28.522563
            ],
            [
              77.347248,
              28.522471
            ],
            [
              77.34567,
              28.524158
            ],
            [
              77.34467,
              28.523106
            ],
            [
              77.34261,
              28.522893
            ],
            [
              77.344315,
              28.522539
            ],
            [
              77.344669,
              28.520894
            ],
            [
              77.343578,
              28.519893
            ],
            [
              77.345338,
              28.519562
            ],
            [
              77.346505,
              28.516728
            ],
            [
              77.34767,
              28.517567
            ],
            [
              77.349114,
              28.517337
            ],
            [
              77.349119,
              28.516444
            ],
            [
              77.347448,
              28.515893
            ],
            [
              77.350091,
              28.515314
            ],
            [
              77.349323,
              28.513893
            ],
            [
              77.350223,
              28.512893
            ],
            [
              77.350373,
              28.510596
            ],
            [
              77.352994,
              28.510217
            ],
            [
              77.352155,
              28.508893
            ],
            [
              77.352159,
              28.504893
            ],
            [
              77.353155,
              28.503893
            ],
            [
              77.353168,
              28.501893
            ],
            [
              77.354381,
              28.499605
            ],
            [
              77.35867,
              28.500378
            ],
            [
              77.361226,
              28.498449
            ],
            [
              77.36467,
              28.497691
            ],
            [
              77.36767,
              28.499493
            ],
            [
              77.369026,
              28.499249
            ],
            [
              77.370203,
              28.497893
            ],
            [
              77.369388,
              28.491893
            ],
            [
              77.370451,
              28.490893
            ],
            [
              77.37067,
              28.48862
            ],
            [
              77.370921,
              28.491893
            ],
            [
              77.372112,
              28.492336
            ],
            [
              77.37267,
              28.487874
            ],
            [
              77.374258,
              28.491304
            ],
            [
              77.375611,
              28.491834
            ],
            [
              77.37667,
              28.491057
            ],
            [
              77.376797,
              28.492893
            ],
            [
              77.375217,
              28.49444
            ],
            [
              77.375079,
              28.495893
            ],
            [
              77.37767,
              28.498405
            ],
            [
              77.379269,
              28.497893
            ],
            [
              77.37867,
              28.494681
            ],
            [
              77.38367,
              28.496778
            ],
            [
              77.39067,
              28.49434
            ],
            [
              77.390714,
              28.494849
            ],
            [
              77.398819,
              28.494744
            ],
            [
              77.400213,
              28.495349
            ],
            [
              77.401692,
              28.49487
            ],
            [
              77.403418,
              28.495893
            ],
            [
              77.404883,
              28.498679
            ],
            [
              77.40867,
              28.497393
            ],
            [
              77.410123,
              28.498893
            ],
            [
              77.40867,
              28.5018
            ],
            [
              77.407037,
              28.50226
            ],
            [
              77.407181,
              28.503893
            ],
            [
              77.405457,
              28.504681
            ],
            [
              77.405993,
              28.505893
            ],
            [
              77.404914,
              28.508137
            ],
            [
              77.402933,
              28.509893
            ],
            [
              77.40367,
              28.510743
            ],
            [
              77.405579,
              28.510802
            ],
            [
              77.405818,
              28.509745
            ],
            [
              77.405721,
              28.510893
            ],
            [
              77.404861,
              28.511893
            ],
            [
              77.406128,
              28.514893
            ],
            [
              77.404881,
              28.515104
            ],
            [
              77.405501,
              28.517893
            ],
            [
              77.403933,
              28.518156
            ],
            [
              77.403107,
              28.51933
            ],
            [
              77.403128,
              28.521351
            ],
            [
              77.40167,
              28.524846
            ],
            [
              77.399162,
              28.5224
            ],
            [
              77.398183,
              28.522406
            ],
            [
              77.397906,
              28.523656
            ],
            [
              77.398739,
              28.523824
            ],
            [
              77.39867,
              28.524717
            ],
            [
              77.39667,
              28.524543
            ],
            [
              77.396577,
              28.5298
            ],
            [
              77.395045,
              28.530893
            ],
            [
              77.396174,
              28.531397
            ],
            [
              77.39667,
              28.530069
            ],
            [
              77.399808,
              28.531893
            ],
            [
              77.397989,
              28.532212
            ],
            [
              77.398515,
              28.534048
            ],
            [
              77.403343,
              28.534893
            ],
            [
              77.40215,
              28.535373
            ],
            [
              77.40167,
              28.536944
            ],
            [
              77.397108,
              28.537331
            ],
            [
              77.396864,
              28.538699
            ],
            [
              77.398263,
              28.538893
            ],
            [
              77.39667,
              28.539976
            ],
            [
              77.39567,
              28.539035
            ],
            [
              77.394924,
              28.540893
            ],
            [
              77.39167,
              28.544043
            ],
            [
              77.38867,
              28.542684
            ],
            [
              77.386189,
              28.543413
            ],
            [
              77.38367,
              28.545856
            ],
            [
              77.38228,
              28.545893
            ],
            [
              77.382809,
              28.547893
            ],
            [
              77.381817,
              28.54904
            ],
            [
              77.37878,
              28.548893
            ],
            [
              77.37867,
              28.547659
            ],
            [
              77.37667,
              28.54831
            ],
            [
              77.37667,
              28.549391
            ],
            [
              77.378492,
              28.549893
            ],
            [
              77.376932,
              28.551155
            ],
            [
              77.376875,
              28.554688
            ],
            [
              77.377728,
              28.554893
            ],
            [
              77.37767,
              28.556256
            ]
          ]
        ],
        "type": "Polygon"
      },
      "type": "Feature"
    },
    {
      "properties": {
        "fill-opacity": 0.33,
        "fillColor": "#bf4040",
        "opacity": 0.33,
        "fill": "#bf4040",
        "fillOpacity": 0.33,
        "color": "#bf4040",
        "contour": 6.0,
        "metric": "distance",
        "provider_name": "Pizza Wave",
        "zone_type": "distance",
        "distance_km": 6,
        "mode": "motorcycle",
        "center_lat": 28.5218933,
        "center_lon": 77.3696701,
        "label": "6km"
      },
      "geometry": {
        "coordinates": [
          [
            [
              77.37967,
              28.564662
            ],
            [
              77.37622,
              28.562342
            ],
            [
              77.37351,
              28.561733
            ],
            [
              77.371461,
              28.563102
            ],
            [
              77.370698,
              28.562893
            ],
            [
              77.371576,
              28.562799
            ],
            [
              77.371263,
              28.561299
            ],
            [
              77.36967,
              28.560683
            ],
            [
              77.367867,
              28.561695
            ],
            [
              77.365852,
              28.560893
            ],
            [
              77.367054,
              28.559509
            ],
            [
              77.36367,
              28.556765
            ],
            [
              77.360757,
              28.557893
            ],
            [
              77.36226,
              28.558893
            ],
            [
              77.36177,
              28.559893
            ],
            [
              77.359093,
              28.560893
            ],
            [
              77.355775,
              28.560998
            ],
            [
              77.35567,
              28.56192
            ],
            [
              77.354325,
              28.561893
            ],
            [
              77.354074,
              28.560893
            ],
            [
              77.351624,
              28.559893
            ],
            [
              77.353439,
              28.559662
            ],
            [
              77.35437,
              28.557893
            ],
            [
              77.35367,
              28.557193
            ],
            [
              77.351098,
              28.557321
            ],
            [
              77.350012,
              28.558236
            ],
            [
              77.349968,
              28.559893
            ],
            [
              77.34767,
              28.559596
            ],
            [
              77.34749,
              28.558073
            ],
            [
              77.346594,
              28.557893
            ],
            [
              77.346469,
              28.554893
            ],
            [
              77.349092,
              28.553315
            ],
            [
              77.348052,
              28.550511
            ],
            [
              77.346217,
              28.550346
            ],
            [
              77.34667,
              28.54858
            ],
            [
              77.343006,
              28.548557
            ],
            [
              77.34167,
              28.546926
            ],
            [
              77.34067,
              28.546818
            ],
            [
              77.34035,
              28.545212
            ],
            [
              77.33967,
              28.545048
            ],
            [
              77.33667,
              28.547734
            ],
            [
              77.335533,
              28.547756
            ],
            [
              77.32867,
              28.553969
            ],
            [
              77.326949,
              28.553613
            ],
            [
              77.327587,
              28.550976
            ],
            [
              77.326904,
              28.548893
            ],
            [
              77.328477,
              28.546893
            ],
            [
              77.328351,
              28.546212
            ],
            [
              77.326979,
              28.545893
            ],
            [
              77.327464,
              28.542893
            ],
            [
              77.331198,
              28.539421
            ],
            [
              77.331466,
              28.538096
            ],
            [
              77.33067,
              28.537432
            ],
            [
              77.33167,
              28.53735
            ],
            [
              77.33267,
              28.538383
            ],
            [
              77.33367,
              28.537384
            ],
            [
              77.33567,
              28.53731
            ],
            [
              77.33791,
              28.536134
            ],
            [
              77.339036,
              28.533893
            ],
            [
              77.337944,
              28.532619
            ],
            [
              77.336301,
              28.532262
            ],
            [
              77.337109,
              28.528893
            ],
            [
              77.336125,
              28.526893
            ],
            [
              77.33667,
              28.526348
            ],
            [
              77.338926,
              28.52815
            ],
            [
              77.339268,
              28.526491
            ],
            [
              77.34022,
              28.525893
            ],
            [
              77.3394,
              28.524623
            ],
            [
              77.344138,
              28.521893
            ],
            [
              77.342355,
              28.519578
            ],
            [
              77.34367,
              28.518406
            ],
            [
              77.344971,
              28.519195
            ],
            [
              77.347295,
              28.515518
            ],
            [
              77.349928,
              28.515151
            ],
            [
              77.349061,
              28.513893
            ],
            [
              77.350026,
              28.512893
            ],
            [
              77.350241,
              28.510464
            ],
            [
              77.352983,
              28.509893
            ],
            [
              77.351997,
              28.508893
            ],
            [
              77.351998,
              28.504893
            ],
            [
              77.35567,
              28.497561
            ],
            [
              77.355798,
              28.498893
            ],
            [
              77.35767,
              28.500569
            ],
            [
              77.36067,
              28.498429
            ],
            [
              77.36367,
              28.498167
            ],
            [
              77.36467,
              28.497337
            ],
            [
              77.36667,
              28.499284
            ],
            [
              77.36867,
              28.499256
            ],
            [
              77.369899,
              28.498122
            ],
            [
              77.370037,
              28.494893
            ],
            [
              77.369061,
              28.493893
            ],
            [
              77.369088,
              28.491893
            ],
            [
              77.370108,
              28.490893
            ],
            [
              77.37036,
              28.483893
            ],
            [
              77.37267,
              28.48033
            ],
            [
              77.376355,
              28.481893
            ],
            [
              77.374897,
              28.482121
            ],
            [
              77.37567,
              28.483607
            ],
            [
              77.37667,
              28.482039
            ],
            [
              77.379575,
              28.482893
            ],
            [
              77.37799,
              28.486893
            ],
            [
              77.380282,
              28.487893
            ],
            [
              77.380909,
              28.489653
            ],
            [
              77.385028,
              28.488893
            ],
            [
              77.38522,
              28.489893
            ],
            [
              77.383966,
              28.491893
            ],
            [
              77.384997,
              28.492893
            ],
            [
              77.384968,
              28.495191
            ],
            [
              77.38267,
              28.49431
            ],
            [
              77.382138,
              28.494893
            ],
            [
              77.38267,
              28.496327
            ],
            [
              77.38467,
              28.496297
            ],
            [
              77.385264,
              28.495487
            ],
            [
              77.389017,
              28.49424
            ],
            [
              77.39167,
              28.490968
            ],
            [
              77.394653,
              28.493893
            ],
            [
              77.39867,
              28.494351
            ],
            [
              77.39967,
              28.493477
            ],
            [
              77.401488,
              28.493711
            ],
            [
              77.40167,
              28.492868
            ],
            [
              77.40367,
              28.493571
            ],
            [
              77.404242,
              28.492321
            ],
            [
              77.402882,
              28.490893
            ],
            [
              77.40467,
              28.489608
            ],
            [
              77.40567,
              28.490147
            ],
            [
              77.40667,
              28.4926
            ],
            [
              77.40867,
              28.491364
            ],
            [
              77.411,
              28.491893
            ],
            [
              77.410093,
              28.492893
            ],
            [
              77.41167,
              28.494412
            ],
            [
              77.41367,
              28.493215
            ],
            [
              77.41667,
              28.492908
            ],
            [
              77.419293,
              28.494893
            ],
            [
              77.418672,
              28.495895
            ],
            [
              77.416923,
              28.496146
            ],
            [
              77.415963,
              28.497187
            ],
            [
              77.41589,
              28.500672
            ],
            [
              77.41675,
              28.500893
            ],
            [
              77.415738,
              28.500961
            ],
            [
              77.415689,
              28.503873
            ],
            [
              77.414748,
              28.503971
            ],
            [
              77.414718,
              28.505844
            ],
            [
              77.41567,
              28.505893
            ],
            [
              77.414423,
              28.506646
            ],
            [
              77.414785,
              28.508893
            ],
            [
              77.411868,
              28.509092
            ],
            [
              77.411699,
              28.510864
            ],
            [
              77.414603,
              28.510893
            ],
            [
              77.413793,
              28.512016
            ],
            [
              77.410226,
              28.513449
            ],
            [
              77.410022,
              28.516245
            ],
            [
              77.408002,
              28.516893
            ],
            [
              77.40867,
              28.517822
            ],
            [
              77.40967,
              28.517736
            ],
            [
              77.410341,
              28.516564
            ],
            [
              77.41167,
              28.516619
            ],
            [
              77.41267,
              28.515785
            ],
            [
              77.41467,
              28.515612
            ],
            [
              77.414888,
              28.515893
            ],
            [
              77.412942,
              28.516165
            ],
            [
              77.41367,
              28.518536
            ],
            [
              77.412658,
              28.518905
            ],
            [
              77.41167,
              28.517923
            ],
            [
              77.409197,
              28.51842
            ],
            [
              77.408324,
              28.519893
            ],
            [
              77.409826,
              28.520737
            ],
            [
              77.40967,
              28.522799
            ],
            [
              77.40767,
              28.523081
            ],
            [
              77.40694,
              28.523893
            ],
            [
              77.408091,
              28.524893
            ],
            [
              77.406977,
              28.525893
            ],
            [
              77.407765,
              28.526988
            ],
            [
              77.40467,
              28.527196
            ],
            [
              77.40396,
              28.527893
            ],
            [
              77.404215,
              28.529348
            ],
            [
              77.407015,
              28.529893
            ],
            [
              77.404952,
              28.530175
            ],
            [
              77.404413,
              28.530893
            ],
            [
              77.406233,
              28.53433
            ],
            [
              77.40967,
              28.534408
            ],
            [
              77.41067,
              28.535403
            ],
            [
              77.413704,
              28.535893
            ],
            [
              77.412172,
              28.536395
            ],
            [
              77.41167,
              28.537399
            ],
            [
              77.41,
              28.537223
            ],
            [
              77.409796,
              28.538766
            ],
            [
              77.410756,
              28.538893
            ],
            [
              77.40867,
              28.540408
            ],
            [
              77.403609,
              28.538832
            ],
            [
              77.403593,
              28.539969
            ],
            [
              77.40489,
              28.540893
            ],
            [
              77.40367,
              28.544109
            ],
            [
              77.40267,
              28.544723
            ],
            [
              77.40067,
              28.54305
            ],
            [
              77.398217,
              28.54344
            ],
            [
              77.397895,
              28.544893
            ],
            [
              77.398733,
              28.546956
            ],
            [
              77.397704,
              28.546928
            ],
            [
              77.39667,
              28.548142
            ],
            [
              77.394604,
              28.547828
            ],
            [
              77.39367,
              28.54887
            ],
            [
              77.39167,
              28.548344
            ],
            [
              77.391512,
              28.549735
            ],
            [
              77.389468,
              28.550691
            ],
            [
              77.388989,
              28.551893
            ],
            [
              77.38567,
              28.552665
            ],
            [
              77.38567,
              28.554257
            ],
            [
              77.38367,
              28.554883
            ],
            [
              77.379528,
              28.549751
            ],
            [
              77.378979,
              28.551202
            ],
            [
              77.37745,
              28.551673
            ],
            [
              77.377256,
              28.552893
            ],
            [
              77.378493,
              28.55607
            ],
            [
              77.380712,
              28.558893
            ],
            [
              77.380833,
              28.561893
            ],
            [
              77.380048,
              28.562271
            ],
            [
              77.37967,
              28.564662
            ]
          ]
        ],
        "type": "Polygon"
      },
      "type": "Feature"
    }
  ]
}