{
  "type": "FeatureCollection",
  "metadata": {
    "provider_name": "Nourishing Farms",
    "center_lat": 16.70983605,
    "center_lon": 74.23950117,
    "mode": "motorcycle",
    "total_zones": 4,
    "distance_zones": [
      3,
      4,
      5,
      6
    ],
    "generated_at": "2025-12-29T11:05:53.072470Z"
  },
  "features": [
    {
      "properties": {
        "fill-opacity": 0.33,
        "fillColor": "#bf4040",
        "opacity": 0.33,
        "fill": "#bf4040",
        "fillOpacity": 0.33,
        "color": "#bf4040",
        "contour": 3.0,
        "metric": "distance",
        "provider_name": "Nourishing Farms",
        "zone_type": "distance",
        "distance_km": 3,
        "mode": "motorcycle",
        "center_lat": 16.70983605,
        "center_lon": 74.23950117,
        "label": "3km"
      },
      "geometry": {
        "coordinates": [
          [
            [
              74.243501,
              16.733821
            ],
            [
              74.238617,
              16.732719
            ],
            [
              74.238474,
              16.731809
            ],
            [
              74.240501,
              16.731643
            ],
            [
              74.241217,
              16.730836
            ],
            [
              74.240501,
              16.730118
            ],
            [
              74.237501,
              16.729937
            ],
            [
              74.237501,
              16.729227
            ],
            [
              74.237626,
              16.72971
            ],
            [
              74.240501,
              16.729553
            ],
            [
              74.241118,
              16.728836
            ],
            [
              74.23816,
              16.727177
            ],
            [
              74.237827,
              16.724509
            ],
            [
              74.237149,
              16.724483
            ],
            [
              74.236789,
              16.726123
            ],
            [
              74.235501,
              16.727134
            ],
            [
              74.234917,
              16.725419
            ],
            [
              74.232501,
              16.724176
            ],
            [
              74.227281,
              16.724056
            ],
            [
              74.230114,
              16.722836
            ],
            [
              74.229981,
              16.720355
            ],
            [
              74.227226,
              16.71911
            ],
            [
              74.22617,
              16.716836
            ],
            [
              74.227866,
              16.716201
            ],
            [
              74.228986,
              16.712836
            ],
            [
              74.227197,
              16.711532
            ],
            [
              74.226968,
              16.713836
            ],
            [
              74.226189,
              16.714147
            ],
            [
              74.225956,
              16.710836
            ],
            [
              74.225166,
              16.710501
            ],
            [
              74.224501,
              16.715137
            ],
            [
              74.223095,
              16.711836
            ],
            [
              74.224033,
              16.710836
            ],
            [
              74.224103,
              16.705437
            ],
            [
              74.224865,
              16.705836
            ],
            [
              74.225501,
              16.70931
            ],
            [
              74.226782,
              16.709117
            ],
            [
              74.227758,
              16.705578
            ],
            [
              74.226179,
              16.705158
            ],
            [
              74.225501,
              16.703378
            ],
            [
              74.222501,
              16.706036
            ],
            [
              74.221501,
              16.704207
            ],
            [
              74.220501,
              16.706354
            ],
            [
              74.21912,
              16.706455
            ],
            [
              74.218501,
              16.707432
            ],
            [
              74.21769,
              16.706836
            ],
            [
              74.21779,
              16.705836
            ],
            [
              74.219251,
              16.704836
            ],
            [
              74.217137,
              16.703836
            ],
            [
              74.217448,
              16.701836
            ],
            [
              74.218772,
              16.700836
            ],
            [
              74.218192,
              16.698527
            ],
            [
              74.219441,
              16.696836
            ],
            [
              74.220511,
              16.696846
            ],
            [
              74.220501,
              16.695199
            ],
            [
              74.222983,
              16.695318
            ],
            [
              74.223501,
              16.693032
            ],
            [
              74.225813,
              16.693523
            ],
            [
              74.226551,
              16.694785
            ],
            [
              74.229501,
              16.693308
            ],
            [
              74.232501,
              16.696054
            ],
            [
              74.233333,
              16.692668
            ],
            [
              74.235501,
              16.689798
            ],
            [
              74.238253,
              16.692836
            ],
            [
              74.237493,
              16.693843
            ],
            [
              74.237329,
              16.693008
            ],
            [
              74.235979,
              16.693314
            ],
            [
              74.236893,
              16.695444
            ],
            [
              74.239085,
              16.69542
            ],
            [
              74.24073,
              16.693836
            ],
            [
              74.242103,
              16.697836
            ],
            [
              74.245501,
              16.70121
            ],
            [
              74.247318,
              16.700018
            ],
            [
              74.252573,
              16.699908
            ],
            [
              74.252427,
              16.698836
            ],
            [
              74.255501,
              16.69765
            ],
            [
              74.256336,
              16.698836
            ],
            [
              74.254733,
              16.700836
            ],
            [
              74.255501,
              16.701678
            ],
            [
              74.257277,
              16.701836
            ],
            [
              74.256306,
              16.702836
            ],
            [
              74.257398,
              16.703836
            ],
            [
              74.256635,
              16.70397
            ],
            [
              74.256879,
              16.705458
            ],
            [
              74.257805,
              16.705836
            ],
            [
              74.257281,
              16.707055
            ],
            [
              74.259501,
              16.70687
            ],
            [
              74.260798,
              16.707836
            ],
            [
              74.258507,
              16.709836
            ],
            [
              74.256804,
              16.710139
            ],
            [
              74.256627,
              16.710836
            ],
            [
              74.258351,
              16.712836
            ],
            [
              74.257488,
              16.713848
            ],
            [
              74.259655,
              16.715836
            ],
            [
              74.258488,
              16.717836
            ],
            [
              74.258547,
              16.720836
            ],
            [
              74.257501,
              16.722012
            ],
            [
              74.255045,
              16.722379
            ],
            [
              74.254501,
              16.724151
            ],
            [
              74.252888,
              16.722449
            ],
            [
              74.251998,
              16.722836
            ],
            [
              74.252901,
              16.724836
            ],
            [
              74.252048,
              16.727288
            ],
            [
              74.255973,
              16.727836
            ],
            [
              74.252022,
              16.728357
            ],
            [
              74.251501,
              16.730201
            ],
            [
              74.250974,
              16.728362
            ],
            [
              74.250001,
              16.728336
            ],
            [
              74.248501,
              16.730385
            ],
            [
              74.247501,
              16.729995
            ],
            [
              74.246501,
              16.731382
            ],
            [
              74.244552,
              16.731887
            ],
            [
              74.243501,
              16.733821
            ]
          ]
        ],
        "type": "Polygon"
      },
      "type": "Feature"
    },
    {
      "properties": {
        "fill-opacity": 0.33,
        "fillColor": "#bf4040",
        "opacity": 0.33,
        "fill": "#bf4040",
        "fillOpacity": 0.33,
        "color": "#bf4040",
        "contour": 4.0,
        "metric": "distance",
        "provider_name": "Nourishing Farms",
        "zone_type": "distance",
        "distance_km": 4,
        "mode": "motorcycle",
        "center_lat": 16.70983605,
        "center_lon": 74.23950117,
        "label": "4km"
      },
      "geometry": {
        "coordinates": [
          [
            [
              74.245501,
              16.742193
            ],
            [
              74.243501,
              16.74244
            ],
            [
              74.24159,
              16.741746
            ],
            [
              74.241991,
              16.738346
            ],
            [
              74.239737,
              16.738072
            ],
            [
              74.239501,
              16.738742
            ],
            [
              74.238985,
              16.737352
            ],
            [
              74.236501,
              16.737034
            ],
            [
              74.236182,
              16.736154
            ],
            [
              74.234326,
              16.735836
            ],
            [
              74.237501,
              16.735501
            ],
            [
              74.238081,
              16.734836
            ],
            [
              74.2371,
              16.733836
            ],
            [
              74.237213,
              16.730836
            ],
            [
              74.236289,
              16.729836
            ],
            [
              74.237025,
              16.72836
            ],
            [
              74.238501,
              16.729295
            ],
            [
              74.239882,
              16.728836
            ],
            [
              74.238076,
              16.72726
            ],
            [
              74.23772,
              16.724616
            ],
            [
              74.236088,
              16.726836
            ],
            [
              74.236973,
              16.728308
            ],
            [
              74.235109,
              16.727227
            ],
            [
              74.234757,
              16.725579
            ],
            [
              74.232501,
              16.724438
            ],
            [
              74.227501,
              16.724401
            ],
            [
              74.226142,
              16.725194
            ],
            [
              74.226138,
              16.723473
            ],
            [
              74.22976,
              16.723095
            ],
            [
              74.229908,
              16.720836
            ],
            [
              74.227081,
              16.719255
            ],
            [
              74.225902,
              16.716836
            ],
            [
              74.227734,
              16.716069
            ],
            [
              74.228712,
              16.712624
            ],
            [
              74.227292,
              16.711627
            ],
            [
              74.227153,
              16.713836
            ],
            [
              74.226066,
              16.714271
            ],
            [
              74.225813,
              16.710836
            ],
            [
              74.225278,
              16.710613
            ],
            [
              74.225089,
              16.714836
            ],
            [
              74.224501,
              16.715424
            ],
            [
              74.222877,
              16.712836
            ],
            [
              74.223848,
              16.710836
            ],
            [
              74.22387,
              16.705466
            ],
            [
              74.222501,
              16.706391
            ],
            [
              74.221501,
              16.70445
            ],
            [
              74.219812,
              16.708147
            ],
            [
              74.215738,
              16.708073
            ],
            [
              74.214501,
              16.709213
            ],
            [
              74.213036,
              16.709371
            ],
            [
              74.212501,
              16.712909
            ],
            [
              74.212165,
              16.711171
            ],
            [
              74.210692,
              16.711027
            ],
            [
              74.21005,
              16.711836
            ],
            [
              74.210438,
              16.710773
            ],
            [
              74.212308,
              16.708643
            ],
            [
              74.217007,
              16.706836
            ],
            [
              74.217044,
              16.704836
            ],
            [
              74.215268,
              16.704069
            ],
            [
              74.216189,
              16.702836
            ],
            [
              74.214904,
              16.701432
            ],
            [
              74.211501,
              16.70225
            ],
            [
              74.211501,
              16.701792
            ],
            [
              74.213167,
              16.701502
            ],
            [
              74.213968,
              16.700303
            ],
            [
              74.214389,
              16.697836
            ],
            [
              74.212462,
              16.695874
            ],
            [
              74.212361,
              16.693976
            ],
            [
              74.21113,
              16.693836
            ],
            [
              74.212501,
              16.693769
            ],
            [
              74.212772,
              16.694564
            ],
            [
              74.21402,
              16.694355
            ],
            [
              74.214435,
              16.69277
            ],
            [
              74.21535,
              16.692684
            ],
            [
              74.21648,
              16.689836
            ],
            [
              74.217501,
              16.689065
            ],
            [
              74.220501,
              16.689441
            ],
            [
              74.22064,
              16.690696
            ],
            [
              74.222042,
              16.690377
            ],
            [
              74.223114,
              16.687836
            ],
            [
              74.222393,
              16.686836
            ],
            [
              74.223347,
              16.686681
            ],
            [
              74.223501,
              16.68576
            ],
            [
              74.224501,
              16.686141
            ],
            [
              74.224838,
              16.687498
            ],
            [
              74.228501,
              16.687546
            ],
            [
              74.228933,
              16.688403
            ],
            [
              74.230501,
              16.688671
            ],
            [
              74.231357,
              16.687836
            ],
            [
              74.23141,
              16.686926
            ],
            [
              74.230701,
              16.686836
            ],
            [
              74.231429,
              16.686764
            ],
            [
              74.233501,
              16.688431
            ],
            [
              74.23522,
              16.685555
            ],
            [
              74.236284,
              16.684619
            ],
            [
              74.237804,
              16.684532
            ],
            [
              74.238718,
              16.684836
            ],
            [
              74.238767,
              16.686836
            ],
            [
              74.239501,
              16.687523
            ],
            [
              74.241343,
              16.687677
            ],
            [
              74.241501,
              16.686554
            ],
            [
              74.242501,
              16.68612
            ],
            [
              74.243501,
              16.68661
            ],
            [
              74.243576,
              16.68776
            ],
            [
              74.245512,
              16.687824
            ],
            [
              74.24666,
              16.689676
            ],
            [
              74.248458,
              16.689793
            ],
            [
              74.248501,
              16.689299
            ],
            [
              74.248552,
              16.689887
            ],
            [
              74.247893,
              16.690228
            ],
            [
              74.247805,
              16.691836
            ],
            [
              74.246811,
              16.693146
            ],
            [
              74.244952,
              16.695286
            ],
            [
              74.243183,
              16.695836
            ],
            [
              74.243365,
              16.697836
            ],
            [
              74.244501,
              16.698413
            ],
            [
              74.252501,
              16.692883
            ],
            [
              74.253073,
              16.694836
            ],
            [
              74.251881,
              16.696216
            ],
            [
              74.251866,
              16.697836
            ],
            [
              74.253812,
              16.698147
            ],
            [
              74.257105,
              16.694836
            ],
            [
              74.257264,
              16.691836
            ],
            [
              74.258093,
              16.691428
            ],
            [
              74.258501,
              16.689041
            ],
            [
              74.260328,
              16.690836
            ],
            [
              74.25882,
              16.691155
            ],
            [
              74.257996,
              16.692331
            ],
            [
              74.258808,
              16.693836
            ],
            [
              74.258091,
              16.695246
            ],
            [
              74.259501,
              16.695515
            ],
            [
              74.260501,
              16.694616
            ],
            [
              74.264094,
              16.694836
            ],
            [
              74.263768,
              16.695836
            ],
            [
              74.262719,
              16.696054
            ],
            [
              74.26282,
              16.698516
            ],
            [
              74.26437,
              16.700836
            ],
            [
              74.266528,
              16.701808
            ],
            [
              74.264781,
              16.702836
            ],
            [
              74.267819,
              16.706836
            ],
            [
              74.269501,
              16.706942
            ],
            [
              74.2701,
              16.707836
            ],
            [
              74.267879,
              16.708214
            ],
            [
              74.267639,
              16.709697
            ],
            [
              74.268513,
              16.709847
            ],
            [
              74.265329,
              16.710664
            ],
            [
              74.265684,
              16.712019
            ],
            [
              74.262028,
              16.713363
            ],
            [
              74.261704,
              16.714836
            ],
            [
              74.262704,
              16.718039
            ],
            [
              74.261501,
              16.717215
            ],
            [
              74.259967,
              16.717836
            ],
            [
              74.261501,
              16.719444
            ],
            [
              74.266331,
              16.719666
            ],
            [
              74.266536,
              16.7188
            ],
            [
              74.266553,
              16.719888
            ],
            [
              74.264879,
              16.720214
            ],
            [
              74.264501,
              16.721904
            ],
            [
              74.264063,
              16.720273
            ],
            [
              74.261501,
              16.720227
            ],
            [
              74.257501,
              16.722384
            ],
            [
              74.25523,
              16.722565
            ],
            [
              74.254501,
              16.724424
            ],
            [
              74.252273,
              16.722608
            ],
            [
              74.252147,
              16.724836
            ],
            [
              74.253122,
              16.725836
            ],
            [
              74.252231,
              16.727105
            ],
            [
              74.257501,
              16.727381
            ],
            [
              74.257939,
              16.728274
            ],
            [
              74.252501,
              16.728415
            ],
            [
              74.252051,
              16.729836
            ],
            [
              74.252818,
              16.731153
            ],
            [
              74.249501,
              16.731284
            ],
            [
              74.247108,
              16.732443
            ],
            [
              74.247501,
              16.733503
            ],
            [
              74.249501,
              16.733629
            ],
            [
              74.249868,
              16.734468
            ],
            [
              74.251657,
              16.734836
            ],
            [
              74.249713,
              16.736047
            ],
            [
              74.249501,
              16.737468
            ],
            [
              74.247501,
              16.738106
            ],
            [
              74.246911,
              16.739836
            ],
            [
              74.245606,
              16.739941
            ],
            [
              74.245578,
              16.741758
            ],
            [
              74.246133,
              16.741836
            ],
            [
              74.245501,
              16.742193
            ]
          ]
        ],
        "type": "Polygon"
      },
      "type": "Feature"
    },
    {
      "properties": {
        "fill-opacity": 0.33,
        "fillColor": "#bf4040",
        "opacity": 0.33,
        "fill": "#bf4040",
        "fillOpacity": 0.33,
        "color": "#bf4040",
        "contour": 5.0,
        "metric": "distance",
        "provider_name": "Nourishing Farms",
        "zone_type": "distance",
        "distance_km": 5,
        "mode": "motorcycle",
        "center_lat": 16.70983605,
        "center_lon": 74.23950117,
        "label": "5km"
      },
      "geometry": {
        "coordinates": [
          [
            [
              74.242501,
              16.751056
            ],
            [
              74.242169,
              16.749168
            ],
            [
              74.240518,
              16.748836
            ],
            [
              74.241316,
              16.748651
            ],
            [
              74.242193,
              16.746836
            ],
            [
              74.242125,
              16.744836
            ],
            [
              74.240068,
              16.742836
            ],
            [
              74.241003,
              16.741836
            ],
            [
              74.240501,
              16.741315
            ],
            [
              74.239925,
              16.742259
            ],
            [
              74.238092,
              16.741836
            ],
            [
              74.238027,
              16.738836
            ],
            [
              74.238781,
              16.737555
            ],
            [
              74.236501,
              16.737391
            ],
            [
              74.234501,
              16.73634
            ],
            [
              74.232104,
              16.737439
            ],
            [
              74.230698,
              16.739032
            ],
            [
              74.228932,
              16.739267
            ],
            [
              74.228501,
              16.740722
            ],
            [
              74.227092,
              16.740836
            ],
            [
              74.228367,
              16.738701
            ],
            [
              74.229967,
              16.738302
            ],
            [
              74.232053,
              16.735836
            ],
            [
              74.230501,
              16.734184
            ],
            [
              74.227832,
              16.734167
            ],
            [
              74.227501,
              16.734902
            ],
            [
              74.227214,
              16.734122
            ],
            [
              74.225506,
              16.733836
            ],
            [
              74.226501,
              16.732927
            ],
            [
              74.226706,
              16.73363
            ],
            [
              74.231501,
              16.733465
            ],
            [
              74.233501,
              16.735355
            ],
            [
              74.237868,
              16.734836
            ],
            [
              74.236875,
              16.733836
            ],
            [
              74.236917,
              16.730836
            ],
            [
              74.235942,
              16.729836
            ],
            [
              74.236845,
              16.728491
            ],
            [
              74.235029,
              16.727308
            ],
            [
              74.234686,
              16.725651
            ],
            [
              74.232501,
              16.724551
            ],
            [
              74.227501,
              16.724533
            ],
            [
              74.226501,
              16.72552
            ],
            [
              74.225817,
              16.724836
            ],
            [
              74.226501,
              16.723149
            ],
            [
              74.229688,
              16.723022
            ],
            [
              74.22979,
              16.720836
            ],
            [
              74.227014,
              16.719322
            ],
            [
              74.225787,
              16.716836
            ],
            [
              74.227673,
              16.716008
            ],
            [
              74.228661,
              16.712675
            ],
            [
              74.227342,
              16.711677
            ],
            [
              74.226995,
              16.71433
            ],
            [
              74.226006,
              16.71433
            ],
            [
              74.225334,
              16.710669
            ],
            [
              74.225209,
              16.714836
            ],
            [
              74.224501,
              16.715544
            ],
            [
              74.222774,
              16.712836
            ],
            [
              74.223759,
              16.710836
            ],
            [
              74.223771,
              16.705566
            ],
            [
              74.222501,
              16.706528
            ],
            [
              74.221501,
              16.704557
            ],
            [
              74.221133,
              16.706836
            ],
            [
              74.219936,
              16.70827
            ],
            [
              74.215978,
              16.708313
            ],
            [
              74.213227,
              16.709562
            ],
            [
              74.212853,
              16.716836
            ],
            [
              74.213789,
              16.717836
            ],
            [
              74.213501,
              16.721758
            ],
            [
              74.213257,
              16.718836
            ],
            [
              74.212199,
              16.717836
            ],
            [
              74.211501,
              16.71524
            ],
            [
              74.209501,
              16.715149
            ],
            [
              74.208501,
              16.716165
            ],
            [
              74.207025,
              16.71636
            ],
            [
              74.205607,
              16.717942
            ],
            [
              74.20466,
              16.717995
            ],
            [
              74.204424,
              16.718912
            ],
            [
              74.204273,
              16.717063
            ],
            [
              74.202535,
              16.716836
            ],
            [
              74.204377,
              16.714712
            ],
            [
              74.207903,
              16.714238
            ],
            [
              74.208209,
              16.712544
            ],
            [
              74.212111,
              16.708446
            ],
            [
              74.214501,
              16.707215
            ],
            [
              74.21673,
              16.707065
            ],
            [
              74.216853,
              16.704836
            ],
            [
              74.215097,
              16.70424
            ],
            [
              74.215908,
              16.702836
            ],
            [
              74.214501,
              16.701438
            ],
            [
              74.208501,
              16.704223
            ],
            [
              74.203103,
              16.704836
            ],
            [
              74.202693,
              16.702836
            ],
            [
              74.203277,
              16.702612
            ],
            [
              74.204501,
              16.702548
            ],
            [
              74.205501,
              16.703589
            ],
            [
              74.207501,
              16.703481
            ],
            [
              74.208501,
              16.702438
            ],
            [
              74.210501,
              16.702367
            ],
            [
              74.21116,
              16.701495
            ],
            [
              74.212802,
              16.701137
            ],
            [
              74.213906,
              16.699836
            ],
            [
              74.213971,
              16.697836
            ],
            [
              74.212157,
              16.696179
            ],
            [
              74.211501,
              16.694346
            ],
            [
              74.207973,
              16.695308
            ],
            [
              74.207501,
              16.696035
            ],
            [
              74.206501,
              16.693478
            ],
            [
              74.20377,
              16.694105
            ],
            [
              74.203501,
              16.694779
            ],
            [
              74.201993,
              16.693836
            ],
            [
              74.205016,
              16.693351
            ],
            [
              74.205501,
              16.689103
            ],
            [
              74.210135,
              16.693201
            ],
            [
              74.212501,
              16.693318
            ],
            [
              74.213789,
              16.694124
            ],
            [
              74.214997,
              16.691836
            ],
            [
              74.215099,
              16.688836
            ],
            [
              74.21615,
              16.687836
            ],
            [
              74.216314,
              16.684023
            ],
            [
              74.215459,
              16.683877
            ],
            [
              74.215501,
              16.683201
            ],
            [
              74.216501,
              16.683211
            ],
            [
              74.218501,
              16.685455
            ],
            [
              74.222665,
              16.685836
            ],
            [
              74.222913,
              16.682836
            ],
            [
              74.221324,
              16.680012
            ],
            [
              74.221501,
              16.678725
            ],
            [
              74.222501,
              16.679268
            ],
            [
              74.224501,
              16.678424
            ],
            [
              74.226501,
              16.680016
            ],
            [
              74.228501,
              16.677875
            ],
            [
              74.228758,
              16.679579
            ],
            [
              74.230405,
              16.679836
            ],
            [
              74.22982,
              16.681836
            ],
            [
              74.230501,
              16.682482
            ],
            [
              74.231261,
              16.681836
            ],
            [
              74.230693,
              16.679836
            ],
            [
              74.232501,
              16.678562
            ],
            [
              74.233546,
              16.67979
            ],
            [
              74.236472,
              16.679864
            ],
            [
              74.236967,
              16.682836
            ],
            [
              74.238501,
              16.683334
            ],
            [
              74.239207,
              16.680542
            ],
            [
              74.241501,
              16.679641
            ],
            [
              74.241798,
              16.681538
            ],
            [
              74.243675,
              16.682836
            ],
            [
              74.242821,
              16.684836
            ],
            [
              74.244896,
              16.685836
            ],
            [
              74.244119,
              16.687217
            ],
            [
              74.245812,
              16.687524
            ],
            [
              74.247501,
              16.689308
            ],
            [
              74.248501,
              16.688317
            ],
            [
              74.250231,
              16.688566
            ],
            [
              74.250501,
              16.687741
            ],
            [
              74.252638,
              16.687973
            ],
            [
              74.252501,
              16.686738
            ],
            [
              74.253625,
              16.686711
            ],
            [
              74.254501,
              16.6886
            ],
            [
              74.255501,
              16.686445
            ],
            [
              74.256161,
              16.687175
            ],
            [
              74.257628,
              16.686963
            ],
            [
              74.256501,
              16.684969
            ],
            [
              74.255681,
              16.684836
            ],
            [
              74.257117,
              16.682836
            ],
            [
              74.257501,
              16.680179
            ],
            [
              74.258687,
              16.680836
            ],
            [
              74.257646,
              16.680981
            ],
            [
              74.257906,
              16.68243
            ],
            [
              74.2597,
              16.683836
            ],
            [
              74.258723,
              16.684836
            ],
            [
              74.259109,
              16.686228
            ],
            [
              74.264336,
              16.685671
            ],
            [
              74.264501,
              16.68512
            ],
            [
              74.265409,
              16.685836
            ],
            [
              74.263781,
              16.686116
            ],
            [
              74.263972,
              16.688364
            ],
            [
              74.266739,
              16.688836
            ],
            [
              74.262501,
              16.689111
            ],
            [
              74.261109,
              16.688444
            ],
            [
              74.259997,
              16.689836
            ],
            [
              74.260831,
              16.691166
            ],
            [
              74.259195,
              16.69153
            ],
            [
              74.258088,
              16.692836
            ],
            [
              74.259092,
              16.693836
            ],
            [
              74.258247,
              16.695089
            ],
            [
              74.259501,
              16.69524
            ],
            [
              74.260501,
              16.694274
            ],
            [
              74.265501,
              16.694373
            ],
            [
              74.266501,
              16.691963
            ],
            [
              74.268243,
              16.691578
            ],
            [
              74.270501,
              16.691709
            ],
            [
              74.270829,
              16.692507
            ],
            [
              74.272726,
              16.692836
            ],
            [
              74.270501,
              16.695661
            ],
            [
              74.27153,
              16.697836
            ],
            [
              74.269869,
              16.700204
            ],
            [
              74.269801,
              16.701836
            ],
            [
              74.270501,
              16.702503
            ],
            [
              74.274535,
              16.702836
            ],
            [
              74.271752,
              16.704087
            ],
            [
              74.271519,
              16.704836
            ],
            [
              74.272751,
              16.705586
            ],
            [
              74.273095,
              16.707242
            ],
            [
              74.277501,
              16.70766
            ],
            [
              74.277773,
              16.708563
            ],
            [
              74.279446,
              16.708836
            ],
            [
              74.278501,
              16.709405
            ],
            [
              74.276501,
              16.708079
            ],
            [
              74.272125,
              16.70846
            ],
            [
              74.272098,
              16.709238
            ],
            [
              74.273712,
              16.709625
            ],
            [
              74.273803,
              16.710836
            ],
            [
              74.271839,
              16.712836
            ],
            [
              74.271837,
              16.715499
            ],
            [
              74.273501,
              16.715892
            ],
            [
              74.271501,
              16.715991
            ],
            [
              74.270501,
              16.715117
            ],
            [
              74.269399,
              16.715938
            ],
            [
              74.268312,
              16.714836
            ],
            [
              74.270179,
              16.713836
            ],
            [
              74.267501,
              16.712276
            ],
            [
              74.263098,
              16.716433
            ],
            [
              74.262894,
              16.718229
            ],
            [
              74.260266,
              16.717601
            ],
            [
              74.261501,
              16.719214
            ],
            [
              74.265501,
              16.71929
            ],
            [
              74.266501,
              16.718322
            ],
            [
              74.267014,
              16.718836
            ],
            [
              74.266848,
              16.720182
            ],
            [
              74.265022,
              16.720836
            ],
            [
              74.264824,
              16.726512
            ],
            [
              74.265587,
              16.72775
            ],
            [
              74.265501,
              16.72894
            ],
            [
              74.265279,
              16.728057
            ],
            [
              74.263393,
              16.727836
            ],
            [
              74.264229,
              16.726836
            ],
            [
              74.263899,
              16.724437
            ],
            [
              74.261501,
              16.724141
            ],
            [
              74.259501,
              16.725019
            ],
            [
              74.258376,
              16.723836
            ],
            [
              74.263878,
              16.723213
            ],
            [
              74.263794,
              16.720542
            ],
            [
              74.261501,
              16.720457
            ],
            [
              74.257501,
              16.722524
            ],
            [
              74.255501,
              16.722537
            ],
            [
              74.254501,
              16.724544
            ],
            [
              74.252331,
              16.722666
            ],
            [
              74.252239,
              16.724836
            ],
            [
              74.253226,
              16.725836
            ],
            [
              74.252309,
              16.727028
            ],
            [
              74.258501,
              16.727203
            ],
            [
              74.260118,
              16.728836
            ],
            [
              74.258501,
              16.729465
            ],
            [
              74.257501,
              16.728483
            ],
            [
              74.252501,
              16.72854
            ],
            [
              74.252191,
              16.729836
            ],
            [
              74.253089,
              16.731247
            ],
            [
              74.261501,
              16.731492
            ],
            [
              74.263501,
              16.732604
            ],
            [
              74.264164,
              16.732499
            ],
            [
              74.264539,
              16.730797
            ],
            [
              74.264661,
              16.732836
            ],
            [
              74.261501,
              16.733167
            ],
            [
              74.260501,
              16.732224
            ],
            [
              74.253501,
              16.732412
            ],
            [
              74.252913,
              16.731424
            ],
            [
              74.249501,
              16.73148
            ],
            [
              74.247254,
              16.732589
            ],
            [
              74.247501,
              16.733236
            ],
            [
              74.249501,
              16.733278
            ],
            [
              74.250501,
              16.734305
            ],
            [
              74.261111,
              16.734836
            ],
            [
              74.256501,
              16.735163
            ],
            [
              74.255724,
              16.735836
            ],
            [
              74.256501,
              16.737593
            ],
            [
              74.259404,
              16.737836
            ],
            [
              74.255227,
              16.738109
            ],
            [
              74.254501,
              16.737175
            ],
            [
              74.251944,
              16.737836
            ],
            [
              74.252501,
              16.738468
            ],
            [
              74.254778,
              16.738559
            ],
            [
              74.255501,
              16.739622
            ],
            [
              74.257949,
              16.739836
            ],
            [
              74.254501,
              16.740066
            ],
            [
              74.253501,
              16.739168
            ],
            [
              74.250501,
              16.739284
            ],
            [
              74.249501,
              16.742299
            ],
            [
              74.248865,
              16.739471
            ],
            [
              74.246225,
              16.74056
            ],
            [
              74.250812,
              16.747524
            ],
            [
              74.252534,
              16.747836
            ],
            [
              74.251675,
              16.74801
            ],
            [
              74.251501,
              16.749186
            ],
            [
              74.251293,
              16.748043
            ],
            [
              74.248392,
              16.746945
            ],
            [
              74.246501,
              16.744268
            ],
            [
              74.244883,
              16.745836
            ],
            [
              74.245782,
              16.746836
            ],
            [
              74.245501,
              16.749198
            ],
            [
              74.245106,
              16.74823
            ],
            [
              74.243962,
              16.748297
            ],
            [
              74.242874,
              16.749209
            ],
            [
              74.242501,
              16.751056
            ]
          ]
        ],
        "type": "Polygon"
      },
      "type": "Feature"
    },
    {
      "properties": {
        "fill-opacity": 0.33,
        "fillColor": "#bf4040",
        "opacity": 0.33,
        "fill": "#bf4040",
        "fillOpacity": 0.33,
        "color": "#bf4040",
        "contour": 6.0,
        "metric": "distance",
        "provider_name": "Nourishing Farms",
        "zone_type": "distance",
        "distance_km": 6,
        "mode": "motorcycle",
        "center_lat": 16.70983605,
        "center_lon": 74.23950117,
        "label": "6km"
      },
      "geometry": {
        "coordinates": [
          [
            [
              74.247501,
              16.75689
            ],
            [
              74.2472,
              16.753836
            ],
            [
              74.24589,
              16.751447
            ],
            [
              74.243501,
              16.751159
            ],
            [
              74.242501,
              16.752312
            ],
            [
              74.241809,
              16.749528
            ],
            [
              74.240001,
              16.748836
            ],
            [
              74.241789,
              16.747124
            ],
            [
              74.241885,
              16.744836
            ],
            [
              74.239866,
              16.742471
            ],
            [
              74.237872,
              16.741836
            ],
            [
              74.238501,
              16.737546
            ],
            [
              74.236501,
              16.737528
            ],
            [
              74.234501,
              16.736504
            ],
            [
              74.232252,
              16.737587
            ],
            [
              74.230892,
              16.739227
            ],
            [
              74.229208,
              16.739543
            ],
            [
              74.228993,
              16.740836
            ],
            [
              74.231625,
              16.745836
            ],
            [
              74.231501,
              16.747873
            ],
            [
              74.231218,
              16.746118
            ],
            [
              74.228626,
              16.745961
            ],
            [
              74.228087,
              16.746836
            ],
            [
              74.228055,
              16.745836
            ],
            [
              74.230043,
              16.745378
            ],
            [
              74.229945,
              16.744392
            ],
            [
              74.225323,
              16.744013
            ],
            [
              74.2262,
              16.742535
            ],
            [
              74.22891,
              16.743245
            ],
            [
              74.227501,
              16.741349
            ],
            [
              74.223501,
              16.74317
            ],
            [
              74.220856,
              16.743191
            ],
            [
              74.219501,
              16.744349
            ],
            [
              74.218721,
              16.743836
            ],
            [
              74.220223,
              16.743558
            ],
            [
              74.220501,
              16.74267
            ],
            [
              74.222501,
              16.74254
            ],
            [
              74.226829,
              16.740164
            ],
            [
              74.231857,
              16.735836
            ],
            [
              74.230501,
              16.734441
            ],
            [
              74.228501,
              16.734403
            ],
            [
              74.227501,
              16.735353
            ],
            [
              74.226501,
              16.734364
            ],
            [
              74.225501,
              16.735328
            ],
            [
              74.218501,
              16.735033
            ],
            [
              74.217741,
              16.735076
            ],
            [
              74.217501,
              16.736372
            ],
            [
              74.216465,
              16.735836
            ],
            [
              74.216493,
              16.734828
            ],
            [
              74.218173,
              16.734508
            ],
            [
              74.218501,
              16.73284
            ],
            [
              74.218888,
              16.734449
            ],
            [
              74.224842,
              16.734177
            ],
            [
              74.224501,
              16.733278
            ],
            [
              74.220501,
              16.733111
            ],
            [
              74.219501,
              16.731973
            ],
            [
              74.218599,
              16.731933
            ],
            [
              74.218501,
              16.732826
            ],
            [
              74.218442,
              16.731777
            ],
            [
              74.219342,
              16.731677
            ],
            [
              74.221501,
              16.732519
            ],
            [
              74.225847,
              16.732182
            ],
            [
              74.225927,
              16.729409
            ],
            [
              74.224501,
              16.728046
            ],
            [
              74.221977,
              16.727836
            ],
            [
              74.225501,
              16.727534
            ],
            [
              74.226735,
              16.728601
            ],
            [
              74.227184,
              16.733153
            ],
            [
              74.231501,
              16.733222
            ],
            [
              74.233501,
              16.735178
            ],
            [
              74.237769,
              16.734836
            ],
            [
              74.236773,
              16.733836
            ],
            [
              74.236794,
              16.730836
            ],
            [
              74.235807,
              16.729836
            ],
            [
              74.236753,
              16.728836
            ],
            [
              74.234953,
              16.727384
            ],
            [
              74.234646,
              16.725691
            ],
            [
              74.232952,
              16.725384
            ],
            [
              74.232501,
              16.724614
            ],
            [
              74.227501,
              16.724603
            ],
            [
              74.22702,
              16.725355
            ],
            [
              74.225981,
              16.725355
            ],
            [
              74.225978,
              16.723313
            ],
            [
              74.229647,
              16.722982
            ],
            [
              74.229725,
              16.720836
            ],
            [
              74.226926,
              16.71941
            ],
            [
              74.226644,
              16.717692
            ],
            [
              74.225723,
              16.716836
            ],
            [
              74.227638,
              16.715973
            ],
            [
              74.22863,
              16.712706
            ],
            [
              74.227372,
              16.711707
            ],
            [
              74.227091,
              16.714425
            ],
            [
              74.225911,
              16.714425
            ],
            [
              74.225501,
              16.71064
            ],
            [
              74.225049,
              16.715384
            ],
            [
              74.223952,
              16.715384
            ],
            [
              74.223721,
              16.713836
            ],
            [
              74.22293,
              16.713406
            ],
            [
              74.222714,
              16.711836
            ],
            [
              74.223706,
              16.710836
            ],
            [
              74.223713,
              16.705623
            ],
            [
              74.221971,
              16.706365
            ],
            [
              74.221501,
              16.704618
            ],
            [
              74.221232,
              16.706836
            ],
            [
              74.219995,
              16.70833
            ],
            [
              74.215501,
              16.708569
            ],
            [
              74.213205,
              16.709836
            ],
            [
              74.213097,
              16.71724
            ],
            [
              74.214085,
              16.717836
            ],
            [
              74.214888,
              16.724836
            ],
            [
              74.216501,
              16.725521
            ],
            [
              74.216869,
              16.727836
            ],
            [
              74.21465,
              16.729985
            ],
            [
              74.212718,
              16.728836
            ],
            [
              74.214032,
              16.722836
            ],
            [
              74.213003,
              16.721836
            ],
            [
              74.212905,
              16.717431
            ],
            [
              74.212096,
              16.71724
            ],
            [
              74.211501,
              16.715462
            ],
            [
              74.209501,
              16.715429
            ],
            [
              74.208501,
              16.716434
            ],
            [
              74.207223,
              16.716558
            ],
            [
              74.203127,
              16.720462
            ],
            [
              74.202753,
              16.722088
            ],
            [
              74.199891,
              16.724226
            ],
            [
              74.199501,
              16.72653
            ],
            [
              74.198501,
              16.726043
            ],
            [
              74.198451,
              16.724836
            ],
            [
              74.201908,
              16.721243
            ],
            [
              74.202215,
              16.71955
            ],
            [
              74.203818,
              16.717518
            ],
            [
              74.202501,
              16.717335
            ],
            [
              74.197501,
              16.720065
            ],
            [
              74.195787,
              16.720122
            ],
            [
              74.195501,
              16.72091
            ],
            [
              74.194315,
              16.720836
            ],
            [
              74.195348,
              16.720683
            ],
            [
              74.196417,
              16.718752
            ],
            [
              74.200868,
              16.717203
            ],
            [
              74.203288,
              16.711623
            ],
            [
              74.203961,
              16.714296
            ],
            [
              74.203109,
              16.714444
            ],
            [
              74.203157,
              16.71518
            ],
            [
              74.204022,
              16.714357
            ],
            [
              74.207751,
              16.714086
            ],
            [
              74.208074,
              16.712409
            ],
            [
              74.21203,
              16.708365
            ],
            [
              74.214501,
              16.707111
            ],
            [
              74.216671,
              16.707006
            ],
            [
              74.216761,
              16.704836
            ],
            [
              74.215022,
              16.704314
            ],
            [
              74.21579,
              16.702836
            ],
            [
              74.214501,
              16.701551
            ],
            [
              74.211501,
              16.703495
            ],
            [
              74.209501,
              16.703475
            ],
            [
              74.208501,
              16.704456
            ],
            [
              74.206501,
              16.704426
            ],
            [
              74.205501,
              16.705379
            ],
            [
              74.203501,
              16.705348
            ],
            [
              74.200501,
              16.707236
            ],
            [
              74.198501,
              16.707152
            ],
            [
              74.194968,
              16.708836
            ],
            [
              74.194698,
              16.707836
            ],
            [
              74.195452,
              16.706787
            ],
            [
              74.197501,
              16.706466
            ],
            [
              74.198501,
              16.705336
            ],
            [
              74.201501,
              16.705389
            ],
            [
              74.202021,
              16.704836
            ],
            [
              74.200501,
              16.702315
            ],
            [
              74.199501,
              16.702541
            ],
            [
              74.19924,
              16.701097
            ],
            [
              74.197501,
              16.700565
            ],
            [
              74.194501,
              16.696799
            ],
            [
              74.194451,
              16.695785
            ],
            [
              74.196352,
              16.693836
            ],
            [
              74.19283,
              16.691836
            ],
            [
              74.193501,
              16.691167
            ],
            [
              74.195792,
              16.691127
            ],
            [
              74.196072,
              16.689836
            ],
            [
              74.200501,
              16.689548
            ],
            [
              74.203175,
              16.693161
            ],
            [
              74.204788,
              16.693123
            ],
            [
              74.204825,
              16.690511
            ],
            [
              74.201089,
              16.687248
            ],
            [
              74.199361,
              16.686836
            ],
            [
              74.200356,
              16.684836
            ],
            [
              74.199941,
              16.683836
            ],
            [
              74.201501,
              16.68307
            ],
            [
              74.202501,
              16.683186
            ],
            [
              74.203501,
              16.684554
            ],
            [
              74.207767,
              16.684102
            ],
            [
              74.208003,
              16.682836
            ],
            [
              74.206955,
              16.680836
            ],
            [
              74.207565,
              16.6789
            ],
            [
              74.208501,
              16.678438
            ],
            [
              74.210501,
              16.679771
            ],
            [
              74.211347,
              16.676989
            ],
            [
              74.210501,
              16.676794
            ],
            [
              74.213501,
              16.675007
            ],
            [
              74.218961,
              16.679836
            ],
            [
              74.217904,
              16.680239
            ],
            [
              74.218116,
              16.68122
            ],
            [
              74.218916,
              16.681251
            ],
            [
              74.219501,
              16.679951
            ],
            [
              74.220501,
              16.680587
            ],
            [
              74.22095,
              16.678285
            ],
            [
              74.22304,
              16.677836
            ],
            [
              74.222929,
              16.676407
            ],
            [
              74.222143,
              16.675836
            ],
            [
              74.224073,
              16.673408
            ],
            [
              74.224501,
              16.671524
            ],
            [
              74.226501,
              16.670224
            ],
            [
              74.228257,
              16.671836
            ],
            [
              74.227686,
              16.672021
            ],
            [
              74.227627,
              16.67371
            ],
            [
              74.229501,
              16.676381
            ],
            [
              74.235144,
              16.674479
            ],
            [
              74.236146,
              16.673481
            ],
            [
              74.236501,
              16.671362
            ],
            [
              74.238399,
              16.672836
            ],
            [
              74.239858,
              16.676478
            ],
            [
              74.241572,
              16.677764
            ],
            [
              74.242212,
              16.681125
            ],
            [
              74.244167,
              16.682836
            ],
            [
              74.243221,
              16.684836
            ],
            [
              74.245181,
              16.685155
            ],
            [
              74.245226,
              16.686561
            ],
            [
              74.244385,
              16.686951
            ],
            [
              74.246376,
              16.68696
            ],
            [
              74.246451,
              16.687886
            ],
            [
              74.24748,
              16.687856
            ],
            [
              74.247501,
              16.688854
            ],
            [
              74.248723,
              16.685058
            ],
            [
              74.252501,
              16.684505
            ],
            [
              74.253231,
              16.683836
            ],
            [
              74.253267,
              16.682069
            ],
            [
              74.251863,
              16.681836
            ],
            [
              74.252938,
              16.680836
            ],
            [
              74.251467,
              16.678836
            ],
            [
              74.253147,
              16.678481
            ],
            [
              74.253385,
              16.674951
            ],
            [
              74.252449,
              16.674836
            ],
            [
              74.255539,
              16.674874
            ],
            [
              74.255461,
              16.673796
            ],
            [
              74.257156,
              16.673491
            ],
            [
              74.258501,
              16.671361
            ],
            [
              74.257893,
              16.676836
            ],
            [
              74.258909,
              16.677836
            ],
            [
              74.257959,
              16.678836
            ],
            [
              74.25817,
              16.680166
            ],
            [
              74.267848,
              16.683488
            ],
            [
              74.268137,
              16.688199
            ],
            [
              74.269773,
              16.688563
            ],
            [
              74.270501,
              16.690558
            ],
            [
              74.273675,
              16.690661
            ],
            [
              74.274907,
              16.691836
            ],
            [
              74.274961,
              16.692836
            ],
            [
              74.273977,
              16.693836
            ],
            [
              74.274974,
              16.694836
            ],
            [
              74.274982,
              16.696836
            ],
            [
              74.271142,
              16.699477
            ],
            [
              74.270061,
              16.700836
            ],
            [
              74.270234,
              16.702103
            ],
            [
              74.273501,
              16.702314
            ],
            [
              74.278169,
              16.700167
            ],
            [
              74.27868,
              16.702836
            ],
            [
              74.280124,
              16.703836
            ],
            [
              74.279905,
              16.706836
            ],
            [
              74.281133,
              16.708203
            ],
            [
              74.282501,
              16.708437
            ],
            [
              74.283193,
              16.707836
            ],
            [
              74.282501,
              16.704206
            ],
            [
              74.284501,
              16.706703
            ],
            [
              74.287501,
              16.70579
            ],
            [
              74.287839,
              16.706497
            ],
            [
              74.287501,
              16.707471
            ],
            [
              74.287365,
              16.706972
            ],
            [
              74.285891,
              16.707226
            ],
            [
              74.285635,
              16.708836
            ],
            [
              74.284633,
              16.708968
            ],
            [
              74.284501,
              16.71006
            ],
            [
              74.282501,
              16.709234
            ],
            [
              74.281135,
              16.70947
            ],
            [
              74.280775,
              16.712561
            ],
            [
              74.281826,
              16.712836
            ],
            [
              74.281539,
              16.716797
            ],
            [
              74.282501,
              16.717103
            ],
            [
              74.280501,
              16.717201
            ],
            [
              74.280446,
              16.715836
            ],
            [
              74.281213,
              16.715548
            ],
            [
              74.28121,
              16.713836
            ],
            [
              74.279923,
              16.712413
            ],
            [
              74.278284,
              16.712052
            ],
            [
              74.279121,
              16.710836
            ],
            [
              74.2768,
              16.708537
            ],
            [
              74.272501,
              16.708469
            ],
            [
              74.27225,
              16.709087
            ],
            [
              74.273897,
              16.70944
            ],
            [
              74.27409,
              16.710836
            ],
            [
              74.272103,
              16.712836
            ],
            [
              74.272069,
              16.714836
            ],
            [
              74.273844,
              16.715493
            ],
            [
              74.273844,
              16.716179
            ],
            [
              74.271501,
              16.716378
            ],
            [
              74.270501,
              16.715418
            ],
            [
              74.26914,
              16.716197
            ],
            [
              74.267949,
              16.714836
            ],
            [
              74.269905,
              16.713836
            ],
            [
              74.267501,
              16.712477
            ],
            [
              74.26325,
              16.716585
            ],
            [
              74.262973,
              16.718308
            ],
            [
              74.260327,
              16.717662
            ],
            [
              74.261501,
              16.71911
            ],
            [
              74.265501,
              16.719148
            ],
            [
              74.266501,
              16.718163
            ],
            [
              74.267173,
              16.718836
            ],
            [
              74.266951,
              16.720286
            ],
            [
              74.265177,
              16.720836
            ],
            [
              74.265098,
              16.725836
            ],
            [
              74.265501,
              16.726588
            ],
            [
              74.267597,
              16.726836
            ],
            [
              74.266072,
              16.727407
            ],
            [
              74.265978,
              16.730836
            ],
            [
              74.264863,
              16.733198
            ],
            [
              74.263791,
              16.733836
            ],
            [
              74.262846,
              16.739836
            ],
            [
              74.254501,
              16.740401
            ],
            [
              74.253501,
              16.739435
            ],
            [
              74.250501,
              16.73948
            ],
            [
              74.250118,
              16.740836
            ],
            [
              74.250801,
              16.741836
            ],
            [
              74.248929,
              16.743836
            ],
            [
              74.251501,
              16.747309
            ],
            [
              74.259501,
              16.747626
            ],
            [
              74.259849,
              16.748487
            ],
            [
              74.261902,
              16.748836
            ],
            [
              74.259501,
              16.74901
            ],
            [
              74.258501,
              16.748108
            ],
            [
              74.252176,
              16.748511
            ],
            [
              74.254097,
              16.751239
            ],
            [
              74.255867,
              16.751836
            ],
            [
              74.256819,
              16.754517
            ],
            [
              74.257923,
              16.754836
            ],
            [
              74.257501,
              16.756216
            ],
            [
              74.256473,
              16.755864
            ],
            [
              74.256074,
              16.754263
            ],
            [
              74.252889,
              16.751447
            ],
            [
              74.251254,
              16.751083
            ],
            [
              74.250815,
              16.748521
            ],
            [
              74.248138,
              16.747199
            ],
            [
              74.24625,
              16.744584
            ],
            [
              74.245119,
              16.745836
            ],
            [
              74.246083,
              16.746836
            ],
            [
              74.246156,
              16.74918
            ],
            [
              74.248889,
              16.749836
            ],
            [
              74.247906,
              16.750836
            ],
            [
              74.248805,
              16.752836
            ],
            [
              74.247801,
              16.753836
            ],
            [
              74.24866,
              16.755836
            ],
            [
              74.247501,
              16.75689
            ]
          ]
        ],
        "type": "Polygon"
      },
      "type": "Feature"
    }
  ]
}