{
  "type": "FeatureCollection",
  "metadata": {
    "provider_name": "La Sani'z",
    "center_lat": 26.861066,
    "center_lon": 81.009079,
    "mode": "motorcycle",
    "total_zones": 4,
    "distance_zones": [
      3,
      4,
      5,
      6
    ],
    "generated_at": "2025-12-29T11:56:26.171014Z"
  },
  "features": [
    {
      "properties": {
        "fill-opacity": 0.33,
        "fillColor": "#bf4040",
        "opacity": 0.33,
        "fill": "#bf4040",
        "fillOpacity": 0.33,
        "color": "#bf4040",
        "contour": 3.0,
        "metric": "distance",
        "provider_name": "La Sani'z",
        "zone_type": "distance",
        "distance_km": 3,
        "mode": "motorcycle",
        "center_lat": 26.861066,
        "center_lon": 81.009079,
        "label": "3km"
      },
      "geometry": {
        "coordinates": [
          [
            [
              81.021079,
              26.879455
            ],
            [
              81.014774,
              26.87837
            ],
            [
              81.010013,
              26.876066
            ],
            [
              81.009079,
              26.873533
            ],
            [
              80.995079,
              26.87357
            ],
            [
              80.99578,
              26.869066
            ],
            [
              80.994333,
              26.862811
            ],
            [
              80.991079,
              26.86075
            ],
            [
              80.98707,
              26.861074
            ],
            [
              80.985068,
              26.859055
            ],
            [
              80.988079,
              26.858629
            ],
            [
              80.989079,
              26.85947
            ],
            [
              80.992369,
              26.859775
            ],
            [
              80.995079,
              26.861505
            ],
            [
              81.001079,
              26.861492
            ],
            [
              81.002079,
              26.862379
            ],
            [
              81.003079,
              26.86028
            ],
            [
              81.006079,
              26.86019
            ],
            [
              81.006223,
              26.85921
            ],
            [
              81.008112,
              26.859032
            ],
            [
              81.005182,
              26.857066
            ],
            [
              81.004101,
              26.855066
            ],
            [
              81.004419,
              26.852066
            ],
            [
              81.006079,
              26.848936
            ],
            [
              81.008079,
              26.84786
            ],
            [
              81.012638,
              26.851066
            ],
            [
              81.011303,
              26.85129
            ],
            [
              81.011556,
              26.852588
            ],
            [
              81.012639,
              26.852626
            ],
            [
              81.013079,
              26.851328
            ],
            [
              81.014726,
              26.853066
            ],
            [
              81.014981,
              26.854066
            ],
            [
              81.014079,
              26.855484
            ],
            [
              81.012126,
              26.854018
            ],
            [
              81.010898,
              26.855066
            ],
            [
              81.011079,
              26.856622
            ],
            [
              81.01231,
              26.857066
            ],
            [
              81.011619,
              26.858066
            ],
            [
              81.013443,
              26.85943
            ],
            [
              81.015079,
              26.857223
            ],
            [
              81.020079,
              26.857241
            ],
            [
              81.021079,
              26.857904
            ],
            [
              81.021433,
              26.855066
            ],
            [
              81.019853,
              26.851066
            ],
            [
              81.021079,
              26.850366
            ],
            [
              81.022079,
              26.850819
            ],
            [
              81.021767,
              26.853066
            ],
            [
              81.023493,
              26.854066
            ],
            [
              81.022974,
              26.85617
            ],
            [
              81.023226,
              26.855213
            ],
            [
              81.029079,
              26.855918
            ],
            [
              81.030079,
              26.857864
            ],
            [
              81.034495,
              26.859066
            ],
            [
              81.03241,
              26.859397
            ],
            [
              81.032079,
              26.862761
            ],
            [
              81.030079,
              26.864047
            ],
            [
              81.028026,
              26.868013
            ],
            [
              81.024476,
              26.872463
            ],
            [
              81.024593,
              26.87458
            ],
            [
              81.021742,
              26.875066
            ],
            [
              81.022439,
              26.876066
            ],
            [
              81.021079,
              26.879455
            ]
          ]
        ],
        "type": "Polygon"
      },
      "type": "Feature"
    },
    {
      "properties": {
        "fill-opacity": 0.33,
        "fillColor": "#bf4040",
        "opacity": 0.33,
        "fill": "#bf4040",
        "fillOpacity": 0.33,
        "color": "#bf4040",
        "contour": 4.0,
        "metric": "distance",
        "provider_name": "La Sani'z",
        "zone_type": "distance",
        "distance_km": 4,
        "mode": "motorcycle",
        "center_lat": 26.861066,
        "center_lon": 81.009079,
        "label": "4km"
      },
      "geometry": {
        "coordinates": [
          [
            [
              81.025079,
              26.886165
            ],
            [
              81.021699,
              26.886445
            ],
            [
              81.018079,
              26.885151
            ],
            [
              81.017079,
              26.88568
            ],
            [
              81.014079,
              26.885255
            ],
            [
              81.008079,
              26.882382
            ],
            [
              81.007079,
              26.882487
            ],
            [
              81.006919,
              26.881225
            ],
            [
              81.004848,
              26.879066
            ],
            [
              81.005366,
              26.877066
            ],
            [
              81.004079,
              26.87639
            ],
            [
              81.002079,
              26.877446
            ],
            [
              81.001038,
              26.877025
            ],
            [
              81.000975,
              26.878066
            ],
            [
              80.998079,
              26.881282
            ],
            [
              80.997079,
              26.880628
            ],
            [
              80.996079,
              26.881859
            ],
            [
              80.995531,
              26.880613
            ],
            [
              80.99327,
              26.879875
            ],
            [
              80.989838,
              26.876066
            ],
            [
              80.991163,
              26.873982
            ],
            [
              80.988079,
              26.874716
            ],
            [
              80.986089,
              26.872066
            ],
            [
              80.987805,
              26.871792
            ],
            [
              80.988079,
              26.870668
            ],
            [
              80.990079,
              26.872773
            ],
            [
              80.991079,
              26.870579
            ],
            [
              80.992079,
              26.872688
            ],
            [
              80.995373,
              26.87236
            ],
            [
              80.99537,
              26.866066
            ],
            [
              80.994352,
              26.863792
            ],
            [
              80.993411,
              26.862733
            ],
            [
              80.992079,
              26.863274
            ],
            [
              80.991079,
              26.862391
            ],
            [
              80.990079,
              26.863345
            ],
            [
              80.987079,
              26.863424
            ],
            [
              80.986079,
              26.864505
            ],
            [
              80.982539,
              26.864526
            ],
            [
              80.982136,
              26.866123
            ],
            [
              80.980079,
              26.865378
            ],
            [
              80.978079,
              26.861136
            ],
            [
              80.977973,
              26.859171
            ],
            [
              80.977085,
              26.859066
            ],
            [
              80.978079,
              26.858995
            ],
            [
              80.978286,
              26.859858
            ],
            [
              80.982377,
              26.859768
            ],
            [
              80.983487,
              26.859474
            ],
            [
              80.983472,
              26.858672
            ],
            [
              80.975176,
              26.857066
            ],
            [
              80.976079,
              26.856353
            ],
            [
              80.98347,
              26.857457
            ],
            [
              80.983499,
              26.855645
            ],
            [
              80.980041,
              26.852103
            ],
            [
              80.980079,
              26.851252
            ],
            [
              80.983431,
              26.851713
            ],
            [
              80.985079,
              26.854726
            ],
            [
              80.986939,
              26.852926
            ],
            [
              80.988079,
              26.852983
            ],
            [
              80.987307,
              26.853294
            ],
            [
              80.987614,
              26.85553
            ],
            [
              80.989079,
              26.855818
            ],
            [
              80.990079,
              26.854962
            ],
            [
              80.991505,
              26.855066
            ],
            [
              80.991176,
              26.858066
            ],
            [
              80.992079,
              26.858983
            ],
            [
              80.995079,
              26.857027
            ],
            [
              80.99725,
              26.861066
            ],
            [
              81.001079,
              26.861194
            ],
            [
              81.002079,
              26.862304
            ],
            [
              81.002079,
              26.860348
            ],
            [
              80.997624,
              26.860066
            ],
            [
              80.999942,
              26.857066
            ],
            [
              80.994962,
              26.854066
            ],
            [
              80.995079,
              26.853045
            ],
            [
              80.99519,
              26.853954
            ],
            [
              80.996717,
              26.853704
            ],
            [
              80.996391,
              26.851066
            ],
            [
              80.999079,
              26.845854
            ],
            [
              81.000141,
              26.845128
            ],
            [
              80.999079,
              26.844679
            ],
            [
              80.998956,
              26.843066
            ],
            [
              81.007079,
              26.843737
            ],
            [
              81.008079,
              26.844513
            ],
            [
              81.00973,
              26.842066
            ],
            [
              81.009989,
              26.839976
            ],
            [
              81.011079,
              26.839439
            ],
            [
              81.011534,
              26.841066
            ],
            [
              81.009737,
              26.844066
            ],
            [
              81.013079,
              26.844785
            ],
            [
              81.013533,
              26.846611
            ],
            [
              81.018079,
              26.846793
            ],
            [
              81.019079,
              26.847662
            ],
            [
              81.020079,
              26.846726
            ],
            [
              81.022079,
              26.84959
            ],
            [
              81.023079,
              26.848705
            ],
            [
              81.027248,
              26.848896
            ],
            [
              81.03028,
              26.850066
            ],
            [
              81.030869,
              26.852066
            ],
            [
              81.029159,
              26.855066
            ],
            [
              81.030079,
              26.85751
            ],
            [
              81.032079,
              26.858511
            ],
            [
              81.034434,
              26.858421
            ],
            [
              81.033842,
              26.854829
            ],
            [
              81.036079,
              26.853784
            ],
            [
              81.039079,
              26.855462
            ],
            [
              81.04027,
              26.855066
            ],
            [
              81.041808,
              26.858066
            ],
            [
              81.040079,
              26.859672
            ],
            [
              81.038838,
              26.863066
            ],
            [
              81.037511,
              26.863498
            ],
            [
              81.037079,
              26.865247
            ],
            [
              81.036079,
              26.864961
            ],
            [
              81.034079,
              26.865904
            ],
            [
              81.033971,
              26.864066
            ],
            [
              81.03485,
              26.863066
            ],
            [
              81.034611,
              26.860066
            ],
            [
              81.034079,
              26.859577
            ],
            [
              81.032608,
              26.860066
            ],
            [
              81.033555,
              26.862066
            ],
            [
              81.032575,
              26.863066
            ],
            [
              81.032377,
              26.866364
            ],
            [
              81.031539,
              26.868066
            ],
            [
              81.029135,
              26.870066
            ],
            [
              81.029366,
              26.870779
            ],
            [
              81.030966,
              26.870953
            ],
            [
              81.03129,
              26.870066
            ],
            [
              81.031299,
              26.874066
            ],
            [
              81.033966,
              26.878066
            ],
            [
              81.029966,
              26.878953
            ],
            [
              81.030079,
              26.88157
            ],
            [
              81.029484,
              26.882066
            ],
            [
              81.028079,
              26.881192
            ],
            [
              81.027079,
              26.882275
            ],
            [
              81.026079,
              26.882248
            ],
            [
              81.025723,
              26.881421
            ],
            [
              81.024658,
              26.881645
            ],
            [
              81.0246,
              26.882544
            ],
            [
              81.025719,
              26.883066
            ],
            [
              81.024308,
              26.884066
            ],
            [
              81.025079,
              26.886165
            ]
          ]
        ],
        "type": "Polygon"
      },
      "type": "Feature"
    },
    {
      "properties": {
        "fill-opacity": 0.33,
        "fillColor": "#bf4040",
        "opacity": 0.33,
        "fill": "#bf4040",
        "fillOpacity": 0.33,
        "color": "#bf4040",
        "contour": 5.0,
        "metric": "distance",
        "provider_name": "La Sani'z",
        "zone_type": "distance",
        "distance_km": 5,
        "mode": "motorcycle",
        "center_lat": 26.861066,
        "center_lon": 81.009079,
        "label": "5km"
      },
      "geometry": {
        "coordinates": [
          [
            [
              81.019079,
              26.892682
            ],
            [
              81.015079,
              26.892142
            ],
            [
              81.014079,
              26.891031
            ],
            [
              81.010662,
              26.891482
            ],
            [
              81.006079,
              26.882636
            ],
            [
              81.003716,
              26.885066
            ],
            [
              81.00052,
              26.886066
            ],
            [
              80.996079,
              26.890658
            ],
            [
              80.991079,
              26.887138
            ],
            [
              80.991242,
              26.885902
            ],
            [
              80.989523,
              26.886066
            ],
            [
              80.990166,
              26.883978
            ],
            [
              80.988079,
              26.883217
            ],
            [
              80.98671,
              26.880434
            ],
            [
              80.984079,
              26.880073
            ],
            [
              80.984014,
              26.87913
            ],
            [
              80.980043,
              26.877066
            ],
            [
              80.976008,
              26.872066
            ],
            [
              80.977079,
              26.870593
            ],
            [
              80.978079,
              26.871137
            ],
            [
              80.980963,
              26.869066
            ],
            [
              80.979079,
              26.867701
            ],
            [
              80.976079,
              26.867446
            ],
            [
              80.973874,
              26.86627
            ],
            [
              80.973911,
              26.864898
            ],
            [
              80.976487,
              26.863474
            ],
            [
              80.977403,
              26.859741
            ],
            [
              80.975079,
              26.859511
            ],
            [
              80.971079,
              26.861292
            ],
            [
              80.968044,
              26.8611
            ],
            [
              80.969079,
              26.858169
            ],
            [
              80.96986,
              26.857847
            ],
            [
              80.969863,
              26.856066
            ],
            [
              80.969746,
              26.855398
            ],
            [
              80.967373,
              26.855066
            ],
            [
              80.969726,
              26.854713
            ],
            [
              80.969825,
              26.854066
            ],
            [
              80.96968,
              26.853465
            ],
            [
              80.968004,
              26.85314
            ],
            [
              80.967513,
              26.852066
            ],
            [
              80.968079,
              26.851934
            ],
            [
              80.968258,
              26.852886
            ],
            [
              80.970079,
              26.85288
            ],
            [
              80.971079,
              26.853769
            ],
            [
              80.971814,
              26.853066
            ],
            [
              80.972079,
              26.849841
            ],
            [
              80.978462,
              26.849449
            ],
            [
              80.979329,
              26.845066
            ],
            [
              80.97886,
              26.844066
            ],
            [
              80.97986,
              26.843847
            ],
            [
              80.980079,
              26.842771
            ],
            [
              80.980395,
              26.843749
            ],
            [
              80.984079,
              26.846414
            ],
            [
              80.985079,
              26.844864
            ],
            [
              80.986079,
              26.84557
            ],
            [
              80.990079,
              26.845853
            ],
            [
              80.991187,
              26.849174
            ],
            [
              80.988723,
              26.853421
            ],
            [
              80.990079,
              26.85361
            ],
            [
              80.993079,
              26.849318
            ],
            [
              80.993349,
              26.847066
            ],
            [
              80.992079,
              26.84483
            ],
            [
              80.989718,
              26.844426
            ],
            [
              80.988798,
              26.842066
            ],
            [
              80.992303,
              26.841066
            ],
            [
              80.99138,
              26.839066
            ],
            [
              80.994079,
              26.838916
            ],
            [
              80.995079,
              26.839783
            ],
            [
              80.997079,
              26.839729
            ],
            [
              80.998566,
              26.838553
            ],
            [
              80.998994,
              26.836981
            ],
            [
              81.000079,
              26.836969
            ],
            [
              81.000494,
              26.839066
            ],
            [
              81.001742,
              26.840402
            ],
            [
              81.004079,
              26.840562
            ],
            [
              81.005079,
              26.841785
            ],
            [
              81.007079,
              26.841442
            ],
            [
              81.007563,
              26.841066
            ],
            [
              81.006552,
              26.838066
            ],
            [
              81.008079,
              26.836579
            ],
            [
              81.007789,
              26.835066
            ],
            [
              81.009079,
              26.833854
            ],
            [
              81.011132,
              26.834119
            ],
            [
              81.013755,
              26.831742
            ],
            [
              81.018007,
              26.834066
            ],
            [
              81.017515,
              26.835066
            ],
            [
              81.018385,
              26.83676
            ],
            [
              81.018242,
              26.840066
            ],
            [
              81.0192,
              26.842066
            ],
            [
              81.018887,
              26.843874
            ],
            [
              81.017215,
              26.846066
            ],
            [
              81.019079,
              26.847439
            ],
            [
              81.019512,
              26.846499
            ],
            [
              81.020739,
              26.846405
            ],
            [
              81.020845,
              26.849299
            ],
            [
              81.022079,
              26.84941
            ],
            [
              81.023079,
              26.848456
            ],
            [
              81.027943,
              26.848201
            ],
            [
              81.028883,
              26.848261
            ],
            [
              81.029254,
              26.849066
            ],
            [
              81.031079,
              26.846773
            ],
            [
              81.033079,
              26.847369
            ],
            [
              81.035079,
              26.846355
            ],
            [
              81.037446,
              26.847066
            ],
            [
              81.038706,
              26.852439
            ],
            [
              81.039982,
              26.854163
            ],
            [
              81.044168,
              26.854155
            ],
            [
              81.044056,
              26.853043
            ],
            [
              81.045961,
              26.852948
            ],
            [
              81.047079,
              26.851905
            ],
            [
              81.049552,
              26.853066
            ],
            [
              81.04893,
              26.854066
            ],
            [
              81.046435,
              26.854422
            ],
            [
              81.045809,
              26.855335
            ],
            [
              81.045875,
              26.856269
            ],
            [
              81.048114,
              26.85803
            ],
            [
              81.046994,
              26.859066
            ],
            [
              81.049079,
              26.86063
            ],
            [
              81.049056,
              26.863043
            ],
            [
              81.048079,
              26.863337
            ],
            [
              81.045377,
              26.867364
            ],
            [
              81.043079,
              26.869208
            ],
            [
              81.042067,
              26.869066
            ],
            [
              81.042162,
              26.867982
            ],
            [
              81.040039,
              26.867066
            ],
            [
              81.038018,
              26.870126
            ],
            [
              81.03869,
              26.871454
            ],
            [
              81.041752,
              26.873066
            ],
            [
              81.040447,
              26.875066
            ],
            [
              81.037079,
              26.876702
            ],
            [
              81.035854,
              26.878066
            ],
            [
              81.041079,
              26.879262
            ],
            [
              81.041682,
              26.880066
            ],
            [
              81.041368,
              26.881776
            ],
            [
              81.042942,
              26.882066
            ],
            [
              81.042618,
              26.882605
            ],
            [
              81.041079,
              26.88397
            ],
            [
              81.039079,
              26.883252
            ],
            [
              81.035079,
              26.884519
            ],
            [
              81.031974,
              26.88217
            ],
            [
              81.031079,
              26.879565
            ],
            [
              81.030525,
              26.883512
            ],
            [
              81.028079,
              26.881599
            ],
            [
              81.027391,
              26.883378
            ],
            [
              81.02479,
              26.883777
            ],
            [
              81.025605,
              26.886066
            ],
            [
              81.023743,
              26.88673
            ],
            [
              81.023185,
              26.890172
            ],
            [
              81.019494,
              26.891481
            ],
            [
              81.019079,
              26.892682
            ]
          ]
        ],
        "type": "Polygon"
      },
      "type": "Feature"
    },
    {
      "properties": {
        "fill-opacity": 0.33,
        "fillColor": "#bf4040",
        "opacity": 0.33,
        "fill": "#bf4040",
        "fillOpacity": 0.33,
        "color": "#bf4040",
        "contour": 6.0,
        "metric": "distance",
        "provider_name": "La Sani'z",
        "zone_type": "distance",
        "distance_km": 6,
        "mode": "motorcycle",
        "center_lat": 26.861066,
        "center_lon": 81.009079,
        "label": "6km"
      },
      "geometry": {
        "coordinates": [
          [
            [
              81.018079,
              26.897198
            ],
            [
              81.014051,
              26.897093
            ],
            [
              81.011079,
              26.893539
            ],
            [
              81.00974,
              26.894404
            ],
            [
              81.009128,
              26.889066
            ],
            [
              81.007079,
              26.888863
            ],
            [
              81.000079,
              26.897072
            ],
            [
              80.998079,
              26.897864
            ],
            [
              80.995079,
              26.896281
            ],
            [
              80.993934,
              26.897921
            ],
            [
              80.99116,
              26.897066
            ],
            [
              80.990481,
              26.893468
            ],
            [
              80.993079,
              26.893794
            ],
            [
              80.993705,
              26.893066
            ],
            [
              80.99182,
              26.891324
            ],
            [
              80.99145,
              26.889694
            ],
            [
              80.988079,
              26.889406
            ],
            [
              80.986957,
              26.890187
            ],
            [
              80.986586,
              26.888066
            ],
            [
              80.987607,
              26.887066
            ],
            [
              80.987079,
              26.886649
            ],
            [
              80.981897,
              26.886884
            ],
            [
              80.981079,
              26.887864
            ],
            [
              80.979293,
              26.887066
            ],
            [
              80.983744,
              26.881066
            ],
            [
              80.983175,
              26.879969
            ],
            [
              80.977079,
              26.87925
            ],
            [
              80.976079,
              26.879853
            ],
            [
              80.974897,
              26.878247
            ],
            [
              80.973574,
              26.878066
            ],
            [
              80.973608,
              26.877066
            ],
            [
              80.969789,
              26.875355
            ],
            [
              80.968514,
              26.87063
            ],
            [
              80.966183,
              26.870066
            ],
            [
              80.967778,
              26.869066
            ],
            [
              80.968504,
              26.86264
            ],
            [
              80.96658,
              26.863567
            ],
            [
              80.966079,
              26.865837
            ],
            [
              80.962739,
              26.864066
            ],
            [
              80.964739,
              26.863726
            ],
            [
              80.965895,
              26.861882
            ],
            [
              80.967467,
              26.861454
            ],
            [
              80.968614,
              26.857601
            ],
            [
              80.969531,
              26.857066
            ],
            [
              80.969381,
              26.855764
            ],
            [
              80.968481,
              26.856066
            ],
            [
              80.968529,
              26.857516
            ],
            [
              80.965246,
              26.860233
            ],
            [
              80.961785,
              26.861066
            ],
            [
              80.962457,
              26.859687
            ],
            [
              80.961221,
              26.858066
            ],
            [
              80.961334,
              26.856066
            ],
            [
              80.962509,
              26.855496
            ],
            [
              80.962617,
              26.854066
            ],
            [
              80.962079,
              26.853489
            ],
            [
              80.95954,
              26.853604
            ],
            [
              80.958845,
              26.851066
            ],
            [
              80.96372,
              26.850707
            ],
            [
              80.963535,
              26.849609
            ],
            [
              80.961628,
              26.849516
            ],
            [
              80.960061,
              26.846048
            ],
            [
              80.961914,
              26.84723
            ],
            [
              80.962958,
              26.847066
            ],
            [
              80.965079,
              26.843826
            ],
            [
              80.966079,
              26.843938
            ],
            [
              80.966614,
              26.84753
            ],
            [
              80.969259,
              26.847886
            ],
            [
              80.96866,
              26.849485
            ],
            [
              80.971419,
              26.849406
            ],
            [
              80.971079,
              26.841229
            ],
            [
              80.971378,
              26.842766
            ],
            [
              80.972859,
              26.842846
            ],
            [
              80.972967,
              26.841954
            ],
            [
              80.974079,
              26.841825
            ],
            [
              80.975079,
              26.843718
            ],
            [
              80.979401,
              26.843388
            ],
            [
              80.979477,
              26.840667
            ],
            [
              80.97759,
              26.840577
            ],
            [
              80.977285,
              26.84186
            ],
            [
              80.978079,
              26.842138
            ],
            [
              80.977079,
              26.842161
            ],
            [
              80.976001,
              26.841143
            ],
            [
              80.976079,
              26.837194
            ],
            [
              80.979079,
              26.83784
            ],
            [
              80.987079,
              26.836732
            ],
            [
              80.990079,
              26.838606
            ],
            [
              80.994079,
              26.838525
            ],
            [
              80.995079,
              26.839483
            ],
            [
              80.997345,
              26.839332
            ],
            [
              80.998723,
              26.83671
            ],
            [
              81.00082,
              26.835807
            ],
            [
              81.000983,
              26.833066
            ],
            [
              81.002398,
              26.832385
            ],
            [
              81.003638,
              26.829625
            ],
            [
              81.00422,
              26.829207
            ],
            [
              81.006079,
              26.830118
            ],
            [
              81.007079,
              26.828686
            ],
            [
              81.008079,
              26.829449
            ],
            [
              81.009692,
              26.826679
            ],
            [
              81.011271,
              26.826258
            ],
            [
              81.011879,
              26.824066
            ],
            [
              81.013037,
              26.824024
            ],
            [
              81.013079,
              26.823308
            ],
            [
              81.015124,
              26.82602
            ],
            [
              81.021079,
              26.828555
            ],
            [
              81.021557,
              26.830587
            ],
            [
              81.022757,
              26.830744
            ],
            [
              81.023079,
              26.82911
            ],
            [
              81.023763,
              26.832381
            ],
            [
              81.025079,
              26.832708
            ],
            [
              81.02536,
              26.835066
            ],
            [
              81.024047,
              26.838034
            ],
            [
              81.024465,
              26.840066
            ],
            [
              81.026079,
              26.841934
            ],
            [
              81.027222,
              26.842066
            ],
            [
              81.027293,
              26.842851
            ],
            [
              81.026079,
              26.847376
            ],
            [
              81.02824,
              26.846227
            ],
            [
              81.02853,
              26.844517
            ],
            [
              81.030851,
              26.842838
            ],
            [
              81.034079,
              26.842725
            ],
            [
              81.036079,
              26.840647
            ],
            [
              81.037079,
              26.840851
            ],
            [
              81.037309,
              26.841835
            ],
            [
              81.040104,
              26.84204
            ],
            [
              81.043079,
              26.846583
            ],
            [
              81.045106,
              26.846038
            ],
            [
              81.045332,
              26.847066
            ],
            [
              81.046244,
              26.847231
            ],
            [
              81.050079,
              26.845931
            ],
            [
              81.058348,
              26.849066
            ],
            [
              81.05477,
              26.858757
            ],
            [
              81.052458,
              26.862066
            ],
            [
              81.053079,
              26.862717
            ],
            [
              81.055079,
              26.862464
            ],
            [
              81.055232,
              26.863219
            ],
            [
              81.053314,
              26.865301
            ],
            [
              81.050079,
              26.865394
            ],
            [
              81.048695,
              26.866682
            ],
            [
              81.048079,
              26.868077
            ],
            [
              81.050757,
              26.869066
            ],
            [
              81.050181,
              26.869168
            ],
            [
              81.050104,
              26.871091
            ],
            [
              81.046371,
              26.873066
            ],
            [
              81.047232,
              26.877219
            ],
            [
              81.04476,
              26.877747
            ],
            [
              81.045632,
              26.879066
            ],
            [
              81.045379,
              26.880366
            ],
            [
              81.043079,
              26.878497
            ],
            [
              81.041625,
              26.881066
            ],
            [
              81.044079,
              26.882599
            ],
            [
              81.047079,
              26.881603
            ],
            [
              81.049616,
              26.882066
            ],
            [
              81.049978,
              26.885166
            ],
            [
              81.051202,
              26.885942
            ],
            [
              81.051079,
              26.887044
            ],
            [
              81.048079,
              26.88737
            ],
            [
              81.047079,
              26.886232
            ],
            [
              81.046195,
              26.887182
            ],
            [
              81.044404,
              26.887391
            ],
            [
              81.044079,
              26.892453
            ],
            [
              81.040079,
              26.889804
            ],
            [
              81.039728,
              26.888416
            ],
            [
              81.038614,
              26.888601
            ],
            [
              81.038079,
              26.889659
            ],
            [
              81.036079,
              26.889493
            ],
            [
              81.033813,
              26.890331
            ],
            [
              81.03333,
              26.890066
            ],
            [
              81.034756,
              26.889743
            ],
            [
              81.03486,
              26.889066
            ],
            [
              81.033079,
              26.888366
            ],
            [
              81.032306,
              26.889066
            ],
            [
              81.033096,
              26.891083
            ],
            [
              81.030053,
              26.891066
            ],
            [
              81.03006,
              26.890047
            ],
            [
              81.031742,
              26.889729
            ],
            [
              81.031758,
              26.887066
            ],
            [
              81.0289,
              26.884244
            ],
            [
              81.029426,
              26.883066
            ],
            [
              81.028079,
              26.881748
            ],
            [
              81.027514,
              26.883501
            ],
            [
              81.024877,
              26.883864
            ],
            [
              81.02576,
              26.885066
            ],
            [
              81.025531,
              26.886518
            ],
            [
              81.023733,
              26.887066
            ],
            [
              81.023622,
              26.890066
            ],
            [
              81.022404,
              26.892391
            ],
            [
              81.021079,
              26.891605
            ],
            [
              81.019782,
              26.891769
            ],
            [
              81.020506,
              26.894066
            ],
            [
              81.018652,
              26.894639
            ],
            [
              81.019308,
              26.896066
            ],
            [
              81.018079,
              26.897198
            ]
          ]
        ],
        "type": "Polygon"
      },
      "type": "Feature"
    }
  ]
}