{
  "type": "FeatureCollection",
  "metadata": {
    "provider_name": "Andhra Vantakalu",
    "center_lat": 17.452706716574,
    "center_lon": 78.418822957056,
    "mode": "motorcycle",
    "total_zones": 4,
    "distance_zones": [
      3,
      4,
      5,
      6
    ],
    "generated_at": "2025-12-28T15:30:29.996952Z"
  },
  "features": [
    {
      "properties": {
        "fill-opacity": 0.33,
        "fillColor": "#bf4040",
        "opacity": 0.33,
        "fill": "#bf4040",
        "fillOpacity": 0.33,
        "color": "#bf4040",
        "contour": 3.0,
        "metric": "distance",
        "provider_name": "Andhra Vantakalu",
        "zone_type": "distance",
        "distance_km": 3,
        "mode": "motorcycle",
        "center_lat": 17.452706716574,
        "center_lon": 78.418822957056,
        "label": "3km"
      },
      "geometry": {
        "coordinates": [
          [
            [
              78.427823,
              17.468939
            ],
            [
              78.427552,
              17.467706
            ],
            [
              78.430227,
              17.462706
            ],
            [
              78.428823,
              17.460272
            ],
            [
              78.428245,
              17.462128
            ],
            [
              78.423305,
              17.463189
            ],
            [
              78.422039,
              17.464706
            ],
            [
              78.422971,
              17.465706
            ],
            [
              78.422868,
              17.466752
            ],
            [
              78.42189,
              17.467774
            ],
            [
              78.418839,
              17.468723
            ],
            [
              78.418531,
              17.466998
            ],
            [
              78.416683,
              17.466846
            ],
            [
              78.415823,
              17.463219
            ],
            [
              78.414823,
              17.464086
            ],
            [
              78.409823,
              17.463932
            ],
            [
              78.407823,
              17.462941
            ],
            [
              78.405823,
              17.464825
            ],
            [
              78.404823,
              17.4648
            ],
            [
              78.404245,
              17.462284
            ],
            [
              78.402823,
              17.461062
            ],
            [
              78.398873,
              17.462756
            ],
            [
              78.398823,
              17.463653
            ],
            [
              78.396384,
              17.462145
            ],
            [
              78.395688,
              17.459706
            ],
            [
              78.397061,
              17.457706
            ],
            [
              78.397976,
              17.453553
            ],
            [
              78.396878,
              17.453761
            ],
            [
              78.396322,
              17.452206
            ],
            [
              78.394151,
              17.451706
            ],
            [
              78.395184,
              17.451068
            ],
            [
              78.395823,
              17.449093
            ],
            [
              78.39608,
              17.450449
            ],
            [
              78.398286,
              17.450169
            ],
            [
              78.397587,
              17.447941
            ],
            [
              78.396406,
              17.447706
            ],
            [
              78.397625,
              17.446509
            ],
            [
              78.399823,
              17.447042
            ],
            [
              78.400823,
              17.445152
            ],
            [
              78.403393,
              17.447136
            ],
            [
              78.405823,
              17.447222
            ],
            [
              78.406591,
              17.444475
            ],
            [
              78.408823,
              17.444281
            ],
            [
              78.4102,
              17.443084
            ],
            [
              78.410433,
              17.438706
            ],
            [
              78.412331,
              17.437706
            ],
            [
              78.412196,
              17.436332
            ],
            [
              78.410823,
              17.435742
            ],
            [
              78.410992,
              17.434706
            ],
            [
              78.413203,
              17.434706
            ],
            [
              78.413823,
              17.435896
            ],
            [
              78.415823,
              17.435306
            ],
            [
              78.416823,
              17.437971
            ],
            [
              78.417508,
              17.436392
            ],
            [
              78.419717,
              17.436706
            ],
            [
              78.420847,
              17.437681
            ],
            [
              78.420114,
              17.438706
            ],
            [
              78.421823,
              17.439039
            ],
            [
              78.423521,
              17.436405
            ],
            [
              78.425823,
              17.436356
            ],
            [
              78.426823,
              17.437219
            ],
            [
              78.428823,
              17.436173
            ],
            [
              78.43355,
              17.435978
            ],
            [
              78.434237,
              17.436706
            ],
            [
              78.432384,
              17.437706
            ],
            [
              78.432488,
              17.439041
            ],
            [
              78.436823,
              17.44032
            ],
            [
              78.437777,
              17.441752
            ],
            [
              78.439823,
              17.442557
            ],
            [
              78.43891,
              17.443794
            ],
            [
              78.43634,
              17.444223
            ],
            [
              78.435978,
              17.446706
            ],
            [
              78.438304,
              17.447706
            ],
            [
              78.436584,
              17.451706
            ],
            [
              78.437823,
              17.454671
            ],
            [
              78.439678,
              17.456706
            ],
            [
              78.438144,
              17.458028
            ],
            [
              78.434452,
              17.457336
            ],
            [
              78.434094,
              17.461978
            ],
            [
              78.431561,
              17.462445
            ],
            [
              78.429566,
              17.467706
            ],
            [
              78.427823,
              17.468939
            ]
          ]
        ],
        "type": "Polygon"
      },
      "type": "Feature"
    },
    {
      "properties": {
        "fill-opacity": 0.33,
        "fillColor": "#bf4040",
        "opacity": 0.33,
        "fill": "#bf4040",
        "fillOpacity": 0.33,
        "color": "#bf4040",
        "contour": 4.0,
        "metric": "distance",
        "provider_name": "Andhra Vantakalu",
        "zone_type": "distance",
        "distance_km": 4,
        "mode": "motorcycle",
        "center_lat": 17.452706716574,
        "center_lon": 78.418822957056,
        "label": "4km"
      },
      "geometry": {
        "coordinates": [
          [
            [
              78.423823,
              17.475808
            ],
            [
              78.422601,
              17.475928
            ],
            [
              78.421822,
              17.473706
            ],
            [
              78.422924,
              17.471706
            ],
            [
              78.420823,
              17.471011
            ],
            [
              78.419823,
              17.469771
            ],
            [
              78.417257,
              17.469272
            ],
            [
              78.418049,
              17.467706
            ],
            [
              78.416358,
              17.467171
            ],
            [
              78.415823,
              17.463379
            ],
            [
              78.414823,
              17.464323
            ],
            [
              78.411389,
              17.464272
            ],
            [
              78.407823,
              17.463213
            ],
            [
              78.405823,
              17.465191
            ],
            [
              78.404823,
              17.465193
            ],
            [
              78.404081,
              17.462448
            ],
            [
              78.401823,
              17.461315
            ],
            [
              78.399231,
              17.463706
            ],
            [
              78.398945,
              17.467706
            ],
            [
              78.393796,
              17.469733
            ],
            [
              78.390809,
              17.46672
            ],
            [
              78.39165,
              17.466534
            ],
            [
              78.391958,
              17.464706
            ],
            [
              78.393301,
              17.464185
            ],
            [
              78.393269,
              17.46326
            ],
            [
              78.390823,
              17.463179
            ],
            [
              78.390569,
              17.46196
            ],
            [
              78.389823,
              17.461813
            ],
            [
              78.38898,
              17.461863
            ],
            [
              78.388859,
              17.462743
            ],
            [
              78.386952,
              17.462706
            ],
            [
              78.387673,
              17.462557
            ],
            [
              78.387823,
              17.46106
            ],
            [
              78.387902,
              17.461627
            ],
            [
              78.388823,
              17.46152
            ],
            [
              78.389823,
              17.46048
            ],
            [
              78.393208,
              17.460091
            ],
            [
              78.39322,
              17.459309
            ],
            [
              78.391077,
              17.457706
            ],
            [
              78.389913,
              17.455706
            ],
            [
              78.38997,
              17.453854
            ],
            [
              78.391823,
              17.453908
            ],
            [
              78.392149,
              17.452706
            ],
            [
              78.389986,
              17.452706
            ],
            [
              78.389152,
              17.454036
            ],
            [
              78.384696,
              17.452706
            ],
            [
              78.386677,
              17.449706
            ],
            [
              78.392278,
              17.445162
            ],
            [
              78.392823,
              17.440682
            ],
            [
              78.394823,
              17.442339
            ],
            [
              78.398,
              17.441884
            ],
            [
              78.399823,
              17.440333
            ],
            [
              78.401823,
              17.440555
            ],
            [
              78.402234,
              17.444706
            ],
            [
              78.403378,
              17.446706
            ],
            [
              78.406044,
              17.446928
            ],
            [
              78.406389,
              17.444273
            ],
            [
              78.408823,
              17.443904
            ],
            [
              78.41003,
              17.442706
            ],
            [
              78.409823,
              17.440438
            ],
            [
              78.408823,
              17.440516
            ],
            [
              78.408348,
              17.439706
            ],
            [
              78.408932,
              17.437706
            ],
            [
              78.410077,
              17.436961
            ],
            [
              78.40986,
              17.435669
            ],
            [
              78.407823,
              17.435986
            ],
            [
              78.40764,
              17.434889
            ],
            [
              78.405741,
              17.434706
            ],
            [
              78.406466,
              17.43135
            ],
            [
              78.408718,
              17.429601
            ],
            [
              78.410309,
              17.429706
            ],
            [
              78.409989,
              17.430706
            ],
            [
              78.412972,
              17.432557
            ],
            [
              78.412095,
              17.432979
            ],
            [
              78.41244,
              17.434089
            ],
            [
              78.414823,
              17.43425
            ],
            [
              78.415738,
              17.431706
            ],
            [
              78.419823,
              17.430788
            ],
            [
              78.422823,
              17.432314
            ],
            [
              78.424823,
              17.434847
            ],
            [
              78.425823,
              17.435157
            ],
            [
              78.426823,
              17.432742
            ],
            [
              78.427823,
              17.432889
            ],
            [
              78.427823,
              17.430688
            ],
            [
              78.428823,
              17.429896
            ],
            [
              78.430647,
              17.430531
            ],
            [
              78.431973,
              17.429556
            ],
            [
              78.433823,
              17.431264
            ],
            [
              78.434346,
              17.430706
            ],
            [
              78.433784,
              17.429706
            ],
            [
              78.434804,
              17.428688
            ],
            [
              78.436823,
              17.429176
            ],
            [
              78.437823,
              17.430373
            ],
            [
              78.438595,
              17.429479
            ],
            [
              78.439823,
              17.429534
            ],
            [
              78.439823,
              17.430989
            ],
            [
              78.441823,
              17.432155
            ],
            [
              78.441683,
              17.433706
            ],
            [
              78.442823,
              17.434907
            ],
            [
              78.442588,
              17.437706
            ],
            [
              78.4413,
              17.439706
            ],
            [
              78.442364,
              17.440706
            ],
            [
              78.441661,
              17.441544
            ],
            [
              78.441691,
              17.443838
            ],
            [
              78.44356,
              17.447968
            ],
            [
              78.443644,
              17.449706
            ],
            [
              78.442273,
              17.451706
            ],
            [
              78.443823,
              17.451151
            ],
            [
              78.446088,
              17.451706
            ],
            [
              78.446861,
              17.452706
            ],
            [
              78.446586,
              17.453706
            ],
            [
              78.448858,
              17.455706
            ],
            [
              78.445823,
              17.458559
            ],
            [
              78.445864,
              17.459748
            ],
            [
              78.442992,
              17.460876
            ],
            [
              78.440663,
              17.460866
            ],
            [
              78.439823,
              17.457203
            ],
            [
              78.437823,
              17.46135
            ],
            [
              78.436823,
              17.460995
            ],
            [
              78.436432,
              17.458706
            ],
            [
              78.434585,
              17.457468
            ],
            [
              78.43442,
              17.462109
            ],
            [
              78.436021,
              17.462706
            ],
            [
              78.434823,
              17.464271
            ],
            [
              78.433823,
              17.463606
            ],
            [
              78.431423,
              17.465307
            ],
            [
              78.431272,
              17.466706
            ],
            [
              78.431823,
              17.467344
            ],
            [
              78.433321,
              17.467205
            ],
            [
              78.434517,
              17.466401
            ],
            [
              78.434823,
              17.464983
            ],
            [
              78.436061,
              17.467706
            ],
            [
              78.435823,
              17.468655
            ],
            [
              78.433823,
              17.468843
            ],
            [
              78.432823,
              17.470071
            ],
            [
              78.430426,
              17.47031
            ],
            [
              78.428003,
              17.473887
            ],
            [
              78.426248,
              17.474132
            ],
            [
              78.423823,
              17.475808
            ]
          ]
        ],
        "type": "Polygon"
      },
      "type": "Feature"
    },
    {
      "properties": {
        "fill-opacity": 0.33,
        "fillColor": "#bf4040",
        "opacity": 0.33,
        "fill": "#bf4040",
        "fillOpacity": 0.33,
        "color": "#bf4040",
        "contour": 5.0,
        "metric": "distance",
        "provider_name": "Andhra Vantakalu",
        "zone_type": "distance",
        "distance_km": 5,
        "mode": "motorcycle",
        "center_lat": 17.452706716574,
        "center_lon": 78.418822957056,
        "label": "5km"
      },
      "geometry": {
        "coordinates": [
          [
            [
              78.415823,
              17.481865
            ],
            [
              78.415457,
              17.478706
            ],
            [
              78.417036,
              17.477706
            ],
            [
              78.41737,
              17.471706
            ],
            [
              78.415598,
              17.47093
            ],
            [
              78.414823,
              17.469031
            ],
            [
              78.412063,
              17.468946
            ],
            [
              78.411823,
              17.469854
            ],
            [
              78.41031,
              17.469706
            ],
            [
              78.412728,
              17.466612
            ],
            [
              78.415823,
              17.466529
            ],
            [
              78.415823,
              17.463459
            ],
            [
              78.414823,
              17.464429
            ],
            [
              78.410823,
              17.464577
            ],
            [
              78.407823,
              17.463486
            ],
            [
              78.405823,
              17.465558
            ],
            [
              78.404823,
              17.465587
            ],
            [
              78.404101,
              17.465428
            ],
            [
              78.404009,
              17.46252
            ],
            [
              78.401823,
              17.461425
            ],
            [
              78.39964,
              17.463706
            ],
            [
              78.399823,
              17.465506
            ],
            [
              78.400823,
              17.465532
            ],
            [
              78.401065,
              17.466464
            ],
            [
              78.40315,
              17.466706
            ],
            [
              78.401983,
              17.466867
            ],
            [
              78.402346,
              17.469183
            ],
            [
              78.405399,
              17.469706
            ],
            [
              78.401214,
              17.470097
            ],
            [
              78.400823,
              17.472487
            ],
            [
              78.40064,
              17.469706
            ],
            [
              78.399202,
              17.468327
            ],
            [
              78.393441,
              17.470325
            ],
            [
              78.393196,
              17.471706
            ],
            [
              78.39411,
              17.472706
            ],
            [
              78.3942,
              17.474328
            ],
            [
              78.394971,
              17.474706
            ],
            [
              78.394823,
              17.476474
            ],
            [
              78.394538,
              17.474991
            ],
            [
              78.387823,
              17.474264
            ],
            [
              78.386934,
              17.472595
            ],
            [
              78.384823,
              17.473732
            ],
            [
              78.384092,
              17.473437
            ],
            [
              78.383602,
              17.471486
            ],
            [
              78.385823,
              17.471502
            ],
            [
              78.386525,
              17.470706
            ],
            [
              78.384365,
              17.469706
            ],
            [
              78.388229,
              17.469112
            ],
            [
              78.388518,
              17.464706
            ],
            [
              78.390401,
              17.462706
            ],
            [
              78.389823,
              17.462148
            ],
            [
              78.389159,
              17.463043
            ],
            [
              78.386823,
              17.463151
            ],
            [
              78.385448,
              17.46408
            ],
            [
              78.384295,
              17.462706
            ],
            [
              78.383823,
              17.458501
            ],
            [
              78.381823,
              17.457856
            ],
            [
              78.381498,
              17.456031
            ],
            [
              78.379798,
              17.455731
            ],
            [
              78.379731,
              17.454797
            ],
            [
              78.377823,
              17.455081
            ],
            [
              78.37775,
              17.454633
            ],
            [
              78.378204,
              17.454087
            ],
            [
              78.378106,
              17.453423
            ],
            [
              78.376812,
              17.452716
            ],
            [
              78.378543,
              17.451427
            ],
            [
              78.378779,
              17.44775
            ],
            [
              78.378249,
              17.447706
            ],
            [
              78.378823,
              17.44741
            ],
            [
              78.381815,
              17.448714
            ],
            [
              78.383275,
              17.448159
            ],
            [
              78.385694,
              17.444578
            ],
            [
              78.387495,
              17.443379
            ],
            [
              78.388133,
              17.441706
            ],
            [
              78.390823,
              17.440155
            ],
            [
              78.393251,
              17.439706
            ],
            [
              78.394823,
              17.43593
            ],
            [
              78.396823,
              17.436635
            ],
            [
              78.398823,
              17.436282
            ],
            [
              78.399823,
              17.43509
            ],
            [
              78.402336,
              17.435706
            ],
            [
              78.402892,
              17.437706
            ],
            [
              78.402566,
              17.444963
            ],
            [
              78.403297,
              17.445231
            ],
            [
              78.403635,
              17.446894
            ],
            [
              78.405989,
              17.446872
            ],
            [
              78.406266,
              17.443262
            ],
            [
              78.405368,
              17.443252
            ],
            [
              78.404964,
              17.444848
            ],
            [
              78.403444,
              17.445085
            ],
            [
              78.404528,
              17.443706
            ],
            [
              78.40395,
              17.441706
            ],
            [
              78.407186,
              17.441069
            ],
            [
              78.406387,
              17.439706
            ],
            [
              78.40831,
              17.437706
            ],
            [
              78.407081,
              17.435448
            ],
            [
              78.405077,
              17.434706
            ],
            [
              78.404296,
              17.430233
            ],
            [
              78.402264,
              17.429706
            ],
            [
              78.402974,
              17.428857
            ],
            [
              78.402963,
              17.426706
            ],
            [
              78.405445,
              17.426329
            ],
            [
              78.405823,
              17.425621
            ],
            [
              78.408766,
              17.425649
            ],
            [
              78.408823,
              17.425132
            ],
            [
              78.411823,
              17.428919
            ],
            [
              78.414174,
              17.427058
            ],
            [
              78.414554,
              17.425438
            ],
            [
              78.415823,
              17.426429
            ],
            [
              78.418823,
              17.425642
            ],
            [
              78.422823,
              17.426925
            ],
            [
              78.422823,
              17.424443
            ],
            [
              78.427915,
              17.426614
            ],
            [
              78.429823,
              17.426537
            ],
            [
              78.432823,
              17.424257
            ],
            [
              78.435656,
              17.42454
            ],
            [
              78.436318,
              17.423706
            ],
            [
              78.439823,
              17.42317
            ],
            [
              78.440823,
              17.42405
            ],
            [
              78.440194,
              17.427335
            ],
            [
              78.444735,
              17.427619
            ],
            [
              78.444839,
              17.426706
            ],
            [
              78.446145,
              17.429384
            ],
            [
              78.447929,
              17.429706
            ],
            [
              78.446823,
              17.431074
            ],
            [
              78.444426,
              17.43131
            ],
            [
              78.444163,
              17.434047
            ],
            [
              78.443277,
              17.434706
            ],
            [
              78.443823,
              17.435643
            ],
            [
              78.445099,
              17.43543
            ],
            [
              78.446062,
              17.438466
            ],
            [
              78.447344,
              17.438706
            ],
            [
              78.447755,
              17.439774
            ],
            [
              78.449337,
              17.440706
            ],
            [
              78.446939,
              17.445706
            ],
            [
              78.447559,
              17.44597
            ],
            [
              78.447598,
              17.44793
            ],
            [
              78.44909,
              17.448439
            ],
            [
              78.451405,
              17.451706
            ],
            [
              78.450823,
              17.453931
            ],
            [
              78.453166,
              17.456706
            ],
            [
              78.449823,
              17.462197
            ],
            [
              78.448823,
              17.462503
            ],
            [
              78.448147,
              17.461382
            ],
            [
              78.445537,
              17.461706
            ],
            [
              78.443823,
              17.46556
            ],
            [
              78.443747,
              17.464782
            ],
            [
              78.441979,
              17.464862
            ],
            [
              78.441823,
              17.466199
            ],
            [
              78.439932,
              17.467815
            ],
            [
              78.439894,
              17.469778
            ],
            [
              78.437823,
              17.47021
            ],
            [
              78.436823,
              17.471163
            ],
            [
              78.434823,
              17.471143
            ],
            [
              78.433823,
              17.472052
            ],
            [
              78.431172,
              17.472056
            ],
            [
              78.429961,
              17.473706
            ],
            [
              78.429965,
              17.475564
            ],
            [
              78.43082,
              17.475706
            ],
            [
              78.426823,
              17.481027
            ],
            [
              78.424686,
              17.478843
            ],
            [
              78.423782,
              17.478747
            ],
            [
              78.422231,
              17.479115
            ],
            [
              78.42208,
              17.480448
            ],
            [
              78.423008,
              17.480706
            ],
            [
              78.422536,
              17.48142
            ],
            [
              78.417823,
              17.480122
            ],
            [
              78.415823,
              17.481865
            ]
          ]
        ],
        "type": "Polygon"
      },
      "type": "Feature"
    },
    {
      "properties": {
        "fill-opacity": 0.33,
        "fillColor": "#bf4040",
        "opacity": 0.33,
        "fill": "#bf4040",
        "fillOpacity": 0.33,
        "color": "#bf4040",
        "contour": 6.0,
        "metric": "distance",
        "provider_name": "Andhra Vantakalu",
        "zone_type": "distance",
        "distance_km": 6,
        "mode": "motorcycle",
        "center_lat": 17.452706716574,
        "center_lon": 78.418822957056,
        "label": "6km"
      },
      "geometry": {
        "coordinates": [
          [
            [
              78.424823,
              17.489023
            ],
            [
              78.421823,
              17.488273
            ],
            [
              78.420823,
              17.489618
            ],
            [
              78.419823,
              17.489357
            ],
            [
              78.419278,
              17.486706
            ],
            [
              78.420509,
              17.485706
            ],
            [
              78.419823,
              17.484129
            ],
            [
              78.417133,
              17.487016
            ],
            [
              78.416823,
              17.488859
            ],
            [
              78.414822,
              17.489508
            ],
            [
              78.414434,
              17.488095
            ],
            [
              78.411823,
              17.486337
            ],
            [
              78.409823,
              17.488383
            ],
            [
              78.408926,
              17.487706
            ],
            [
              78.409319,
              17.485706
            ],
            [
              78.407898,
              17.483706
            ],
            [
              78.409508,
              17.479706
            ],
            [
              78.410823,
              17.480529
            ],
            [
              78.412823,
              17.479429
            ],
            [
              78.413823,
              17.48041
            ],
            [
              78.415302,
              17.479706
            ],
            [
              78.414199,
              17.47733
            ],
            [
              78.412651,
              17.477878
            ],
            [
              78.412443,
              17.473086
            ],
            [
              78.41168,
              17.472706
            ],
            [
              78.411285,
              17.470706
            ],
            [
              78.409823,
              17.470193
            ],
            [
              78.401526,
              17.47041
            ],
            [
              78.401106,
              17.474989
            ],
            [
              78.399551,
              17.474978
            ],
            [
              78.397823,
              17.4731
            ],
            [
              78.397161,
              17.473706
            ],
            [
              78.398029,
              17.475706
            ],
            [
              78.397823,
              17.47853
            ],
            [
              78.39741,
              17.476119
            ],
            [
              78.396582,
              17.475706
            ],
            [
              78.396572,
              17.470706
            ],
            [
              78.397393,
              17.472135
            ],
            [
              78.399822,
              17.472242
            ],
            [
              78.400272,
              17.469706
            ],
            [
              78.398823,
              17.468379
            ],
            [
              78.397823,
              17.469347
            ],
            [
              78.395823,
              17.469393
            ],
            [
              78.394823,
              17.470379
            ],
            [
              78.39358,
              17.470464
            ],
            [
              78.393437,
              17.471706
            ],
            [
              78.395363,
              17.474706
            ],
            [
              78.395212,
              17.479706
            ],
            [
              78.393823,
              17.480864
            ],
            [
              78.392055,
              17.480939
            ],
            [
              78.391823,
              17.481791
            ],
            [
              78.391758,
              17.480642
            ],
            [
              78.39261,
              17.480494
            ],
            [
              78.392545,
              17.476984
            ],
            [
              78.391085,
              17.476969
            ],
            [
              78.390823,
              17.477887
            ],
            [
              78.388823,
              17.476028
            ],
            [
              78.38634,
              17.477224
            ],
            [
              78.385012,
              17.478896
            ],
            [
              78.38308,
              17.478964
            ],
            [
              78.382823,
              17.479719
            ],
            [
              78.380846,
              17.477682
            ],
            [
              78.378823,
              17.479495
            ],
            [
              78.376737,
              17.478792
            ],
            [
              78.377209,
              17.475706
            ],
            [
              78.377823,
              17.475059
            ],
            [
              78.378823,
              17.475533
            ],
            [
              78.379581,
              17.474706
            ],
            [
              78.378823,
              17.472932
            ],
            [
              78.376783,
              17.473706
            ],
            [
              78.376646,
              17.471883
            ],
            [
              78.377663,
              17.469547
            ],
            [
              78.380823,
              17.469334
            ],
            [
              78.381823,
              17.47026
            ],
            [
              78.383178,
              17.470062
            ],
            [
              78.385042,
              17.466706
            ],
            [
              78.383917,
              17.465706
            ],
            [
              78.384623,
              17.465507
            ],
            [
              78.384413,
              17.464116
            ],
            [
              78.383823,
              17.46338
            ],
            [
              78.38012,
              17.463706
            ],
            [
              78.38124,
              17.461706
            ],
            [
              78.378661,
              17.460706
            ],
            [
              78.380322,
              17.460206
            ],
            [
              78.381304,
              17.456706
            ],
            [
              78.379823,
              17.455162
            ],
            [
              78.378469,
              17.455353
            ],
            [
              78.377275,
              17.456706
            ],
            [
              78.37706,
              17.462706
            ],
            [
              78.375823,
              17.463888
            ],
            [
              78.375376,
              17.462706
            ],
            [
              78.37639,
              17.461706
            ],
            [
              78.375486,
              17.461043
            ],
            [
              78.375376,
              17.459706
            ],
            [
              78.376282,
              17.459166
            ],
            [
              78.376231,
              17.458298
            ],
            [
              78.3699,
              17.457784
            ],
            [
              78.369823,
              17.458316
            ],
            [
              78.369514,
              17.457706
            ],
            [
              78.371091,
              17.453975
            ],
            [
              78.374823,
              17.454401
            ],
            [
              78.376195,
              17.453079
            ],
            [
              78.376546,
              17.45043
            ],
            [
              78.377823,
              17.45122
            ],
            [
              78.378295,
              17.450706
            ],
            [
              78.378355,
              17.448706
            ],
            [
              78.377301,
              17.447706
            ],
            [
              78.377241,
              17.445706
            ],
            [
              78.376263,
              17.444706
            ],
            [
              78.376807,
              17.438691
            ],
            [
              78.378222,
              17.439307
            ],
            [
              78.378117,
              17.441706
            ],
            [
              78.379382,
              17.444147
            ],
            [
              78.381823,
              17.444357
            ],
            [
              78.382823,
              17.4452
            ],
            [
              78.384823,
              17.44483
            ],
            [
              78.386052,
              17.440706
            ],
            [
              78.385307,
              17.439706
            ],
            [
              78.388029,
              17.437913
            ],
            [
              78.388823,
              17.435052
            ],
            [
              78.389834,
              17.436694
            ],
            [
              78.390823,
              17.436759
            ],
            [
              78.391823,
              17.433135
            ],
            [
              78.393823,
              17.433158
            ],
            [
              78.3951,
              17.433983
            ],
            [
              78.396823,
              17.432066
            ],
            [
              78.398823,
              17.432097
            ],
            [
              78.400248,
              17.431132
            ],
            [
              78.400535,
              17.430706
            ],
            [
              78.398534,
              17.428995
            ],
            [
              78.398285,
              17.427244
            ],
            [
              78.394456,
              17.426706
            ],
            [
              78.394413,
              17.424297
            ],
            [
              78.395823,
              17.423875
            ],
            [
              78.396551,
              17.424978
            ],
            [
              78.397159,
              17.424706
            ],
            [
              78.397823,
              17.42057
            ],
            [
              78.399822,
              17.422399
            ],
            [
              78.402823,
              17.422085
            ],
            [
              78.40499,
              17.422706
            ],
            [
              78.40496,
              17.423706
            ],
            [
              78.40272,
              17.425603
            ],
            [
              78.404823,
              17.425848
            ],
            [
              78.405823,
              17.424937
            ],
            [
              78.407949,
              17.424833
            ],
            [
              78.40803,
              17.423914
            ],
            [
              78.408819,
              17.423706
            ],
            [
              78.407073,
              17.422706
            ],
            [
              78.406789,
              17.421673
            ],
            [
              78.411177,
              17.420061
            ],
            [
              78.411823,
              17.417774
            ],
            [
              78.413463,
              17.418347
            ],
            [
              78.41386,
              17.417668
            ],
            [
              78.413852,
              17.418735
            ],
            [
              78.411186,
              17.421706
            ],
            [
              78.412449,
              17.42308
            ],
            [
              78.414144,
              17.423385
            ],
            [
              78.415531,
              17.425998
            ],
            [
              78.416823,
              17.42614
            ],
            [
              78.417823,
              17.425177
            ],
            [
              78.421823,
              17.424288
            ],
            [
              78.422823,
              17.423238
            ],
            [
              78.424823,
              17.423274
            ],
            [
              78.427286,
              17.42217
            ],
            [
              78.428645,
              17.420706
            ],
            [
              78.428823,
              17.418915
            ],
            [
              78.430562,
              17.420706
            ],
            [
              78.429325,
              17.421208
            ],
            [
              78.429822,
              17.42244
            ],
            [
              78.430871,
              17.421755
            ],
            [
              78.434823,
              17.422014
            ],
            [
              78.43635,
              17.420706
            ],
            [
              78.435664,
              17.419547
            ],
            [
              78.438823,
              17.418595
            ],
            [
              78.442137,
              17.423706
            ],
            [
              78.44047,
              17.427059
            ],
            [
              78.443823,
              17.427258
            ],
            [
              78.447823,
              17.425308
            ],
            [
              78.448104,
              17.426988
            ],
            [
              78.446563,
              17.428965
            ],
            [
              78.448257,
              17.429272
            ],
            [
              78.448823,
              17.430313
            ],
            [
              78.450823,
              17.428562
            ],
            [
              78.45139,
              17.429139
            ],
            [
              78.451146,
              17.433706
            ],
            [
              78.451988,
              17.435541
            ],
            [
              78.453219,
              17.435706
            ],
            [
              78.451508,
              17.437706
            ],
            [
              78.453173,
              17.439356
            ],
            [
              78.453247,
              17.441706
            ],
            [
              78.454034,
              17.442706
            ],
            [
              78.452187,
              17.445706
            ],
            [
              78.451918,
              17.448802
            ],
            [
              78.451007,
              17.449706
            ],
            [
              78.452823,
              17.450113
            ],
            [
              78.454747,
              17.44863
            ],
            [
              78.456898,
              17.448706
            ],
            [
              78.454988,
              17.451872
            ],
            [
              78.453152,
              17.452706
            ],
            [
              78.453823,
              17.453533
            ],
            [
              78.455626,
              17.453706
            ],
            [
              78.453956,
              17.45384
            ],
            [
              78.453325,
              17.455706
            ],
            [
              78.455522,
              17.456706
            ],
            [
              78.455016,
              17.459706
            ],
            [
              78.453333,
              17.460216
            ],
            [
              78.453019,
              17.461903
            ],
            [
              78.449419,
              17.463303
            ],
            [
              78.449099,
              17.465983
            ],
            [
              78.447823,
              17.466132
            ],
            [
              78.444823,
              17.468324
            ],
            [
              78.444062,
              17.466467
            ],
            [
              78.442528,
              17.465411
            ],
            [
              78.442467,
              17.469351
            ],
            [
              78.440823,
              17.469476
            ],
            [
              78.440821,
              17.470704
            ],
            [
              78.439174,
              17.471058
            ],
            [
              78.438823,
              17.472524
            ],
            [
              78.437015,
              17.472899
            ],
            [
              78.436823,
              17.473992
            ],
            [
              78.434823,
              17.47241
            ],
            [
              78.431823,
              17.472569
            ],
            [
              78.430659,
              17.473543
            ],
            [
              78.431359,
              17.476706
            ],
            [
              78.430262,
              17.477706
            ],
            [
              78.431227,
              17.478706
            ],
            [
              78.4311,
              17.481706
            ],
            [
              78.431955,
              17.482706
            ],
            [
              78.430943,
              17.483826
            ],
            [
              78.42733,
              17.485214
            ],
            [
              78.426887,
              17.486771
            ],
            [
              78.425078,
              17.487962
            ],
            [
              78.424823,
              17.489023
            ]
          ]
        ],
        "type": "Polygon"
      },
      "type": "Feature"
    }
  ]
}