{
  "type": "FeatureCollection",
  "metadata": {
    "provider_name": "The Dhokla House",
    "center_lat": 28.439417818124,
    "center_lon": 77.083754650519,
    "mode": "motorcycle",
    "total_zones": 4,
    "distance_zones": [
      3,
      4,
      5,
      6
    ],
    "generated_at": "2025-12-29T09:24:56.232773Z"
  },
  "features": [
    {
      "properties": {
        "fill-opacity": 0.33,
        "fillColor": "#bf4040",
        "opacity": 0.33,
        "fill": "#bf4040",
        "fillOpacity": 0.33,
        "color": "#bf4040",
        "contour": 3.0,
        "metric": "distance",
        "provider_name": "The Dhokla House",
        "zone_type": "distance",
        "distance_km": 3,
        "mode": "motorcycle",
        "center_lat": 28.439417818124,
        "center_lon": 77.083754650519,
        "label": "3km"
      },
      "geometry": {
        "coordinates": [
          [
            [
              77.073754,
              28.462636
            ],
            [
              77.072953,
              28.459417
            ],
            [
              77.071189,
              28.458417
            ],
            [
              77.069954,
              28.455217
            ],
            [
              77.066642,
              28.45453
            ],
            [
              77.063913,
              28.450417
            ],
            [
              77.064875,
              28.449417
            ],
            [
              77.06444,
              28.446732
            ],
            [
              77.063064,
              28.445417
            ],
            [
              77.063754,
              28.444497
            ],
            [
              77.064895,
              28.444558
            ],
            [
              77.065512,
              28.443417
            ],
            [
              77.06566,
              28.437512
            ],
            [
              77.068003,
              28.435417
            ],
            [
              77.066262,
              28.43491
            ],
            [
              77.066077,
              28.433417
            ],
            [
              77.069012,
              28.432675
            ],
            [
              77.069269,
              28.430933
            ],
            [
              77.070296,
              28.430417
            ],
            [
              77.06858,
              28.428417
            ],
            [
              77.06929,
              28.426417
            ],
            [
              77.068754,
              28.425215
            ],
            [
              77.06753,
              28.425417
            ],
            [
              77.066929,
              28.422592
            ],
            [
              77.069548,
              28.422623
            ],
            [
              77.070505,
              28.424667
            ],
            [
              77.071754,
              28.425116
            ],
            [
              77.072298,
              28.423873
            ],
            [
              77.071424,
              28.422748
            ],
            [
              77.069948,
              28.422417
            ],
            [
              77.070711,
              28.421374
            ],
            [
              77.074754,
              28.420906
            ],
            [
              77.075754,
              28.41871
            ],
            [
              77.077754,
              28.418162
            ],
            [
              77.078588,
              28.419584
            ],
            [
              77.079754,
              28.41978
            ],
            [
              77.080754,
              28.418864
            ],
            [
              77.083754,
              28.418847
            ],
            [
              77.085754,
              28.417544
            ],
            [
              77.086829,
              28.418417
            ],
            [
              77.086955,
              28.420417
            ],
            [
              77.088468,
              28.420703
            ],
            [
              77.088754,
              28.421506
            ],
            [
              77.090754,
              28.418986
            ],
            [
              77.091246,
              28.419926
            ],
            [
              77.092754,
              28.420236
            ],
            [
              77.103995,
              28.431417
            ],
            [
              77.100452,
              28.432115
            ],
            [
              77.101024,
              28.434147
            ],
            [
              77.101894,
              28.434417
            ],
            [
              77.100754,
              28.43451
            ],
            [
              77.099754,
              28.433612
            ],
            [
              77.098073,
              28.434417
            ],
            [
              77.099368,
              28.436803
            ],
            [
              77.10215,
              28.437417
            ],
            [
              77.100113,
              28.442417
            ],
            [
              77.101076,
              28.444417
            ],
            [
              77.100439,
              28.449417
            ],
            [
              77.097817,
              28.449354
            ],
            [
              77.097839,
              28.448332
            ],
            [
              77.095931,
              28.448241
            ],
            [
              77.095112,
              28.44706
            ],
            [
              77.094965,
              28.444207
            ],
            [
              77.093754,
              28.44516
            ],
            [
              77.091536,
              28.445199
            ],
            [
              77.093224,
              28.446948
            ],
            [
              77.093463,
              28.448417
            ],
            [
              77.092754,
              28.44911
            ],
            [
              77.090754,
              28.449139
            ],
            [
              77.090754,
              28.44981
            ],
            [
              77.097487,
              28.449417
            ],
            [
              77.095754,
              28.451616
            ],
            [
              77.093854,
              28.452417
            ],
            [
              77.094431,
              28.453417
            ],
            [
              77.08813,
              28.457793
            ],
            [
              77.085754,
              28.456601
            ],
            [
              77.084754,
              28.457204
            ],
            [
              77.080016,
              28.456679
            ],
            [
              77.078076,
              28.457739
            ],
            [
              77.077531,
              28.460195
            ],
            [
              77.074285,
              28.459948
            ],
            [
              77.073754,
              28.462636
            ]
          ]
        ],
        "type": "Polygon"
      },
      "type": "Feature"
    },
    {
      "properties": {
        "fill-opacity": 0.33,
        "fillColor": "#bf4040",
        "opacity": 0.33,
        "fill": "#bf4040",
        "fillOpacity": 0.33,
        "color": "#bf4040",
        "contour": 4.0,
        "metric": "distance",
        "provider_name": "The Dhokla House",
        "zone_type": "distance",
        "distance_km": 4,
        "mode": "motorcycle",
        "center_lat": 28.439417818124,
        "center_lon": 77.083754650519,
        "label": "4km"
      },
      "geometry": {
        "coordinates": [
          [
            [
              77.072754,
              28.47171
            ],
            [
              77.069993,
              28.468417
            ],
            [
              77.071346,
              28.467009
            ],
            [
              77.070856,
              28.464315
            ],
            [
              77.068754,
              28.462624
            ],
            [
              77.067667,
              28.463505
            ],
            [
              77.064492,
              28.46368
            ],
            [
              77.064483,
              28.459417
            ],
            [
              77.062754,
              28.458998
            ],
            [
              77.061754,
              28.457833
            ],
            [
              77.060611,
              28.45856
            ],
            [
              77.059533,
              28.455638
            ],
            [
              77.057754,
              28.454821
            ],
            [
              77.056305,
              28.455417
            ],
            [
              77.0573,
              28.451417
            ],
            [
              77.058531,
              28.450417
            ],
            [
              77.058435,
              28.449736
            ],
            [
              77.056995,
              28.449417
            ],
            [
              77.05693,
              28.447417
            ],
            [
              77.057754,
              28.44654
            ],
            [
              77.058754,
              28.446954
            ],
            [
              77.059193,
              28.446417
            ],
            [
              77.058754,
              28.445848
            ],
            [
              77.057754,
              28.446191
            ],
            [
              77.057015,
              28.444417
            ],
            [
              77.058325,
              28.442417
            ],
            [
              77.060418,
              28.441417
            ],
            [
              77.059464,
              28.440417
            ],
            [
              77.059563,
              28.435417
            ],
            [
              77.058761,
              28.433417
            ],
            [
              77.0592,
              28.428863
            ],
            [
              77.063025,
              28.428417
            ],
            [
              77.064754,
              28.429838
            ],
            [
              77.066754,
              28.429216
            ],
            [
              77.068091,
              28.427417
            ],
            [
              77.066754,
              28.427129
            ],
            [
              77.065034,
              28.428137
            ],
            [
              77.064277,
              28.426894
            ],
            [
              77.064337,
              28.424417
            ],
            [
              77.063493,
              28.423156
            ],
            [
              77.065198,
              28.422861
            ],
            [
              77.064754,
              28.421774
            ],
            [
              77.063278,
              28.421941
            ],
            [
              77.060754,
              28.424505
            ],
            [
              77.059706,
              28.424417
            ],
            [
              77.060604,
              28.424267
            ],
            [
              77.062127,
              28.421791
            ],
            [
              77.062754,
              28.417446
            ],
            [
              77.064536,
              28.418636
            ],
            [
              77.067754,
              28.416522
            ],
            [
              77.072036,
              28.416699
            ],
            [
              77.07355,
              28.415213
            ],
            [
              77.075754,
              28.414444
            ],
            [
              77.075619,
              28.412552
            ],
            [
              77.074835,
              28.412417
            ],
            [
              77.075754,
              28.411832
            ],
            [
              77.077485,
              28.412148
            ],
            [
              77.077754,
              28.410947
            ],
            [
              77.077914,
              28.412417
            ],
            [
              77.079307,
              28.413864
            ],
            [
              77.085754,
              28.414907
            ],
            [
              77.086312,
              28.414417
            ],
            [
              77.085398,
              28.413417
            ],
            [
              77.085754,
              28.412895
            ],
            [
              77.088754,
              28.412229
            ],
            [
              77.091754,
              28.410023
            ],
            [
              77.093857,
              28.413417
            ],
            [
              77.093043,
              28.414417
            ],
            [
              77.093333,
              28.415997
            ],
            [
              77.091651,
              28.416521
            ],
            [
              77.094754,
              28.417036
            ],
            [
              77.095754,
              28.414654
            ],
            [
              77.096826,
              28.415346
            ],
            [
              77.096296,
              28.416876
            ],
            [
              77.099597,
              28.417417
            ],
            [
              77.09923,
              28.418417
            ],
            [
              77.101754,
              28.418854
            ],
            [
              77.106286,
              28.424885
            ],
            [
              77.113764,
              28.431417
            ],
            [
              77.110096,
              28.43176
            ],
            [
              77.109754,
              28.43258
            ],
            [
              77.107754,
              28.432679
            ],
            [
              77.105945,
              28.434608
            ],
            [
              77.104342,
              28.435006
            ],
            [
              77.10386,
              28.438523
            ],
            [
              77.102754,
              28.439612
            ],
            [
              77.101745,
              28.439409
            ],
            [
              77.101665,
              28.442329
            ],
            [
              77.100548,
              28.442417
            ],
            [
              77.101668,
              28.442504
            ],
            [
              77.101921,
              28.444251
            ],
            [
              77.103224,
              28.445417
            ],
            [
              77.10289,
              28.447553
            ],
            [
              77.100754,
              28.447847
            ],
            [
              77.100754,
              28.448921
            ],
            [
              77.102754,
              28.449754
            ],
            [
              77.106754,
              28.449332
            ],
            [
              77.106908,
              28.450264
            ],
            [
              77.107764,
              28.450417
            ],
            [
              77.105998,
              28.450662
            ],
            [
              77.105754,
              28.45129
            ],
            [
              77.105472,
              28.4507
            ],
            [
              77.101754,
              28.450967
            ],
            [
              77.100754,
              28.450021
            ],
            [
              77.099533,
              28.450196
            ],
            [
              77.099223,
              28.452417
            ],
            [
              77.098373,
              28.453036
            ],
            [
              77.097853,
              28.455517
            ],
            [
              77.097005,
              28.455668
            ],
            [
              77.096754,
              28.457423
            ],
            [
              77.09433,
              28.458417
            ],
            [
              77.094178,
              28.461417
            ],
            [
              77.092042,
              28.461417
            ],
            [
              77.092089,
              28.460417
            ],
            [
              77.090754,
              28.459137
            ],
            [
              77.087164,
              28.459417
            ],
            [
              77.08804,
              28.461417
            ],
            [
              77.0872,
              28.462417
            ],
            [
              77.083754,
              28.461961
            ],
            [
              77.083029,
              28.463692
            ],
            [
              77.081754,
              28.462884
            ],
            [
              77.080348,
              28.464011
            ],
            [
              77.081335,
              28.466417
            ],
            [
              77.080754,
              28.467496
            ],
            [
              77.079556,
              28.467616
            ],
            [
              77.078047,
              28.462417
            ],
            [
              77.076497,
              28.461417
            ],
            [
              77.07334,
              28.467417
            ],
            [
              77.072754,
              28.47171
            ]
          ]
        ],
        "type": "Polygon"
      },
      "type": "Feature"
    },
    {
      "properties": {
        "fill-opacity": 0.33,
        "fillColor": "#bf4040",
        "opacity": 0.33,
        "fill": "#bf4040",
        "fillOpacity": 0.33,
        "color": "#bf4040",
        "contour": 5.0,
        "metric": "distance",
        "provider_name": "The Dhokla House",
        "zone_type": "distance",
        "distance_km": 5,
        "mode": "motorcycle",
        "center_lat": 28.439417818124,
        "center_lon": 77.083754650519,
        "label": "5km"
      },
      "geometry": {
        "coordinates": [
          [
            [
              77.073754,
              28.478527
            ],
            [
              77.071754,
              28.478687
            ],
            [
              77.070754,
              28.477623
            ],
            [
              77.068315,
              28.477417
            ],
            [
              77.068882,
              28.476417
            ],
            [
              77.067499,
              28.473672
            ],
            [
              77.065754,
              28.473853
            ],
            [
              77.063208,
              28.471417
            ],
            [
              77.063528,
              28.470191
            ],
            [
              77.065084,
              28.470417
            ],
            [
              77.065754,
              28.471508
            ],
            [
              77.068136,
              28.469799
            ],
            [
              77.068136,
              28.469036
            ],
            [
              77.066515,
              28.468657
            ],
            [
              77.0662,
              28.466972
            ],
            [
              77.063548,
              28.467211
            ],
            [
              77.06203,
              28.469417
            ],
            [
              77.059604,
              28.469568
            ],
            [
              77.059936,
              28.468235
            ],
            [
              77.056754,
              28.469723
            ],
            [
              77.057428,
              28.461743
            ],
            [
              77.053754,
              28.46095
            ],
            [
              77.052754,
              28.45963
            ],
            [
              77.051064,
              28.459727
            ],
            [
              77.049754,
              28.460919
            ],
            [
              77.048547,
              28.460417
            ],
            [
              77.048573,
              28.455417
            ],
            [
              77.050071,
              28.454417
            ],
            [
              77.049178,
              28.452417
            ],
            [
              77.049622,
              28.448417
            ],
            [
              77.051129,
              28.447417
            ],
            [
              77.050648,
              28.445523
            ],
            [
              77.049802,
              28.44537
            ],
            [
              77.048631,
              28.443417
            ],
            [
              77.051141,
              28.439417
            ],
            [
              77.051379,
              28.437042
            ],
            [
              77.052754,
              28.436932
            ],
            [
              77.05311,
              28.435773
            ],
            [
              77.051729,
              28.432443
            ],
            [
              77.05258,
              28.432243
            ],
            [
              77.052673,
              28.429498
            ],
            [
              77.051751,
              28.429417
            ],
            [
              77.053155,
              28.428818
            ],
            [
              77.053523,
              28.427186
            ],
            [
              77.052618,
              28.422281
            ],
            [
              77.053754,
              28.421531
            ],
            [
              77.055257,
              28.423915
            ],
            [
              77.056237,
              28.4239
            ],
            [
              77.056453,
              28.422718
            ],
            [
              77.055484,
              28.421417
            ],
            [
              77.056754,
              28.420451
            ],
            [
              77.057754,
              28.421227
            ],
            [
              77.058131,
              28.418794
            ],
            [
              77.057998,
              28.418173
            ],
            [
              77.056397,
              28.417775
            ],
            [
              77.057259,
              28.416417
            ],
            [
              77.056525,
              28.415417
            ],
            [
              77.059504,
              28.414167
            ],
            [
              77.059682,
              28.413345
            ],
            [
              77.061472,
              28.413135
            ],
            [
              77.061661,
              28.411511
            ],
            [
              77.061002,
              28.411417
            ],
            [
              77.062744,
              28.411408
            ],
            [
              77.063754,
              28.410557
            ],
            [
              77.065381,
              28.411417
            ],
            [
              77.065754,
              28.413147
            ],
            [
              77.066332,
              28.412417
            ],
            [
              77.065982,
              28.408645
            ],
            [
              77.069754,
              28.407087
            ],
            [
              77.070526,
              28.409646
            ],
            [
              77.072754,
              28.408529
            ],
            [
              77.074754,
              28.40923
            ],
            [
              77.075638,
              28.406417
            ],
            [
              77.077754,
              28.40424
            ],
            [
              77.079844,
              28.406417
            ],
            [
              77.077128,
              28.408417
            ],
            [
              77.078103,
              28.409417
            ],
            [
              77.078464,
              28.412708
            ],
            [
              77.079754,
              28.41381
            ],
            [
              77.081153,
              28.412816
            ],
            [
              77.081754,
              28.411067
            ],
            [
              77.082754,
              28.412015
            ],
            [
              77.08511,
              28.411773
            ],
            [
              77.084644,
              28.409307
            ],
            [
              77.085754,
              28.410122
            ],
            [
              77.087754,
              28.410016
            ],
            [
              77.089367,
              28.408417
            ],
            [
              77.08828,
              28.403417
            ],
            [
              77.091415,
              28.403078
            ],
            [
              77.092754,
              28.401029
            ],
            [
              77.096952,
              28.404417
            ],
            [
              77.097458,
              28.406714
            ],
            [
              77.098754,
              28.406423
            ],
            [
              77.09921,
              28.408417
            ],
            [
              77.09887,
              28.409417
            ],
            [
              77.094692,
              28.409355
            ],
            [
              77.094225,
              28.411417
            ],
            [
              77.095388,
              28.413784
            ],
            [
              77.096754,
              28.414625
            ],
            [
              77.098263,
              28.414417
            ],
            [
              77.098754,
              28.4158
            ],
            [
              77.100232,
              28.414895
            ],
            [
              77.100519,
              28.413653
            ],
            [
              77.099472,
              28.413417
            ],
            [
              77.101499,
              28.412162
            ],
            [
              77.101754,
              28.410678
            ],
            [
              77.102153,
              28.413019
            ],
            [
              77.104666,
              28.414417
            ],
            [
              77.103198,
              28.415861
            ],
            [
              77.103317,
              28.416854
            ],
            [
              77.104239,
              28.416903
            ],
            [
              77.104754,
              28.415752
            ],
            [
              77.105754,
              28.41692
            ],
            [
              77.108754,
              28.417365
            ],
            [
              77.108959,
              28.419213
            ],
            [
              77.111777,
              28.419417
            ],
            [
              77.113616,
              28.421417
            ],
            [
              77.11246,
              28.423124
            ],
            [
              77.114729,
              28.426417
            ],
            [
              77.114625,
              28.427417
            ],
            [
              77.11319,
              28.428417
            ],
            [
              77.114089,
              28.431752
            ],
            [
              77.110754,
              28.432041
            ],
            [
              77.109754,
              28.433108
            ],
            [
              77.107591,
              28.433255
            ],
            [
              77.106599,
              28.435262
            ],
            [
              77.105679,
              28.435417
            ],
            [
              77.106926,
              28.438417
            ],
            [
              77.104001,
              28.441664
            ],
            [
              77.102393,
              28.442056
            ],
            [
              77.10243,
              28.443742
            ],
            [
              77.105754,
              28.442809
            ],
            [
              77.106754,
              28.44409
            ],
            [
              77.110754,
              28.444013
            ],
            [
              77.110727,
              28.445417
            ],
            [
              77.108999,
              28.446662
            ],
            [
              77.106754,
              28.446747
            ],
            [
              77.106035,
              28.447417
            ],
            [
              77.107754,
              28.449917
            ],
            [
              77.109754,
              28.449971
            ],
            [
              77.111408,
              28.449071
            ],
            [
              77.111528,
              28.447643
            ],
            [
              77.110565,
              28.447417
            ],
            [
              77.111754,
              28.447296
            ],
            [
              77.112059,
              28.448113
            ],
            [
              77.113754,
              28.448217
            ],
            [
              77.114754,
              28.449182
            ],
            [
              77.117774,
              28.449417
            ],
            [
              77.113754,
              28.449699
            ],
            [
              77.112754,
              28.45075
            ],
            [
              77.106434,
              28.451097
            ],
            [
              77.10894,
              28.454232
            ],
            [
              77.108754,
              28.455681
            ],
            [
              77.107754,
              28.45475
            ],
            [
              77.105754,
              28.455719
            ],
            [
              77.10451,
              28.454662
            ],
            [
              77.105323,
              28.453417
            ],
            [
              77.105064,
              28.451107
            ],
            [
              77.101304,
              28.451967
            ],
            [
              77.099976,
              28.453417
            ],
            [
              77.099754,
              28.455389
            ],
            [
              77.098754,
              28.454745
            ],
            [
              77.09839,
              28.456053
            ],
            [
              77.097483,
              28.456417
            ],
            [
              77.096943,
              28.460417
            ],
            [
              77.09834,
              28.463417
            ],
            [
              77.096065,
              28.463729
            ],
            [
              77.094754,
              28.466212
            ],
            [
              77.094295,
              28.464417
            ],
            [
              77.093517,
              28.46418
            ],
            [
              77.093287,
              28.466417
            ],
            [
              77.091954,
              28.467417
            ],
            [
              77.089492,
              28.467417
            ],
            [
              77.088754,
              28.466296
            ],
            [
              77.087273,
              28.466936
            ],
            [
              77.086024,
              28.469148
            ],
            [
              77.08626,
              28.473417
            ],
            [
              77.080754,
              28.473968
            ],
            [
              77.079754,
              28.4758
            ],
            [
              77.076754,
              28.474824
            ],
            [
              77.075754,
              28.476444
            ],
            [
              77.074754,
              28.476075
            ],
            [
              77.073177,
              28.476841
            ],
            [
              77.073034,
              28.478137
            ],
            [
              77.073754,
              28.478527
            ]
          ]
        ],
        "type": "Polygon"
      },
      "type": "Feature"
    },
    {
      "properties": {
        "fill-opacity": 0.33,
        "fillColor": "#bf4040",
        "opacity": 0.33,
        "fill": "#bf4040",
        "fillOpacity": 0.33,
        "color": "#bf4040",
        "contour": 6.0,
        "metric": "distance",
        "provider_name": "The Dhokla House",
        "zone_type": "distance",
        "distance_km": 6,
        "mode": "motorcycle",
        "center_lat": 28.439417818124,
        "center_lon": 77.083754650519,
        "label": "6km"
      },
      "geometry": {
        "coordinates": [
          [
            [
              77.076754,
              28.483546
            ],
            [
              77.075754,
              28.483762
            ],
            [
              77.070754,
              28.479219
            ],
            [
              77.069754,
              28.47977
            ],
            [
              77.068017,
              28.478154
            ],
            [
              77.065754,
              28.477883
            ],
            [
              77.064754,
              28.476816
            ],
            [
              77.062754,
              28.477738
            ],
            [
              77.060754,
              28.477678
            ],
            [
              77.057754,
              28.476205
            ],
            [
              77.052506,
              28.477417
            ],
            [
              77.051898,
              28.476417
            ],
            [
              77.05427,
              28.473417
            ],
            [
              77.050214,
              28.471417
            ],
            [
              77.054754,
              28.469702
            ],
            [
              77.055754,
              28.467927
            ],
            [
              77.054754,
              28.467202
            ],
            [
              77.053754,
              28.467745
            ],
            [
              77.051831,
              28.467417
            ],
            [
              77.051754,
              28.466213
            ],
            [
              77.050754,
              28.467173
            ],
            [
              77.048754,
              28.466985
            ],
            [
              77.047754,
              28.467828
            ],
            [
              77.046568,
              28.467417
            ],
            [
              77.046764,
              28.464408
            ],
            [
              77.046214,
              28.464877
            ],
            [
              77.04491,
              28.464417
            ],
            [
              77.045327,
              28.460417
            ],
            [
              77.047833,
              28.459417
            ],
            [
              77.046945,
              28.459227
            ],
            [
              77.046074,
              28.456098
            ],
            [
              77.04446,
              28.455712
            ],
            [
              77.041743,
              28.451406
            ],
            [
              77.042527,
              28.450417
            ],
            [
              77.042562,
              28.448225
            ],
            [
              77.044427,
              28.447417
            ],
            [
              77.043714,
              28.444457
            ],
            [
              77.044326,
              28.442417
            ],
            [
              77.043583,
              28.441417
            ],
            [
              77.045139,
              28.440802
            ],
            [
              77.04694,
              28.438417
            ],
            [
              77.043714,
              28.438457
            ],
            [
              77.043907,
              28.436417
            ],
            [
              77.04495,
              28.435417
            ],
            [
              77.044499,
              28.434162
            ],
            [
              77.045928,
              28.432592
            ],
            [
              77.044393,
              28.430417
            ],
            [
              77.045754,
              28.430256
            ],
            [
              77.046754,
              28.431165
            ],
            [
              77.049347,
              28.428417
            ],
            [
              77.048754,
              28.427576
            ],
            [
              77.046832,
              28.42734
            ],
            [
              77.047687,
              28.422417
            ],
            [
              77.044754,
              28.421476
            ],
            [
              77.044754,
              28.419522
            ],
            [
              77.043506,
              28.418417
            ],
            [
              77.045754,
              28.417195
            ],
            [
              77.046754,
              28.417988
            ],
            [
              77.049101,
              28.417765
            ],
            [
              77.048754,
              28.416689
            ],
            [
              77.047075,
              28.416417
            ],
            [
              77.047754,
              28.415826
            ],
            [
              77.050601,
              28.416264
            ],
            [
              77.050493,
              28.414417
            ],
            [
              77.051754,
              28.413405
            ],
            [
              77.05213,
              28.415041
            ],
            [
              77.053754,
              28.415307
            ],
            [
              77.055754,
              28.413507
            ],
            [
              77.057754,
              28.41319
            ],
            [
              77.058754,
              28.413749
            ],
            [
              77.059295,
              28.412958
            ],
            [
              77.061007,
              28.41267
            ],
            [
              77.060302,
              28.411417
            ],
            [
              77.060754,
              28.409936
            ],
            [
              77.065165,
              28.409828
            ],
            [
              77.064754,
              28.408798
            ],
            [
              77.062754,
              28.40871
            ],
            [
              77.058591,
              28.406581
            ],
            [
              77.059716,
              28.404379
            ],
            [
              77.061754,
              28.40429
            ],
            [
              77.06194,
              28.405231
            ],
            [
              77.064975,
              28.405197
            ],
            [
              77.065754,
              28.406056
            ],
            [
              77.066754,
              28.405976
            ],
            [
              77.067209,
              28.404963
            ],
            [
              77.065609,
              28.404563
            ],
            [
              77.065712,
              28.403375
            ],
            [
              77.066571,
              28.403234
            ],
            [
              77.066979,
              28.401642
            ],
            [
              77.069754,
              28.401223
            ],
            [
              77.069272,
              28.402899
            ],
            [
              77.071754,
              28.403125
            ],
            [
              77.072306,
              28.404866
            ],
            [
              77.074428,
              28.405091
            ],
            [
              77.077941,
              28.402604
            ],
            [
              77.077935,
              28.401598
            ],
            [
              77.079754,
              28.399944
            ],
            [
              77.080003,
              28.401168
            ],
            [
              77.080754,
              28.40124
            ],
            [
              77.082341,
              28.400417
            ],
            [
              77.081435,
              28.399417
            ],
            [
              77.083754,
              28.399271
            ],
            [
              77.084142,
              28.400029
            ],
            [
              77.085248,
              28.399911
            ],
            [
              77.085836,
              28.397336
            ],
            [
              77.086384,
              28.397417
            ],
            [
              77.086169,
              28.399003
            ],
            [
              77.088989,
              28.399653
            ],
            [
              77.089754,
              28.397786
            ],
            [
              77.09009,
              28.399082
            ],
            [
              77.091215,
              28.398878
            ],
            [
              77.091237,
              28.397935
            ],
            [
              77.089422,
              28.39675
            ],
            [
              77.08944,
              28.395417
            ],
            [
              77.090754,
              28.395012
            ],
            [
              77.092139,
              28.396033
            ],
            [
              77.093221,
              28.395884
            ],
            [
              77.092848,
              28.393417
            ],
            [
              77.093722,
              28.392385
            ],
            [
              77.093962,
              28.39321
            ],
            [
              77.095115,
              28.393417
            ],
            [
              77.095262,
              28.39691
            ],
            [
              77.098364,
              28.397417
            ],
            [
              77.093754,
              28.397777
            ],
            [
              77.093393,
              28.399779
            ],
            [
              77.097485,
              28.398686
            ],
            [
              77.098466,
              28.399705
            ],
            [
              77.100835,
              28.400337
            ],
            [
              77.100789,
              28.402417
            ],
            [
              77.101754,
              28.402969
            ],
            [
              77.102754,
              28.401972
            ],
            [
              77.104036,
              28.404136
            ],
            [
              77.10587,
              28.404417
            ],
            [
              77.104924,
              28.404587
            ],
            [
              77.104754,
              28.405695
            ],
            [
              77.103754,
              28.404878
            ],
            [
              77.103385,
              28.405417
            ],
            [
              77.105266,
              28.408905
            ],
            [
              77.107396,
              28.40906
            ],
            [
              77.108754,
              28.407765
            ],
            [
              77.109583,
              28.408417
            ],
            [
              77.109831,
              28.410417
            ],
            [
              77.111296,
              28.411417
            ],
            [
              77.109198,
              28.416417
            ],
            [
              77.111041,
              28.41713
            ],
            [
              77.110416,
              28.418755
            ],
            [
              77.114754,
              28.418014
            ],
            [
              77.116754,
              28.41906
            ],
            [
              77.117515,
              28.418417
            ],
            [
              77.117754,
              28.416123
            ],
            [
              77.11827,
              28.418902
            ],
            [
              77.120488,
              28.419152
            ],
            [
              77.120754,
              28.418372
            ],
            [
              77.120982,
              28.419189
            ],
            [
              77.122408,
              28.419417
            ],
            [
              77.118754,
              28.419686
            ],
            [
              77.11696,
              28.421417
            ],
            [
              77.116862,
              28.42331
            ],
            [
              77.117885,
              28.424287
            ],
            [
              77.117995,
              28.429417
            ],
            [
              77.11895,
              28.431613
            ],
            [
              77.117543,
              28.430629
            ],
            [
              77.117168,
              28.429004
            ],
            [
              77.114754,
              28.427892
            ],
            [
              77.113394,
              28.428417
            ],
            [
              77.114199,
              28.431863
            ],
            [
              77.110925,
              28.432417
            ],
            [
              77.112083,
              28.434088
            ],
            [
              77.113784,
              28.434387
            ],
            [
              77.115823,
              28.437417
            ],
            [
              77.11489,
              28.437553
            ],
            [
              77.114754,
              28.438572
            ],
            [
              77.112754,
              28.438695
            ],
            [
              77.111754,
              28.439756
            ],
            [
              77.110754,
              28.438803
            ],
            [
              77.107754,
              28.438897
            ],
            [
              77.105465,
              28.440128
            ],
            [
              77.104163,
              28.441827
            ],
            [
              77.10252,
              28.442183
            ],
            [
              77.102536,
              28.443636
            ],
            [
              77.105754,
              28.442034
            ],
            [
              77.108754,
              28.441989
            ],
            [
              77.109754,
              28.442941
            ],
            [
              77.112052,
              28.443119
            ],
            [
              77.11316,
              28.444417
            ],
            [
              77.113051,
              28.445714
            ],
            [
              77.109754,
              28.445951
            ],
            [
              77.109275,
              28.446896
            ],
            [
              77.111754,
              28.446885
            ],
            [
              77.114754,
              28.448851
            ],
            [
              77.121754,
              28.449203
            ],
            [
              77.122579,
              28.448417
            ],
            [
              77.122754,
              28.4441
            ],
            [
              77.123095,
              28.449417
            ],
            [
              77.122052,
              28.450417
            ],
            [
              77.121754,
              28.454246
            ],
            [
              77.121456,
              28.450417
            ],
            [
              77.120754,
              28.449828
            ],
            [
              77.113754,
              28.449999
            ],
            [
              77.112754,
              28.451017
            ],
            [
              77.106754,
              28.451094
            ],
            [
              77.10652,
              28.451652
            ],
            [
              77.109335,
              28.454417
            ],
            [
              77.108754,
              28.455993
            ],
            [
              77.107754,
              28.455017
            ],
            [
              77.106496,
              28.45516
            ],
            [
              77.105754,
              28.456316
            ],
            [
              77.105127,
              28.456044
            ],
            [
              77.104142,
              28.454417
            ],
            [
              77.105117,
              28.453417
            ],
            [
              77.104966,
              28.451206
            ],
            [
              77.101486,
              28.452149
            ],
            [
              77.100317,
              28.453417
            ],
            [
              77.100384,
              28.454787
            ],
            [
              77.102333,
              28.456839
            ],
            [
              77.104754,
              28.457303
            ],
            [
              77.105957,
              28.462417
            ],
            [
              77.104959,
              28.463417
            ],
            [
              77.106851,
              28.464321
            ],
            [
              77.106754,
              28.466394
            ],
            [
              77.106455,
              28.464716
            ],
            [
              77.103754,
              28.466014
            ],
            [
              77.102754,
              28.465214
            ],
            [
              77.101158,
              28.465417
            ],
            [
              77.101985,
              28.466417
            ],
            [
              77.099725,
              28.469388
            ],
            [
              77.093754,
              28.474588
            ],
            [
              77.091882,
              28.473417
            ],
            [
              77.093405,
              28.471417
            ],
            [
              77.093119,
              28.469053
            ],
            [
              77.087754,
              28.468665
            ],
            [
              77.087496,
              28.469676
            ],
            [
              77.089149,
              28.470023
            ],
            [
              77.089621,
              28.47155
            ],
            [
              77.090519,
              28.471652
            ],
            [
              77.090264,
              28.473927
            ],
            [
              77.086754,
              28.475871
            ],
            [
              77.085328,
              28.474991
            ],
            [
              77.085004,
              28.476417
            ],
            [
              77.085944,
              28.477607
            ],
            [
              77.085314,
              28.479977
            ],
            [
              77.082712,
              28.481417
            ],
            [
              77.078488,
              28.482151
            ],
            [
              77.076754,
              28.483546
            ]
          ]
        ],
        "type": "Polygon"
      },
      "type": "Feature"
    }
  ]
}