{
  "type": "FeatureCollection",
  "metadata": {
    "provider_name": "Red Chinese",
    "center_lat": 18.496907,
    "center_lon": 73.822573,
    "mode": "motorcycle",
    "total_zones": 4,
    "distance_zones": [
      3,
      4,
      5,
      6
    ],
    "generated_at": "2025-12-28T16:47:20.550236Z"
  },
  "features": [
    {
      "properties": {
        "fill-opacity": 0.33,
        "fillColor": "#bf4040",
        "opacity": 0.33,
        "fill": "#bf4040",
        "fillOpacity": 0.33,
        "color": "#bf4040",
        "contour": 3.0,
        "metric": "distance",
        "provider_name": "Red Chinese",
        "zone_type": "distance",
        "distance_km": 3,
        "mode": "motorcycle",
        "center_lat": 18.496907,
        "center_lon": 73.822573,
        "label": "3km"
      },
      "geometry": {
        "coordinates": [
          [
            [
              73.821573,
              18.519444
            ],
            [
              73.821449,
              18.517907
            ],
            [
              73.822229,
              18.517563
            ],
            [
              73.822284,
              18.515907
            ],
            [
              73.818735,
              18.512907
            ],
            [
              73.818573,
              18.511925
            ],
            [
              73.815573,
              18.513836
            ],
            [
              73.814573,
              18.51302
            ],
            [
              73.814561,
              18.511907
            ],
            [
              73.810936,
              18.508544
            ],
            [
              73.810813,
              18.506666
            ],
            [
              73.809573,
              18.506254
            ],
            [
              73.808573,
              18.507074
            ],
            [
              73.808577,
              18.504902
            ],
            [
              73.803944,
              18.503535
            ],
            [
              73.802111,
              18.501907
            ],
            [
              73.805073,
              18.498907
            ],
            [
              73.804852,
              18.496627
            ],
            [
              73.803573,
              18.497081
            ],
            [
              73.802496,
              18.495907
            ],
            [
              73.804064,
              18.495398
            ],
            [
              73.805573,
              18.493552
            ],
            [
              73.809008,
              18.492907
            ],
            [
              73.80804,
              18.491907
            ],
            [
              73.808135,
              18.490344
            ],
            [
              73.807093,
              18.489907
            ],
            [
              73.806285,
              18.485907
            ],
            [
              73.804657,
              18.484907
            ],
            [
              73.804546,
              18.481907
            ],
            [
              73.805573,
              18.479451
            ],
            [
              73.811506,
              18.47884
            ],
            [
              73.811978,
              18.480501
            ],
            [
              73.814573,
              18.480549
            ],
            [
              73.819573,
              18.483346
            ],
            [
              73.821573,
              18.483319
            ],
            [
              73.821984,
              18.482318
            ],
            [
              73.824185,
              18.481519
            ],
            [
              73.824201,
              18.480278
            ],
            [
              73.822751,
              18.478907
            ],
            [
              73.823573,
              18.476956
            ],
            [
              73.826191,
              18.478288
            ],
            [
              73.828351,
              18.478128
            ],
            [
              73.830573,
              18.479207
            ],
            [
              73.831751,
              18.478728
            ],
            [
              73.834048,
              18.480907
            ],
            [
              73.834152,
              18.481907
            ],
            [
              73.833597,
              18.482931
            ],
            [
              73.831573,
              18.483163
            ],
            [
              73.83008,
              18.484414
            ],
            [
              73.829855,
              18.486624
            ],
            [
              73.834023,
              18.489456
            ],
            [
              73.834573,
              18.490576
            ],
            [
              73.835573,
              18.490583
            ],
            [
              73.836955,
              18.494524
            ],
            [
              73.838596,
              18.49593
            ],
            [
              73.834573,
              18.496071
            ],
            [
              73.834257,
              18.496591
            ],
            [
              73.835949,
              18.500907
            ],
            [
              73.835803,
              18.503907
            ],
            [
              73.836573,
              18.504444
            ],
            [
              73.837206,
              18.503907
            ],
            [
              73.837573,
              18.500245
            ],
            [
              73.838573,
              18.499546
            ],
            [
              73.840221,
              18.499907
            ],
            [
              73.841194,
              18.502286
            ],
            [
              73.8446,
              18.504907
            ],
            [
              73.841573,
              18.508026
            ],
            [
              73.840482,
              18.506997
            ],
            [
              73.837426,
              18.507053
            ],
            [
              73.836961,
              18.505518
            ],
            [
              73.836217,
              18.505551
            ],
            [
              73.835833,
              18.506907
            ],
            [
              73.83791,
              18.509569
            ],
            [
              73.841106,
              18.509907
            ],
            [
              73.839713,
              18.510047
            ],
            [
              73.838381,
              18.512715
            ],
            [
              73.835573,
              18.513381
            ],
            [
              73.83328,
              18.515614
            ],
            [
              73.830798,
              18.516132
            ],
            [
              73.829573,
              18.517887
            ],
            [
              73.82799,
              18.516907
            ],
            [
              73.828128,
              18.515351
            ],
            [
              73.82684,
              18.515174
            ],
            [
              73.826638,
              18.515972
            ],
            [
              73.825654,
              18.515907
            ],
            [
              73.824401,
              18.514078
            ],
            [
              73.823573,
              18.513968
            ],
            [
              73.822737,
              18.517907
            ],
            [
              73.821814,
              18.518148
            ],
            [
              73.821573,
              18.519444
            ]
          ]
        ],
        "type": "Polygon"
      },
      "type": "Feature"
    },
    {
      "properties": {
        "fill-opacity": 0.33,
        "fillColor": "#bf4040",
        "opacity": 0.33,
        "fill": "#bf4040",
        "fillOpacity": 0.33,
        "color": "#bf4040",
        "contour": 4.0,
        "metric": "distance",
        "provider_name": "Red Chinese",
        "zone_type": "distance",
        "distance_km": 4,
        "mode": "motorcycle",
        "center_lat": 18.496907,
        "center_lon": 73.822573,
        "label": "4km"
      },
      "geometry": {
        "coordinates": [
          [
            [
              73.829573,
              18.525777
            ],
            [
              73.827353,
              18.520907
            ],
            [
              73.827416,
              18.51975
            ],
            [
              73.829129,
              18.518907
            ],
            [
              73.827307,
              18.518172
            ],
            [
              73.827069,
              18.51641
            ],
            [
              73.824573,
              18.516376
            ],
            [
              73.823897,
              18.514582
            ],
            [
              73.823296,
              18.51463
            ],
            [
              73.823117,
              18.517907
            ],
            [
              73.822087,
              18.518907
            ],
            [
              73.823052,
              18.519907
            ],
            [
              73.822921,
              18.521255
            ],
            [
              73.82015,
              18.521484
            ],
            [
              73.817573,
              18.524899
            ],
            [
              73.816805,
              18.524675
            ],
            [
              73.815161,
              18.522907
            ],
            [
              73.817573,
              18.522685
            ],
            [
              73.819333,
              18.520667
            ],
            [
              73.820943,
              18.520277
            ],
            [
              73.821842,
              18.515637
            ],
            [
              73.819695,
              18.514784
            ],
            [
              73.819532,
              18.513866
            ],
            [
              73.817573,
              18.520767
            ],
            [
              73.815573,
              18.520515
            ],
            [
              73.813682,
              18.517907
            ],
            [
              73.813948,
              18.514531
            ],
            [
              73.812573,
              18.51424
            ],
            [
              73.810573,
              18.515172
            ],
            [
              73.809573,
              18.514221
            ],
            [
              73.807724,
              18.513907
            ],
            [
              73.806647,
              18.511907
            ],
            [
              73.806711,
              18.507768
            ],
            [
              73.803573,
              18.507919
            ],
            [
              73.802601,
              18.506878
            ],
            [
              73.800573,
              18.507428
            ],
            [
              73.799573,
              18.506267
            ],
            [
              73.795573,
              18.506047
            ],
            [
              73.795265,
              18.504214
            ],
            [
              73.794493,
              18.503986
            ],
            [
              73.794303,
              18.501907
            ],
            [
              73.795573,
              18.500449
            ],
            [
              73.796573,
              18.500912
            ],
            [
              73.796864,
              18.499907
            ],
            [
              73.795293,
              18.499186
            ],
            [
              73.793503,
              18.496976
            ],
            [
              73.794265,
              18.495907
            ],
            [
              73.797272,
              18.494606
            ],
            [
              73.797573,
              18.493819
            ],
            [
              73.803573,
              18.493566
            ],
            [
              73.804573,
              18.49438
            ],
            [
              73.805573,
              18.493299
            ],
            [
              73.808876,
              18.492907
            ],
            [
              73.807891,
              18.491907
            ],
            [
              73.807866,
              18.490614
            ],
            [
              73.805573,
              18.489357
            ],
            [
              73.803573,
              18.489261
            ],
            [
              73.802378,
              18.490101
            ],
            [
              73.802051,
              18.488428
            ],
            [
              73.800397,
              18.487907
            ],
            [
              73.799573,
              18.486074
            ],
            [
              73.797762,
              18.485718
            ],
            [
              73.797583,
              18.483907
            ],
            [
              73.796484,
              18.482907
            ],
            [
              73.796756,
              18.478907
            ],
            [
              73.797466,
              18.477907
            ],
            [
              73.797084,
              18.476907
            ],
            [
              73.800573,
              18.475425
            ],
            [
              73.802763,
              18.476097
            ],
            [
              73.804489,
              18.472907
            ],
            [
              73.805579,
              18.4729
            ],
            [
              73.807573,
              18.475634
            ],
            [
              73.809573,
              18.473806
            ],
            [
              73.810573,
              18.473727
            ],
            [
              73.810664,
              18.473907
            ],
            [
              73.810013,
              18.474907
            ],
            [
              73.808831,
              18.475907
            ],
            [
              73.811931,
              18.478548
            ],
            [
              73.812275,
              18.480204
            ],
            [
              73.814573,
              18.480298
            ],
            [
              73.817341,
              18.482138
            ],
            [
              73.819031,
              18.482365
            ],
            [
              73.819342,
              18.481907
            ],
            [
              73.818079,
              18.4804
            ],
            [
              73.816589,
              18.479907
            ],
            [
              73.815342,
              18.474676
            ],
            [
              73.815435,
              18.473907
            ],
            [
              73.815635,
              18.473907
            ],
            [
              73.816207,
              18.474272
            ],
            [
              73.816573,
              18.474303
            ],
            [
              73.81795,
              18.473284
            ],
            [
              73.818472,
              18.471907
            ],
            [
              73.817953,
              18.470907
            ],
            [
              73.820104,
              18.469907
            ],
            [
              73.819573,
              18.468723
            ],
            [
              73.820573,
              18.468687
            ],
            [
              73.822952,
              18.470907
            ],
            [
              73.824573,
              18.470631
            ],
            [
              73.825573,
              18.473986
            ],
            [
              73.829573,
              18.474621
            ],
            [
              73.831531,
              18.472865
            ],
            [
              73.834573,
              18.472994
            ],
            [
              73.836912,
              18.474907
            ],
            [
              73.835772,
              18.475106
            ],
            [
              73.834913,
              18.476247
            ],
            [
              73.834016,
              18.478907
            ],
            [
              73.836978,
              18.480907
            ],
            [
              73.833573,
              18.483391
            ],
            [
              73.83129,
              18.483624
            ],
            [
              73.830129,
              18.484907
            ],
            [
              73.830259,
              18.48622
            ],
            [
              73.832573,
              18.488286
            ],
            [
              73.835836,
              18.48917
            ],
            [
              73.839591,
              18.488907
            ],
            [
              73.840573,
              18.490323
            ],
            [
              73.839847,
              18.491907
            ],
            [
              73.841106,
              18.494373
            ],
            [
              73.842676,
              18.494803
            ],
            [
              73.842825,
              18.496654
            ],
            [
              73.846493,
              18.500907
            ],
            [
              73.84716,
              18.50332
            ],
            [
              73.848056,
              18.50339
            ],
            [
              73.848573,
              18.50255
            ],
            [
              73.850573,
              18.50264
            ],
            [
              73.852033,
              18.503907
            ],
            [
              73.851191,
              18.505525
            ],
            [
              73.849892,
              18.506226
            ],
            [
              73.848573,
              18.504185
            ],
            [
              73.847151,
              18.505485
            ],
            [
              73.847044,
              18.509907
            ],
            [
              73.845653,
              18.510907
            ],
            [
              73.846456,
              18.512907
            ],
            [
              73.845573,
              18.514738
            ],
            [
              73.843304,
              18.514638
            ],
            [
              73.842938,
              18.518272
            ],
            [
              73.841573,
              18.519411
            ],
            [
              73.839573,
              18.517799
            ],
            [
              73.838917,
              18.519251
            ],
            [
              73.835952,
              18.519907
            ],
            [
              73.834358,
              18.522907
            ],
            [
              73.830269,
              18.522603
            ],
            [
              73.829573,
              18.525777
            ]
          ]
        ],
        "type": "Polygon"
      },
      "type": "Feature"
    },
    {
      "properties": {
        "fill-opacity": 0.33,
        "fillColor": "#bf4040",
        "opacity": 0.33,
        "fill": "#bf4040",
        "fillOpacity": 0.33,
        "color": "#bf4040",
        "contour": 5.0,
        "metric": "distance",
        "provider_name": "Red Chinese",
        "zone_type": "distance",
        "distance_km": 5,
        "mode": "motorcycle",
        "center_lat": 18.496907,
        "center_lon": 73.822573,
        "label": "5km"
      },
      "geometry": {
        "coordinates": [
          [
            [
              73.829573,
              18.534488
            ],
            [
              73.82438,
              18.529907
            ],
            [
              73.823512,
              18.526907
            ],
            [
              73.821573,
              18.524275
            ],
            [
              73.818573,
              18.524386
            ],
            [
              73.817027,
              18.525907
            ],
            [
              73.818789,
              18.52769
            ],
            [
              73.818932,
              18.530547
            ],
            [
              73.819555,
              18.530907
            ],
            [
              73.81888,
              18.531214
            ],
            [
              73.818573,
              18.533029
            ],
            [
              73.81826,
              18.528907
            ],
            [
              73.816287,
              18.527192
            ],
            [
              73.815907,
              18.524572
            ],
            [
              73.813128,
              18.523907
            ],
            [
              73.813309,
              18.521643
            ],
            [
              73.814573,
              18.522423
            ],
            [
              73.815137,
              18.521907
            ],
            [
              73.815007,
              18.519907
            ],
            [
              73.813087,
              18.517907
            ],
            [
              73.813048,
              18.515907
            ],
            [
              73.813813,
              18.514666
            ],
            [
              73.812573,
              18.514507
            ],
            [
              73.810573,
              18.515483
            ],
            [
              73.809573,
              18.5145
            ],
            [
              73.808246,
              18.51458
            ],
            [
              73.808161,
              18.516318
            ],
            [
              73.81082,
              18.516907
            ],
            [
              73.810585,
              18.519919
            ],
            [
              73.808573,
              18.521246
            ],
            [
              73.807516,
              18.520964
            ],
            [
              73.807146,
              18.519333
            ],
            [
              73.80547,
              18.519009
            ],
            [
              73.804573,
              18.516196
            ],
            [
              73.80376,
              18.516907
            ],
            [
              73.803573,
              18.51882
            ],
            [
              73.802573,
              18.518249
            ],
            [
              73.80151,
              18.515844
            ],
            [
              73.805014,
              18.515348
            ],
            [
              73.804979,
              18.5135
            ],
            [
              73.803573,
              18.513199
            ],
            [
              73.802573,
              18.514152
            ],
            [
              73.80086,
              18.513194
            ],
            [
              73.800618,
              18.513952
            ],
            [
              73.799573,
              18.514316
            ],
            [
              73.799543,
              18.513877
            ],
            [
              73.800428,
              18.513762
            ],
            [
              73.800162,
              18.511317
            ],
            [
              73.79693,
              18.510907
            ],
            [
              73.796573,
              18.508761
            ],
            [
              73.794573,
              18.509473
            ],
            [
              73.793235,
              18.507907
            ],
            [
              73.794573,
              18.506487
            ],
            [
              73.79473,
              18.504907
            ],
            [
              73.793036,
              18.501907
            ],
            [
              73.793246,
              18.499907
            ],
            [
              73.790573,
              18.49829
            ],
            [
              73.788352,
              18.498127
            ],
            [
              73.787294,
              18.495907
            ],
            [
              73.788573,
              18.493141
            ],
            [
              73.788878,
              18.496907
            ],
            [
              73.789573,
              18.497531
            ],
            [
              73.791573,
              18.497455
            ],
            [
              73.793248,
              18.495582
            ],
            [
              73.796573,
              18.494415
            ],
            [
              73.797573,
              18.493384
            ],
            [
              73.803573,
              18.493304
            ],
            [
              73.804573,
              18.494228
            ],
            [
              73.805573,
              18.493188
            ],
            [
              73.808734,
              18.493068
            ],
            [
              73.807776,
              18.490703
            ],
            [
              73.805573,
              18.489552
            ],
            [
              73.803573,
              18.489514
            ],
            [
              73.802573,
              18.490492
            ],
            [
              73.801573,
              18.488442
            ],
            [
              73.799573,
              18.490169
            ],
            [
              73.795945,
              18.490279
            ],
            [
              73.795573,
              18.491029
            ],
            [
              73.795441,
              18.488907
            ],
            [
              73.794573,
              18.488323
            ],
            [
              73.792573,
              18.490193
            ],
            [
              73.790073,
              18.490907
            ],
            [
              73.792966,
              18.485907
            ],
            [
              73.790316,
              18.484907
            ],
            [
              73.791085,
              18.481907
            ],
            [
              73.788713,
              18.480907
            ],
            [
              73.788126,
              18.479907
            ],
            [
              73.792092,
              18.478426
            ],
            [
              73.79438,
              18.475907
            ],
            [
              73.789872,
              18.470907
            ],
            [
              73.790599,
              18.47088
            ],
            [
              73.791989,
              18.47249
            ],
            [
              73.793573,
              18.472635
            ],
            [
              73.795156,
              18.47149
            ],
            [
              73.795573,
              18.470251
            ],
            [
              73.797113,
              18.473367
            ],
            [
              73.798573,
              18.473529
            ],
            [
              73.799573,
              18.474488
            ],
            [
              73.800573,
              18.473519
            ],
            [
              73.802923,
              18.474257
            ],
            [
              73.800039,
              18.47044
            ],
            [
              73.796405,
              18.469907
            ],
            [
              73.796573,
              18.469248
            ],
            [
              73.799276,
              18.46861
            ],
            [
              73.799573,
              18.467899
            ],
            [
              73.801131,
              18.470348
            ],
            [
              73.805908,
              18.472572
            ],
            [
              73.807861,
              18.475195
            ],
            [
              73.809403,
              18.472907
            ],
            [
              73.807536,
              18.47087
            ],
            [
              73.808023,
              18.469357
            ],
            [
              73.808573,
              18.468928
            ],
            [
              73.809789,
              18.46969
            ],
            [
              73.811573,
              18.469588
            ],
            [
              73.813573,
              18.46653
            ],
            [
              73.815881,
              18.466215
            ],
            [
              73.814225,
              18.462907
            ],
            [
              73.814573,
              18.461458
            ],
            [
              73.81658,
              18.461907
            ],
            [
              73.816887,
              18.464592
            ],
            [
              73.818246,
              18.46458
            ],
            [
              73.819668,
              18.462812
            ],
            [
              73.820667,
              18.463812
            ],
            [
              73.819724,
              18.464907
            ],
            [
              73.820573,
              18.465618
            ],
            [
              73.825394,
              18.462728
            ],
            [
              73.825573,
              18.461885
            ],
            [
              73.826232,
              18.462247
            ],
            [
              73.827118,
              18.463907
            ],
            [
              73.826318,
              18.465161
            ],
            [
              73.828589,
              18.466907
            ],
            [
              73.829176,
              18.469303
            ],
            [
              73.830701,
              18.469907
            ],
            [
              73.828084,
              18.471418
            ],
            [
              73.828261,
              18.474218
            ],
            [
              73.829855,
              18.474189
            ],
            [
              73.831573,
              18.472345
            ],
            [
              73.835573,
              18.472445
            ],
            [
              73.836573,
              18.473436
            ],
            [
              73.837854,
              18.472625
            ],
            [
              73.83985,
              18.474629
            ],
            [
              73.839844,
              18.476178
            ],
            [
              73.838573,
              18.476347
            ],
            [
              73.837934,
              18.475545
            ],
            [
              73.836573,
              18.475415
            ],
            [
              73.834204,
              18.477907
            ],
            [
              73.83434,
              18.479139
            ],
            [
              73.835992,
              18.479487
            ],
            [
              73.836991,
              18.481325
            ],
            [
              73.833573,
              18.483566
            ],
            [
              73.831373,
              18.483707
            ],
            [
              73.830265,
              18.484907
            ],
            [
              73.830359,
              18.48612
            ],
            [
              73.832573,
              18.488182
            ],
            [
              73.840839,
              18.48864
            ],
            [
              73.841088,
              18.490907
            ],
            [
              73.840152,
              18.491907
            ],
            [
              73.841297,
              18.494182
            ],
            [
              73.842934,
              18.494545
            ],
            [
              73.843259,
              18.49622
            ],
            [
              73.845573,
              18.498489
            ],
            [
              73.849005,
              18.499339
            ],
            [
              73.849369,
              18.49611
            ],
            [
              73.848573,
              18.495829
            ],
            [
              73.850573,
              18.494693
            ],
            [
              73.851053,
              18.496426
            ],
            [
              73.853225,
              18.497907
            ],
            [
              73.853888,
              18.499591
            ],
            [
              73.853573,
              18.500797
            ],
            [
              73.852573,
              18.500048
            ],
            [
              73.852003,
              18.500907
            ],
            [
              73.854314,
              18.503907
            ],
            [
              73.854345,
              18.505907
            ],
            [
              73.853206,
              18.506907
            ],
            [
              73.853726,
              18.508907
            ],
            [
              73.852308,
              18.509907
            ],
            [
              73.853713,
              18.510766
            ],
            [
              73.854078,
              18.513401
            ],
            [
              73.855514,
              18.513907
            ],
            [
              73.854073,
              18.515907
            ],
            [
              73.854385,
              18.516907
            ],
            [
              73.851487,
              18.517821
            ],
            [
              73.851935,
              18.519269
            ],
            [
              73.850538,
              18.520941
            ],
            [
              73.846117,
              18.518451
            ],
            [
              73.846117,
              18.519362
            ],
            [
              73.846867,
              18.519612
            ],
            [
              73.846674,
              18.522008
            ],
            [
              73.844327,
              18.523907
            ],
            [
              73.842703,
              18.528037
            ],
            [
              73.838573,
              18.52625
            ],
            [
              73.836573,
              18.52844
            ],
            [
              73.835205,
              18.528907
            ],
            [
              73.835656,
              18.529907
            ],
            [
              73.832217,
              18.532907
            ],
            [
              73.83008,
              18.533414
            ],
            [
              73.829573,
              18.534488
            ]
          ]
        ],
        "type": "Polygon"
      },
      "type": "Feature"
    },
    {
      "properties": {
        "fill-opacity": 0.33,
        "fillColor": "#bf4040",
        "opacity": 0.33,
        "fill": "#bf4040",
        "fillOpacity": 0.33,
        "color": "#bf4040",
        "contour": 6.0,
        "metric": "distance",
        "provider_name": "Red Chinese",
        "zone_type": "distance",
        "distance_km": 6,
        "mode": "motorcycle",
        "center_lat": 18.496907,
        "center_lon": 73.822573,
        "label": "6km"
      },
      "geometry": {
        "coordinates": [
          [
            [
              73.829573,
              18.542037
            ],
            [
              73.828573,
              18.542321
            ],
            [
              73.828023,
              18.541456
            ],
            [
              73.827948,
              18.535531
            ],
            [
              73.826573,
              18.536181
            ],
            [
              73.824289,
              18.53519
            ],
            [
              73.823993,
              18.533486
            ],
            [
              73.822573,
              18.534179
            ],
            [
              73.821573,
              18.53315
            ],
            [
              73.820292,
              18.533187
            ],
            [
              73.819573,
              18.531405
            ],
            [
              73.819075,
              18.532907
            ],
            [
              73.821151,
              18.535328
            ],
            [
              73.82381,
              18.535669
            ],
            [
              73.824674,
              18.537805
            ],
            [
              73.825653,
              18.537907
            ],
            [
              73.824573,
              18.537992
            ],
            [
              73.822573,
              18.53619
            ],
            [
              73.820573,
              18.536262
            ],
            [
              73.818253,
              18.534226
            ],
            [
              73.81798,
              18.528907
            ],
            [
              73.816148,
              18.527331
            ],
            [
              73.815795,
              18.524684
            ],
            [
              73.81293,
              18.523907
            ],
            [
              73.813157,
              18.521491
            ],
            [
              73.814933,
              18.521907
            ],
            [
              73.814875,
              18.519907
            ],
            [
              73.812912,
              18.517907
            ],
            [
              73.812895,
              18.515907
            ],
            [
              73.813749,
              18.51473
            ],
            [
              73.810573,
              18.515609
            ],
            [
              73.809573,
              18.514617
            ],
            [
              73.808354,
              18.514688
            ],
            [
              73.808318,
              18.516161
            ],
            [
              73.811143,
              18.516907
            ],
            [
              73.811077,
              18.519907
            ],
            [
              73.809882,
              18.522216
            ],
            [
              73.808573,
              18.522387
            ],
            [
              73.807224,
              18.521255
            ],
            [
              73.806869,
              18.51961
            ],
            [
              73.805211,
              18.519268
            ],
            [
              73.804846,
              18.516633
            ],
            [
              73.804124,
              18.516907
            ],
            [
              73.803904,
              18.519238
            ],
            [
              73.802573,
              18.520347
            ],
            [
              73.801111,
              18.517907
            ],
            [
              73.801223,
              18.515557
            ],
            [
              73.804838,
              18.515172
            ],
            [
              73.804573,
              18.513482
            ],
            [
              73.802573,
              18.514476
            ],
            [
              73.801573,
              18.513472
            ],
            [
              73.800242,
              18.514576
            ],
            [
              73.799573,
              18.51827
            ],
            [
              73.798302,
              18.517177
            ],
            [
              73.798157,
              18.515907
            ],
            [
              73.800036,
              18.512907
            ],
            [
              73.799871,
              18.511609
            ],
            [
              73.796573,
              18.511398
            ],
            [
              73.792573,
              18.513128
            ],
            [
              73.789573,
              18.513024
            ],
            [
              73.789285,
              18.511194
            ],
            [
              73.787505,
              18.509907
            ],
            [
              73.788235,
              18.509569
            ],
            [
              73.788128,
              18.508351
            ],
            [
              73.786573,
              18.507068
            ],
            [
              73.784181,
              18.506907
            ],
            [
              73.785573,
              18.505519
            ],
            [
              73.785836,
              18.506643
            ],
            [
              73.786573,
              18.506699
            ],
            [
              73.787573,
              18.505425
            ],
            [
              73.78797,
              18.506509
            ],
            [
              73.790027,
              18.507361
            ],
            [
              73.792142,
              18.504907
            ],
            [
              73.791353,
              18.500687
            ],
            [
              73.792573,
              18.500825
            ],
            [
              73.792975,
              18.499907
            ],
            [
              73.790657,
              18.499822
            ],
            [
              73.790573,
              18.498829
            ],
            [
              73.787683,
              18.498796
            ],
            [
              73.786573,
              18.497987
            ],
            [
              73.786187,
              18.495292
            ],
            [
              73.785375,
              18.494907
            ],
            [
              73.787009,
              18.493343
            ],
            [
              73.786225,
              18.491907
            ],
            [
              73.787178,
              18.490907
            ],
            [
              73.785563,
              18.489916
            ],
            [
              73.785264,
              18.488215
            ],
            [
              73.784065,
              18.487907
            ],
            [
              73.783998,
              18.486907
            ],
            [
              73.784573,
              18.485687
            ],
            [
              73.784699,
              18.48678
            ],
            [
              73.786275,
              18.486609
            ],
            [
              73.786329,
              18.48515
            ],
            [
              73.784903,
              18.484907
            ],
            [
              73.785573,
              18.484067
            ],
            [
              73.78572,
              18.484759
            ],
            [
              73.78671,
              18.484769
            ],
            [
              73.786932,
              18.485547
            ],
            [
              73.788157,
              18.484907
            ],
            [
              73.786573,
              18.483092
            ],
            [
              73.785573,
              18.483846
            ],
            [
              73.784573,
              18.483459
            ],
            [
              73.783328,
              18.480151
            ],
            [
              73.782155,
              18.479907
            ],
            [
              73.784218,
              18.479552
            ],
            [
              73.784573,
              18.47868
            ],
            [
              73.791573,
              18.478339
            ],
            [
              73.794019,
              18.475907
            ],
            [
              73.7899,
              18.47158
            ],
            [
              73.786573,
              18.469901
            ],
            [
              73.784421,
              18.470058
            ],
            [
              73.783503,
              18.468976
            ],
            [
              73.783358,
              18.466121
            ],
            [
              73.782077,
              18.465907
            ],
            [
              73.78555,
              18.464884
            ],
            [
              73.785937,
              18.466543
            ],
            [
              73.789573,
              18.466295
            ],
            [
              73.790573,
              18.468747
            ],
            [
              73.791573,
              18.469321
            ],
            [
              73.792909,
              18.467907
            ],
            [
              73.793112,
              18.465907
            ],
            [
              73.795573,
              18.465612
            ],
            [
              73.797852,
              18.466627
            ],
            [
              73.798234,
              18.468245
            ],
            [
              73.799907,
              18.467572
            ],
            [
              73.801307,
              18.470172
            ],
            [
              73.806018,
              18.472461
            ],
            [
              73.807573,
              18.475203
            ],
            [
              73.809026,
              18.472907
            ],
            [
              73.804328,
              18.468152
            ],
            [
              73.804446,
              18.46378
            ],
            [
              73.807573,
              18.462653
            ],
            [
              73.808138,
              18.462907
            ],
            [
              73.808157,
              18.464907
            ],
            [
              73.809067,
              18.464907
            ],
            [
              73.809436,
              18.461043
            ],
            [
              73.808851,
              18.459628
            ],
            [
              73.805912,
              18.457907
            ],
            [
              73.806573,
              18.456861
            ],
            [
              73.806707,
              18.457772
            ],
            [
              73.808236,
              18.45757
            ],
            [
              73.808491,
              18.455988
            ],
            [
              73.807846,
              18.455907
            ],
            [
              73.808448,
              18.454907
            ],
            [
              73.809785,
              18.455119
            ],
            [
              73.811573,
              18.453519
            ],
            [
              73.813573,
              18.455065
            ],
            [
              73.815501,
              18.453835
            ],
            [
              73.816405,
              18.453907
            ],
            [
              73.815703,
              18.454037
            ],
            [
              73.81595,
              18.455529
            ],
            [
              73.817573,
              18.456587
            ],
            [
              73.818573,
              18.45582
            ],
            [
              73.820173,
              18.455907
            ],
            [
              73.820559,
              18.456907
            ],
            [
              73.818833,
              18.458907
            ],
            [
              73.819099,
              18.46238
            ],
            [
              73.822573,
              18.46002
            ],
            [
              73.823573,
              18.46199
            ],
            [
              73.824573,
              18.46211
            ],
            [
              73.824229,
              18.461563
            ],
            [
              73.823584,
              18.461895
            ],
            [
              73.823677,
              18.460011
            ],
            [
              73.827573,
              18.460364
            ],
            [
              73.828287,
              18.458621
            ],
            [
              73.829573,
              18.458558
            ],
            [
              73.830092,
              18.461387
            ],
            [
              73.833581,
              18.461907
            ],
            [
              73.833573,
              18.464709
            ],
            [
              73.834357,
              18.463691
            ],
            [
              73.836547,
              18.464907
            ],
            [
              73.835967,
              18.468907
            ],
            [
              73.835313,
              18.469166
            ],
            [
              73.834573,
              18.468239
            ],
            [
              73.833961,
              18.468907
            ],
            [
              73.834894,
              18.469585
            ],
            [
              73.834893,
              18.470907
            ],
            [
              73.831918,
              18.471252
            ],
            [
              73.831693,
              18.471907
            ],
            [
              73.835573,
              18.472257
            ],
            [
              73.836573,
              18.473253
            ],
            [
              73.837573,
              18.472272
            ],
            [
              73.839994,
              18.474486
            ],
            [
              73.8402,
              18.475907
            ],
            [
              73.838573,
              18.476548
            ],
            [
              73.836573,
              18.475577
            ],
            [
              73.834375,
              18.477709
            ],
            [
              73.8344,
              18.479079
            ],
            [
              73.836059,
              18.47942
            ],
            [
              73.837301,
              18.480907
            ],
            [
              73.836063,
              18.482397
            ],
            [
              73.833573,
              18.483653
            ],
            [
              73.831573,
              18.483675
            ],
            [
              73.830419,
              18.484753
            ],
            [
              73.830411,
              18.486068
            ],
            [
              73.832419,
              18.488061
            ],
            [
              73.84109,
              18.48839
            ],
            [
              73.841246,
              18.490907
            ],
            [
              73.840274,
              18.491907
            ],
            [
              73.841378,
              18.494101
            ],
            [
              73.84303,
              18.494449
            ],
            [
              73.843359,
              18.49612
            ],
            [
              73.845338,
              18.498141
            ],
            [
              73.847573,
              18.498315
            ],
            [
              73.848573,
              18.499295
            ],
            [
              73.848888,
              18.496592
            ],
            [
              73.844481,
              18.494998
            ],
            [
              73.845124,
              18.492907
            ],
            [
              73.844061,
              18.490907
            ],
            [
              73.846177,
              18.488511
            ],
            [
              73.849573,
              18.486205
            ],
            [
              73.850573,
              18.486302
            ],
            [
              73.851712,
              18.487767
            ],
            [
              73.851307,
              18.490172
            ],
            [
              73.852573,
              18.491076
            ],
            [
              73.854573,
              18.490131
            ],
            [
              73.861703,
              18.495907
            ],
            [
              73.861978,
              18.496907
            ],
            [
              73.859018,
              18.498352
            ],
            [
              73.858964,
              18.499515
            ],
            [
              73.86007,
              18.500907
            ],
            [
              73.859227,
              18.501907
            ],
            [
              73.859933,
              18.505907
            ],
            [
              73.858535,
              18.507907
            ],
            [
              73.861592,
              18.509907
            ],
            [
              73.863211,
              18.512907
            ],
            [
              73.860991,
              18.516325
            ],
            [
              73.861717,
              18.518051
            ],
            [
              73.859573,
              18.519303
            ],
            [
              73.857279,
              18.517907
            ],
            [
              73.858295,
              18.520907
            ],
            [
              73.857135,
              18.522907
            ],
            [
              73.855573,
              18.522108
            ],
            [
              73.854837,
              18.522907
            ],
            [
              73.855858,
              18.524621
            ],
            [
              73.85716,
              18.524907
            ],
            [
              73.856145,
              18.525907
            ],
            [
              73.854942,
              18.525907
            ],
            [
              73.853573,
              18.523806
            ],
            [
              73.852955,
              18.525289
            ],
            [
              73.851573,
              18.525038
            ],
            [
              73.849998,
              18.526332
            ],
            [
              73.850573,
              18.52858
            ],
            [
              73.848699,
              18.531907
            ],
            [
              73.848461,
              18.534907
            ],
            [
              73.847573,
              18.5352
            ],
            [
              73.845356,
              18.534123
            ],
            [
              73.845015,
              18.532464
            ],
            [
              73.843112,
              18.532446
            ],
            [
              73.840617,
              18.533951
            ],
            [
              73.83951,
              18.533844
            ],
            [
              73.836612,
              18.537946
            ],
            [
              73.834147,
              18.538481
            ],
            [
              73.833573,
              18.539254
            ],
            [
              73.832815,
              18.538907
            ],
            [
              73.832754,
              18.537725
            ],
            [
              73.831573,
              18.537987
            ],
            [
              73.830788,
              18.538907
            ],
            [
              73.830743,
              18.540907
            ],
            [
              73.829573,
              18.542037
            ]
          ]
        ],
        "type": "Polygon"
      },
      "type": "Feature"
    }
  ]
}