{
  "type": "FeatureCollection",
  "metadata": {
    "provider_name": "Dream Cafe Jaipur",
    "center_lat": 26.823659,
    "center_lon": 75.866043,
    "mode": "motorcycle",
    "total_zones": 4,
    "distance_zones": [
      3,
      4,
      5,
      6
    ],
    "generated_at": "2025-12-28T06:34:57.034911Z"
  },
  "features": [
    {
      "properties": {
        "fill-opacity": 0.33,
        "fillColor": "#bf4040",
        "opacity": 0.33,
        "fill": "#bf4040",
        "fillOpacity": 0.33,
        "color": "#bf4040",
        "contour": 3.0,
        "metric": "distance",
        "provider_name": "Dream Cafe Jaipur",
        "zone_type": "distance",
        "distance_km": 3,
        "mode": "motorcycle",
        "center_lat": 26.823659,
        "center_lon": 75.866043,
        "label": "3km"
      },
      "geometry": {
        "coordinates": [
          [
            [
              75.872043,
              26.843782
            ],
            [
              75.870043,
              26.844504
            ],
            [
              75.86795,
              26.842659
            ],
            [
              75.867797,
              26.841659
            ],
            [
              75.864714,
              26.840987
            ],
            [
              75.862419,
              26.841035
            ],
            [
              75.862043,
              26.842746
            ],
            [
              75.861528,
              26.839173
            ],
            [
              75.857496,
              26.838659
            ],
            [
              75.855043,
              26.835778
            ],
            [
              75.850124,
              26.834577
            ],
            [
              75.849043,
              26.835018
            ],
            [
              75.846806,
              26.832659
            ],
            [
              75.847704,
              26.831659
            ],
            [
              75.847043,
              26.831032
            ],
            [
              75.844043,
              26.834428
            ],
            [
              75.841043,
              26.83279
            ],
            [
              75.841898,
              26.827659
            ],
            [
              75.841043,
              26.827195
            ],
            [
              75.841006,
              26.825695
            ],
            [
              75.838308,
              26.824659
            ],
            [
              75.839043,
              26.823142
            ],
            [
              75.840768,
              26.823385
            ],
            [
              75.84102,
              26.822636
            ],
            [
              75.842692,
              26.822308
            ],
            [
              75.842955,
              26.820746
            ],
            [
              75.84192,
              26.820659
            ],
            [
              75.843043,
              26.820292
            ],
            [
              75.844043,
              26.821003
            ],
            [
              75.846067,
              26.819659
            ],
            [
              75.844736,
              26.815352
            ],
            [
              75.849024,
              26.81364
            ],
            [
              75.850207,
              26.815494
            ],
            [
              75.851043,
              26.815382
            ],
            [
              75.851899,
              26.813659
            ],
            [
              75.85297,
              26.813586
            ],
            [
              75.853043,
              26.812233
            ],
            [
              75.854069,
              26.813685
            ],
            [
              75.854249,
              26.810659
            ],
            [
              75.856442,
              26.809659
            ],
            [
              75.855459,
              26.808659
            ],
            [
              75.855565,
              26.807659
            ],
            [
              75.856892,
              26.805508
            ],
            [
              75.858702,
              26.804318
            ],
            [
              75.858801,
              26.8029
            ],
            [
              75.858004,
              26.802659
            ],
            [
              75.859823,
              26.802439
            ],
            [
              75.860043,
              26.800931
            ],
            [
              75.860945,
              26.800561
            ],
            [
              75.862411,
              26.80229
            ],
            [
              75.864107,
              26.802594
            ],
            [
              75.864222,
              26.803479
            ],
            [
              75.865098,
              26.803659
            ],
            [
              75.863043,
              26.803881
            ],
            [
              75.862492,
              26.804659
            ],
            [
              75.862823,
              26.806878
            ],
            [
              75.86494,
              26.808761
            ],
            [
              75.867043,
              26.808016
            ],
            [
              75.868043,
              26.808528
            ],
            [
              75.870303,
              26.806919
            ],
            [
              75.871043,
              26.80491
            ],
            [
              75.871259,
              26.805443
            ],
            [
              75.87262,
              26.805236
            ],
            [
              75.872148,
              26.802764
            ],
            [
              75.873043,
              26.802509
            ],
            [
              75.878066,
              26.805635
            ],
            [
              75.882143,
              26.809659
            ],
            [
              75.880305,
              26.811921
            ],
            [
              75.880596,
              26.813105
            ],
            [
              75.882552,
              26.813168
            ],
            [
              75.882811,
              26.811427
            ],
            [
              75.884043,
              26.810862
            ],
            [
              75.884865,
              26.812836
            ],
            [
              75.886043,
              26.812568
            ],
            [
              75.886704,
              26.813659
            ],
            [
              75.879043,
              26.814094
            ],
            [
              75.878454,
              26.814659
            ],
            [
              75.879043,
              26.816019
            ],
            [
              75.877043,
              26.816083
            ],
            [
              75.875043,
              26.815178
            ],
            [
              75.874657,
              26.816659
            ],
            [
              75.875791,
              26.81791
            ],
            [
              75.879043,
              26.818135
            ],
            [
              75.881043,
              26.816245
            ],
            [
              75.883043,
              26.81719
            ],
            [
              75.884043,
              26.815437
            ],
            [
              75.88538,
              26.816321
            ],
            [
              75.885425,
              26.817659
            ],
            [
              75.880745,
              26.819361
            ],
            [
              75.880802,
              26.820899
            ],
            [
              75.883043,
              26.820929
            ],
            [
              75.886043,
              26.819176
            ],
            [
              75.888043,
              26.818982
            ],
            [
              75.893362,
              26.820659
            ],
            [
              75.892043,
              26.821823
            ],
            [
              75.891819,
              26.820882
            ],
            [
              75.890462,
              26.821078
            ],
            [
              75.890043,
              26.8228
            ],
            [
              75.889476,
              26.821225
            ],
            [
              75.887043,
              26.820042
            ],
            [
              75.885673,
              26.821289
            ],
            [
              75.885587,
              26.824114
            ],
            [
              75.888043,
              26.824551
            ],
            [
              75.888165,
              26.825536
            ],
            [
              75.888873,
              26.825659
            ],
            [
              75.888043,
              26.827193
            ],
            [
              75.88582,
              26.827436
            ],
            [
              75.887192,
              26.828509
            ],
            [
              75.887043,
              26.830718
            ],
            [
              75.881572,
              26.833188
            ],
            [
              75.881222,
              26.833659
            ],
            [
              75.883019,
              26.835659
            ],
            [
              75.880488,
              26.836659
            ],
            [
              75.877043,
              26.839491
            ],
            [
              75.876043,
              26.838843
            ],
            [
              75.875257,
              26.840873
            ],
            [
              75.872043,
              26.843782
            ]
          ]
        ],
        "type": "Polygon"
      },
      "type": "Feature"
    },
    {
      "properties": {
        "fill-opacity": 0.33,
        "fillColor": "#bf4040",
        "opacity": 0.33,
        "fill": "#bf4040",
        "fillOpacity": 0.33,
        "color": "#bf4040",
        "contour": 4.0,
        "metric": "distance",
        "provider_name": "Dream Cafe Jaipur",
        "zone_type": "distance",
        "distance_km": 4,
        "mode": "motorcycle",
        "center_lat": 26.823659,
        "center_lon": 75.866043,
        "label": "4km"
      },
      "geometry": {
        "coordinates": [
          [
            [
              75.873043,
              26.850723
            ],
            [
              75.872043,
              26.851625
            ],
            [
              75.871094,
              26.850607
            ],
            [
              75.869406,
              26.851295
            ],
            [
              75.869007,
              26.850623
            ],
            [
              75.869798,
              26.849659
            ],
            [
              75.869043,
              26.848898
            ],
            [
              75.867903,
              26.849798
            ],
            [
              75.866983,
              26.849718
            ],
            [
              75.866159,
              26.848542
            ],
            [
              75.864043,
              26.849059
            ],
            [
              75.863891,
              26.847811
            ],
            [
              75.863123,
              26.847659
            ],
            [
              75.865719,
              26.845659
            ],
            [
              75.863752,
              26.844659
            ],
            [
              75.865628,
              26.843659
            ],
            [
              75.864043,
              26.841234
            ],
            [
              75.862573,
              26.841659
            ],
            [
              75.862043,
              26.847173
            ],
            [
              75.861043,
              26.846684
            ],
            [
              75.859909,
              26.847792
            ],
            [
              75.858421,
              26.84328
            ],
            [
              75.856523,
              26.842659
            ],
            [
              75.859043,
              26.841269
            ],
            [
              75.861374,
              26.84199
            ],
            [
              75.861043,
              26.839235
            ],
            [
              75.854454,
              26.83907
            ],
            [
              75.854169,
              26.841785
            ],
            [
              75.853043,
              26.843286
            ],
            [
              75.85161,
              26.842659
            ],
            [
              75.852817,
              26.840659
            ],
            [
              75.851482,
              26.839219
            ],
            [
              75.843666,
              26.838659
            ],
            [
              75.844832,
              26.838448
            ],
            [
              75.844938,
              26.837659
            ],
            [
              75.844043,
              26.836806
            ],
            [
              75.843129,
              26.836745
            ],
            [
              75.843043,
              26.837508
            ],
            [
              75.842458,
              26.835244
            ],
            [
              75.837043,
              26.835404
            ],
            [
              75.835692,
              26.836659
            ],
            [
              75.834079,
              26.836659
            ],
            [
              75.834753,
              26.835659
            ],
            [
              75.833206,
              26.834659
            ],
            [
              75.833791,
              26.833407
            ],
            [
              75.835459,
              26.832659
            ],
            [
              75.832035,
              26.831659
            ],
            [
              75.831865,
              26.830659
            ],
            [
              75.833568,
              26.828659
            ],
            [
              75.835043,
              26.828702
            ],
            [
              75.835105,
              26.829597
            ],
            [
              75.836953,
              26.829569
            ],
            [
              75.837043,
              26.828351
            ],
            [
              75.840837,
              26.827453
            ],
            [
              75.840786,
              26.825915
            ],
            [
              75.839043,
              26.825178
            ],
            [
              75.834043,
              26.82502
            ],
            [
              75.83389,
              26.823811
            ],
            [
              75.82825,
              26.823659
            ],
            [
              75.830652,
              26.823268
            ],
            [
              75.831043,
              26.820855
            ],
            [
              75.83454,
              26.820156
            ],
            [
              75.834819,
              26.817882
            ],
            [
              75.834043,
              26.817594
            ],
            [
              75.835085,
              26.817616
            ],
            [
              75.836043,
              26.819352
            ],
            [
              75.837479,
              26.819095
            ],
            [
              75.838043,
              26.817691
            ],
            [
              75.840242,
              26.818459
            ],
            [
              75.839656,
              26.820045
            ],
            [
              75.842377,
              26.819993
            ],
            [
              75.842594,
              26.818659
            ],
            [
              75.841468,
              26.817233
            ],
            [
              75.838232,
              26.816848
            ],
            [
              75.838043,
              26.81753
            ],
            [
              75.836961,
              26.815577
            ],
            [
              75.839352,
              26.814659
            ],
            [
              75.83504,
              26.812661
            ],
            [
              75.836011,
              26.811627
            ],
            [
              75.841043,
              26.813077
            ],
            [
              75.842043,
              26.814075
            ],
            [
              75.844043,
              26.813954
            ],
            [
              75.845299,
              26.812659
            ],
            [
              75.845158,
              26.811544
            ],
            [
              75.842415,
              26.810659
            ],
            [
              75.842107,
              26.809659
            ],
            [
              75.843106,
              26.808659
            ],
            [
              75.848043,
              26.806902
            ],
            [
              75.848897,
              26.807804
            ],
            [
              75.848013,
              26.811688
            ],
            [
              75.850043,
              26.813538
            ],
            [
              75.852418,
              26.813034
            ],
            [
              75.852559,
              26.811659
            ],
            [
              75.855709,
              26.806659
            ],
            [
              75.855935,
              26.804551
            ],
            [
              75.858102,
              26.803718
            ],
            [
              75.857157,
              26.803544
            ],
            [
              75.857487,
              26.802103
            ],
            [
              75.859465,
              26.801659
            ],
            [
              75.859765,
              26.797381
            ],
            [
              75.860417,
              26.797659
            ],
            [
              75.860699,
              26.800002
            ],
            [
              75.862405,
              26.800296
            ],
            [
              75.862997,
              26.801704
            ],
            [
              75.863597,
              26.801659
            ],
            [
              75.865976,
              26.799592
            ],
            [
              75.867043,
              26.79679
            ],
            [
              75.868094,
              26.796659
            ],
            [
              75.867403,
              26.795659
            ],
            [
              75.86874,
              26.795356
            ],
            [
              75.869043,
              26.794244
            ],
            [
              75.869314,
              26.795387
            ],
            [
              75.873043,
              26.795595
            ],
            [
              75.873255,
              26.796446
            ],
            [
              75.875043,
              26.796893
            ],
            [
              75.876043,
              26.799409
            ],
            [
              75.877769,
              26.799385
            ],
            [
              75.878088,
              26.798613
            ],
            [
              75.880912,
              26.799789
            ],
            [
              75.881451,
              26.800659
            ],
            [
              75.880001,
              26.803659
            ],
            [
              75.883717,
              26.804659
            ],
            [
              75.882275,
              26.804891
            ],
            [
              75.882659,
              26.807042
            ],
            [
              75.885043,
              26.805983
            ],
            [
              75.885597,
              26.807104
            ],
            [
              75.88659,
              26.807206
            ],
            [
              75.888043,
              26.805489
            ],
            [
              75.890043,
              26.80706
            ],
            [
              75.891149,
              26.808659
            ],
            [
              75.890238,
              26.809854
            ],
            [
              75.888577,
              26.810193
            ],
            [
              75.888657,
              26.812044
            ],
            [
              75.889524,
              26.81214
            ],
            [
              75.891043,
              26.810267
            ],
            [
              75.895043,
              26.811437
            ],
            [
              75.896823,
              26.813659
            ],
            [
              75.895845,
              26.814461
            ],
            [
              75.895279,
              26.816659
            ],
            [
              75.896043,
              26.817524
            ],
            [
              75.898349,
              26.817659
            ],
            [
              75.897404,
              26.81902
            ],
            [
              75.897599,
              26.820102
            ],
            [
              75.900679,
              26.820295
            ],
            [
              75.901043,
              26.818679
            ],
            [
              75.902204,
              26.819497
            ],
            [
              75.902043,
              26.821381
            ],
            [
              75.901043,
              26.82191
            ],
            [
              75.900698,
              26.821003
            ],
            [
              75.896637,
              26.821253
            ],
            [
              75.896527,
              26.822174
            ],
            [
              75.89828,
              26.822659
            ],
            [
              75.897265,
              26.822881
            ],
            [
              75.896043,
              26.825526
            ],
            [
              75.895743,
              26.823958
            ],
            [
              75.894513,
              26.823188
            ],
            [
              75.891648,
              26.824264
            ],
            [
              75.891546,
              26.826155
            ],
            [
              75.893625,
              26.826659
            ],
            [
              75.893499,
              26.827659
            ],
            [
              75.892043,
              26.829188
            ],
            [
              75.890043,
              26.828705
            ],
            [
              75.889669,
              26.832032
            ],
            [
              75.890043,
              26.833461
            ],
            [
              75.891043,
              26.833634
            ],
            [
              75.890984,
              26.834717
            ],
            [
              75.893054,
              26.835659
            ],
            [
              75.89044,
              26.836659
            ],
            [
              75.885043,
              26.841468
            ],
            [
              75.882837,
              26.840453
            ],
            [
              75.883023,
              26.841659
            ],
            [
              75.881569,
              26.844659
            ],
            [
              75.877043,
              26.844929
            ],
            [
              75.876043,
              26.845949
            ],
            [
              75.873652,
              26.845268
            ],
            [
              75.87493,
              26.849546
            ],
            [
              75.873043,
              26.850723
            ]
          ]
        ],
        "type": "Polygon"
      },
      "type": "Feature"
    },
    {
      "properties": {
        "fill-opacity": 0.33,
        "fillColor": "#bf4040",
        "opacity": 0.33,
        "fill": "#bf4040",
        "fillOpacity": 0.33,
        "color": "#bf4040",
        "contour": 5.0,
        "metric": "distance",
        "provider_name": "Dream Cafe Jaipur",
        "zone_type": "distance",
        "distance_km": 5,
        "mode": "motorcycle",
        "center_lat": 26.823659,
        "center_lon": 75.866043,
        "label": "5km"
      },
      "geometry": {
        "coordinates": [
          [
            [
              75.861043,
              26.85669
            ],
            [
              75.859552,
              26.856659
            ],
            [
              75.859901,
              26.853517
            ],
            [
              75.861567,
              26.851659
            ],
            [
              75.861061,
              26.84764
            ],
            [
              75.860872,
              26.848488
            ],
            [
              75.859493,
              26.848659
            ],
            [
              75.857558,
              26.850174
            ],
            [
              75.857043,
              26.85133
            ],
            [
              75.856811,
              26.84989
            ],
            [
              75.855895,
              26.849659
            ],
            [
              75.855743,
              26.847659
            ],
            [
              75.854452,
              26.846249
            ],
            [
              75.852043,
              26.845101
            ],
            [
              75.849043,
              26.845064
            ],
            [
              75.847825,
              26.845876
            ],
            [
              75.847801,
              26.844417
            ],
            [
              75.8496,
              26.843659
            ],
            [
              75.847694,
              26.841659
            ],
            [
              75.850043,
              26.840272
            ],
            [
              75.851043,
              26.841197
            ],
            [
              75.852347,
              26.840963
            ],
            [
              75.851043,
              26.839272
            ],
            [
              75.842043,
              26.839116
            ],
            [
              75.841043,
              26.836933
            ],
            [
              75.835043,
              26.837198
            ],
            [
              75.833293,
              26.840909
            ],
            [
              75.830092,
              26.844708
            ],
            [
              75.828815,
              26.844659
            ],
            [
              75.828494,
              26.841659
            ],
            [
              75.82627,
              26.839659
            ],
            [
              75.826512,
              26.838189
            ],
            [
              75.824647,
              26.836659
            ],
            [
              75.82393,
              26.833659
            ],
            [
              75.826043,
              26.833252
            ],
            [
              75.827531,
              26.831659
            ],
            [
              75.829043,
              26.827389
            ],
            [
              75.831043,
              26.827334
            ],
            [
              75.831209,
              26.828492
            ],
            [
              75.835043,
              26.828162
            ],
            [
              75.835319,
              26.829382
            ],
            [
              75.836043,
              26.829509
            ],
            [
              75.837043,
              26.828068
            ],
            [
              75.840602,
              26.827218
            ],
            [
              75.840566,
              26.826135
            ],
            [
              75.839043,
              26.825334
            ],
            [
              75.834043,
              26.825269
            ],
            [
              75.833043,
              26.823857
            ],
            [
              75.823043,
              26.823976
            ],
            [
              75.822867,
              26.822835
            ],
            [
              75.818124,
              26.822659
            ],
            [
              75.82013,
              26.821571
            ],
            [
              75.824043,
              26.821936
            ],
            [
              75.826043,
              26.82322
            ],
            [
              75.830343,
              26.822959
            ],
            [
              75.827622,
              26.817079
            ],
            [
              75.824976,
              26.816659
            ],
            [
              75.828116,
              26.815732
            ],
            [
              75.830043,
              26.813992
            ],
            [
              75.830437,
              26.815264
            ],
            [
              75.831517,
              26.815133
            ],
            [
              75.831177,
              26.813659
            ],
            [
              75.832319,
              26.812382
            ],
            [
              75.828043,
              26.812019
            ],
            [
              75.827296,
              26.810405
            ],
            [
              75.825773,
              26.809659
            ],
            [
              75.831043,
              26.806436
            ],
            [
              75.842043,
              26.803459
            ],
            [
              75.843043,
              26.801593
            ],
            [
              75.847043,
              26.801917
            ],
            [
              75.852043,
              26.799331
            ],
            [
              75.853876,
              26.799492
            ],
            [
              75.854291,
              26.797907
            ],
            [
              75.859043,
              26.795496
            ],
            [
              75.860043,
              26.795434
            ],
            [
              75.860816,
              26.799885
            ],
            [
              75.862379,
              26.799995
            ],
            [
              75.863043,
              26.797122
            ],
            [
              75.866043,
              26.796211
            ],
            [
              75.867873,
              26.794659
            ],
            [
              75.866043,
              26.792001
            ],
            [
              75.865056,
              26.793659
            ],
            [
              75.863939,
              26.793762
            ],
            [
              75.863628,
              26.792073
            ],
            [
              75.861011,
              26.79169
            ],
            [
              75.862708,
              26.791324
            ],
            [
              75.865043,
              26.78583
            ],
            [
              75.871043,
              26.788908
            ],
            [
              75.87278,
              26.788921
            ],
            [
              75.873048,
              26.789664
            ],
            [
              75.870481,
              26.790097
            ],
            [
              75.871043,
              26.791404
            ],
            [
              75.873043,
              26.791299
            ],
            [
              75.874043,
              26.792268
            ],
            [
              75.875043,
              26.79138
            ],
            [
              75.876667,
              26.791283
            ],
            [
              75.877043,
              26.790435
            ],
            [
              75.878125,
              26.790576
            ],
            [
              75.87798,
              26.791659
            ],
            [
              75.875575,
              26.792191
            ],
            [
              75.876257,
              26.793873
            ],
            [
              75.873668,
              26.794284
            ],
            [
              75.874043,
              26.796149
            ],
            [
              75.875043,
              26.795184
            ],
            [
              75.877043,
              26.795243
            ],
            [
              75.879518,
              26.794134
            ],
            [
              75.879761,
              26.79294
            ],
            [
              75.87897,
              26.792731
            ],
            [
              75.87901,
              26.791626
            ],
            [
              75.879246,
              26.792455
            ],
            [
              75.880126,
              26.792575
            ],
            [
              75.880542,
              26.794159
            ],
            [
              75.883882,
              26.794659
            ],
            [
              75.882113,
              26.796729
            ],
            [
              75.882567,
              26.798134
            ],
            [
              75.884532,
              26.798148
            ],
            [
              75.885122,
              26.795579
            ],
            [
              75.885945,
              26.797756
            ],
            [
              75.888675,
              26.798659
            ],
            [
              75.887971,
              26.799659
            ],
            [
              75.886294,
              26.79991
            ],
            [
              75.887599,
              26.802102
            ],
            [
              75.88951,
              26.802126
            ],
            [
              75.890148,
              26.800764
            ],
            [
              75.891884,
              26.8005
            ],
            [
              75.892043,
              26.799768
            ],
            [
              75.892472,
              26.80223
            ],
            [
              75.894043,
              26.803196
            ],
            [
              75.895043,
              26.80261
            ],
            [
              75.895903,
              26.804798
            ],
            [
              75.89821,
              26.805491
            ],
            [
              75.89874,
              26.806961
            ],
            [
              75.900146,
              26.807555
            ],
            [
              75.900043,
              26.80991
            ],
            [
              75.898043,
              26.809975
            ],
            [
              75.897648,
              26.811053
            ],
            [
              75.900043,
              26.812769
            ],
            [
              75.900437,
              26.811053
            ],
            [
              75.901906,
              26.810522
            ],
            [
              75.902043,
              26.809682
            ],
            [
              75.903286,
              26.810659
            ],
            [
              75.902216,
              26.810832
            ],
            [
              75.902214,
              26.811659
            ],
            [
              75.904212,
              26.812659
            ],
            [
              75.902399,
              26.814659
            ],
            [
              75.904405,
              26.816659
            ],
            [
              75.903675,
              26.818026
            ],
            [
              75.911835,
              26.818659
            ],
            [
              75.910309,
              26.818925
            ],
            [
              75.909947,
              26.820754
            ],
            [
              75.909723,
              26.818978
            ],
            [
              75.907574,
              26.81919
            ],
            [
              75.907421,
              26.82128
            ],
            [
              75.909396,
              26.821305
            ],
            [
              75.908043,
              26.8231
            ],
            [
              75.90648,
              26.822659
            ],
            [
              75.906781,
              26.820659
            ],
            [
              75.905465,
              26.819236
            ],
            [
              75.902707,
              26.819323
            ],
            [
              75.902577,
              26.820659
            ],
            [
              75.903499,
              26.821659
            ],
            [
              75.901703,
              26.822319
            ],
            [
              75.901675,
              26.823026
            ],
            [
              75.904043,
              26.825429
            ],
            [
              75.905043,
              26.824298
            ],
            [
              75.906545,
              26.824659
            ],
            [
              75.905243,
              26.824859
            ],
            [
              75.90445,
              26.826066
            ],
            [
              75.904043,
              26.829136
            ],
            [
              75.903668,
              26.827033
            ],
            [
              75.901043,
              26.826973
            ],
            [
              75.900114,
              26.82973
            ],
            [
              75.899201,
              26.829817
            ],
            [
              75.899043,
              26.830709
            ],
            [
              75.898831,
              26.829447
            ],
            [
              75.899811,
              26.829427
            ],
            [
              75.899771,
              26.825659
            ],
            [
              75.899043,
              26.824825
            ],
            [
              75.8977,
              26.825316
            ],
            [
              75.898456,
              26.829072
            ],
            [
              75.896788,
              26.829404
            ],
            [
              75.895374,
              26.831659
            ],
            [
              75.897444,
              26.832659
            ],
            [
              75.898043,
              26.83505
            ],
            [
              75.896294,
              26.83491
            ],
            [
              75.896043,
              26.835615
            ],
            [
              75.895043,
              26.834877
            ],
            [
              75.894932,
              26.835548
            ],
            [
              75.900271,
              26.836659
            ],
            [
              75.900144,
              26.837659
            ],
            [
              75.899209,
              26.837825
            ],
            [
              75.899043,
              26.838893
            ],
            [
              75.898813,
              26.837888
            ],
            [
              75.898043,
              26.837802
            ],
            [
              75.897043,
              26.838985
            ],
            [
              75.89544,
              26.839056
            ],
            [
              75.895623,
              26.840659
            ],
            [
              75.894043,
              26.843583
            ],
            [
              75.892043,
              26.844572
            ],
            [
              75.891043,
              26.843843
            ],
            [
              75.890108,
              26.845724
            ],
            [
              75.889043,
              26.845016
            ],
            [
              75.884172,
              26.844788
            ],
            [
              75.884247,
              26.846454
            ],
            [
              75.885043,
              26.847132
            ],
            [
              75.883043,
              26.847678
            ],
            [
              75.881043,
              26.846777
            ],
            [
              75.880683,
              26.848659
            ],
            [
              75.881381,
              26.849997
            ],
            [
              75.880043,
              26.851328
            ],
            [
              75.878043,
              26.848042
            ],
            [
              75.877043,
              26.852065
            ],
            [
              75.876043,
              26.85122
            ],
            [
              75.873343,
              26.852959
            ],
            [
              75.871043,
              26.852917
            ],
            [
              75.870043,
              26.85432
            ],
            [
              75.869043,
              26.853694
            ],
            [
              75.867043,
              26.85404
            ],
            [
              75.865043,
              26.855333
            ],
            [
              75.864043,
              26.855028
            ],
            [
              75.863043,
              26.855925
            ],
            [
              75.86131,
              26.855926
            ],
            [
              75.861043,
              26.85669
            ]
          ]
        ],
        "type": "Polygon"
      },
      "type": "Feature"
    },
    {
      "properties": {
        "fill-opacity": 0.33,
        "fillColor": "#bf4040",
        "opacity": 0.33,
        "fill": "#bf4040",
        "fillOpacity": 0.33,
        "color": "#bf4040",
        "contour": 6.0,
        "metric": "distance",
        "provider_name": "Dream Cafe Jaipur",
        "zone_type": "distance",
        "distance_km": 6,
        "mode": "motorcycle",
        "center_lat": 26.823659,
        "center_lon": 75.866043,
        "label": "6km"
      },
      "geometry": {
        "coordinates": [
          [
            [
              75.873043,
              26.862298
            ],
            [
              75.871034,
              26.860667
            ],
            [
              75.869043,
              26.860511
            ],
            [
              75.867767,
              26.858934
            ],
            [
              75.866367,
              26.858983
            ],
            [
              75.866043,
              26.860733
            ],
            [
              75.865575,
              26.859126
            ],
            [
              75.863786,
              26.858915
            ],
            [
              75.863403,
              26.857298
            ],
            [
              75.862043,
              26.85619
            ],
            [
              75.861043,
              26.857377
            ],
            [
              75.856377,
              26.857993
            ],
            [
              75.856043,
              26.860077
            ],
            [
              75.855811,
              26.85889
            ],
            [
              75.853947,
              26.857659
            ],
            [
              75.855518,
              26.856134
            ],
            [
              75.855661,
              26.853659
            ],
            [
              75.856583,
              26.852659
            ],
            [
              75.85531,
              26.847391
            ],
            [
              75.852043,
              26.8453
            ],
            [
              75.849043,
              26.845286
            ],
            [
              75.848043,
              26.846256
            ],
            [
              75.847445,
              26.845659
            ],
            [
              75.847635,
              26.844251
            ],
            [
              75.8494,
              26.843659
            ],
            [
              75.847639,
              26.841255
            ],
            [
              75.850043,
              26.840039
            ],
            [
              75.851043,
              26.841008
            ],
            [
              75.852243,
              26.840459
            ],
            [
              75.851043,
              26.83938
            ],
            [
              75.842043,
              26.839307
            ],
            [
              75.841043,
              26.837238
            ],
            [
              75.835094,
              26.837659
            ],
            [
              75.835122,
              26.838738
            ],
            [
              75.832264,
              26.84288
            ],
            [
              75.827633,
              26.848249
            ],
            [
              75.826957,
              26.850573
            ],
            [
              75.824674,
              26.852659
            ],
            [
              75.823076,
              26.848659
            ],
            [
              75.823349,
              26.847659
            ],
            [
              75.821904,
              26.845659
            ],
            [
              75.823385,
              26.843659
            ],
            [
              75.820043,
              26.841912
            ],
            [
              75.819227,
              26.841843
            ],
            [
              75.818935,
              26.842659
            ],
            [
              75.818745,
              26.841659
            ],
            [
              75.819978,
              26.839659
            ],
            [
              75.816112,
              26.837659
            ],
            [
              75.81596,
              26.836742
            ],
            [
              75.814042,
              26.835659
            ],
            [
              75.815043,
              26.834339
            ],
            [
              75.815715,
              26.834987
            ],
            [
              75.816363,
              26.834659
            ],
            [
              75.815103,
              26.832659
            ],
            [
              75.815517,
              26.831659
            ],
            [
              75.816689,
              26.831305
            ],
            [
              75.817088,
              26.828659
            ],
            [
              75.81875,
              26.828366
            ],
            [
              75.81906,
              26.827641
            ],
            [
              75.820557,
              26.829144
            ],
            [
              75.822254,
              26.829447
            ],
            [
              75.824998,
              26.828614
            ],
            [
              75.825043,
              26.827624
            ],
            [
              75.827043,
              26.82734
            ],
            [
              75.827219,
              26.828482
            ],
            [
              75.828043,
              26.828559
            ],
            [
              75.829043,
              26.827081
            ],
            [
              75.831043,
              26.827062
            ],
            [
              75.831457,
              26.828244
            ],
            [
              75.835043,
              26.827993
            ],
            [
              75.836043,
              26.8294
            ],
            [
              75.837043,
              26.827949
            ],
            [
              75.839043,
              26.827939
            ],
            [
              75.840693,
              26.826659
            ],
            [
              75.839043,
              26.825414
            ],
            [
              75.834043,
              26.825378
            ],
            [
              75.833043,
              26.823992
            ],
            [
              75.823043,
              26.824253
            ],
            [
              75.822043,
              26.822925
            ],
            [
              75.811043,
              26.822877
            ],
            [
              75.810788,
              26.820913
            ],
            [
              75.809794,
              26.820659
            ],
            [
              75.811043,
              26.819557
            ],
            [
              75.812043,
              26.820237
            ],
            [
              75.814043,
              26.81769
            ],
            [
              75.816043,
              26.818998
            ],
            [
              75.816658,
              26.817274
            ],
            [
              75.819347,
              26.815354
            ],
            [
              75.821476,
              26.818659
            ],
            [
              75.820321,
              26.818937
            ],
            [
              75.820576,
              26.820125
            ],
            [
              75.824043,
              26.820991
            ],
            [
              75.826043,
              26.823018
            ],
            [
              75.830249,
              26.822865
            ],
            [
              75.827338,
              26.817363
            ],
            [
              75.82368,
              26.817021
            ],
            [
              75.823043,
              26.816091
            ],
            [
              75.821401,
              26.8163
            ],
            [
              75.821043,
              26.814982
            ],
            [
              75.81974,
              26.814961
            ],
            [
              75.818686,
              26.812015
            ],
            [
              75.817413,
              26.811659
            ],
            [
              75.817022,
              26.810679
            ],
            [
              75.817978,
              26.809659
            ],
            [
              75.817839,
              26.807659
            ],
            [
              75.81656,
              26.806659
            ],
            [
              75.821301,
              26.805659
            ],
            [
              75.821043,
              26.804221
            ],
            [
              75.82302,
              26.803659
            ],
            [
              75.823239,
              26.802855
            ],
            [
              75.826043,
              26.801349
            ],
            [
              75.827043,
              26.801813
            ],
            [
              75.829043,
              26.800627
            ],
            [
              75.830233,
              26.800849
            ],
            [
              75.831296,
              26.799912
            ],
            [
              75.834043,
              26.799365
            ],
            [
              75.835669,
              26.800032
            ],
            [
              75.842559,
              26.800175
            ],
            [
              75.842807,
              26.798894
            ],
            [
              75.841145,
              26.798659
            ],
            [
              75.841512,
              26.798128
            ],
            [
              75.843043,
              26.797889
            ],
            [
              75.845043,
              26.796228
            ],
            [
              75.846778,
              26.796394
            ],
            [
              75.848043,
              26.79386
            ],
            [
              75.848342,
              26.795359
            ],
            [
              75.85004,
              26.795656
            ],
            [
              75.850166,
              26.794782
            ],
            [
              75.85125,
              26.794659
            ],
            [
              75.851864,
              26.79248
            ],
            [
              75.855447,
              26.792063
            ],
            [
              75.856014,
              26.79063
            ],
            [
              75.857665,
              26.790281
            ],
            [
              75.859043,
              26.788609
            ],
            [
              75.860043,
              26.788846
            ],
            [
              75.860829,
              26.785659
            ],
            [
              75.862634,
              26.783659
            ],
            [
              75.860498,
              26.781659
            ],
            [
              75.862043,
              26.781374
            ],
            [
              75.86347,
              26.782086
            ],
            [
              75.865081,
              26.77762
            ],
            [
              75.865232,
              26.779659
            ],
            [
              75.864311,
              26.780659
            ],
            [
              75.864604,
              26.782097
            ],
            [
              75.868043,
              26.783384
            ],
            [
              75.870664,
              26.78228
            ],
            [
              75.871043,
              26.780623
            ],
            [
              75.871484,
              26.783217
            ],
            [
              75.875266,
              26.786435
            ],
            [
              75.875655,
              26.788046
            ],
            [
              75.877043,
              26.787314
            ],
            [
              75.881871,
              26.787487
            ],
            [
              75.882043,
              26.78698
            ],
            [
              75.882972,
              26.787659
            ],
            [
              75.879043,
              26.787942
            ],
            [
              75.877346,
              26.789659
            ],
            [
              75.880407,
              26.790659
            ],
            [
              75.879546,
              26.791659
            ],
            [
              75.880452,
              26.792249
            ],
            [
              75.880757,
              26.793944
            ],
            [
              75.883043,
              26.794135
            ],
            [
              75.884043,
              26.793171
            ],
            [
              75.884547,
              26.795154
            ],
            [
              75.885383,
              26.794999
            ],
            [
              75.885758,
              26.793374
            ],
            [
              75.887464,
              26.79308
            ],
            [
              75.888626,
              26.791242
            ],
            [
              75.888883,
              26.789818
            ],
            [
              75.88801,
              26.789626
            ],
            [
              75.889795,
              26.789659
            ],
            [
              75.890038,
              26.791664
            ],
            [
              75.891043,
              26.79171
            ],
            [
              75.891489,
              26.793105
            ],
            [
              75.891193,
              26.793809
            ],
            [
              75.888811,
              26.793427
            ],
            [
              75.887943,
              26.797758
            ],
            [
              75.891459,
              26.798075
            ],
            [
              75.892043,
              26.79576
            ],
            [
              75.893043,
              26.795316
            ],
            [
              75.893262,
              26.797659
            ],
            [
              75.894043,
              26.798261
            ],
            [
              75.895043,
              26.795553
            ],
            [
              75.895563,
              26.798138
            ],
            [
              75.900589,
              26.798659
            ],
            [
              75.900532,
              26.801169
            ],
            [
              75.903043,
              26.801603
            ],
            [
              75.904043,
              26.800977
            ],
            [
              75.904295,
              26.802406
            ],
            [
              75.906712,
              26.803659
            ],
            [
              75.904484,
              26.8041
            ],
            [
              75.903394,
              26.805659
            ],
            [
              75.90352,
              26.809659
            ],
            [
              75.905498,
              26.810659
            ],
            [
              75.902589,
              26.811659
            ],
            [
              75.904589,
              26.812659
            ],
            [
              75.902651,
              26.814659
            ],
            [
              75.904653,
              26.816659
            ],
            [
              75.903806,
              26.817895
            ],
            [
              75.916043,
              26.818295
            ],
            [
              75.916916,
              26.816532
            ],
            [
              75.917722,
              26.816338
            ],
            [
              75.918043,
              26.814755
            ],
            [
              75.9209,
              26.818659
            ],
            [
              75.920237,
              26.818853
            ],
            [
              75.920043,
              26.820459
            ],
            [
              75.916043,
              26.822777
            ],
            [
              75.915465,
              26.819236
            ],
            [
              75.910729,
              26.819345
            ],
            [
              75.910672,
              26.822029
            ],
            [
              75.912043,
              26.82228
            ],
            [
              75.913043,
              26.821383
            ],
            [
              75.914317,
              26.822659
            ],
            [
              75.913342,
              26.823659
            ],
            [
              75.914458,
              26.824659
            ],
            [
              75.914239,
              26.826855
            ],
            [
              75.913689,
              26.825012
            ],
            [
              75.912519,
              26.824182
            ],
            [
              75.911043,
              26.824055
            ],
            [
              75.910459,
              26.824659
            ],
            [
              75.912248,
              26.826659
            ],
            [
              75.912043,
              26.828226
            ],
            [
              75.910043,
              26.828676
            ],
            [
              75.907914,
              26.827787
            ],
            [
              75.909658,
              26.825659
            ],
            [
              75.908043,
              26.824139
            ],
            [
              75.904745,
              26.826361
            ],
            [
              75.904681,
              26.83002
            ],
            [
              75.906043,
              26.831288
            ],
            [
              75.910116,
              26.831585
            ],
            [
              75.909767,
              26.833659
            ],
            [
              75.908043,
              26.833758
            ],
            [
              75.907043,
              26.832943
            ],
            [
              75.906169,
              26.833785
            ],
            [
              75.904982,
              26.833719
            ],
            [
              75.905875,
              26.832659
            ],
            [
              75.903596,
              26.830659
            ],
            [
              75.903342,
              26.827359
            ],
            [
              75.900765,
              26.827381
            ],
            [
              75.900571,
              26.829659
            ],
            [
              75.898551,
              26.833659
            ],
            [
              75.898724,
              26.835977
            ],
            [
              75.910417,
              26.836659
            ],
            [
              75.909043,
              26.838839
            ],
            [
              75.907377,
              26.838325
            ],
            [
              75.906611,
              26.83709
            ],
            [
              75.905043,
              26.836963
            ],
            [
              75.904363,
              26.837979
            ],
            [
              75.900553,
              26.839169
            ],
            [
              75.900043,
              26.840489
            ],
            [
              75.896605,
              26.840097
            ],
            [
              75.895745,
              26.839361
            ],
            [
              75.89667,
              26.841032
            ],
            [
              75.899478,
              26.842659
            ],
            [
              75.897623,
              26.843239
            ],
            [
              75.897649,
              26.844053
            ],
            [
              75.900304,
              26.844398
            ],
            [
              75.898059,
              26.846659
            ],
            [
              75.898043,
              26.849565
            ],
            [
              75.895043,
              26.850087
            ],
            [
              75.891043,
              26.852921
            ],
            [
              75.888255,
              26.849446
            ],
            [
              75.887043,
              26.849378
            ],
            [
              75.886433,
              26.850049
            ],
            [
              75.883663,
              26.850279
            ],
            [
              75.883043,
              26.852074
            ],
            [
              75.879674,
              26.85229
            ],
            [
              75.879056,
              26.853672
            ],
            [
              75.877583,
              26.853199
            ],
            [
              75.875904,
              26.855659
            ],
            [
              75.873513,
              26.856129
            ],
            [
              75.873283,
              26.858659
            ],
            [
              75.874119,
              26.860735
            ],
            [
              75.873043,
              26.862298
            ]
          ]
        ],
        "type": "Polygon"
      },
      "type": "Feature"
    }
  ]
}