{
  "type": "FeatureCollection",
  "metadata": {
    "provider_name": "Balaji Family Dhaba",
    "center_lat": 17.400943,
    "center_lon": 78.487586,
    "mode": "motorcycle",
    "total_zones": 4,
    "distance_zones": [
      3,
      4,
      5,
      6
    ],
    "generated_at": "2025-12-28T15:11:11.040835Z"
  },
  "features": [
    {
      "properties": {
        "fill-opacity": 0.33,
        "fillColor": "#bf4040",
        "opacity": 0.33,
        "fill": "#bf4040",
        "fillOpacity": 0.33,
        "color": "#bf4040",
        "contour": 3.0,
        "metric": "distance",
        "provider_name": "Balaji Family Dhaba",
        "zone_type": "distance",
        "distance_km": 3,
        "mode": "motorcycle",
        "center_lat": 17.400943,
        "center_lon": 78.487586,
        "label": "3km"
      },
      "geometry": {
        "coordinates": [
          [
            [
              78.488586,
              17.424946
            ],
            [
              78.485448,
              17.422943
            ],
            [
              78.485193,
              17.42155
            ],
            [
              78.487017,
              17.420374
            ],
            [
              78.486988,
              17.41954
            ],
            [
              78.485586,
              17.418116
            ],
            [
              78.484586,
              17.419675
            ],
            [
              78.481586,
              17.418577
            ],
            [
              78.481227,
              17.417301
            ],
            [
              78.47839,
              17.415138
            ],
            [
              78.477997,
              17.413531
            ],
            [
              78.476288,
              17.41224
            ],
            [
              78.474921,
              17.409607
            ],
            [
              78.473586,
              17.410339
            ],
            [
              78.472174,
              17.409531
            ],
            [
              78.470649,
              17.414006
            ],
            [
              78.469608,
              17.413943
            ],
            [
              78.470396,
              17.413753
            ],
            [
              78.470155,
              17.411373
            ],
            [
              78.468789,
              17.411146
            ],
            [
              78.468586,
              17.411671
            ],
            [
              78.467556,
              17.410943
            ],
            [
              78.468727,
              17.409801
            ],
            [
              78.464583,
              17.40594
            ],
            [
              78.465586,
              17.405852
            ],
            [
              78.46597,
              17.406558
            ],
            [
              78.467031,
              17.406388
            ],
            [
              78.467586,
              17.403812
            ],
            [
              78.468708,
              17.40482
            ],
            [
              78.468776,
              17.406133
            ],
            [
              78.467865,
              17.406943
            ],
            [
              78.468586,
              17.407607
            ],
            [
              78.469212,
              17.406569
            ],
            [
              78.470586,
              17.406487
            ],
            [
              78.471847,
              17.405204
            ],
            [
              78.471906,
              17.403622
            ],
            [
              78.469653,
              17.400943
            ],
            [
              78.470076,
              17.398433
            ],
            [
              78.470586,
              17.397216
            ],
            [
              78.471586,
              17.397219
            ],
            [
              78.472586,
              17.396171
            ],
            [
              78.475015,
              17.397372
            ],
            [
              78.475171,
              17.395357
            ],
            [
              78.473285,
              17.394943
            ],
            [
              78.474586,
              17.394673
            ],
            [
              78.47506,
              17.393417
            ],
            [
              78.476422,
              17.392943
            ],
            [
              78.4758,
              17.392728
            ],
            [
              78.475965,
              17.391322
            ],
            [
              78.478819,
              17.391176
            ],
            [
              78.47691,
              17.389943
            ],
            [
              78.478919,
              17.389276
            ],
            [
              78.478075,
              17.387943
            ],
            [
              78.479344,
              17.385701
            ],
            [
              78.483365,
              17.386722
            ],
            [
              78.483555,
              17.383912
            ],
            [
              78.485279,
              17.383943
            ],
            [
              78.486591,
              17.381943
            ],
            [
              78.490586,
              17.382382
            ],
            [
              78.491586,
              17.38128
            ],
            [
              78.492586,
              17.382929
            ],
            [
              78.497586,
              17.385055
            ],
            [
              78.499416,
              17.387113
            ],
            [
              78.499201,
              17.389328
            ],
            [
              78.501016,
              17.389512
            ],
            [
              78.503586,
              17.393537
            ],
            [
              78.505586,
              17.390715
            ],
            [
              78.507818,
              17.39071
            ],
            [
              78.50944,
              17.391088
            ],
            [
              78.512507,
              17.393943
            ],
            [
              78.510094,
              17.396451
            ],
            [
              78.510629,
              17.397986
            ],
            [
              78.51024,
              17.402943
            ],
            [
              78.508369,
              17.402726
            ],
            [
              78.507375,
              17.404943
            ],
            [
              78.505113,
              17.40547
            ],
            [
              78.503586,
              17.409576
            ],
            [
              78.501586,
              17.407273
            ],
            [
              78.499454,
              17.407811
            ],
            [
              78.499586,
              17.408878
            ],
            [
              78.501984,
              17.409943
            ],
            [
              78.500586,
              17.412423
            ],
            [
              78.499344,
              17.411701
            ],
            [
              78.500038,
              17.413943
            ],
            [
              78.499381,
              17.417738
            ],
            [
              78.497169,
              17.417359
            ],
            [
              78.495586,
              17.415625
            ],
            [
              78.494653,
              17.42201
            ],
            [
              78.493586,
              17.423034
            ],
            [
              78.490811,
              17.423168
            ],
            [
              78.490586,
              17.424213
            ],
            [
              78.488586,
              17.424946
            ]
          ]
        ],
        "type": "Polygon"
      },
      "type": "Feature"
    },
    {
      "properties": {
        "fill-opacity": 0.33,
        "fillColor": "#bf4040",
        "opacity": 0.33,
        "fill": "#bf4040",
        "fillOpacity": 0.33,
        "color": "#bf4040",
        "contour": 4.0,
        "metric": "distance",
        "provider_name": "Balaji Family Dhaba",
        "zone_type": "distance",
        "distance_km": 4,
        "mode": "motorcycle",
        "center_lat": 17.400943,
        "center_lon": 78.487586,
        "label": "4km"
      },
      "geometry": {
        "coordinates": [
          [
            [
              78.492586,
              17.429198
            ],
            [
              78.489306,
              17.429222
            ],
            [
              78.487586,
              17.425417
            ],
            [
              78.486586,
              17.426727
            ],
            [
              78.486039,
              17.426489
            ],
            [
              78.484926,
              17.422602
            ],
            [
              78.481281,
              17.419247
            ],
            [
              78.480887,
              17.417642
            ],
            [
              78.478195,
              17.415333
            ],
            [
              78.47784,
              17.413688
            ],
            [
              78.476157,
              17.412372
            ],
            [
              78.475802,
              17.410726
            ],
            [
              78.474586,
              17.409568
            ],
            [
              78.473586,
              17.410566
            ],
            [
              78.472331,
              17.409688
            ],
            [
              78.472156,
              17.411943
            ],
            [
              78.470935,
              17.414292
            ],
            [
              78.468586,
              17.414414
            ],
            [
              78.467121,
              17.415478
            ],
            [
              78.465586,
              17.419093
            ],
            [
              78.463608,
              17.417943
            ],
            [
              78.463041,
              17.416487
            ],
            [
              78.461586,
              17.41613
            ],
            [
              78.463346,
              17.414943
            ],
            [
              78.461586,
              17.413443
            ],
            [
              78.460532,
              17.410943
            ],
            [
              78.462268,
              17.409625
            ],
            [
              78.462292,
              17.407649
            ],
            [
              78.46398,
              17.405943
            ],
            [
              78.462586,
              17.405854
            ],
            [
              78.460875,
              17.402943
            ],
            [
              78.462586,
              17.401036
            ],
            [
              78.465724,
              17.401081
            ],
            [
              78.466141,
              17.399498
            ],
            [
              78.468217,
              17.397943
            ],
            [
              78.467154,
              17.396943
            ],
            [
              78.468586,
              17.395255
            ],
            [
              78.469754,
              17.394943
            ],
            [
              78.469586,
              17.393534
            ],
            [
              78.468121,
              17.391943
            ],
            [
              78.468533,
              17.38989
            ],
            [
              78.472586,
              17.388598
            ],
            [
              78.473485,
              17.386842
            ],
            [
              78.476139,
              17.386496
            ],
            [
              78.476331,
              17.385197
            ],
            [
              78.475446,
              17.384943
            ],
            [
              78.475586,
              17.384073
            ],
            [
              78.477586,
              17.384627
            ],
            [
              78.477959,
              17.383943
            ],
            [
              78.475811,
              17.383717
            ],
            [
              78.475586,
              17.382896
            ],
            [
              78.479133,
              17.38149
            ],
            [
              78.479586,
              17.379716
            ],
            [
              78.484586,
              17.379806
            ],
            [
              78.485586,
              17.38073
            ],
            [
              78.487042,
              17.380399
            ],
            [
              78.487214,
              17.376943
            ],
            [
              78.488606,
              17.375943
            ],
            [
              78.488736,
              17.374943
            ],
            [
              78.489586,
              17.374108
            ],
            [
              78.493175,
              17.373353
            ],
            [
              78.494586,
              17.374411
            ],
            [
              78.495154,
              17.376374
            ],
            [
              78.496785,
              17.375743
            ],
            [
              78.497508,
              17.376943
            ],
            [
              78.496297,
              17.379943
            ],
            [
              78.493586,
              17.3803
            ],
            [
              78.493225,
              17.381303
            ],
            [
              78.496961,
              17.381567
            ],
            [
              78.496935,
              17.382943
            ],
            [
              78.499104,
              17.385424
            ],
            [
              78.50201,
              17.386518
            ],
            [
              78.502467,
              17.388061
            ],
            [
              78.503586,
              17.388545
            ],
            [
              78.507611,
              17.386968
            ],
            [
              78.51055,
              17.386943
            ],
            [
              78.512586,
              17.384985
            ],
            [
              78.51447,
              17.385058
            ],
            [
              78.516178,
              17.386943
            ],
            [
              78.516704,
              17.389824
            ],
            [
              78.518342,
              17.390943
            ],
            [
              78.519169,
              17.392943
            ],
            [
              78.518437,
              17.394091
            ],
            [
              78.519531,
              17.394943
            ],
            [
              78.516357,
              17.398943
            ],
            [
              78.516737,
              17.399943
            ],
            [
              78.515188,
              17.400545
            ],
            [
              78.514717,
              17.401943
            ],
            [
              78.514782,
              17.402746
            ],
            [
              78.516586,
              17.403082
            ],
            [
              78.518436,
              17.404943
            ],
            [
              78.517862,
              17.407219
            ],
            [
              78.516144,
              17.407501
            ],
            [
              78.51592,
              17.409277
            ],
            [
              78.512586,
              17.410102
            ],
            [
              78.507586,
              17.408416
            ],
            [
              78.50651,
              17.409943
            ],
            [
              78.507363,
              17.410943
            ],
            [
              78.507619,
              17.414943
            ],
            [
              78.505586,
              17.417951
            ],
            [
              78.505458,
              17.41707
            ],
            [
              78.503749,
              17.417943
            ],
            [
              78.505237,
              17.418943
            ],
            [
              78.502526,
              17.421883
            ],
            [
              78.502782,
              17.423943
            ],
            [
              78.501586,
              17.426447
            ],
            [
              78.500704,
              17.424824
            ],
            [
              78.49939,
              17.424943
            ],
            [
              78.496727,
              17.422801
            ],
            [
              78.494586,
              17.422918
            ],
            [
              78.49443,
              17.423787
            ],
            [
              78.491586,
              17.42368
            ],
            [
              78.491316,
              17.425213
            ],
            [
              78.492979,
              17.425943
            ],
            [
              78.491905,
              17.427262
            ],
            [
              78.492586,
              17.429198
            ]
          ]
        ],
        "type": "Polygon"
      },
      "type": "Feature"
    },
    {
      "properties": {
        "fill-opacity": 0.33,
        "fillColor": "#bf4040",
        "opacity": 0.33,
        "fill": "#bf4040",
        "fillOpacity": 0.33,
        "color": "#bf4040",
        "contour": 5.0,
        "metric": "distance",
        "provider_name": "Balaji Family Dhaba",
        "zone_type": "distance",
        "distance_km": 5,
        "mode": "motorcycle",
        "center_lat": 17.400943,
        "center_lon": 78.487586,
        "label": "5km"
      },
      "geometry": {
        "coordinates": [
          [
            [
              78.505586,
              17.43383
            ],
            [
              78.503882,
              17.431646
            ],
            [
              78.502586,
              17.431142
            ],
            [
              78.498586,
              17.432736
            ],
            [
              78.496947,
              17.431943
            ],
            [
              78.497211,
              17.430943
            ],
            [
              78.496063,
              17.428465
            ],
            [
              78.494586,
              17.428408
            ],
            [
              78.493586,
              17.427481
            ],
            [
              78.492432,
              17.427789
            ],
            [
              78.493422,
              17.428943
            ],
            [
              78.4933,
              17.429657
            ],
            [
              78.492253,
              17.429943
            ],
            [
              78.492816,
              17.430943
            ],
            [
              78.491011,
              17.431368
            ],
            [
              78.488586,
              17.433906
            ],
            [
              78.486586,
              17.432555
            ],
            [
              78.484118,
              17.432943
            ],
            [
              78.486267,
              17.429943
            ],
            [
              78.485994,
              17.428534
            ],
            [
              78.48423,
              17.426943
            ],
            [
              78.485109,
              17.425943
            ],
            [
              78.484811,
              17.422717
            ],
            [
              78.478114,
              17.415414
            ],
            [
              78.47777,
              17.413758
            ],
            [
              78.476094,
              17.412434
            ],
            [
              78.475749,
              17.410779
            ],
            [
              78.474586,
              17.40967
            ],
            [
              78.473586,
              17.410669
            ],
            [
              78.472401,
              17.409758
            ],
            [
              78.472194,
              17.412551
            ],
            [
              78.471037,
              17.414394
            ],
            [
              78.468586,
              17.414597
            ],
            [
              78.467312,
              17.415669
            ],
            [
              78.466119,
              17.417943
            ],
            [
              78.465991,
              17.421943
            ],
            [
              78.464789,
              17.424146
            ],
            [
              78.46305,
              17.424407
            ],
            [
              78.462586,
              17.426888
            ],
            [
              78.462251,
              17.420943
            ],
            [
              78.461219,
              17.419943
            ],
            [
              78.460781,
              17.415747
            ],
            [
              78.458847,
              17.412943
            ],
            [
              78.459586,
              17.411921
            ],
            [
              78.45736,
              17.409943
            ],
            [
              78.456812,
              17.407716
            ],
            [
              78.45567,
              17.406943
            ],
            [
              78.456237,
              17.404943
            ],
            [
              78.453586,
              17.405118
            ],
            [
              78.452483,
              17.403943
            ],
            [
              78.452383,
              17.40274
            ],
            [
              78.45532,
              17.398943
            ],
            [
              78.456586,
              17.398002
            ],
            [
              78.457586,
              17.398754
            ],
            [
              78.458046,
              17.398403
            ],
            [
              78.459586,
              17.396654
            ],
            [
              78.460225,
              17.394582
            ],
            [
              78.462685,
              17.392042
            ],
            [
              78.461427,
              17.387943
            ],
            [
              78.464749,
              17.385106
            ],
            [
              78.465406,
              17.382943
            ],
            [
              78.468586,
              17.384592
            ],
            [
              78.470011,
              17.384368
            ],
            [
              78.472586,
              17.381655
            ],
            [
              78.472991,
              17.382538
            ],
            [
              78.474586,
              17.382717
            ],
            [
              78.474894,
              17.379943
            ],
            [
              78.47395,
              17.378943
            ],
            [
              78.474582,
              17.377943
            ],
            [
              78.4741,
              17.376943
            ],
            [
              78.475586,
              17.375176
            ],
            [
              78.477416,
              17.376943
            ],
            [
              78.477343,
              17.377943
            ],
            [
              78.478586,
              17.37782
            ],
            [
              78.479093,
              17.374943
            ],
            [
              78.477504,
              17.374024
            ],
            [
              78.477805,
              17.372943
            ],
            [
              78.478665,
              17.372863
            ],
            [
              78.480586,
              17.374661
            ],
            [
              78.482586,
              17.37254
            ],
            [
              78.484853,
              17.37221
            ],
            [
              78.485252,
              17.369943
            ],
            [
              78.484427,
              17.368943
            ],
            [
              78.48537,
              17.367943
            ],
            [
              78.48537,
              17.367158
            ],
            [
              78.484539,
              17.366896
            ],
            [
              78.485124,
              17.366481
            ],
            [
              78.486586,
              17.367045
            ],
            [
              78.490586,
              17.365707
            ],
            [
              78.493166,
              17.366943
            ],
            [
              78.493586,
              17.369263
            ],
            [
              78.497586,
              17.36868
            ],
            [
              78.498767,
              17.370761
            ],
            [
              78.501586,
              17.369809
            ],
            [
              78.501892,
              17.371943
            ],
            [
              78.505885,
              17.372943
            ],
            [
              78.504735,
              17.376092
            ],
            [
              78.503434,
              17.376791
            ],
            [
              78.504136,
              17.379392
            ],
            [
              78.505243,
              17.379943
            ],
            [
              78.504189,
              17.381943
            ],
            [
              78.507586,
              17.383455
            ],
            [
              78.508586,
              17.38257
            ],
            [
              78.512586,
              17.382624
            ],
            [
              78.511732,
              17.383089
            ],
            [
              78.511818,
              17.384175
            ],
            [
              78.51097,
              17.384327
            ],
            [
              78.511214,
              17.385314
            ],
            [
              78.517424,
              17.379781
            ],
            [
              78.51818,
              17.379943
            ],
            [
              78.519889,
              17.381943
            ],
            [
              78.519461,
              17.383943
            ],
            [
              78.521738,
              17.384943
            ],
            [
              78.52427,
              17.388258
            ],
            [
              78.524231,
              17.389943
            ],
            [
              78.525841,
              17.392943
            ],
            [
              78.525145,
              17.394383
            ],
            [
              78.526919,
              17.394943
            ],
            [
              78.526755,
              17.395943
            ],
            [
              78.525586,
              17.396593
            ],
            [
              78.524586,
              17.396035
            ],
            [
              78.524202,
              17.396943
            ],
            [
              78.522807,
              17.397164
            ],
            [
              78.521919,
              17.398943
            ],
            [
              78.522808,
              17.399943
            ],
            [
              78.52294,
              17.400943
            ],
            [
              78.521909,
              17.401943
            ],
            [
              78.523097,
              17.404431
            ],
            [
              78.524319,
              17.404676
            ],
            [
              78.524586,
              17.403688
            ],
            [
              78.525079,
              17.403943
            ],
            [
              78.524752,
              17.405943
            ],
            [
              78.523709,
              17.406943
            ],
            [
              78.523753,
              17.410943
            ],
            [
              78.523866,
              17.411662
            ],
            [
              78.525495,
              17.411943
            ],
            [
              78.523765,
              17.414122
            ],
            [
              78.522586,
              17.414045
            ],
            [
              78.521586,
              17.415684
            ],
            [
              78.519384,
              17.413741
            ],
            [
              78.518761,
              17.417118
            ],
            [
              78.516586,
              17.416421
            ],
            [
              78.515586,
              17.417842
            ],
            [
              78.513586,
              17.416807
            ],
            [
              78.511374,
              17.418731
            ],
            [
              78.511898,
              17.421943
            ],
            [
              78.509789,
              17.424146
            ],
            [
              78.508728,
              17.427085
            ],
            [
              78.50724,
              17.427943
            ],
            [
              78.506438,
              17.432943
            ],
            [
              78.505586,
              17.43383
            ]
          ]
        ],
        "type": "Polygon"
      },
      "type": "Feature"
    },
    {
      "properties": {
        "fill-opacity": 0.33,
        "fillColor": "#bf4040",
        "opacity": 0.33,
        "fill": "#bf4040",
        "fillOpacity": 0.33,
        "color": "#bf4040",
        "contour": 6.0,
        "metric": "distance",
        "provider_name": "Balaji Family Dhaba",
        "zone_type": "distance",
        "distance_km": 6,
        "mode": "motorcycle",
        "center_lat": 17.400943,
        "center_lon": 78.487586,
        "label": "6km"
      },
      "geometry": {
        "coordinates": [
          [
            [
              78.505586,
              17.442351
            ],
            [
              78.499799,
              17.437943
            ],
            [
              78.498586,
              17.435308
            ],
            [
              78.497769,
              17.436943
            ],
            [
              78.495559,
              17.436943
            ],
            [
              78.494958,
              17.439315
            ],
            [
              78.493586,
              17.439154
            ],
            [
              78.491586,
              17.440127
            ],
            [
              78.489586,
              17.439261
            ],
            [
              78.487586,
              17.44267
            ],
            [
              78.486468,
              17.441943
            ],
            [
              78.484721,
              17.437807
            ],
            [
              78.483222,
              17.437579
            ],
            [
              78.481586,
              17.439144
            ],
            [
              78.480586,
              17.438928
            ],
            [
              78.480563,
              17.43792
            ],
            [
              78.482298,
              17.435943
            ],
            [
              78.481988,
              17.43454
            ],
            [
              78.476793,
              17.43515
            ],
            [
              78.476586,
              17.435983
            ],
            [
              78.476389,
              17.435139
            ],
            [
              78.474836,
              17.434943
            ],
            [
              78.478586,
              17.434656
            ],
            [
              78.479586,
              17.433597
            ],
            [
              78.481586,
              17.433514
            ],
            [
              78.483914,
              17.432271
            ],
            [
              78.485991,
              17.429943
            ],
            [
              78.485839,
              17.428689
            ],
            [
              78.483977,
              17.426943
            ],
            [
              78.484929,
              17.425943
            ],
            [
              78.484754,
              17.422774
            ],
            [
              78.482099,
              17.420429
            ],
            [
              78.481742,
              17.418786
            ],
            [
              78.478039,
              17.41549
            ],
            [
              78.47773,
              17.413798
            ],
            [
              78.476002,
              17.412526
            ],
            [
              78.475717,
              17.410811
            ],
            [
              78.474586,
              17.409728
            ],
            [
              78.473586,
              17.410728
            ],
            [
              78.472441,
              17.409798
            ],
            [
              78.472227,
              17.412943
            ],
            [
              78.471098,
              17.414455
            ],
            [
              78.468586,
              17.414686
            ],
            [
              78.467391,
              17.415748
            ],
            [
              78.466267,
              17.417943
            ],
            [
              78.466213,
              17.421943
            ],
            [
              78.464979,
              17.424336
            ],
            [
              78.463139,
              17.424943
            ],
            [
              78.462333,
              17.427943
            ],
            [
              78.463162,
              17.430366
            ],
            [
              78.465652,
              17.431943
            ],
            [
              78.46479,
              17.432943
            ],
            [
              78.465671,
              17.433943
            ],
            [
              78.465586,
              17.435028
            ],
            [
              78.465536,
              17.433992
            ],
            [
              78.464545,
              17.433943
            ],
            [
              78.464473,
              17.432055
            ],
            [
              78.462586,
              17.431297
            ],
            [
              78.462221,
              17.429307
            ],
            [
              78.46107,
              17.427943
            ],
            [
              78.461926,
              17.425943
            ],
            [
              78.46175,
              17.421943
            ],
            [
              78.461604,
              17.420925
            ],
            [
              78.460706,
              17.420822
            ],
            [
              78.460518,
              17.41901
            ],
            [
              78.459453,
              17.419075
            ],
            [
              78.458586,
              17.41822
            ],
            [
              78.457113,
              17.419943
            ],
            [
              78.455945,
              17.419943
            ],
            [
              78.456054,
              17.417474
            ],
            [
              78.453677,
              17.416943
            ],
            [
              78.455731,
              17.414797
            ],
            [
              78.45302,
              17.413943
            ],
            [
              78.452867,
              17.411661
            ],
            [
              78.449586,
              17.412121
            ],
            [
              78.449292,
              17.410236
            ],
            [
              78.447182,
              17.409346
            ],
            [
              78.446491,
              17.407943
            ],
            [
              78.448739,
              17.406789
            ],
            [
              78.446326,
              17.406203
            ],
            [
              78.444849,
              17.403943
            ],
            [
              78.44499,
              17.402943
            ],
            [
              78.446233,
              17.40259
            ],
            [
              78.446507,
              17.400864
            ],
            [
              78.447586,
              17.40171
            ],
            [
              78.449338,
              17.399943
            ],
            [
              78.448586,
              17.399146
            ],
            [
              78.445586,
              17.398943
            ],
            [
              78.44612,
              17.397943
            ],
            [
              78.448586,
              17.397186
            ],
            [
              78.449586,
              17.395112
            ],
            [
              78.450586,
              17.394943
            ],
            [
              78.452586,
              17.396707
            ],
            [
              78.453356,
              17.394713
            ],
            [
              78.454761,
              17.394118
            ],
            [
              78.453261,
              17.391618
            ],
            [
              78.454586,
              17.389599
            ],
            [
              78.456586,
              17.389033
            ],
            [
              78.458243,
              17.386943
            ],
            [
              78.458586,
              17.385704
            ],
            [
              78.457586,
              17.385657
            ],
            [
              78.457321,
              17.384208
            ],
            [
              78.458682,
              17.381943
            ],
            [
              78.458324,
              17.380681
            ],
            [
              78.459364,
              17.379943
            ],
            [
              78.460586,
              17.377044
            ],
            [
              78.461586,
              17.377428
            ],
            [
              78.462586,
              17.375798
            ],
            [
              78.463586,
              17.375675
            ],
            [
              78.466717,
              17.378074
            ],
            [
              78.467689,
              17.377046
            ],
            [
              78.468586,
              17.37371
            ],
            [
              78.470586,
              17.374025
            ],
            [
              78.471549,
              17.372906
            ],
            [
              78.4733,
              17.373657
            ],
            [
              78.476101,
              17.371458
            ],
            [
              78.475476,
              17.368943
            ],
            [
              78.476155,
              17.367943
            ],
            [
              78.47831,
              17.368943
            ],
            [
              78.477586,
              17.369946
            ],
            [
              78.479779,
              17.370136
            ],
            [
              78.479791,
              17.368943
            ],
            [
              78.480986,
              17.367943
            ],
            [
              78.47942,
              17.365943
            ],
            [
              78.480586,
              17.364058
            ],
            [
              78.482586,
              17.36603
            ],
            [
              78.484054,
              17.364411
            ],
            [
              78.484404,
              17.362761
            ],
            [
              78.485586,
              17.36369
            ],
            [
              78.486586,
              17.362737
            ],
            [
              78.489219,
              17.362576
            ],
            [
              78.489505,
              17.360862
            ],
            [
              78.490306,
              17.360663
            ],
            [
              78.490586,
              17.357985
            ],
            [
              78.491586,
              17.358062
            ],
            [
              78.492081,
              17.360447
            ],
            [
              78.493987,
              17.361943
            ],
            [
              78.49429,
              17.365239
            ],
            [
              78.498459,
              17.365069
            ],
            [
              78.498302,
              17.366943
            ],
            [
              78.499586,
              17.36849
            ],
            [
              78.501226,
              17.365943
            ],
            [
              78.500586,
              17.364908
            ],
            [
              78.498975,
              17.364943
            ],
            [
              78.498594,
              17.363943
            ],
            [
              78.500126,
              17.363483
            ],
            [
              78.500251,
              17.361608
            ],
            [
              78.501586,
              17.361288
            ],
            [
              78.502311,
              17.362217
            ],
            [
              78.503586,
              17.362088
            ],
            [
              78.504656,
              17.362872
            ],
            [
              78.503239,
              17.363596
            ],
            [
              78.503342,
              17.364186
            ],
            [
              78.508586,
              17.366373
            ],
            [
              78.509044,
              17.366943
            ],
            [
              78.508109,
              17.367466
            ],
            [
              78.508216,
              17.368312
            ],
            [
              78.510591,
              17.368937
            ],
            [
              78.510806,
              17.369722
            ],
            [
              78.512586,
              17.369259
            ],
            [
              78.514745,
              17.369943
            ],
            [
              78.513494,
              17.371943
            ],
            [
              78.513586,
              17.373856
            ],
            [
              78.510318,
              17.377943
            ],
            [
              78.510816,
              17.378943
            ],
            [
              78.511936,
              17.378592
            ],
            [
              78.511316,
              17.377673
            ],
            [
              78.514586,
              17.378621
            ],
            [
              78.515586,
              17.376813
            ],
            [
              78.518604,
              17.376924
            ],
            [
              78.519134,
              17.378394
            ],
            [
              78.526284,
              17.378943
            ],
            [
              78.526636,
              17.379892
            ],
            [
              78.52864,
              17.380888
            ],
            [
              78.527102,
              17.382943
            ],
            [
              78.529586,
              17.383737
            ],
            [
              78.530652,
              17.384943
            ],
            [
              78.529586,
              17.386083
            ],
            [
              78.528212,
              17.385569
            ],
            [
              78.527398,
              17.388131
            ],
            [
              78.532586,
              17.392126
            ],
            [
              78.536007,
              17.398943
            ],
            [
              78.533872,
              17.400229
            ],
            [
              78.530648,
              17.400005
            ],
            [
              78.530785,
              17.401943
            ],
            [
              78.529878,
              17.403235
            ],
            [
              78.52526,
              17.404617
            ],
            [
              78.524119,
              17.406943
            ],
            [
              78.524586,
              17.41142
            ],
            [
              78.526133,
              17.410943
            ],
            [
              78.525321,
              17.409678
            ],
            [
              78.526586,
              17.409536
            ],
            [
              78.527586,
              17.410546
            ],
            [
              78.528422,
              17.408779
            ],
            [
              78.529586,
              17.409636
            ],
            [
              78.531731,
              17.407797
            ],
            [
              78.532783,
              17.407745
            ],
            [
              78.533569,
              17.408943
            ],
            [
              78.533117,
              17.409943
            ],
            [
              78.531586,
              17.409138
            ],
            [
              78.530129,
              17.410486
            ],
            [
              78.529792,
              17.414736
            ],
            [
              78.530325,
              17.415943
            ],
            [
              78.527903,
              17.416943
            ],
            [
              78.528586,
              17.417747
            ],
            [
              78.530535,
              17.417892
            ],
            [
              78.530586,
              17.417172
            ],
            [
              78.530586,
              17.418189
            ],
            [
              78.527586,
              17.420414
            ],
            [
              78.526178,
              17.420535
            ],
            [
              78.525776,
              17.422753
            ],
            [
              78.527088,
              17.422943
            ],
            [
              78.525586,
              17.423499
            ],
            [
              78.522445,
              17.423083
            ],
            [
              78.517586,
              17.420591
            ],
            [
              78.517661,
              17.424943
            ],
            [
              78.516586,
              17.4261
            ],
            [
              78.515586,
              17.425247
            ],
            [
              78.513491,
              17.427848
            ],
            [
              78.514626,
              17.429943
            ],
            [
              78.51372,
              17.430943
            ],
            [
              78.514702,
              17.431826
            ],
            [
              78.51464,
              17.432997
            ],
            [
              78.512088,
              17.433943
            ],
            [
              78.514665,
              17.434863
            ],
            [
              78.514858,
              17.435943
            ],
            [
              78.514529,
              17.435886
            ],
            [
              78.514476,
              17.435052
            ],
            [
              78.513586,
              17.435087
            ],
            [
              78.511586,
              17.437054
            ],
            [
              78.510586,
              17.437015
            ],
            [
              78.510615,
              17.435943
            ],
            [
              78.511298,
              17.435655
            ],
            [
              78.511047,
              17.434481
            ],
            [
              78.506586,
              17.434868
            ],
            [
              78.507809,
              17.438943
            ],
            [
              78.506424,
              17.439781
            ],
            [
              78.507037,
              17.440943
            ],
            [
              78.505586,
              17.442351
            ]
          ]
        ],
        "type": "Polygon"
      },
      "type": "Feature"
    }
  ]
}