{
  "type": "FeatureCollection",
  "metadata": {
    "provider_name": "Heaven Cake Shop",
    "center_lat": 19.0998773,
    "center_lon": 73.0048498,
    "mode": "motorcycle",
    "total_zones": 4,
    "distance_zones": [
      3,
      4,
      5,
      6
    ],
    "generated_at": "2025-12-28T07:31:49.097419Z"
  },
  "features": [
    {
      "properties": {
        "fill-opacity": 0.33,
        "fillColor": "#bf4040",
        "opacity": 0.33,
        "fill": "#bf4040",
        "fillOpacity": 0.33,
        "color": "#bf4040",
        "contour": 3.0,
        "metric": "distance",
        "provider_name": "Heaven Cake Shop",
        "zone_type": "distance",
        "distance_km": 3,
        "mode": "motorcycle",
        "center_lat": 19.0998773,
        "center_lon": 73.0048498,
        "label": "3km"
      },
      "geometry": {
        "coordinates": [
          [
            [
              73.006849,
              19.119993
            ],
            [
              73.006207,
              19.119877
            ],
            [
              73.006813,
              19.11984
            ],
            [
              73.006656,
              19.117877
            ],
            [
              73.005849,
              19.117169
            ],
            [
              73.005012,
              19.118877
            ],
            [
              73.005011,
              19.119715
            ],
            [
              73.005752,
              19.119877
            ],
            [
              73.004849,
              19.120635
            ],
            [
              73.00329,
              19.119436
            ],
            [
              73.000375,
              19.119351
            ],
            [
              72.999977,
              19.117877
            ],
            [
              73.001422,
              19.116877
            ],
            [
              73.000849,
              19.116336
            ],
            [
              72.999849,
              19.117798
            ],
            [
              72.998696,
              19.117724
            ],
            [
              72.999709,
              19.118877
            ],
            [
              72.998849,
              19.120642
            ],
            [
              72.998691,
              19.120035
            ],
            [
              72.996849,
              19.120701
            ],
            [
              72.996726,
              19.118877
            ],
            [
              72.995849,
              19.118158
            ],
            [
              72.994097,
              19.119125
            ],
            [
              72.993849,
              19.120246
            ],
            [
              72.992849,
              19.118825
            ],
            [
              72.990849,
              19.120061
            ],
            [
              72.990754,
              19.118877
            ],
            [
              72.991557,
              19.118584
            ],
            [
              72.991424,
              19.117303
            ],
            [
              72.988918,
              19.116877
            ],
            [
              72.98998,
              19.114877
            ],
            [
              72.99091,
              19.114816
            ],
            [
              72.991089,
              19.115637
            ],
            [
              72.993849,
              19.115508
            ],
            [
              73.000254,
              19.111877
            ],
            [
              73.000109,
              19.110617
            ],
            [
              72.997478,
              19.110248
            ],
            [
              72.996265,
              19.107877
            ],
            [
              72.996237,
              19.103877
            ],
            [
              72.995255,
              19.102877
            ],
            [
              72.995225,
              19.099877
            ],
            [
              72.994199,
              19.097877
            ],
            [
              72.99717,
              19.096877
            ],
            [
              72.994435,
              19.096291
            ],
            [
              72.994435,
              19.095463
            ],
            [
              72.998849,
              19.094238
            ],
            [
              72.999849,
              19.096184
            ],
            [
              73.000399,
              19.094427
            ],
            [
              73.001849,
              19.094193
            ],
            [
              73.003656,
              19.096071
            ],
            [
              73.005129,
              19.095877
            ],
            [
              73.005066,
              19.09366
            ],
            [
              73.002463,
              19.092264
            ],
            [
              73.00188,
              19.090846
            ],
            [
              72.99867,
              19.088056
            ],
            [
              72.998223,
              19.086504
            ],
            [
              72.996625,
              19.086101
            ],
            [
              72.996365,
              19.084362
            ],
            [
              72.994742,
              19.082769
            ],
            [
              72.995639,
              19.080877
            ],
            [
              72.994849,
              19.079469
            ],
            [
              72.996766,
              19.077877
            ],
            [
              72.995954,
              19.076877
            ],
            [
              72.997849,
              19.074741
            ],
            [
              73.000508,
              19.077218
            ],
            [
              73.002104,
              19.077132
            ],
            [
              73.002849,
              19.076306
            ],
            [
              73.005849,
              19.077438
            ],
            [
              73.007849,
              19.076433
            ],
            [
              73.008849,
              19.077973
            ],
            [
              73.009849,
              19.077657
            ],
            [
              73.011943,
              19.078877
            ],
            [
              73.014043,
              19.082683
            ],
            [
              73.01618,
              19.089877
            ],
            [
              73.018129,
              19.091598
            ],
            [
              73.018257,
              19.093285
            ],
            [
              73.017493,
              19.093877
            ],
            [
              73.018094,
              19.097877
            ],
            [
              73.019552,
              19.098877
            ],
            [
              73.018491,
              19.101877
            ],
            [
              73.017122,
              19.102877
            ],
            [
              73.018335,
              19.103877
            ],
            [
              73.018336,
              19.104877
            ],
            [
              73.016948,
              19.109975
            ],
            [
              73.015518,
              19.110545
            ],
            [
              73.015849,
              19.111474
            ],
            [
              73.017178,
              19.111877
            ],
            [
              73.015443,
              19.112877
            ],
            [
              73.016633,
              19.113877
            ],
            [
              73.015802,
              19.114829
            ],
            [
              73.010032,
              19.115877
            ],
            [
              73.010872,
              19.117877
            ],
            [
              73.007212,
              19.11824
            ],
            [
              73.006849,
              19.119993
            ]
          ]
        ],
        "type": "Polygon"
      },
      "type": "Feature"
    },
    {
      "properties": {
        "fill-opacity": 0.33,
        "fillColor": "#bf4040",
        "opacity": 0.33,
        "fill": "#bf4040",
        "fillOpacity": 0.33,
        "color": "#bf4040",
        "contour": 4.0,
        "metric": "distance",
        "provider_name": "Heaven Cake Shop",
        "zone_type": "distance",
        "distance_km": 4,
        "mode": "motorcycle",
        "center_lat": 19.0998773,
        "center_lon": 73.0048498,
        "label": "4km"
      },
      "geometry": {
        "coordinates": [
          [
            [
              73.004849,
              19.128245
            ],
            [
              73.003849,
              19.12868
            ],
            [
              73.003569,
              19.127157
            ],
            [
              73.002849,
              19.12707
            ],
            [
              73.002119,
              19.127147
            ],
            [
              73.001849,
              19.128371
            ],
            [
              73.000849,
              19.127898
            ],
            [
              72.999849,
              19.128344
            ],
            [
              72.993849,
              19.125218
            ],
            [
              72.992064,
              19.125877
            ],
            [
              72.991855,
              19.126882
            ],
            [
              72.991783,
              19.125943
            ],
            [
              72.989276,
              19.126304
            ],
            [
              72.98899,
              19.127736
            ],
            [
              72.989728,
              19.127877
            ],
            [
              72.988849,
              19.127945
            ],
            [
              72.987682,
              19.124044
            ],
            [
              72.986722,
              19.123877
            ],
            [
              72.986536,
              19.118877
            ],
            [
              72.988564,
              19.117877
            ],
            [
              72.988573,
              19.114601
            ],
            [
              72.990849,
              19.114353
            ],
            [
              72.991849,
              19.115328
            ],
            [
              72.993849,
              19.115264
            ],
            [
              73.000137,
              19.111877
            ],
            [
              73.000036,
              19.11069
            ],
            [
              72.997387,
              19.110339
            ],
            [
              72.996143,
              19.107877
            ],
            [
              72.996129,
              19.103877
            ],
            [
              72.995138,
              19.102877
            ],
            [
              72.995123,
              19.099877
            ],
            [
              72.994109,
              19.097877
            ],
            [
              72.994849,
              19.097136
            ],
            [
              72.997092,
              19.096877
            ],
            [
              72.994366,
              19.09636
            ],
            [
              72.994366,
              19.095393
            ],
            [
              72.998849,
              19.094142
            ],
            [
              72.999849,
              19.096112
            ],
            [
              73.00034,
              19.094367
            ],
            [
              73.001849,
              19.094117
            ],
            [
              73.003699,
              19.096027
            ],
            [
              73.005068,
              19.095877
            ],
            [
              73.005013,
              19.093713
            ],
            [
              73.003372,
              19.093354
            ],
            [
              72.998464,
              19.088262
            ],
            [
              72.998089,
              19.086638
            ],
            [
              72.996449,
              19.086277
            ],
            [
              72.99613,
              19.084596
            ],
            [
              72.990706,
              19.079021
            ],
            [
              72.990478,
              19.075249
            ],
            [
              72.988934,
              19.074877
            ],
            [
              72.991543,
              19.071877
            ],
            [
              72.994376,
              19.071404
            ],
            [
              72.994404,
              19.068877
            ],
            [
              72.995849,
              19.068404
            ],
            [
              72.997849,
              19.066257
            ],
            [
              72.998849,
              19.066444
            ],
            [
              73.000042,
              19.068684
            ],
            [
              73.001561,
              19.068588
            ],
            [
              73.001849,
              19.067216
            ],
            [
              73.003849,
              19.073486
            ],
            [
              73.004636,
              19.071663
            ],
            [
              73.006453,
              19.071481
            ],
            [
              73.008849,
              19.068621
            ],
            [
              73.014728,
              19.072877
            ],
            [
              73.014012,
              19.073039
            ],
            [
              73.014253,
              19.074473
            ],
            [
              73.017849,
              19.074586
            ],
            [
              73.016891,
              19.074919
            ],
            [
              73.017223,
              19.078877
            ],
            [
              73.016151,
              19.079877
            ],
            [
              73.016685,
              19.085041
            ],
            [
              73.017849,
              19.085101
            ],
            [
              73.018144,
              19.086583
            ],
            [
              73.019371,
              19.087356
            ],
            [
              73.023289,
              19.088437
            ],
            [
              73.023379,
              19.089877
            ],
            [
              73.022138,
              19.090166
            ],
            [
              73.022205,
              19.091521
            ],
            [
              73.024152,
              19.091574
            ],
            [
              73.02351,
              19.092877
            ],
            [
              73.024849,
              19.094149
            ],
            [
              73.025282,
              19.096444
            ],
            [
              73.02671,
              19.096738
            ],
            [
              73.026849,
              19.095983
            ],
            [
              73.027086,
              19.09664
            ],
            [
              73.024849,
              19.098986
            ],
            [
              73.024118,
              19.098877
            ],
            [
              73.024806,
              19.098834
            ],
            [
              73.024449,
              19.097277
            ],
            [
              73.023295,
              19.097323
            ],
            [
              73.023075,
              19.098651
            ],
            [
              73.023807,
              19.098877
            ],
            [
              73.022849,
              19.10182
            ],
            [
              73.022605,
              19.101121
            ],
            [
              73.021636,
              19.10109
            ],
            [
              73.021431,
              19.099295
            ],
            [
              73.019523,
              19.099551
            ],
            [
              73.019481,
              19.101246
            ],
            [
              73.021368,
              19.101877
            ],
            [
              73.019211,
              19.103877
            ],
            [
              73.019849,
              19.105587
            ],
            [
              73.018849,
              19.105193
            ],
            [
              73.018457,
              19.105877
            ],
            [
              73.019849,
              19.107624
            ],
            [
              73.019671,
              19.110056
            ],
            [
              73.020849,
              19.110456
            ],
            [
              73.021849,
              19.109639
            ],
            [
              73.022862,
              19.110877
            ],
            [
              73.022577,
              19.112149
            ],
            [
              73.025642,
              19.112877
            ],
            [
              73.023418,
              19.113445
            ],
            [
              73.022197,
              19.115225
            ],
            [
              73.02195,
              19.116776
            ],
            [
              73.022758,
              19.116877
            ],
            [
              73.022148,
              19.117175
            ],
            [
              73.021849,
              19.117174
            ],
            [
              73.021637,
              19.114877
            ],
            [
              73.020849,
              19.114214
            ],
            [
              73.018288,
              19.116315
            ],
            [
              73.01799,
              19.120736
            ],
            [
              73.018738,
              19.120877
            ],
            [
              73.016849,
              19.121771
            ],
            [
              73.015993,
              19.119877
            ],
            [
              73.016345,
              19.118382
            ],
            [
              73.015113,
              19.118141
            ],
            [
              73.014832,
              19.119877
            ],
            [
              73.01473,
              19.117877
            ],
            [
              73.016322,
              19.11735
            ],
            [
              73.016218,
              19.115508
            ],
            [
              73.011552,
              19.11558
            ],
            [
              73.012162,
              19.11819
            ],
            [
              73.007383,
              19.118877
            ],
            [
              73.010852,
              19.119874
            ],
            [
              73.012049,
              19.123076
            ],
            [
              73.010849,
              19.123479
            ],
            [
              73.009849,
              19.122496
            ],
            [
              73.007849,
              19.122785
            ],
            [
              73.006676,
              19.121703
            ],
            [
              73.006849,
              19.123265
            ],
            [
              73.008849,
              19.123522
            ],
            [
              73.009538,
              19.124877
            ],
            [
              73.007849,
              19.125816
            ],
            [
              73.007564,
              19.125162
            ],
            [
              73.006303,
              19.12533
            ],
            [
              73.006458,
              19.126877
            ],
            [
              73.004849,
              19.128245
            ]
          ]
        ],
        "type": "Polygon"
      },
      "type": "Feature"
    },
    {
      "properties": {
        "fill-opacity": 0.33,
        "fillColor": "#bf4040",
        "opacity": 0.33,
        "fill": "#bf4040",
        "fillOpacity": 0.33,
        "color": "#bf4040",
        "contour": 5.0,
        "metric": "distance",
        "provider_name": "Heaven Cake Shop",
        "zone_type": "distance",
        "distance_km": 5,
        "mode": "motorcycle",
        "center_lat": 19.0998773,
        "center_lon": 73.0048498,
        "label": "5km"
      },
      "geometry": {
        "coordinates": [
          [
            [
              73.003849,
              19.13694
            ],
            [
              73.002788,
              19.136938
            ],
            [
              73.002891,
              19.136835
            ],
            [
              73.003709,
              19.136736
            ],
            [
              73.00323,
              19.133496
            ],
            [
              73.001582,
              19.134144
            ],
            [
              72.999958,
              19.131877
            ],
            [
              73.001849,
              19.13138
            ],
            [
              73.003078,
              19.130105
            ],
            [
              73.003158,
              19.127569
            ],
            [
              73.002539,
              19.127567
            ],
            [
              73.001849,
              19.129633
            ],
            [
              73.000849,
              19.128696
            ],
            [
              73.000586,
              19.129613
            ],
            [
              72.998437,
              19.130465
            ],
            [
              72.998409,
              19.131318
            ],
            [
              72.999453,
              19.131877
            ],
            [
              72.994849,
              19.132245
            ],
            [
              72.993817,
              19.132909
            ],
            [
              72.992769,
              19.130877
            ],
            [
              72.993563,
              19.129877
            ],
            [
              72.993233,
              19.128493
            ],
            [
              72.990849,
              19.12932
            ],
            [
              72.988504,
              19.128222
            ],
            [
              72.986315,
              19.123877
            ],
            [
              72.986256,
              19.118877
            ],
            [
              72.988266,
              19.117877
            ],
            [
              72.988429,
              19.114456
            ],
            [
              72.990849,
              19.114199
            ],
            [
              72.991849,
              19.115188
            ],
            [
              72.993849,
              19.115156
            ],
            [
              73.000073,
              19.111877
            ],
            [
              72.999849,
              19.110653
            ],
            [
              72.997319,
              19.110407
            ],
            [
              72.996076,
              19.107877
            ],
            [
              72.996068,
              19.103877
            ],
            [
              72.995073,
              19.102877
            ],
            [
              72.995064,
              19.099877
            ],
            [
              72.994266,
              19.09946
            ],
            [
              72.994055,
              19.097877
            ],
            [
              72.994849,
              19.097083
            ],
            [
              72.997045,
              19.096877
            ],
            [
              72.99428,
              19.096446
            ],
            [
              72.99428,
              19.095308
            ],
            [
              72.998849,
              19.094087
            ],
            [
              72.999849,
              19.096067
            ],
            [
              73.000243,
              19.094271
            ],
            [
              73.001849,
              19.094071
            ],
            [
              73.003727,
              19.095999
            ],
            [
              73.004849,
              19.096059
            ],
            [
              73.005036,
              19.093877
            ],
            [
              73.003292,
              19.093434
            ],
            [
              72.998381,
              19.088346
            ],
            [
              72.998025,
              19.086701
            ],
            [
              72.996373,
              19.086353
            ],
            [
              72.996047,
              19.084679
            ],
            [
              72.990476,
              19.07925
            ],
            [
              72.990149,
              19.075577
            ],
            [
              72.988283,
              19.076311
            ],
            [
              72.984485,
              19.075877
            ],
            [
              72.984849,
              19.070443
            ],
            [
              72.986412,
              19.070439
            ],
            [
              72.986591,
              19.069136
            ],
            [
              72.985596,
              19.068623
            ],
            [
              72.986981,
              19.067877
            ],
            [
              72.987038,
              19.066877
            ],
            [
              72.990691,
              19.065719
            ],
            [
              72.990849,
              19.064787
            ],
            [
              72.992849,
              19.064597
            ],
            [
              72.994849,
              19.062641
            ],
            [
              72.997849,
              19.062598
            ],
            [
              73.001234,
              19.064261
            ],
            [
              73.001563,
              19.061877
            ],
            [
              73.000829,
              19.058877
            ],
            [
              73.001849,
              19.058425
            ],
            [
              73.002884,
              19.058877
            ],
            [
              73.002322,
              19.063877
            ],
            [
              73.002849,
              19.064447
            ],
            [
              73.004849,
              19.064475
            ],
            [
              73.005849,
              19.065691
            ],
            [
              73.009849,
              19.065578
            ],
            [
              73.010639,
              19.064877
            ],
            [
              73.010849,
              19.062776
            ],
            [
              73.011159,
              19.063567
            ],
            [
              73.013755,
              19.063877
            ],
            [
              73.015363,
              19.067364
            ],
            [
              73.016868,
              19.067858
            ],
            [
              73.016893,
              19.068833
            ],
            [
              73.01921,
              19.069237
            ],
            [
              73.019849,
              19.067637
            ],
            [
              73.022105,
              19.069877
            ],
            [
              73.021516,
              19.071543
            ],
            [
              73.019357,
              19.071384
            ],
            [
              73.019314,
              19.075342
            ],
            [
              73.01745,
              19.075877
            ],
            [
              73.017849,
              19.076794
            ],
            [
              73.018849,
              19.076385
            ],
            [
              73.019943,
              19.077877
            ],
            [
              73.020071,
              19.079099
            ],
            [
              73.018569,
              19.080597
            ],
            [
              73.018629,
              19.081877
            ],
            [
              73.020849,
              19.081653
            ],
            [
              73.021049,
              19.083677
            ],
            [
              73.022849,
              19.083682
            ],
            [
              73.0238,
              19.081827
            ],
            [
              73.024849,
              19.081267
            ],
            [
              73.024882,
              19.08191
            ],
            [
              73.024012,
              19.082039
            ],
            [
              73.024245,
              19.083481
            ],
            [
              73.026767,
              19.083794
            ],
            [
              73.026849,
              19.083337
            ],
            [
              73.029849,
              19.084482
            ],
            [
              73.030028,
              19.086698
            ],
            [
              73.030855,
              19.086877
            ],
            [
              73.030254,
              19.087877
            ],
            [
              73.031367,
              19.089877
            ],
            [
              73.029849,
              19.091317
            ],
            [
              73.029683,
              19.093711
            ],
            [
              73.028643,
              19.093877
            ],
            [
              73.028147,
              19.097175
            ],
            [
              73.026316,
              19.098877
            ],
            [
              73.02662,
              19.100877
            ],
            [
              73.024354,
              19.104382
            ],
            [
              73.023631,
              19.107877
            ],
            [
              73.025849,
              19.11071
            ],
            [
              73.026849,
              19.110613
            ],
            [
              73.027784,
              19.109877
            ],
            [
              73.02755,
              19.109176
            ],
            [
              73.025744,
              19.107877
            ],
            [
              73.029849,
              19.106144
            ],
            [
              73.032179,
              19.110548
            ],
            [
              73.033191,
              19.110877
            ],
            [
              73.033576,
              19.112877
            ],
            [
              73.032579,
              19.113877
            ],
            [
              73.030301,
              19.114329
            ],
            [
              73.030138,
              19.115588
            ],
            [
              73.030886,
              19.11584
            ],
            [
              73.030879,
              19.116877
            ],
            [
              73.030731,
              19.115995
            ],
            [
              73.029255,
              19.116282
            ],
            [
              73.02906,
              19.117666
            ],
            [
              73.029849,
              19.118013
            ],
            [
              73.027958,
              19.119986
            ],
            [
              73.022575,
              19.120151
            ],
            [
              73.021381,
              19.117877
            ],
            [
              73.02129,
              19.114877
            ],
            [
              73.020588,
              19.114615
            ],
            [
              73.018343,
              19.116877
            ],
            [
              73.018391,
              19.119877
            ],
            [
              73.021121,
              19.122605
            ],
            [
              73.021053,
              19.12508
            ],
            [
              73.018267,
              19.126295
            ],
            [
              73.015849,
              19.130471
            ],
            [
              73.015464,
              19.128262
            ],
            [
              73.014112,
              19.12814
            ],
            [
              73.013849,
              19.129786
            ],
            [
              73.01356,
              19.128166
            ],
            [
              73.011366,
              19.128394
            ],
            [
              73.010652,
              19.129877
            ],
            [
              73.011031,
              19.131059
            ],
            [
              73.007762,
              19.133877
            ],
            [
              73.006081,
              19.134109
            ],
            [
              73.003849,
              19.13694
            ]
          ]
        ],
        "type": "Polygon"
      },
      "type": "Feature"
    },
    {
      "properties": {
        "fill-opacity": 0.33,
        "fillColor": "#bf4040",
        "opacity": 0.33,
        "fill": "#bf4040",
        "fillOpacity": 0.33,
        "color": "#bf4040",
        "contour": 6.0,
        "metric": "distance",
        "provider_name": "Heaven Cake Shop",
        "zone_type": "distance",
        "distance_km": 6,
        "mode": "motorcycle",
        "center_lat": 19.0998773,
        "center_lon": 73.0048498,
        "label": "6km"
      },
      "geometry": {
        "coordinates": [
          [
            [
              73.000849,
              19.146119
            ],
            [
              72.999832,
              19.14186
            ],
            [
              73.000258,
              19.140877
            ],
            [
              72.997408,
              19.138877
            ],
            [
              72.997424,
              19.136302
            ],
            [
              72.99607,
              19.136098
            ],
            [
              72.995849,
              19.137622
            ],
            [
              72.995747,
              19.135877
            ],
            [
              72.997333,
              19.135361
            ],
            [
              72.997251,
              19.134475
            ],
            [
              72.993508,
              19.133218
            ],
            [
              72.992328,
              19.130877
            ],
            [
              72.993266,
              19.129877
            ],
            [
              72.993093,
              19.128633
            ],
            [
              72.990849,
              19.129519
            ],
            [
              72.9884,
              19.128327
            ],
            [
              72.986167,
              19.123877
            ],
            [
              72.986139,
              19.118877
            ],
            [
              72.988143,
              19.117877
            ],
            [
              72.988362,
              19.11439
            ],
            [
              72.990849,
              19.114121
            ],
            [
              72.991849,
              19.115114
            ],
            [
              72.993849,
              19.115095
            ],
            [
              72.994274,
              19.114301
            ],
            [
              73.000032,
              19.111877
            ],
            [
              72.999849,
              19.110694
            ],
            [
              72.99723,
              19.110496
            ],
            [
              72.997034,
              19.108877
            ],
            [
              72.996219,
              19.108507
            ],
            [
              72.996029,
              19.103877
            ],
            [
              72.995215,
              19.103511
            ],
            [
              72.995026,
              19.099877
            ],
            [
              72.994194,
              19.099532
            ],
            [
              72.99402,
              19.097877
            ],
            [
              72.994191,
              19.097218
            ],
            [
              72.997013,
              19.096877
            ],
            [
              72.994204,
              19.096522
            ],
            [
              72.994204,
              19.095231
            ],
            [
              72.996849,
              19.095047
            ],
            [
              72.99719,
              19.094217
            ],
            [
              72.998849,
              19.09405
            ],
            [
              72.999503,
              19.094224
            ],
            [
              72.999849,
              19.096037
            ],
            [
              73.000178,
              19.094206
            ],
            [
              73.001849,
              19.094039
            ],
            [
              73.003746,
              19.09598
            ],
            [
              73.004849,
              19.096031
            ],
            [
              73.005007,
              19.093877
            ],
            [
              73.003212,
              19.093514
            ],
            [
              72.998307,
              19.088419
            ],
            [
              72.997989,
              19.086738
            ],
            [
              72.996293,
              19.086433
            ],
            [
              72.996002,
              19.084724
            ],
            [
              72.990386,
              19.07934
            ],
            [
              72.990056,
              19.07567
            ],
            [
              72.988849,
              19.076501
            ],
            [
              72.984442,
              19.076284
            ],
            [
              72.984415,
              19.068877
            ],
            [
              72.982657,
              19.06807
            ],
            [
              72.982546,
              19.066877
            ],
            [
              72.982849,
              19.065495
            ],
            [
              72.983849,
              19.065485
            ],
            [
              72.985849,
              19.067388
            ],
            [
              72.990849,
              19.064353
            ],
            [
              72.99312,
              19.064148
            ],
            [
              72.994849,
              19.06231
            ],
            [
              72.997849,
              19.062022
            ],
            [
              72.998849,
              19.062959
            ],
            [
              73.000849,
              19.062852
            ],
            [
              73.001266,
              19.061877
            ],
            [
              73.000385,
              19.060877
            ],
            [
              73.000344,
              19.058877
            ],
            [
              73.0016,
              19.057877
            ],
            [
              73.001547,
              19.056575
            ],
            [
              73.00683,
              19.051857
            ],
            [
              73.007849,
              19.051655
            ],
            [
              73.007655,
              19.053071
            ],
            [
              73.009693,
              19.053877
            ],
            [
              73.008025,
              19.054053
            ],
            [
              73.006201,
              19.056877
            ],
            [
              73.006119,
              19.059877
            ],
            [
              73.007449,
              19.062277
            ],
            [
              73.009849,
              19.062682
            ],
            [
              73.011548,
              19.062178
            ],
            [
              73.01178,
              19.062947
            ],
            [
              73.013849,
              19.063137
            ],
            [
              73.014849,
              19.064269
            ],
            [
              73.015537,
              19.062564
            ],
            [
              73.01737,
              19.062397
            ],
            [
              73.017622,
              19.061105
            ],
            [
              73.016837,
              19.060877
            ],
            [
              73.018564,
              19.060592
            ],
            [
              73.018849,
              19.059029
            ],
            [
              73.020212,
              19.065877
            ],
            [
              73.023302,
              19.067424
            ],
            [
              73.023849,
              19.06978
            ],
            [
              73.026288,
              19.070316
            ],
            [
              73.026718,
              19.067008
            ],
            [
              73.026236,
              19.066877
            ],
            [
              73.026849,
              19.066201
            ],
            [
              73.027137,
              19.069877
            ],
            [
              73.028306,
              19.070877
            ],
            [
              73.027849,
              19.072531
            ],
            [
              73.026849,
              19.072177
            ],
            [
              73.02613,
              19.072877
            ],
            [
              73.026073,
              19.075653
            ],
            [
              73.027477,
              19.075504
            ],
            [
              73.027849,
              19.0742
            ],
            [
              73.028183,
              19.076543
            ],
            [
              73.030138,
              19.076877
            ],
            [
              73.03018,
              19.078877
            ],
            [
              73.02913,
              19.079877
            ],
            [
              73.030199,
              19.080877
            ],
            [
              73.030386,
              19.085877
            ],
            [
              73.031351,
              19.086877
            ],
            [
              73.031347,
              19.088877
            ],
            [
              73.034849,
              19.089507
            ],
            [
              73.035196,
              19.090877
            ],
            [
              73.035084,
              19.092877
            ],
            [
              73.034232,
              19.093259
            ],
            [
              73.032497,
              19.098877
            ],
            [
              73.031849,
              19.099339
            ],
            [
              73.031621,
              19.098106
            ],
            [
              73.030832,
              19.097894
            ],
            [
              73.030253,
              19.095473
            ],
            [
              73.028849,
              19.09532
            ],
            [
              73.026488,
              19.099877
            ],
            [
              73.028849,
              19.100685
            ],
            [
              73.030227,
              19.099877
            ],
            [
              73.030383,
              19.100877
            ],
            [
              73.029259,
              19.101287
            ],
            [
              73.029173,
              19.102877
            ],
            [
              73.031256,
              19.103877
            ],
            [
              73.031321,
              19.106877
            ],
            [
              73.032489,
              19.107877
            ],
            [
              73.032722,
              19.110004
            ],
            [
              73.034849,
              19.109927
            ],
            [
              73.035446,
              19.111281
            ],
            [
              73.036303,
              19.111331
            ],
            [
              73.036519,
              19.110207
            ],
            [
              73.035131,
              19.109877
            ],
            [
              73.035849,
              19.108654
            ],
            [
              73.036013,
              19.109714
            ],
            [
              73.038035,
              19.110691
            ],
            [
              73.038346,
              19.11238
            ],
            [
              73.039637,
              19.112664
            ],
            [
              73.039849,
              19.111996
            ],
            [
              73.039958,
              19.112877
            ],
            [
              73.035173,
              19.114201
            ],
            [
              73.03507,
              19.120657
            ],
            [
              73.035897,
              19.120925
            ],
            [
              73.034849,
              19.121931
            ],
            [
              73.034449,
              19.115877
            ],
            [
              73.0332,
              19.114527
            ],
            [
              73.030414,
              19.114877
            ],
            [
              73.031363,
              19.115877
            ],
            [
              73.030323,
              19.118877
            ],
            [
              73.03126,
              19.120877
            ],
            [
              73.029849,
              19.122315
            ],
            [
              73.028551,
              19.122175
            ],
            [
              73.027849,
              19.120393
            ],
            [
              73.02243,
              19.120296
            ],
            [
              73.020661,
              19.114689
            ],
            [
              73.018513,
              19.116877
            ],
            [
              73.018535,
              19.119877
            ],
            [
              73.021268,
              19.122458
            ],
            [
              73.021439,
              19.124877
            ],
            [
              73.018553,
              19.12658
            ],
            [
              73.018295,
              19.128877
            ],
            [
              73.01734,
              19.129877
            ],
            [
              73.017077,
              19.134649
            ],
            [
              73.018168,
              19.134877
            ],
            [
              73.01607,
              19.135098
            ],
            [
              73.015849,
              19.135829
            ],
            [
              73.016065,
              19.132661
            ],
            [
              73.013532,
              19.13256
            ],
            [
              73.013458,
              19.133268
            ],
            [
              73.015598,
              19.133877
            ],
            [
              73.012849,
              19.134167
            ],
            [
              73.011711,
              19.134016
            ],
            [
              73.011558,
              19.132877
            ],
            [
              73.01047,
              19.132498
            ],
            [
              73.010157,
              19.136185
            ],
            [
              73.006849,
              19.136524
            ],
            [
              73.005849,
              19.135588
            ],
            [
              73.003789,
              19.137877
            ],
            [
              73.00503,
              19.139877
            ],
            [
              73.004445,
              19.140877
            ],
            [
              73.006459,
              19.141877
            ],
            [
              73.005971,
              19.143999
            ],
            [
              73.003849,
              19.14515
            ],
            [
              73.002849,
              19.143138
            ],
            [
              73.000849,
              19.146119
            ]
          ]
        ],
        "type": "Polygon"
      },
      "type": "Feature"
    }
  ]
}