{
  "type": "FeatureCollection",
  "metadata": {
    "provider_name": "Hotel Geetanjali Veg And Non Veg",
    "center_lat": 18.4718012,
    "center_lon": 73.9319672,
    "mode": "motorcycle",
    "total_zones": 4,
    "distance_zones": [
      3,
      4,
      5,
      6
    ],
    "generated_at": "2025-12-29T09:35:34.089740Z"
  },
  "features": [
    {
      "properties": {
        "fill-opacity": 0.33,
        "fillColor": "#bf4040",
        "opacity": 0.33,
        "fill": "#bf4040",
        "fillOpacity": 0.33,
        "color": "#bf4040",
        "contour": 3.0,
        "metric": "distance",
        "provider_name": "Hotel Geetanjali Veg And Non Veg",
        "zone_type": "distance",
        "distance_km": 3,
        "mode": "motorcycle",
        "center_lat": 18.4718012,
        "center_lon": 73.9319672,
        "label": "3km"
      },
      "geometry": {
        "coordinates": [
          [
            [
              73.927967,
              18.495918
            ],
            [
              73.926967,
              18.496547
            ],
            [
              73.924922,
              18.495846
            ],
            [
              73.925805,
              18.495639
            ],
            [
              73.925858,
              18.494692
            ],
            [
              73.927435,
              18.493269
            ],
            [
              73.928352,
              18.490415
            ],
            [
              73.926967,
              18.489125
            ],
            [
              73.922261,
              18.489801
            ],
            [
              73.923843,
              18.488677
            ],
            [
              73.926967,
              18.488477
            ],
            [
              73.927508,
              18.487801
            ],
            [
              73.926474,
              18.486801
            ],
            [
              73.926241,
              18.483527
            ],
            [
              73.924577,
              18.48319
            ],
            [
              73.923403,
              18.481801
            ],
            [
              73.925231,
              18.481065
            ],
            [
              73.925226,
              18.479542
            ],
            [
              73.921967,
              18.479346
            ],
            [
              73.919609,
              18.480443
            ],
            [
              73.919299,
              18.481801
            ],
            [
              73.920152,
              18.483801
            ],
            [
              73.918488,
              18.484322
            ],
            [
              73.917967,
              18.486699
            ],
            [
              73.917599,
              18.485168
            ],
            [
              73.916166,
              18.485
            ],
            [
              73.91594,
              18.485801
            ],
            [
              73.915902,
              18.484736
            ],
            [
              73.917636,
              18.482801
            ],
            [
              73.917359,
              18.480408
            ],
            [
              73.91433,
              18.482164
            ],
            [
              73.913967,
              18.483829
            ],
            [
              73.91135,
              18.480801
            ],
            [
              73.913542,
              18.480376
            ],
            [
              73.914232,
              18.478801
            ],
            [
              73.913989,
              18.476801
            ],
            [
              73.915512,
              18.475801
            ],
            [
              73.915347,
              18.47442
            ],
            [
              73.913843,
              18.473677
            ],
            [
              73.916514,
              18.472348
            ],
            [
              73.916967,
              18.471386
            ],
            [
              73.917967,
              18.47235
            ],
            [
              73.918497,
              18.471801
            ],
            [
              73.918517,
              18.46825
            ],
            [
              73.917967,
              18.467484
            ],
            [
              73.916967,
              18.467871
            ],
            [
              73.915967,
              18.467258
            ],
            [
              73.914799,
              18.463801
            ],
            [
              73.918967,
              18.462506
            ],
            [
              73.920967,
              18.460763
            ],
            [
              73.921197,
              18.461801
            ],
            [
              73.92019,
              18.462024
            ],
            [
              73.920401,
              18.463366
            ],
            [
              73.922967,
              18.462931
            ],
            [
              73.923783,
              18.460617
            ],
            [
              73.925401,
              18.460235
            ],
            [
              73.925674,
              18.458508
            ],
            [
              73.926813,
              18.457801
            ],
            [
              73.926577,
              18.455191
            ],
            [
              73.925172,
              18.455006
            ],
            [
              73.924879,
              18.455801
            ],
            [
              73.924263,
              18.454801
            ],
            [
              73.924636,
              18.453132
            ],
            [
              73.922768,
              18.452602
            ],
            [
              73.924967,
              18.450387
            ],
            [
              73.925212,
              18.451556
            ],
            [
              73.925967,
              18.45164
            ],
            [
              73.927967,
              18.449867
            ],
            [
              73.932338,
              18.452172
            ],
            [
              73.93265,
              18.446484
            ],
            [
              73.933967,
              18.44546
            ],
            [
              73.935031,
              18.446801
            ],
            [
              73.933272,
              18.447106
            ],
            [
              73.933251,
              18.448801
            ],
            [
              73.934337,
              18.449801
            ],
            [
              73.933567,
              18.4512
            ],
            [
              73.935421,
              18.451255
            ],
            [
              73.935967,
              18.449351
            ],
            [
              73.93656,
              18.454207
            ],
            [
              73.937967,
              18.454459
            ],
            [
              73.938967,
              18.453815
            ],
            [
              73.943722,
              18.456801
            ],
            [
              73.942244,
              18.457078
            ],
            [
              73.941967,
              18.459015
            ],
            [
              73.939967,
              18.460108
            ],
            [
              73.939386,
              18.46222
            ],
            [
              73.937967,
              18.461385
            ],
            [
              73.936709,
              18.462543
            ],
            [
              73.938383,
              18.463385
            ],
            [
              73.937587,
              18.464801
            ],
            [
              73.938882,
              18.465801
            ],
            [
              73.93887,
              18.466704
            ],
            [
              73.93576,
              18.466594
            ],
            [
              73.935771,
              18.467997
            ],
            [
              73.937502,
              18.468266
            ],
            [
              73.936774,
              18.469993
            ],
            [
              73.938505,
              18.469801
            ],
            [
              73.938536,
              18.46837
            ],
            [
              73.939967,
              18.466333
            ],
            [
              73.942715,
              18.468801
            ],
            [
              73.942543,
              18.470225
            ],
            [
              73.943525,
              18.470359
            ],
            [
              73.943967,
              18.468993
            ],
            [
              73.945147,
              18.470801
            ],
            [
              73.944374,
              18.471208
            ],
            [
              73.943967,
              18.47308
            ],
            [
              73.941967,
              18.472218
            ],
            [
              73.939686,
              18.47252
            ],
            [
              73.939685,
              18.474083
            ],
            [
              73.941693,
              18.476075
            ],
            [
              73.944287,
              18.476121
            ],
            [
              73.94567,
              18.474504
            ],
            [
              73.947382,
              18.474216
            ],
            [
              73.947967,
              18.472565
            ],
            [
              73.949967,
              18.472631
            ],
            [
              73.951263,
              18.474801
            ],
            [
              73.949967,
              18.47746
            ],
            [
              73.948419,
              18.476349
            ],
            [
              73.946619,
              18.476453
            ],
            [
              73.94547,
              18.477801
            ],
            [
              73.945291,
              18.480125
            ],
            [
              73.940193,
              18.483801
            ],
            [
              73.938127,
              18.486961
            ],
            [
              73.936604,
              18.486438
            ],
            [
              73.935989,
              18.488823
            ],
            [
              73.930921,
              18.490755
            ],
            [
              73.931649,
              18.491801
            ],
            [
              73.929967,
              18.492147
            ],
            [
              73.928565,
              18.493399
            ],
            [
              73.927967,
              18.495918
            ]
          ]
        ],
        "type": "Polygon"
      },
      "type": "Feature"
    },
    {
      "properties": {
        "fill-opacity": 0.33,
        "fillColor": "#bf4040",
        "opacity": 0.33,
        "fill": "#bf4040",
        "fillOpacity": 0.33,
        "color": "#bf4040",
        "contour": 4.0,
        "metric": "distance",
        "provider_name": "Hotel Geetanjali Veg And Non Veg",
        "zone_type": "distance",
        "distance_km": 4,
        "mode": "motorcycle",
        "center_lat": 18.4718012,
        "center_lon": 73.9319672,
        "label": "4km"
      },
      "geometry": {
        "coordinates": [
          [
            [
              73.921967,
              18.503346
            ],
            [
              73.920967,
              18.502862
            ],
            [
              73.919967,
              18.503361
            ],
            [
              73.918601,
              18.502166
            ],
            [
              73.918994,
              18.499801
            ],
            [
              73.92045,
              18.497801
            ],
            [
              73.919563,
              18.496801
            ],
            [
              73.919426,
              18.494801
            ],
            [
              73.914738,
              18.493801
            ],
            [
              73.914927,
              18.491841
            ],
            [
              73.91594,
              18.490774
            ],
            [
              73.916967,
              18.491577
            ],
            [
              73.918618,
              18.490801
            ],
            [
              73.917269,
              18.485499
            ],
            [
              73.915967,
              18.486307
            ],
            [
              73.91546,
              18.485801
            ],
            [
              73.915616,
              18.48445
            ],
            [
              73.917368,
              18.482801
            ],
            [
              73.917214,
              18.480554
            ],
            [
              73.914664,
              18.482498
            ],
            [
              73.913967,
              18.484308
            ],
            [
              73.912967,
              18.483309
            ],
            [
              73.909552,
              18.483386
            ],
            [
              73.909087,
              18.485801
            ],
            [
              73.908017,
              18.486851
            ],
            [
              73.906555,
              18.486801
            ],
            [
              73.905974,
              18.485793
            ],
            [
              73.903833,
              18.484801
            ],
            [
              73.904264,
              18.482801
            ],
            [
              73.90583,
              18.481664
            ],
            [
              73.908408,
              18.482242
            ],
            [
              73.909504,
              18.480801
            ],
            [
              73.909969,
              18.477803
            ],
            [
              73.910967,
              18.476978
            ],
            [
              73.911967,
              18.477546
            ],
            [
              73.915212,
              18.476046
            ],
            [
              73.915209,
              18.474559
            ],
            [
              73.913487,
              18.473801
            ],
            [
              73.914609,
              18.472443
            ],
            [
              73.916278,
              18.472112
            ],
            [
              73.916967,
              18.47117
            ],
            [
              73.917967,
              18.472155
            ],
            [
              73.918313,
              18.471801
            ],
            [
              73.918259,
              18.468508
            ],
            [
              73.916967,
              18.469269
            ],
            [
              73.915496,
              18.467801
            ],
            [
              73.915286,
              18.466482
            ],
            [
              73.913565,
              18.466203
            ],
            [
              73.91333,
              18.463438
            ],
            [
              73.912327,
              18.463801
            ],
            [
              73.912271,
              18.466105
            ],
            [
              73.910306,
              18.466462
            ],
            [
              73.908171,
              18.465801
            ],
            [
              73.910546,
              18.46538
            ],
            [
              73.911391,
              18.463376
            ],
            [
              73.909687,
              18.464081
            ],
            [
              73.908727,
              18.463561
            ],
            [
              73.907612,
              18.464446
            ],
            [
              73.906079,
              18.463801
            ],
            [
              73.906869,
              18.463703
            ],
            [
              73.906967,
              18.462099
            ],
            [
              73.912967,
              18.461386
            ],
            [
              73.913967,
              18.46046
            ],
            [
              73.914967,
              18.461476
            ],
            [
              73.916425,
              18.461259
            ],
            [
              73.916638,
              18.458801
            ],
            [
              73.918211,
              18.456045
            ],
            [
              73.918043,
              18.453725
            ],
            [
              73.916983,
              18.452784
            ],
            [
              73.915025,
              18.452801
            ],
            [
              73.913822,
              18.449801
            ],
            [
              73.914967,
              18.449142
            ],
            [
              73.915211,
              18.450556
            ],
            [
              73.916521,
              18.450355
            ],
            [
              73.916967,
              18.447657
            ],
            [
              73.917193,
              18.448575
            ],
            [
              73.920464,
              18.448298
            ],
            [
              73.920552,
              18.447215
            ],
            [
              73.919568,
              18.446801
            ],
            [
              73.920967,
              18.445008
            ],
            [
              73.922008,
              18.446759
            ],
            [
              73.92437,
              18.447204
            ],
            [
              73.924664,
              18.441801
            ],
            [
              73.924967,
              18.441665
            ],
            [
              73.925159,
              18.442608
            ],
            [
              73.926351,
              18.442801
            ],
            [
              73.925198,
              18.443032
            ],
            [
              73.925501,
              18.445267
            ],
            [
              73.928204,
              18.446801
            ],
            [
              73.92556,
              18.447394
            ],
            [
              73.925653,
              18.451114
            ],
            [
              73.927967,
              18.449306
            ],
            [
              73.932205,
              18.452039
            ],
            [
              73.932293,
              18.447475
            ],
            [
              73.931349,
              18.446418
            ],
            [
              73.929714,
              18.446053
            ],
            [
              73.929634,
              18.444801
            ],
            [
              73.930967,
              18.444421
            ],
            [
              73.931967,
              18.445352
            ],
            [
              73.932675,
              18.443509
            ],
            [
              73.933967,
              18.44432
            ],
            [
              73.934576,
              18.442801
            ],
            [
              73.932822,
              18.441946
            ],
            [
              73.931899,
              18.440869
            ],
            [
              73.931816,
              18.439951
            ],
            [
              73.930935,
              18.439801
            ],
            [
              73.931967,
              18.439722
            ],
            [
              73.932193,
              18.440575
            ],
            [
              73.933967,
              18.441512
            ],
            [
              73.934967,
              18.440572
            ],
            [
              73.937767,
              18.440801
            ],
            [
              73.937512,
              18.443256
            ],
            [
              73.940999,
              18.443801
            ],
            [
              73.939967,
              18.447143
            ],
            [
              73.938967,
              18.44728
            ],
            [
              73.937967,
              18.446169
            ],
            [
              73.936431,
              18.447801
            ],
            [
              73.93868,
              18.448801
            ],
            [
              73.936607,
              18.449441
            ],
            [
              73.936714,
              18.454053
            ],
            [
              73.938256,
              18.45409
            ],
            [
              73.939539,
              18.451801
            ],
            [
              73.939308,
              18.448801
            ],
            [
              73.939967,
              18.447902
            ],
            [
              73.941505,
              18.448801
            ],
            [
              73.93966,
              18.454107
            ],
            [
              73.942348,
              18.454182
            ],
            [
              73.943967,
              18.45154
            ],
            [
              73.944526,
              18.453241
            ],
            [
              73.946561,
              18.453801
            ],
            [
              73.946552,
              18.456215
            ],
            [
              73.949967,
              18.454387
            ],
            [
              73.950967,
              18.454482
            ],
            [
              73.951749,
              18.455801
            ],
            [
              73.950508,
              18.456342
            ],
            [
              73.950426,
              18.457801
            ],
            [
              73.949064,
              18.458801
            ],
            [
              73.949967,
              18.459635
            ],
            [
              73.950967,
              18.459125
            ],
            [
              73.951022,
              18.459856
            ],
            [
              73.950118,
              18.460801
            ],
            [
              73.950967,
              18.462158
            ],
            [
              73.948967,
              18.462109
            ],
            [
              73.947967,
              18.46095
            ],
            [
              73.947091,
              18.460925
            ],
            [
              73.946967,
              18.461858
            ],
            [
              73.946908,
              18.460801
            ],
            [
              73.947683,
              18.459801
            ],
            [
              73.946371,
              18.458397
            ],
            [
              73.944967,
              18.45824
            ],
            [
              73.944312,
              18.459801
            ],
            [
              73.945208,
              18.460801
            ],
            [
              73.945084,
              18.462918
            ],
            [
              73.943714,
              18.462054
            ],
            [
              73.938967,
              18.462491
            ],
            [
              73.937967,
              18.461507
            ],
            [
              73.936709,
              18.462801
            ],
            [
              73.938694,
              18.463801
            ],
            [
              73.937794,
              18.464974
            ],
            [
              73.940304,
              18.465464
            ],
            [
              73.942967,
              18.468296
            ],
            [
              73.945466,
              18.468801
            ],
            [
              73.945516,
              18.470801
            ],
            [
              73.944354,
              18.473188
            ],
            [
              73.939967,
              18.472461
            ],
            [
              73.939769,
              18.473999
            ],
            [
              73.941967,
              18.476095
            ],
            [
              73.943967,
              18.476115
            ],
            [
              73.945538,
              18.474372
            ],
            [
              73.947223,
              18.474057
            ],
            [
              73.947589,
              18.472423
            ],
            [
              73.949967,
              18.472254
            ],
            [
              73.951554,
              18.474801
            ],
            [
              73.951138,
              18.476801
            ],
            [
              73.952145,
              18.478801
            ],
            [
              73.949773,
              18.478995
            ],
            [
              73.948967,
              18.478279
            ],
            [
              73.946786,
              18.47962
            ],
            [
              73.947587,
              18.480801
            ],
            [
              73.945872,
              18.483801
            ],
            [
              73.945609,
              18.487801
            ],
            [
              73.944246,
              18.48808
            ],
            [
              73.943967,
              18.488829
            ],
            [
              73.939967,
              18.489076
            ],
            [
              73.93745,
              18.491284
            ],
            [
              73.937032,
              18.492866
            ],
            [
              73.933472,
              18.497306
            ],
            [
              73.933967,
              18.499795
            ],
            [
              73.929967,
              18.498267
            ],
            [
              73.928286,
              18.50012
            ],
            [
              73.925967,
              18.500145
            ],
            [
              73.922241,
              18.502075
            ],
            [
              73.921967,
              18.503346
            ]
          ]
        ],
        "type": "Polygon"
      },
      "type": "Feature"
    },
    {
      "properties": {
        "fill-opacity": 0.33,
        "fillColor": "#bf4040",
        "opacity": 0.33,
        "fill": "#bf4040",
        "fillOpacity": 0.33,
        "color": "#bf4040",
        "contour": 5.0,
        "metric": "distance",
        "provider_name": "Hotel Geetanjali Veg And Non Veg",
        "zone_type": "distance",
        "distance_km": 5,
        "mode": "motorcycle",
        "center_lat": 18.4718012,
        "center_lon": 73.9319672,
        "label": "5km"
      },
      "geometry": {
        "coordinates": [
          [
            [
              73.919967,
              18.509814
            ],
            [
              73.917967,
              18.510607
            ],
            [
              73.916967,
              18.509673
            ],
            [
              73.915967,
              18.510327
            ],
            [
              73.915095,
              18.508801
            ],
            [
              73.915932,
              18.506801
            ],
            [
              73.912967,
              18.506618
            ],
            [
              73.912243,
              18.505801
            ],
            [
              73.913195,
              18.503801
            ],
            [
              73.916353,
              18.502187
            ],
            [
              73.916859,
              18.500801
            ],
            [
              73.916503,
              18.499265
            ],
            [
              73.914766,
              18.498002
            ],
            [
              73.913527,
              18.495801
            ],
            [
              73.91349,
              18.492801
            ],
            [
              73.915967,
              18.49029
            ],
            [
              73.916967,
              18.491238
            ],
            [
              73.918361,
              18.490801
            ],
            [
              73.917175,
              18.485593
            ],
            [
              73.915967,
              18.48647
            ],
            [
              73.915297,
              18.485801
            ],
            [
              73.915515,
              18.484349
            ],
            [
              73.917253,
              18.482801
            ],
            [
              73.917147,
              18.48062
            ],
            [
              73.914759,
              18.482593
            ],
            [
              73.914413,
              18.484247
            ],
            [
              73.912967,
              18.483471
            ],
            [
              73.909967,
              18.483431
            ],
            [
              73.909499,
              18.485801
            ],
            [
              73.908343,
              18.487177
            ],
            [
              73.904765,
              18.487599
            ],
            [
              73.904882,
              18.489885
            ],
            [
              73.905967,
              18.491095
            ],
            [
              73.902845,
              18.490922
            ],
            [
              73.901165,
              18.489999
            ],
            [
              73.899967,
              18.490797
            ],
            [
              73.895663,
              18.486801
            ],
            [
              73.897533,
              18.484367
            ],
            [
              73.897328,
              18.482801
            ],
            [
              73.89599,
              18.481801
            ],
            [
              73.898682,
              18.481516
            ],
            [
              73.898814,
              18.479953
            ],
            [
              73.8973,
              18.479801
            ],
            [
              73.898807,
              18.479641
            ],
            [
              73.89957,
              18.477801
            ],
            [
              73.906967,
              18.478465
            ],
            [
              73.907967,
              18.477146
            ],
            [
              73.909967,
              18.477113
            ],
            [
              73.910967,
              18.476119
            ],
            [
              73.914967,
              18.476079
            ],
            [
              73.915144,
              18.474623
            ],
            [
              73.91337,
              18.474397
            ],
            [
              73.913195,
              18.473029
            ],
            [
              73.914053,
              18.472887
            ],
            [
              73.914163,
              18.471997
            ],
            [
              73.916072,
              18.471906
            ],
            [
              73.916332,
              18.471166
            ],
            [
              73.918138,
              18.471972
            ],
            [
              73.91817,
              18.468598
            ],
            [
              73.916532,
              18.469236
            ],
            [
              73.914967,
              18.466465
            ],
            [
              73.911584,
              18.467418
            ],
            [
              73.911884,
              18.471801
            ],
            [
              73.909854,
              18.473913
            ],
            [
              73.908967,
              18.472381
            ],
            [
              73.906928,
              18.471839
            ],
            [
              73.905421,
              18.469346
            ],
            [
              73.904118,
              18.468801
            ],
            [
              73.905569,
              18.467801
            ],
            [
              73.904642,
              18.467126
            ],
            [
              73.904374,
              18.465394
            ],
            [
              73.903268,
              18.465801
            ],
            [
              73.903205,
              18.467563
            ],
            [
              73.904047,
              18.467881
            ],
            [
              73.90326,
              18.468801
            ],
            [
              73.901967,
              18.468126
            ],
            [
              73.899967,
              18.46902
            ],
            [
              73.899198,
              18.467801
            ],
            [
              73.902614,
              18.464801
            ],
            [
              73.90176,
              18.461594
            ],
            [
              73.902967,
              18.461453
            ],
            [
              73.904652,
              18.463116
            ],
            [
              73.905967,
              18.463187
            ],
            [
              73.906967,
              18.461079
            ],
            [
              73.91241,
              18.460801
            ],
            [
              73.909871,
              18.458801
            ],
            [
              73.910915,
              18.457749
            ],
            [
              73.911152,
              18.455615
            ],
            [
              73.909967,
              18.454021
            ],
            [
              73.910414,
              18.451353
            ],
            [
              73.908967,
              18.45081
            ],
            [
              73.907967,
              18.451706
            ],
            [
              73.907296,
              18.451472
            ],
            [
              73.904947,
              18.448801
            ],
            [
              73.90678,
              18.447614
            ],
            [
              73.907338,
              18.44843
            ],
            [
              73.908463,
              18.448297
            ],
            [
              73.909796,
              18.446801
            ],
            [
              73.909967,
              18.444512
            ],
            [
              73.910859,
              18.443693
            ],
            [
              73.91403,
              18.445864
            ],
            [
              73.915685,
              18.443801
            ],
            [
              73.915911,
              18.440745
            ],
            [
              73.916262,
              18.441506
            ],
            [
              73.917545,
              18.441379
            ],
            [
              73.917967,
              18.439177
            ],
            [
              73.918967,
              18.438908
            ],
            [
              73.920007,
              18.44076
            ],
            [
              73.919238,
              18.441072
            ],
            [
              73.919426,
              18.442341
            ],
            [
              73.92229,
              18.444477
            ],
            [
              73.924218,
              18.447052
            ],
            [
              73.924437,
              18.442801
            ],
            [
              73.923478,
              18.441801
            ],
            [
              73.925531,
              18.439801
            ],
            [
              73.921251,
              18.436801
            ],
            [
              73.924457,
              18.436291
            ],
            [
              73.924606,
              18.435162
            ],
            [
              73.923325,
              18.434801
            ],
            [
              73.924661,
              18.434495
            ],
            [
              73.924967,
              18.43287
            ],
            [
              73.925394,
              18.435374
            ],
            [
              73.928967,
              18.436463
            ],
            [
              73.929967,
              18.435643
            ],
            [
              73.931145,
              18.435801
            ],
            [
              73.931455,
              18.437313
            ],
            [
              73.933057,
              18.437891
            ],
            [
              73.929967,
              18.438084
            ],
            [
              73.929388,
              18.438801
            ],
            [
              73.932314,
              18.439454
            ],
            [
              73.933678,
              18.441089
            ],
            [
              73.934967,
              18.440236
            ],
            [
              73.939231,
              18.439537
            ],
            [
              73.937695,
              18.443072
            ],
            [
              73.941305,
              18.443462
            ],
            [
              73.941444,
              18.445801
            ],
            [
              73.940624,
              18.447144
            ],
            [
              73.944187,
              18.44858
            ],
            [
              73.945404,
              18.450363
            ],
            [
              73.947967,
              18.451497
            ],
            [
              73.948622,
              18.450801
            ],
            [
              73.94846,
              18.449307
            ],
            [
              73.946844,
              18.447801
            ],
            [
              73.946967,
              18.44659
            ],
            [
              73.950204,
              18.450563
            ],
            [
              73.950609,
              18.453158
            ],
            [
              73.952967,
              18.454025
            ],
            [
              73.956967,
              18.45338
            ],
            [
              73.958679,
              18.454801
            ],
            [
              73.958696,
              18.456801
            ],
            [
              73.957967,
              18.457098
            ],
            [
              73.956967,
              18.456133
            ],
            [
              73.956538,
              18.457801
            ],
            [
              73.955317,
              18.458801
            ],
            [
              73.956308,
              18.463459
            ],
            [
              73.958012,
              18.463846
            ],
            [
              73.957007,
              18.464841
            ],
            [
              73.955967,
              18.463999
            ],
            [
              73.954325,
              18.464801
            ],
            [
              73.958645,
              18.466801
            ],
            [
              73.957666,
              18.467801
            ],
            [
              73.955828,
              18.467939
            ],
            [
              73.953287,
              18.466801
            ],
            [
              73.953391,
              18.465376
            ],
            [
              73.951967,
              18.46518
            ],
            [
              73.951151,
              18.466985
            ],
            [
              73.948827,
              18.46794
            ],
            [
              73.948651,
              18.466116
            ],
            [
              73.946967,
              18.465836
            ],
            [
              73.946227,
              18.466801
            ],
            [
              73.946087,
              18.468681
            ],
            [
              73.946661,
              18.468801
            ],
            [
              73.944437,
              18.473271
            ],
            [
              73.942967,
              18.47351
            ],
            [
              73.941967,
              18.472532
            ],
            [
              73.939729,
              18.472801
            ],
            [
              73.939814,
              18.473953
            ],
            [
              73.941816,
              18.475951
            ],
            [
              73.943967,
              18.47604
            ],
            [
              73.945475,
              18.474309
            ],
            [
              73.947152,
              18.473986
            ],
            [
              73.947502,
              18.472336
            ],
            [
              73.949967,
              18.472113
            ],
            [
              73.951672,
              18.474801
            ],
            [
              73.951366,
              18.476801
            ],
            [
              73.952385,
              18.478801
            ],
            [
              73.948454,
              18.478801
            ],
            [
              73.948602,
              18.480166
            ],
            [
              73.950155,
              18.481801
            ],
            [
              73.948253,
              18.484087
            ],
            [
              73.946521,
              18.484801
            ],
            [
              73.947189,
              18.487579
            ],
            [
              73.948025,
              18.487859
            ],
            [
              73.945967,
              18.489117
            ],
            [
              73.939691,
              18.489525
            ],
            [
              73.937679,
              18.491513
            ],
            [
              73.937317,
              18.493151
            ],
            [
              73.934687,
              18.495521
            ],
            [
              73.934967,
              18.496347
            ],
            [
              73.938967,
              18.496525
            ],
            [
              73.940031,
              18.498737
            ],
            [
              73.941263,
              18.498801
            ],
            [
              73.940026,
              18.499801
            ],
            [
              73.940935,
              18.500801
            ],
            [
              73.939433,
              18.502801
            ],
            [
              73.938967,
              18.504959
            ],
            [
              73.935967,
              18.507771
            ],
            [
              73.934967,
              18.507431
            ],
            [
              73.934808,
              18.505801
            ],
            [
              73.933967,
              18.5051
            ],
            [
              73.932182,
              18.506016
            ],
            [
              73.931967,
              18.507017
            ],
            [
              73.930356,
              18.503801
            ],
            [
              73.932415,
              18.502801
            ],
            [
              73.929114,
              18.502801
            ],
            [
              73.925349,
              18.507801
            ],
            [
              73.923731,
              18.508565
            ],
            [
              73.920967,
              18.507258
            ],
            [
              73.919702,
              18.508801
            ],
            [
              73.919967,
              18.509814
            ]
          ]
        ],
        "type": "Polygon"
      },
      "type": "Feature"
    },
    {
      "properties": {
        "fill-opacity": 0.33,
        "fillColor": "#bf4040",
        "opacity": 0.33,
        "fill": "#bf4040",
        "fillOpacity": 0.33,
        "color": "#bf4040",
        "contour": 6.0,
        "metric": "distance",
        "provider_name": "Hotel Geetanjali Veg And Non Veg",
        "zone_type": "distance",
        "distance_km": 6,
        "mode": "motorcycle",
        "center_lat": 18.4718012,
        "center_lon": 73.9319672,
        "label": "6km"
      },
      "geometry": {
        "coordinates": [
          [
            [
              73.915967,
              18.518641
            ],
            [
              73.914967,
              18.518791
            ],
            [
              73.913967,
              18.517806
            ],
            [
              73.911162,
              18.513801
            ],
            [
              73.91126,
              18.512801
            ],
            [
              73.912594,
              18.512428
            ],
            [
              73.912488,
              18.511279
            ],
            [
              73.909967,
              18.511372
            ],
            [
              73.908967,
              18.510228
            ],
            [
              73.906967,
              18.510452
            ],
            [
              73.906456,
              18.507311
            ],
            [
              73.902697,
              18.506801
            ],
            [
              73.903783,
              18.505617
            ],
            [
              73.905139,
              18.505973
            ],
            [
              73.904434,
              18.503801
            ],
            [
              73.907334,
              18.502168
            ],
            [
              73.909967,
              18.497378
            ],
            [
              73.910688,
              18.498079
            ],
            [
              73.911967,
              18.497923
            ],
            [
              73.912209,
              18.499558
            ],
            [
              73.91343,
              18.500337
            ],
            [
              73.914967,
              18.500375
            ],
            [
              73.9146,
              18.502168
            ],
            [
              73.916211,
              18.502045
            ],
            [
              73.916411,
              18.499801
            ],
            [
              73.914225,
              18.498542
            ],
            [
              73.914343,
              18.496801
            ],
            [
              73.913326,
              18.495801
            ],
            [
              73.91331,
              18.492801
            ],
            [
              73.915967,
              18.490129
            ],
            [
              73.916967,
              18.491105
            ],
            [
              73.91825,
              18.490801
            ],
            [
              73.917125,
              18.485642
            ],
            [
              73.915967,
              18.486552
            ],
            [
              73.915215,
              18.485801
            ],
            [
              73.915454,
              18.484288
            ],
            [
              73.917189,
              18.482801
            ],
            [
              73.917109,
              18.480659
            ],
            [
              73.914808,
              18.482642
            ],
            [
              73.913967,
              18.484553
            ],
            [
              73.912967,
              18.483553
            ],
            [
              73.909782,
              18.483616
            ],
            [
              73.909648,
              18.485801
            ],
            [
              73.908281,
              18.487801
            ],
            [
              73.908339,
              18.491801
            ],
            [
              73.909335,
              18.492801
            ],
            [
              73.90831,
              18.494144
            ],
            [
              73.906967,
              18.494327
            ],
            [
              73.905967,
              18.493292
            ],
            [
              73.900967,
              18.493019
            ],
            [
              73.900253,
              18.493801
            ],
            [
              73.899967,
              18.497985
            ],
            [
              73.899633,
              18.497134
            ],
            [
              73.897903,
              18.496864
            ],
            [
              73.897599,
              18.494168
            ],
            [
              73.895628,
              18.49214
            ],
            [
              73.894283,
              18.492117
            ],
            [
              73.893902,
              18.493865
            ],
            [
              73.893719,
              18.492048
            ],
            [
              73.892811,
              18.491801
            ],
            [
              73.892619,
              18.489801
            ],
            [
              73.891606,
              18.488801
            ],
            [
              73.891799,
              18.486969
            ],
            [
              73.889967,
              18.486854
            ],
            [
              73.889878,
              18.48589
            ],
            [
              73.888933,
              18.485801
            ],
            [
              73.890028,
              18.48574
            ],
            [
              73.890967,
              18.486513
            ],
            [
              73.892431,
              18.486265
            ],
            [
              73.892875,
              18.483801
            ],
            [
              73.891845,
              18.482801
            ],
            [
              73.891887,
              18.481721
            ],
            [
              73.893671,
              18.481505
            ],
            [
              73.893967,
              18.480249
            ],
            [
              73.896254,
              18.480088
            ],
            [
              73.896371,
              18.479205
            ],
            [
              73.898127,
              18.478961
            ],
            [
              73.898334,
              18.477168
            ],
            [
              73.905967,
              18.476563
            ],
            [
              73.907536,
              18.474801
            ],
            [
              73.907295,
              18.472473
            ],
            [
              73.905608,
              18.471159
            ],
            [
              73.905237,
              18.46953
            ],
            [
              73.903967,
              18.469278
            ],
            [
              73.903335,
              18.470801
            ],
            [
              73.905265,
              18.472801
            ],
            [
              73.904967,
              18.473534
            ],
            [
              73.902967,
              18.473878
            ],
            [
              73.902548,
              18.47322
            ],
            [
              73.900967,
              18.473117
            ],
            [
              73.899967,
              18.47511
            ],
            [
              73.895967,
              18.477615
            ],
            [
              73.895192,
              18.476801
            ],
            [
              73.896603,
              18.476437
            ],
            [
              73.898451,
              18.474285
            ],
            [
              73.89952,
              18.470801
            ],
            [
              73.898967,
              18.470233
            ],
            [
              73.898158,
              18.470992
            ],
            [
              73.896667,
              18.470801
            ],
            [
              73.896433,
              18.469335
            ],
            [
              73.894916,
              18.467801
            ],
            [
              73.901255,
              18.466089
            ],
            [
              73.90236,
              18.464801
            ],
            [
              73.901261,
              18.461095
            ],
            [
              73.903628,
              18.460801
            ],
            [
              73.901872,
              18.459895
            ],
            [
              73.90229,
              18.458801
            ],
            [
              73.903609,
              18.458443
            ],
            [
              73.905967,
              18.455413
            ],
            [
              73.906967,
              18.456458
            ],
            [
              73.907967,
              18.455508
            ],
            [
              73.909369,
              18.456203
            ],
            [
              73.909427,
              18.452801
            ],
            [
              73.910376,
              18.451801
            ],
            [
              73.908967,
              18.451303
            ],
            [
              73.906967,
              18.452292
            ],
            [
              73.905542,
              18.451376
            ],
            [
              73.904481,
              18.453801
            ],
            [
              73.90208,
              18.453914
            ],
            [
              73.901967,
              18.455018
            ],
            [
              73.897927,
              18.452841
            ],
            [
              73.8973,
              18.451468
            ],
            [
              73.895807,
              18.450801
            ],
            [
              73.897863,
              18.449697
            ],
            [
              73.898874,
              18.446708
            ],
            [
              73.899967,
              18.445796
            ],
            [
              73.903359,
              18.447193
            ],
            [
              73.902858,
              18.444692
            ],
            [
              73.905967,
              18.442692
            ],
            [
              73.907967,
              18.44428
            ],
            [
              73.908132,
              18.446801
            ],
            [
              73.909256,
              18.44709
            ],
            [
              73.909491,
              18.443801
            ],
            [
              73.908128,
              18.442801
            ],
            [
              73.909528,
              18.441801
            ],
            [
              73.906503,
              18.439801
            ],
            [
              73.906161,
              18.438801
            ],
            [
              73.906967,
              18.436985
            ],
            [
              73.907106,
              18.437661
            ],
            [
              73.908576,
              18.43741
            ],
            [
              73.908756,
              18.43559
            ],
            [
              73.909967,
              18.434929
            ],
            [
              73.910998,
              18.43677
            ],
            [
              73.913051,
              18.437885
            ],
            [
              73.913864,
              18.434801
            ],
            [
              73.91328,
              18.432801
            ],
            [
              73.914437,
              18.43233
            ],
            [
              73.915417,
              18.43435
            ],
            [
              73.916511,
              18.434345
            ],
            [
              73.917057,
              18.43371
            ],
            [
              73.915028,
              18.432801
            ],
            [
              73.915229,
              18.431801
            ],
            [
              73.915967,
              18.431118
            ],
            [
              73.916186,
              18.432582
            ],
            [
              73.917551,
              18.432385
            ],
            [
              73.917967,
              18.430014
            ],
            [
              73.918967,
              18.431565
            ],
            [
              73.922967,
              18.430451
            ],
            [
              73.923582,
              18.432186
            ],
            [
              73.92432,
              18.432154
            ],
            [
              73.92473,
              18.426801
            ],
            [
              73.923846,
              18.425801
            ],
            [
              73.925967,
              18.424115
            ],
            [
              73.926057,
              18.425801
            ],
            [
              73.925204,
              18.426801
            ],
            [
              73.925671,
              18.435096
            ],
            [
              73.927967,
              18.43528
            ],
            [
              73.928967,
              18.436199
            ],
            [
              73.929967,
              18.435258
            ],
            [
              73.931287,
              18.43548
            ],
            [
              73.93168,
              18.437088
            ],
            [
              73.933324,
              18.437443
            ],
            [
              73.933324,
              18.438158
            ],
            [
              73.9296,
              18.438801
            ],
            [
              73.932417,
              18.43935
            ],
            [
              73.933967,
              18.441094
            ],
            [
              73.934967,
              18.440104
            ],
            [
              73.937191,
              18.440025
            ],
            [
              73.937967,
              18.439019
            ],
            [
              73.939756,
              18.439011
            ],
            [
              73.939918,
              18.439801
            ],
            [
              73.938734,
              18.440568
            ],
            [
              73.937683,
              18.442801
            ],
            [
              73.941414,
              18.443354
            ],
            [
              73.941624,
              18.445801
            ],
            [
              73.94074,
              18.447027
            ],
            [
              73.944366,
              18.448401
            ],
            [
              73.945675,
              18.450092
            ],
            [
              73.948235,
              18.451069
            ],
            [
              73.948376,
              18.449801
            ],
            [
              73.946612,
              18.448156
            ],
            [
              73.946317,
              18.44645
            ],
            [
              73.942488,
              18.442279
            ],
            [
              73.940902,
              18.441866
            ],
            [
              73.940967,
              18.440025
            ],
            [
              73.941431,
              18.441337
            ],
            [
              73.942967,
              18.441413
            ],
            [
              73.9466,
              18.445167
            ],
            [
              73.948236,
              18.445532
            ],
            [
              73.947474,
              18.446801
            ],
            [
              73.949344,
              18.448423
            ],
            [
              73.950967,
              18.453143
            ],
            [
              73.954363,
              18.452197
            ],
            [
              73.955551,
              18.450801
            ],
            [
              73.953686,
              18.449801
            ],
            [
              73.955399,
              18.449233
            ],
            [
              73.955442,
              18.448326
            ],
            [
              73.953262,
              18.447801
            ],
            [
              73.953067,
              18.446901
            ],
            [
              73.954967,
              18.444285
            ],
            [
              73.955353,
              18.446415
            ],
            [
              73.956692,
              18.446526
            ],
            [
              73.956967,
              18.445378
            ],
            [
              73.95827,
              18.447497
            ],
            [
              73.960967,
              18.44801
            ],
            [
              73.961495,
              18.451273
            ],
            [
              73.963468,
              18.451302
            ],
            [
              73.964967,
              18.449456
            ],
            [
              73.966442,
              18.449801
            ],
            [
              73.966,
              18.450834
            ],
            [
              73.964247,
              18.451081
            ],
            [
              73.964131,
              18.452965
            ],
            [
              73.962537,
              18.453371
            ],
            [
              73.962267,
              18.454801
            ],
            [
              73.963448,
              18.456801
            ],
            [
              73.961211,
              18.459045
            ],
            [
              73.959967,
              18.45821
            ],
            [
              73.958967,
              18.459201
            ],
            [
              73.957967,
              18.458218
            ],
            [
              73.954602,
              18.458801
            ],
            [
              73.956331,
              18.460437
            ],
            [
              73.956967,
              18.463266
            ],
            [
              73.957967,
              18.461515
            ],
            [
              73.959171,
              18.461597
            ],
            [
              73.959967,
              18.463428
            ],
            [
              73.961641,
              18.462475
            ],
            [
              73.961967,
              18.460983
            ],
            [
              73.964967,
              18.460787
            ],
            [
              73.964715,
              18.462801
            ],
            [
              73.963253,
              18.463801
            ],
            [
              73.966831,
              18.465801
            ],
            [
              73.965967,
              18.46747
            ],
            [
              73.964967,
              18.467319
            ],
            [
              73.9616,
              18.469434
            ],
            [
              73.959967,
              18.471302
            ],
            [
              73.952173,
              18.473007
            ],
            [
              73.951593,
              18.476801
            ],
            [
              73.952626,
              18.478801
            ],
            [
              73.951967,
              18.479434
            ],
            [
              73.949967,
              18.479414
            ],
            [
              73.948781,
              18.478615
            ],
            [
              73.948731,
              18.480037
            ],
            [
              73.950438,
              18.481801
            ],
            [
              73.948391,
              18.484225
            ],
            [
              73.946658,
              18.484801
            ],
            [
              73.948187,
              18.488021
            ],
            [
              73.945967,
              18.489395
            ],
            [
              73.939772,
              18.489606
            ],
            [
              73.937766,
              18.4916
            ],
            [
              73.937419,
              18.493253
            ],
            [
              73.93467,
              18.495801
            ],
            [
              73.938967,
              18.496221
            ],
            [
              73.940967,
              18.498572
            ],
            [
              73.943725,
              18.498559
            ],
            [
              73.943967,
              18.497688
            ],
            [
              73.944209,
              18.498559
            ],
            [
              73.947015,
              18.498752
            ],
            [
              73.947143,
              18.499624
            ],
            [
              73.950217,
              18.499551
            ],
            [
              73.948972,
              18.500806
            ],
            [
              73.948708,
              18.500059
            ],
            [
              73.946494,
              18.500328
            ],
            [
              73.94607,
              18.503698
            ],
            [
              73.946679,
              18.503801
            ],
            [
              73.944719,
              18.505801
            ],
            [
              73.944967,
              18.509395
            ],
            [
              73.940967,
              18.512402
            ],
            [
              73.939967,
              18.51088
            ],
            [
              73.939104,
              18.512801
            ],
            [
              73.936967,
              18.514529
            ],
            [
              73.936309,
              18.513801
            ],
            [
              73.936823,
              18.513657
            ],
            [
              73.936568,
              18.512199
            ],
            [
              73.933686,
              18.511801
            ],
            [
              73.933014,
              18.510754
            ],
            [
              73.931967,
              18.511537
            ],
            [
              73.929967,
              18.509066
            ],
            [
              73.926323,
              18.513157
            ],
            [
              73.923169,
              18.511598
            ],
            [
              73.92245,
              18.510318
            ],
            [
              73.92169,
              18.510524
            ],
            [
              73.919967,
              18.515049
            ],
            [
              73.919799,
              18.512633
            ],
            [
              73.920731,
              18.511801
            ],
            [
              73.919967,
              18.510304
            ],
            [
              73.918376,
              18.512801
            ],
            [
              73.918382,
              18.515216
            ],
            [
              73.915967,
              18.518641
            ]
          ]
        ],
        "type": "Polygon"
      },
      "type": "Feature"
    }
  ]
}