{
  "type": "FeatureCollection",
  "metadata": {
    "provider_name": "Delhi Walon Ki Mashoor Rasoi",
    "center_lat": 28.64182479,
    "center_lon": 77.33470794,
    "mode": "motorcycle",
    "total_zones": 4,
    "distance_zones": [
      3,
      4,
      5,
      6
    ],
    "generated_at": "2025-12-29T11:00:29.010902Z"
  },
  "features": [
    {
      "properties": {
        "fill-opacity": 0.33,
        "fillColor": "#bf4040",
        "opacity": 0.33,
        "fill": "#bf4040",
        "fillOpacity": 0.33,
        "color": "#bf4040",
        "contour": 3.0,
        "metric": "distance",
        "provider_name": "Delhi Walon Ki Mashoor Rasoi",
        "zone_type": "distance",
        "distance_km": 3,
        "mode": "motorcycle",
        "center_lat": 28.64182479,
        "center_lon": 77.33470794,
        "label": "3km"
      },
      "geometry": {
        "coordinates": [
          [
            [
              77.334707,
              28.662882
            ],
            [
              77.332708,
              28.663179
            ],
            [
              77.33238,
              28.662151
            ],
            [
              77.330707,
              28.661968
            ],
            [
              77.330354,
              28.661178
            ],
            [
              77.328707,
              28.66098
            ],
            [
              77.327574,
              28.659958
            ],
            [
              77.326755,
              28.657824
            ],
            [
              77.328145,
              28.657261
            ],
            [
              77.327707,
              28.656171
            ],
            [
              77.326117,
              28.656234
            ],
            [
              77.325938,
              28.657824
            ],
            [
              77.325701,
              28.657818
            ],
            [
              77.325616,
              28.656915
            ],
            [
              77.323696,
              28.656836
            ],
            [
              77.326286,
              28.654824
            ],
            [
              77.32383,
              28.651824
            ],
            [
              77.325211,
              28.650824
            ],
            [
              77.323707,
              28.649095
            ],
            [
              77.322941,
              28.650591
            ],
            [
              77.323707,
              28.65107
            ],
            [
              77.321653,
              28.650879
            ],
            [
              77.32262,
              28.650737
            ],
            [
              77.322338,
              28.649193
            ],
            [
              77.320964,
              28.649081
            ],
            [
              77.320707,
              28.650257
            ],
            [
              77.319703,
              28.649829
            ],
            [
              77.321419,
              28.647824
            ],
            [
              77.31865,
              28.646882
            ],
            [
              77.318107,
              28.645425
            ],
            [
              77.316472,
              28.64506
            ],
            [
              77.316346,
              28.642824
            ],
            [
              77.315429,
              28.641824
            ],
            [
              77.315389,
              28.640143
            ],
            [
              77.314622,
              28.639824
            ],
            [
              77.314707,
              28.638522
            ],
            [
              77.31603,
              28.638824
            ],
            [
              77.316707,
              28.640039
            ],
            [
              77.318074,
              28.638824
            ],
            [
              77.317503,
              28.637824
            ],
            [
              77.317972,
              28.63656
            ],
            [
              77.316923,
              28.635824
            ],
            [
              77.318459,
              28.635576
            ],
            [
              77.319186,
              28.636345
            ],
            [
              77.320707,
              28.636418
            ],
            [
              77.321707,
              28.633098
            ],
            [
              77.323707,
              28.632325
            ],
            [
              77.324707,
              28.633481
            ],
            [
              77.325521,
              28.632638
            ],
            [
              77.329362,
              28.632479
            ],
            [
              77.329828,
              28.631704
            ],
            [
              77.328458,
              28.630824
            ],
            [
              77.329373,
              28.63049
            ],
            [
              77.330707,
              28.630499
            ],
            [
              77.332708,
              28.632543
            ],
            [
              77.339286,
              28.633246
            ],
            [
              77.340524,
              28.636008
            ],
            [
              77.342182,
              28.637299
            ],
            [
              77.342576,
              28.635693
            ],
            [
              77.346707,
              28.635665
            ],
            [
              77.347708,
              28.636605
            ],
            [
              77.348707,
              28.634694
            ],
            [
              77.351307,
              28.634824
            ],
            [
              77.353815,
              28.636824
            ],
            [
              77.353078,
              28.639824
            ],
            [
              77.35462,
              28.641824
            ],
            [
              77.356478,
              28.648824
            ],
            [
              77.353931,
              28.650048
            ],
            [
              77.353719,
              28.650836
            ],
            [
              77.351707,
              28.651017
            ],
            [
              77.350707,
              28.652168
            ],
            [
              77.348707,
              28.652409
            ],
            [
              77.348351,
              28.653468
            ],
            [
              77.346438,
              28.653824
            ],
            [
              77.348909,
              28.655026
            ],
            [
              77.352548,
              28.654984
            ],
            [
              77.352179,
              28.657824
            ],
            [
              77.352934,
              28.659051
            ],
            [
              77.350707,
              28.659515
            ],
            [
              77.349707,
              28.658719
            ],
            [
              77.347724,
              28.659841
            ],
            [
              77.347437,
              28.659095
            ],
            [
              77.345707,
              28.659011
            ],
            [
              77.343707,
              28.660324
            ],
            [
              77.341707,
              28.659053
            ],
            [
              77.334707,
              28.662882
            ]
          ]
        ],
        "type": "Polygon"
      },
      "type": "Feature"
    },
    {
      "properties": {
        "fill-opacity": 0.33,
        "fillColor": "#bf4040",
        "opacity": 0.33,
        "fill": "#bf4040",
        "fillOpacity": 0.33,
        "color": "#bf4040",
        "contour": 4.0,
        "metric": "distance",
        "provider_name": "Delhi Walon Ki Mashoor Rasoi",
        "zone_type": "distance",
        "distance_km": 4,
        "mode": "motorcycle",
        "center_lat": 28.64182479,
        "center_lon": 77.33470794,
        "label": "4km"
      },
      "geometry": {
        "coordinates": [
          [
            [
              77.331707,
              28.668799
            ],
            [
              77.33069,
              28.666807
            ],
            [
              77.333111,
              28.664824
            ],
            [
              77.332208,
              28.664324
            ],
            [
              77.332014,
              28.662518
            ],
            [
              77.328281,
              28.661251
            ],
            [
              77.326996,
              28.658536
            ],
            [
              77.323472,
              28.65706
            ],
            [
              77.324109,
              28.655423
            ],
            [
              77.322707,
              28.655925
            ],
            [
              77.32041,
              28.653824
            ],
            [
              77.320225,
              28.650824
            ],
            [
              77.319096,
              28.648824
            ],
            [
              77.319707,
              28.648342
            ],
            [
              77.321163,
              28.649279
            ],
            [
              77.320981,
              28.647551
            ],
            [
              77.318236,
              28.647296
            ],
            [
              77.317792,
              28.64574
            ],
            [
              77.316016,
              28.645515
            ],
            [
              77.315707,
              28.643291
            ],
            [
              77.312384,
              28.641824
            ],
            [
              77.311257,
              28.639824
            ],
            [
              77.31126,
              28.638824
            ],
            [
              77.312554,
              28.637671
            ],
            [
              77.312202,
              28.636329
            ],
            [
              77.310707,
              28.636666
            ],
            [
              77.307217,
              28.635824
            ],
            [
              77.309378,
              28.635495
            ],
            [
              77.309707,
              28.634334
            ],
            [
              77.312707,
              28.632601
            ],
            [
              77.313707,
              28.633579
            ],
            [
              77.314929,
              28.633046
            ],
            [
              77.316707,
              28.630018
            ],
            [
              77.318707,
              28.632852
            ],
            [
              77.321326,
              28.630443
            ],
            [
              77.324059,
              28.630176
            ],
            [
              77.323707,
              28.629191
            ],
            [
              77.320707,
              28.629165
            ],
            [
              77.318846,
              28.627824
            ],
            [
              77.326707,
              28.624178
            ],
            [
              77.327005,
              28.625527
            ],
            [
              77.328707,
              28.626787
            ],
            [
              77.32991,
              28.625824
            ],
            [
              77.328707,
              28.623119
            ],
            [
              77.331707,
              28.623626
            ],
            [
              77.332707,
              28.624495
            ],
            [
              77.333707,
              28.623745
            ],
            [
              77.334207,
              28.624325
            ],
            [
              77.333918,
              28.626824
            ],
            [
              77.333473,
              28.626059
            ],
            [
              77.332251,
              28.626368
            ],
            [
              77.332969,
              28.628824
            ],
            [
              77.331251,
              28.630824
            ],
            [
              77.332707,
              28.632287
            ],
            [
              77.337172,
              28.632288
            ],
            [
              77.337545,
              28.630987
            ],
            [
              77.336644,
              28.630824
            ],
            [
              77.3369,
              28.630017
            ],
            [
              77.339707,
              28.631588
            ],
            [
              77.345949,
              28.632824
            ],
            [
              77.343729,
              28.634824
            ],
            [
              77.346707,
              28.635014
            ],
            [
              77.347707,
              28.636064
            ],
            [
              77.348091,
              28.633208
            ],
            [
              77.348707,
              28.633063
            ],
            [
              77.349707,
              28.634107
            ],
            [
              77.353707,
              28.634372
            ],
            [
              77.354707,
              28.635407
            ],
            [
              77.356707,
              28.63551
            ],
            [
              77.357855,
              28.634676
            ],
            [
              77.359227,
              28.635824
            ],
            [
              77.360342,
              28.64019
            ],
            [
              77.362103,
              28.640824
            ],
            [
              77.363744,
              28.642824
            ],
            [
              77.362913,
              28.64303
            ],
            [
              77.363236,
              28.645824
            ],
            [
              77.365266,
              28.646824
            ],
            [
              77.363553,
              28.64767
            ],
            [
              77.363316,
              28.648824
            ],
            [
              77.364753,
              28.649779
            ],
            [
              77.365794,
              28.652824
            ],
            [
              77.362707,
              28.653734
            ],
            [
              77.357707,
              28.653167
            ],
            [
              77.3571,
              28.653824
            ],
            [
              77.360418,
              28.655824
            ],
            [
              77.359209,
              28.656824
            ],
            [
              77.360447,
              28.658085
            ],
            [
              77.361884,
              28.663824
            ],
            [
              77.359707,
              28.664426
            ],
            [
              77.358707,
              28.663035
            ],
            [
              77.355707,
              28.665111
            ],
            [
              77.354707,
              28.664012
            ],
            [
              77.352707,
              28.665667
            ],
            [
              77.349785,
              28.665902
            ],
            [
              77.349433,
              28.665099
            ],
            [
              77.347511,
              28.665021
            ],
            [
              77.34712,
              28.662411
            ],
            [
              77.345317,
              28.662434
            ],
            [
              77.344707,
              28.663601
            ],
            [
              77.343707,
              28.662271
            ],
            [
              77.343275,
              28.663257
            ],
            [
              77.344407,
              28.663824
            ],
            [
              77.343608,
              28.664824
            ],
            [
              77.344344,
              28.665824
            ],
            [
              77.343707,
              28.666468
            ],
            [
              77.341707,
              28.665059
            ],
            [
              77.340855,
              28.665824
            ],
            [
              77.341311,
              28.666824
            ],
            [
              77.339707,
              28.667065
            ],
            [
              77.339401,
              28.665824
            ],
            [
              77.340442,
              28.664824
            ],
            [
              77.339707,
              28.664179
            ],
            [
              77.337988,
              28.666105
            ],
            [
              77.335707,
              28.66614
            ],
            [
              77.335384,
              28.665501
            ],
            [
              77.336381,
              28.664824
            ],
            [
              77.335707,
              28.66423
            ],
            [
              77.332259,
              28.667375
            ],
            [
              77.331707,
              28.668799
            ]
          ]
        ],
        "type": "Polygon"
      },
      "type": "Feature"
    },
    {
      "properties": {
        "fill-opacity": 0.33,
        "fillColor": "#bf4040",
        "opacity": 0.33,
        "fill": "#bf4040",
        "fillOpacity": 0.33,
        "color": "#bf4040",
        "contour": 5.0,
        "metric": "distance",
        "provider_name": "Delhi Walon Ki Mashoor Rasoi",
        "zone_type": "distance",
        "distance_km": 5,
        "mode": "motorcycle",
        "center_lat": 28.64182479,
        "center_lon": 77.33470794,
        "label": "5km"
      },
      "geometry": {
        "coordinates": [
          [
            [
              77.339707,
              28.672877
            ],
            [
              77.325681,
              28.672824
            ],
            [
              77.324427,
              28.669824
            ],
            [
              77.32384,
              28.663824
            ],
            [
              77.324308,
              28.660425
            ],
            [
              77.325707,
              28.65992
            ],
            [
              77.326431,
              28.661101
            ],
            [
              77.327193,
              28.660824
            ],
            [
              77.326909,
              28.658623
            ],
            [
              77.324884,
              28.658648
            ],
            [
              77.324803,
              28.657729
            ],
            [
              77.323248,
              28.657284
            ],
            [
              77.323121,
              28.65641
            ],
            [
              77.319801,
              28.653824
            ],
            [
              77.319707,
              28.652286
            ],
            [
              77.318707,
              28.652404
            ],
            [
              77.318215,
              28.649317
            ],
            [
              77.313707,
              28.647574
            ],
            [
              77.312162,
              28.64537
            ],
            [
              77.310572,
              28.64496
            ],
            [
              77.309585,
              28.642947
            ],
            [
              77.308702,
              28.64283
            ],
            [
              77.30511,
              28.638421
            ],
            [
              77.300068,
              28.641824
            ],
            [
              77.300645,
              28.640761
            ],
            [
              77.301401,
              28.640518
            ],
            [
              77.301406,
              28.639126
            ],
            [
              77.300623,
              28.638908
            ],
            [
              77.300438,
              28.637094
            ],
            [
              77.299669,
              28.636786
            ],
            [
              77.298707,
              28.632632
            ],
            [
              77.303852,
              28.632969
            ],
            [
              77.304412,
              28.630529
            ],
            [
              77.306057,
              28.628824
            ],
            [
              77.310707,
              28.626982
            ],
            [
              77.311707,
              28.627274
            ],
            [
              77.311001,
              28.625531
            ],
            [
              77.309297,
              28.624414
            ],
            [
              77.313083,
              28.624449
            ],
            [
              77.313707,
              28.625353
            ],
            [
              77.314269,
              28.624824
            ],
            [
              77.313296,
              28.623824
            ],
            [
              77.316707,
              28.620963
            ],
            [
              77.320707,
              28.619265
            ],
            [
              77.324388,
              28.619505
            ],
            [
              77.324707,
              28.616657
            ],
            [
              77.328707,
              28.617167
            ],
            [
              77.329707,
              28.61639
            ],
            [
              77.331707,
              28.617153
            ],
            [
              77.332707,
              28.618441
            ],
            [
              77.333707,
              28.617716
            ],
            [
              77.334707,
              28.618726
            ],
            [
              77.335476,
              28.618593
            ],
            [
              77.335707,
              28.6175
            ],
            [
              77.340707,
              28.61814
            ],
            [
              77.341767,
              28.618765
            ],
            [
              77.341838,
              28.619824
            ],
            [
              77.339469,
              28.621586
            ],
            [
              77.340322,
              28.622824
            ],
            [
              77.339707,
              28.623877
            ],
            [
              77.344489,
              28.625043
            ],
            [
              77.346707,
              28.627294
            ],
            [
              77.348707,
              28.626869
            ],
            [
              77.350707,
              28.628868
            ],
            [
              77.351063,
              28.631468
            ],
            [
              77.356111,
              28.632824
            ],
            [
              77.354662,
              28.63487
            ],
            [
              77.356707,
              28.634998
            ],
            [
              77.357707,
              28.634048
            ],
            [
              77.358707,
              28.635114
            ],
            [
              77.361707,
              28.635485
            ],
            [
              77.363707,
              28.638534
            ],
            [
              77.36665,
              28.637767
            ],
            [
              77.366993,
              28.638539
            ],
            [
              77.368707,
              28.638775
            ],
            [
              77.368014,
              28.639131
            ],
            [
              77.367897,
              28.641635
            ],
            [
              77.372192,
              28.641824
            ],
            [
              77.371094,
              28.642824
            ],
            [
              77.373439,
              28.643824
            ],
            [
              77.372852,
              28.644824
            ],
            [
              77.374041,
              28.645158
            ],
            [
              77.374707,
              28.644611
            ],
            [
              77.374744,
              28.645788
            ],
            [
              77.375475,
              28.645824
            ],
            [
              77.371586,
              28.649824
            ],
            [
              77.373881,
              28.654651
            ],
            [
              77.374708,
              28.654824
            ],
            [
              77.374702,
              28.656819
            ],
            [
              77.367809,
              28.658824
            ],
            [
              77.369442,
              28.661824
            ],
            [
              77.367936,
              28.665824
            ],
            [
              77.368707,
              28.666689
            ],
            [
              77.370227,
              28.666824
            ],
            [
              77.370285,
              28.668402
            ],
            [
              77.369707,
              28.668825
            ],
            [
              77.367707,
              28.668023
            ],
            [
              77.366707,
              28.669023
            ],
            [
              77.364774,
              28.66889
            ],
            [
              77.364711,
              28.669827
            ],
            [
              77.363707,
              28.669395
            ],
            [
              77.362067,
              28.670465
            ],
            [
              77.360241,
              28.669291
            ],
            [
              77.359707,
              28.667468
            ],
            [
              77.357016,
              28.668824
            ],
            [
              77.357208,
              28.670324
            ],
            [
              77.358348,
              28.670824
            ],
            [
              77.354831,
              28.670947
            ],
            [
              77.354707,
              28.671429
            ],
            [
              77.354061,
              28.670471
            ],
            [
              77.351707,
              28.670348
            ],
            [
              77.350707,
              28.67124
            ],
            [
              77.350519,
              28.670013
            ],
            [
              77.348707,
              28.670051
            ],
            [
              77.346707,
              28.671996
            ],
            [
              77.345707,
              28.671103
            ],
            [
              77.341707,
              28.671155
            ],
            [
              77.339707,
              28.672877
            ]
          ]
        ],
        "type": "Polygon"
      },
      "type": "Feature"
    },
    {
      "properties": {
        "fill-opacity": 0.33,
        "fillColor": "#bf4040",
        "opacity": 0.33,
        "fill": "#bf4040",
        "fillOpacity": 0.33,
        "color": "#bf4040",
        "contour": 6.0,
        "metric": "distance",
        "provider_name": "Delhi Walon Ki Mashoor Rasoi",
        "zone_type": "distance",
        "distance_km": 6,
        "mode": "motorcycle",
        "center_lat": 28.64182479,
        "center_lon": 77.33470794,
        "label": "6km"
      },
      "geometry": {
        "coordinates": [
          [
            [
              77.362707,
              28.676298
            ],
            [
              77.359707,
              28.673098
            ],
            [
              77.354708,
              28.673282
            ],
            [
              77.353707,
              28.672284
            ],
            [
              77.349707,
              28.672267
            ],
            [
              77.349707,
              28.670371
            ],
            [
              77.348419,
              28.670536
            ],
            [
              77.346707,
              28.672371
            ],
            [
              77.345707,
              28.671405
            ],
            [
              77.341707,
              28.671423
            ],
            [
              77.339998,
              28.673115
            ],
            [
              77.338707,
              28.673345
            ],
            [
              77.322707,
              28.673208
            ],
            [
              77.321707,
              28.670564
            ],
            [
              77.319707,
              28.671404
            ],
            [
              77.318707,
              28.670606
            ],
            [
              77.317707,
              28.670912
            ],
            [
              77.317112,
              28.669824
            ],
            [
              77.318104,
              28.667427
            ],
            [
              77.315797,
              28.666824
            ],
            [
              77.315846,
              28.665963
            ],
            [
              77.316763,
              28.665824
            ],
            [
              77.315665,
              28.665782
            ],
            [
              77.315069,
              28.666186
            ],
            [
              77.314117,
              28.665824
            ],
            [
              77.315486,
              28.662824
            ],
            [
              77.316839,
              28.661824
            ],
            [
              77.318707,
              28.662145
            ],
            [
              77.319474,
              28.660824
            ],
            [
              77.319381,
              28.660151
            ],
            [
              77.317677,
              28.659824
            ],
            [
              77.318864,
              28.658981
            ],
            [
              77.319257,
              28.656824
            ],
            [
              77.317994,
              28.649538
            ],
            [
              77.313418,
              28.648114
            ],
            [
              77.311978,
              28.645554
            ],
            [
              77.310336,
              28.645195
            ],
            [
              77.307029,
              28.641503
            ],
            [
              77.305451,
              28.641081
            ],
            [
              77.304078,
              28.639454
            ],
            [
              77.302417,
              28.640534
            ],
            [
              77.301007,
              28.642824
            ],
            [
              77.301078,
              28.643454
            ],
            [
              77.302406,
              28.643824
            ],
            [
              77.302641,
              28.64589
            ],
            [
              77.304102,
              28.64743
            ],
            [
              77.303707,
              28.648594
            ],
            [
              77.297687,
              28.648845
            ],
            [
              77.297417,
              28.647824
            ],
            [
              77.298455,
              28.647572
            ],
            [
              77.299382,
              28.645824
            ],
            [
              77.298707,
              28.645227
            ],
            [
              77.296125,
              28.648242
            ],
            [
              77.293763,
              28.648824
            ],
            [
              77.29268,
              28.646824
            ],
            [
              77.294268,
              28.646385
            ],
            [
              77.294645,
              28.644824
            ],
            [
              77.293707,
              28.644074
            ],
            [
              77.290945,
              28.643824
            ],
            [
              77.294411,
              28.642824
            ],
            [
              77.2945,
              28.642032
            ],
            [
              77.29297,
              28.641562
            ],
            [
              77.292667,
              28.639824
            ],
            [
              77.29331,
              28.639426
            ],
            [
              77.299452,
              28.639079
            ],
            [
              77.299707,
              28.64056
            ],
            [
              77.299739,
              28.639856
            ],
            [
              77.300807,
              28.639824
            ],
            [
              77.299738,
              28.639794
            ],
            [
              77.300171,
              28.637824
            ],
            [
              77.299045,
              28.636487
            ],
            [
              77.296707,
              28.636479
            ],
            [
              77.293707,
              28.633111
            ],
            [
              77.291259,
              28.634824
            ],
            [
              77.291659,
              28.633776
            ],
            [
              77.292421,
              28.633538
            ],
            [
              77.292528,
              28.632824
            ],
            [
              77.291675,
              28.630824
            ],
            [
              77.293707,
              28.630487
            ],
            [
              77.294707,
              28.631512
            ],
            [
              77.296013,
              28.630518
            ],
            [
              77.296707,
              28.631343
            ],
            [
              77.297363,
              28.630824
            ],
            [
              77.296514,
              28.62963
            ],
            [
              77.297419,
              28.628536
            ],
            [
              77.299893,
              28.62801
            ],
            [
              77.301418,
              28.626535
            ],
            [
              77.300973,
              28.623824
            ],
            [
              77.30189,
              28.622824
            ],
            [
              77.299707,
              28.621906
            ],
            [
              77.299706,
              28.620824
            ],
            [
              77.300707,
              28.620645
            ],
            [
              77.301707,
              28.621429
            ],
            [
              77.304707,
              28.620853
            ],
            [
              77.304484,
              28.619824
            ],
            [
              77.305386,
              28.619503
            ],
            [
              77.306707,
              28.619501
            ],
            [
              77.307707,
              28.620361
            ],
            [
              77.309707,
              28.617371
            ],
            [
              77.311823,
              28.620939
            ],
            [
              77.312707,
              28.618182
            ],
            [
              77.318895,
              28.617012
            ],
            [
              77.31944,
              28.614824
            ],
            [
              77.318707,
              28.613484
            ],
            [
              77.319707,
              28.613712
            ],
            [
              77.320428,
              28.612824
            ],
            [
              77.318547,
              28.610824
            ],
            [
              77.31866,
              28.609777
            ],
            [
              77.320103,
              28.61022
            ],
            [
              77.320707,
              28.609506
            ],
            [
              77.320837,
              28.610695
            ],
            [
              77.322575,
              28.610692
            ],
            [
              77.322707,
              28.609723
            ],
            [
              77.325587,
              28.610704
            ],
            [
              77.329842,
              28.60969
            ],
            [
              77.336707,
              28.611093
            ],
            [
              77.338747,
              28.612824
            ],
            [
              77.336774,
              28.61489
            ],
            [
              77.336331,
              28.614201
            ],
            [
              77.335254,
              28.614371
            ],
            [
              77.336372,
              28.61716
            ],
            [
              77.341707,
              28.614933
            ],
            [
              77.34583,
              28.617824
            ],
            [
              77.346405,
              28.620126
            ],
            [
              77.347707,
              28.619546
            ],
            [
              77.349484,
              28.620048
            ],
            [
              77.351707,
              28.621932
            ],
            [
              77.352707,
              28.620815
            ],
            [
              77.355707,
              28.621806
            ],
            [
              77.35493,
              28.622047
            ],
            [
              77.354049,
              28.624824
            ],
            [
              77.355095,
              28.625824
            ],
            [
              77.35486,
              28.626824
            ],
            [
              77.356424,
              28.627824
            ],
            [
              77.356007,
              28.628824
            ],
            [
              77.357286,
              28.631245
            ],
            [
              77.366233,
              28.631824
            ],
            [
              77.366296,
              28.632824
            ],
            [
              77.363654,
              28.633824
            ],
            [
              77.36246,
              28.635577
            ],
            [
              77.364462,
              28.636824
            ],
            [
              77.363558,
              28.637974
            ],
            [
              77.365707,
              28.637404
            ],
            [
              77.368707,
              28.638197
            ],
            [
              77.368018,
              28.640824
            ],
            [
              77.368707,
              28.641528
            ],
            [
              77.374854,
              28.641678
            ],
            [
              77.373921,
              28.642824
            ],
            [
              77.375217,
              28.645315
            ],
            [
              77.377708,
              28.645599
            ],
            [
              77.378808,
              28.646724
            ],
            [
              77.379064,
              28.649824
            ],
            [
              77.377761,
              28.651877
            ],
            [
              77.378062,
              28.65347
            ],
            [
              77.379106,
              28.653824
            ],
            [
              77.377961,
              28.654824
            ],
            [
              77.378707,
              28.655589
            ],
            [
              77.381457,
              28.655075
            ],
            [
              77.381746,
              28.655824
            ],
            [
              77.380032,
              28.656149
            ],
            [
              77.379994,
              28.657538
            ],
            [
              77.381803,
              28.657824
            ],
            [
              77.382282,
              28.659824
            ],
            [
              77.380707,
              28.660363
            ],
            [
              77.378707,
              28.659621
            ],
            [
              77.375557,
              28.659824
            ],
            [
              77.378837,
              28.670695
            ],
            [
              77.378707,
              28.673412
            ],
            [
              77.377708,
              28.672956
            ],
            [
              77.37756,
              28.671972
            ],
            [
              77.375707,
              28.671948
            ],
            [
              77.374707,
              28.672905
            ],
            [
              77.37192,
              28.673037
            ],
            [
              77.371707,
              28.673877
            ],
            [
              77.371497,
              28.673035
            ],
            [
              77.368951,
              28.673068
            ],
            [
              77.368707,
              28.674196
            ],
            [
              77.367707,
              28.67433
            ],
            [
              77.367151,
              28.672381
            ],
            [
              77.363707,
              28.672248
            ],
            [
              77.363001,
              28.672824
            ],
            [
              77.363043,
              28.674488
            ],
            [
              77.364646,
              28.674824
            ],
            [
              77.362707,
              28.676298
            ]
          ]
        ],
        "type": "Polygon"
      },
      "type": "Feature"
    }
  ]
}