{
  "type": "FeatureCollection",
  "metadata": {
    "provider_name": "Doko's",
    "center_lat": 28.459881,
    "center_lon": 77.083918,
    "mode": "motorcycle",
    "total_zones": 4,
    "distance_zones": [
      3,
      4,
      5,
      6
    ],
    "generated_at": "2025-12-26T06:08:01.881391Z"
  },
  "features": [
    {
      "properties": {
        "fill-opacity": 0.33,
        "fillColor": "#bf4040",
        "opacity": 0.33,
        "fill": "#bf4040",
        "fillOpacity": 0.33,
        "color": "#bf4040",
        "contour": 3.0,
        "metric": "distance",
        "provider_name": "Doko's",
        "zone_type": "distance",
        "distance_km": 3,
        "mode": "motorcycle",
        "center_lat": 28.459881,
        "center_lon": 77.083918,
        "label": "3km"
      },
      "geometry": {
        "coordinates": [
          [
            [
              77.093918,
              28.479254
            ],
            [
              77.089653,
              28.475881
            ],
            [
              77.085918,
              28.475178
            ],
            [
              77.084918,
              28.477553
            ],
            [
              77.082918,
              28.478106
            ],
            [
              77.080918,
              28.477108
            ],
            [
              77.080362,
              28.479325
            ],
            [
              77.077918,
              28.479152
            ],
            [
              77.074066,
              28.474732
            ],
            [
              77.072918,
              28.4757
            ],
            [
              77.071918,
              28.475556
            ],
            [
              77.069918,
              28.473604
            ],
            [
              77.070537,
              28.471261
            ],
            [
              77.069623,
              28.470175
            ],
            [
              77.068039,
              28.469881
            ],
            [
              77.06852,
              28.468483
            ],
            [
              77.071807,
              28.46777
            ],
            [
              77.071659,
              28.464881
            ],
            [
              77.069784,
              28.463014
            ],
            [
              77.064997,
              28.462881
            ],
            [
              77.065889,
              28.455881
            ],
            [
              77.065303,
              28.451881
            ],
            [
              77.068918,
              28.45073
            ],
            [
              77.068891,
              28.448881
            ],
            [
              77.070918,
              28.447399
            ],
            [
              77.073918,
              28.447601
            ],
            [
              77.076918,
              28.44453
            ],
            [
              77.079918,
              28.445224
            ],
            [
              77.081085,
              28.444048
            ],
            [
              77.082597,
              28.444201
            ],
            [
              77.083288,
              28.445881
            ],
            [
              77.082184,
              28.446147
            ],
            [
              77.082538,
              28.44726
            ],
            [
              77.083918,
              28.445916
            ],
            [
              77.086918,
              28.446311
            ],
            [
              77.088331,
              28.447467
            ],
            [
              77.088918,
              28.44916
            ],
            [
              77.093815,
              28.448881
            ],
            [
              77.093878,
              28.446841
            ],
            [
              77.095121,
              28.446677
            ],
            [
              77.096062,
              28.447737
            ],
            [
              77.097931,
              28.447867
            ],
            [
              77.098032,
              28.448766
            ],
            [
              77.099847,
              28.44881
            ],
            [
              77.099918,
              28.448044
            ],
            [
              77.100169,
              28.449629
            ],
            [
              77.101503,
              28.449881
            ],
            [
              77.100707,
              28.451091
            ],
            [
              77.101918,
              28.450397
            ],
            [
              77.102918,
              28.450865
            ],
            [
              77.101985,
              28.450948
            ],
            [
              77.101992,
              28.451955
            ],
            [
              77.100389,
              28.452352
            ],
            [
              77.100259,
              28.455539
            ],
            [
              77.101621,
              28.456881
            ],
            [
              77.100299,
              28.457881
            ],
            [
              77.10245,
              28.458348
            ],
            [
              77.102918,
              28.460324
            ],
            [
              77.104234,
              28.460197
            ],
            [
              77.104918,
              28.459281
            ],
            [
              77.106047,
              28.460881
            ],
            [
              77.105318,
              28.462881
            ],
            [
              77.107156,
              28.464642
            ],
            [
              77.107439,
              28.466359
            ],
            [
              77.109741,
              28.466881
            ],
            [
              77.109007,
              28.46697
            ],
            [
              77.108918,
              28.46974
            ],
            [
              77.108789,
              28.469009
            ],
            [
              77.105208,
              28.46859
            ],
            [
              77.103918,
              28.469164
            ],
            [
              77.10003,
              28.471993
            ],
            [
              77.096918,
              28.475836
            ],
            [
              77.09475,
              28.475713
            ],
            [
              77.093918,
              28.479254
            ]
          ]
        ],
        "type": "Polygon"
      },
      "type": "Feature"
    },
    {
      "properties": {
        "fill-opacity": 0.33,
        "fillColor": "#bf4040",
        "opacity": 0.33,
        "fill": "#bf4040",
        "fillOpacity": 0.33,
        "color": "#bf4040",
        "contour": 4.0,
        "metric": "distance",
        "provider_name": "Doko's",
        "zone_type": "distance",
        "distance_km": 4,
        "mode": "motorcycle",
        "center_lat": 28.459881,
        "center_lon": 77.083918,
        "label": "4km"
      },
      "geometry": {
        "coordinates": [
          [
            [
              77.094918,
              28.486921
            ],
            [
              77.092947,
              28.486881
            ],
            [
              77.08952,
              28.483881
            ],
            [
              77.093301,
              28.482264
            ],
            [
              77.092918,
              28.481351
            ],
            [
              77.084918,
              28.481474
            ],
            [
              77.083918,
              28.480698
            ],
            [
              77.081918,
              28.482106
            ],
            [
              77.079918,
              28.48223
            ],
            [
              77.079159,
              28.480639
            ],
            [
              77.077918,
              28.480652
            ],
            [
              77.076918,
              28.479564
            ],
            [
              77.075918,
              28.480246
            ],
            [
              77.072918,
              28.479719
            ],
            [
              77.070918,
              28.478436
            ],
            [
              77.068918,
              28.478414
            ],
            [
              77.067627,
              28.477171
            ],
            [
              77.063867,
              28.476881
            ],
            [
              77.064767,
              28.47673
            ],
            [
              77.06529,
              28.474253
            ],
            [
              77.065985,
              28.473948
            ],
            [
              77.065328,
              28.47247
            ],
            [
              77.063918,
              28.472524
            ],
            [
              77.062918,
              28.471339
            ],
            [
              77.061802,
              28.471996
            ],
            [
              77.0614,
              28.469398
            ],
            [
              77.060275,
              28.467881
            ],
            [
              77.057918,
              28.468948
            ],
            [
              77.057175,
              28.468623
            ],
            [
              77.057797,
              28.463001
            ],
            [
              77.056862,
              28.461881
            ],
            [
              77.059918,
              28.461631
            ],
            [
              77.060567,
              28.460881
            ],
            [
              77.059077,
              28.455722
            ],
            [
              77.057052,
              28.454881
            ],
            [
              77.056829,
              28.453969
            ],
            [
              77.057655,
              28.452618
            ],
            [
              77.057649,
              28.447612
            ],
            [
              77.059474,
              28.446881
            ],
            [
              77.057829,
              28.444881
            ],
            [
              77.058586,
              28.443549
            ],
            [
              77.060918,
              28.444599
            ],
            [
              77.061918,
              28.443845
            ],
            [
              77.063918,
              28.443907
            ],
            [
              77.064603,
              28.444881
            ],
            [
              77.064231,
              28.446881
            ],
            [
              77.064918,
              28.447147
            ],
            [
              77.065131,
              28.445094
            ],
            [
              77.066066,
              28.445029
            ],
            [
              77.066557,
              28.44352
            ],
            [
              77.068345,
              28.443881
            ],
            [
              77.06863,
              28.438593
            ],
            [
              77.070918,
              28.438687
            ],
            [
              77.072016,
              28.437782
            ],
            [
              77.07356,
              28.438881
            ],
            [
              77.072546,
              28.439509
            ],
            [
              77.072918,
              28.440244
            ],
            [
              77.073918,
              28.439251
            ],
            [
              77.075731,
              28.439694
            ],
            [
              77.076918,
              28.438927
            ],
            [
              77.076918,
              28.436899
            ],
            [
              77.082918,
              28.436677
            ],
            [
              77.083128,
              28.43767
            ],
            [
              77.085918,
              28.438209
            ],
            [
              77.090173,
              28.437881
            ],
            [
              77.090063,
              28.444026
            ],
            [
              77.087533,
              28.445881
            ],
            [
              77.090364,
              28.446881
            ],
            [
              77.090251,
              28.445214
            ],
            [
              77.093918,
              28.443298
            ],
            [
              77.095918,
              28.443477
            ],
            [
              77.095353,
              28.444881
            ],
            [
              77.098918,
              28.448475
            ],
            [
              77.100524,
              28.445881
            ],
            [
              77.101918,
              28.440639
            ],
            [
              77.10319,
              28.439608
            ],
            [
              77.103718,
              28.440881
            ],
            [
              77.102226,
              28.441189
            ],
            [
              77.102452,
              28.443346
            ],
            [
              77.10348,
              28.443443
            ],
            [
              77.103918,
              28.442725
            ],
            [
              77.104261,
              28.443537
            ],
            [
              77.105931,
              28.443867
            ],
            [
              77.106008,
              28.444881
            ],
            [
              77.105619,
              28.446582
            ],
            [
              77.103918,
              28.446884
            ],
            [
              77.103127,
              28.448671
            ],
            [
              77.111594,
              28.449881
            ],
            [
              77.10649,
              28.450453
            ],
            [
              77.106251,
              28.452547
            ],
            [
              77.107045,
              28.453008
            ],
            [
              77.105918,
              28.454667
            ],
            [
              77.104918,
              28.453886
            ],
            [
              77.105748,
              28.453711
            ],
            [
              77.105681,
              28.451881
            ],
            [
              77.103918,
              28.450338
            ],
            [
              77.10227,
              28.452233
            ],
            [
              77.100629,
              28.452592
            ],
            [
              77.100615,
              28.455183
            ],
            [
              77.102568,
              28.457231
            ],
            [
              77.103918,
              28.457428
            ],
            [
              77.104918,
              28.454984
            ],
            [
              77.105918,
              28.454925
            ],
            [
              77.105438,
              28.459881
            ],
            [
              77.106452,
              28.460881
            ],
            [
              77.105543,
              28.462881
            ],
            [
              77.107197,
              28.463601
            ],
            [
              77.107918,
              28.466318
            ],
            [
              77.113918,
              28.466505
            ],
            [
              77.116918,
              28.462465
            ],
            [
              77.117624,
              28.463881
            ],
            [
              77.116254,
              28.464217
            ],
            [
              77.114918,
              28.46721
            ],
            [
              77.109593,
              28.467556
            ],
            [
              77.109156,
              28.470881
            ],
            [
              77.110337,
              28.471881
            ],
            [
              77.110245,
              28.473553
            ],
            [
              77.111244,
              28.473881
            ],
            [
              77.111126,
              28.475881
            ],
            [
              77.110079,
              28.476042
            ],
            [
              77.109918,
              28.478267
            ],
            [
              77.109764,
              28.475881
            ],
            [
              77.110491,
              28.475454
            ],
            [
              77.110381,
              28.474417
            ],
            [
              77.107678,
              28.47412
            ],
            [
              77.106918,
              28.472585
            ],
            [
              77.105918,
              28.472611
            ],
            [
              77.10511,
              28.471688
            ],
            [
              77.102635,
              28.473598
            ],
            [
              77.101071,
              28.476034
            ],
            [
              77.100949,
              28.477912
            ],
            [
              77.099188,
              28.478151
            ],
            [
              77.097918,
              28.479832
            ],
            [
              77.095005,
              28.479968
            ],
            [
              77.095286,
              28.483512
            ],
            [
              77.098163,
              28.483881
            ],
            [
              77.095143,
              28.485106
            ],
            [
              77.094918,
              28.486921
            ]
          ]
        ],
        "type": "Polygon"
      },
      "type": "Feature"
    },
    {
      "properties": {
        "fill-opacity": 0.33,
        "fillColor": "#bf4040",
        "opacity": 0.33,
        "fill": "#bf4040",
        "fillOpacity": 0.33,
        "color": "#bf4040",
        "contour": 5.0,
        "metric": "distance",
        "provider_name": "Doko's",
        "zone_type": "distance",
        "distance_km": 5,
        "mode": "motorcycle",
        "center_lat": 28.459881,
        "center_lon": 77.083918,
        "label": "5km"
      },
      "geometry": {
        "coordinates": [
          [
            [
              77.091918,
              28.494471
            ],
            [
              77.090768,
              28.49403
            ],
            [
              77.089918,
              28.492353
            ],
            [
              77.089093,
              28.493056
            ],
            [
              77.087025,
              28.492988
            ],
            [
              77.086918,
              28.493944
            ],
            [
              77.086632,
              28.491166
            ],
            [
              77.085092,
              28.491055
            ],
            [
              77.084918,
              28.491578
            ],
            [
              77.084504,
              28.487881
            ],
            [
              77.080797,
              28.487001
            ],
            [
              77.079918,
              28.486138
            ],
            [
              77.077918,
              28.486252
            ],
            [
              77.070403,
              28.480396
            ],
            [
              77.066064,
              28.481881
            ],
            [
              77.06639,
              28.479881
            ],
            [
              77.067476,
              28.478881
            ],
            [
              77.067137,
              28.477661
            ],
            [
              77.06343,
              28.477881
            ],
            [
              77.063804,
              28.478881
            ],
            [
              77.059547,
              28.480251
            ],
            [
              77.055918,
              28.47593
            ],
            [
              77.052918,
              28.476701
            ],
            [
              77.052679,
              28.475881
            ],
            [
              77.053739,
              28.475702
            ],
            [
              77.054675,
              28.473881
            ],
            [
              77.052825,
              28.472973
            ],
            [
              77.052642,
              28.472156
            ],
            [
              77.051097,
              28.471881
            ],
            [
              77.055918,
              28.469529
            ],
            [
              77.056253,
              28.467881
            ],
            [
              77.051669,
              28.462881
            ],
            [
              77.05172,
              28.461079
            ],
            [
              77.049918,
              28.460375
            ],
            [
              77.048918,
              28.459043
            ],
            [
              77.049063,
              28.455881
            ],
            [
              77.050382,
              28.453881
            ],
            [
              77.050276,
              28.449239
            ],
            [
              77.051468,
              28.447881
            ],
            [
              77.050574,
              28.445881
            ],
            [
              77.048918,
              28.444892
            ],
            [
              77.048761,
              28.442881
            ],
            [
              77.050601,
              28.440564
            ],
            [
              77.051782,
              28.436745
            ],
            [
              77.052918,
              28.437386
            ],
            [
              77.057918,
              28.437272
            ],
            [
              77.060897,
              28.43886
            ],
            [
              77.066089,
              28.437052
            ],
            [
              77.062072,
              28.431881
            ],
            [
              77.062918,
              28.431714
            ],
            [
              77.064918,
              28.43348
            ],
            [
              77.067918,
              28.43189
            ],
            [
              77.068719,
              28.43308
            ],
            [
              77.071918,
              28.431893
            ],
            [
              77.073918,
              28.433229
            ],
            [
              77.076918,
              28.431692
            ],
            [
              77.079201,
              28.431164
            ],
            [
              77.080918,
              28.431817
            ],
            [
              77.081454,
              28.430881
            ],
            [
              77.083918,
              28.430501
            ],
            [
              77.087115,
              28.431683
            ],
            [
              77.087918,
              28.433001
            ],
            [
              77.090918,
              28.428803
            ],
            [
              77.091181,
              28.429617
            ],
            [
              77.092871,
              28.429881
            ],
            [
              77.091114,
              28.430077
            ],
            [
              77.092152,
              28.431881
            ],
            [
              77.091271,
              28.433881
            ],
            [
              77.092236,
              28.435199
            ],
            [
              77.090389,
              28.436881
            ],
            [
              77.091918,
              28.437427
            ],
            [
              77.092615,
              28.435578
            ],
            [
              77.094581,
              28.435881
            ],
            [
              77.094918,
              28.437967
            ],
            [
              77.096727,
              28.438881
            ],
            [
              77.095151,
              28.439114
            ],
            [
              77.095308,
              28.44049
            ],
            [
              77.09759,
              28.440881
            ],
            [
              77.097162,
              28.443881
            ],
            [
              77.098103,
              28.445066
            ],
            [
              77.097565,
              28.446528
            ],
            [
              77.098918,
              28.448092
            ],
            [
              77.100215,
              28.445178
            ],
            [
              77.099878,
              28.442881
            ],
            [
              77.101317,
              28.44228
            ],
            [
              77.104918,
              28.431089
            ],
            [
              77.105918,
              28.430959
            ],
            [
              77.106939,
              28.431881
            ],
            [
              77.106444,
              28.433881
            ],
            [
              77.108943,
              28.434881
            ],
            [
              77.111201,
              28.438881
            ],
            [
              77.108918,
              28.439041
            ],
            [
              77.107918,
              28.438126
            ],
            [
              77.104245,
              28.441208
            ],
            [
              77.102614,
              28.441577
            ],
            [
              77.102644,
              28.443155
            ],
            [
              77.103918,
              28.442338
            ],
            [
              77.104918,
              28.443364
            ],
            [
              77.106358,
              28.443321
            ],
            [
              77.106806,
              28.441992
            ],
            [
              77.105893,
              28.441881
            ],
            [
              77.106918,
              28.441834
            ],
            [
              77.107369,
              28.443429
            ],
            [
              77.108918,
              28.444511
            ],
            [
              77.109648,
              28.443881
            ],
            [
              77.108804,
              28.442767
            ],
            [
              77.109918,
              28.442692
            ],
            [
              77.110918,
              28.443641
            ],
            [
              77.112983,
              28.443881
            ],
            [
              77.112918,
              28.446028
            ],
            [
              77.110918,
              28.445174
            ],
            [
              77.109496,
              28.445459
            ],
            [
              77.110382,
              28.447416
            ],
            [
              77.111918,
              28.447521
            ],
            [
              77.112918,
              28.44846
            ],
            [
              77.121699,
              28.448881
            ],
            [
              77.115918,
              28.44924
            ],
            [
              77.114918,
              28.450282
            ],
            [
              77.106657,
              28.45062
            ],
            [
              77.106614,
              28.452184
            ],
            [
              77.109203,
              28.454595
            ],
            [
              77.109329,
              28.455881
            ],
            [
              77.108643,
              28.456155
            ],
            [
              77.106918,
              28.454376
            ],
            [
              77.10632,
              28.456283
            ],
            [
              77.10553,
              28.456493
            ],
            [
              77.105594,
              28.459881
            ],
            [
              77.1066,
              28.460881
            ],
            [
              77.105645,
              28.462881
            ],
            [
              77.107339,
              28.463459
            ],
            [
              77.107918,
              28.466185
            ],
            [
              77.114183,
              28.466146
            ],
            [
              77.115348,
              28.464881
            ],
            [
              77.114721,
              28.459684
            ],
            [
              77.116073,
              28.458725
            ],
            [
              77.115275,
              28.460881
            ],
            [
              77.115918,
              28.46147
            ],
            [
              77.117272,
              28.461235
            ],
            [
              77.119337,
              28.4593
            ],
            [
              77.119728,
              28.457691
            ],
            [
              77.121598,
              28.456561
            ],
            [
              77.121918,
              28.454556
            ],
            [
              77.122017,
              28.45698
            ],
            [
              77.117431,
              28.462881
            ],
            [
              77.119203,
              28.464595
            ],
            [
              77.119918,
              28.466535
            ],
            [
              77.120834,
              28.464797
            ],
            [
              77.121918,
              28.464094
            ],
            [
              77.121971,
              28.464934
            ],
            [
              77.121188,
              28.465151
            ],
            [
              77.121331,
              28.467467
            ],
            [
              77.123287,
              28.46825
            ],
            [
              77.120918,
              28.47061
            ],
            [
              77.120598,
              28.4692
            ],
            [
              77.119363,
              28.469326
            ],
            [
              77.11816,
              28.470123
            ],
            [
              77.117918,
              28.471576
            ],
            [
              77.117799,
              28.469881
            ],
            [
              77.119597,
              28.467881
            ],
            [
              77.116918,
              28.464411
            ],
            [
              77.114918,
              28.467479
            ],
            [
              77.109699,
              28.467662
            ],
            [
              77.10943,
              28.470881
            ],
            [
              77.111519,
              28.472881
            ],
            [
              77.111476,
              28.475881
            ],
            [
              77.110427,
              28.476881
            ],
            [
              77.110476,
              28.480881
            ],
            [
              77.110918,
              28.481591
            ],
            [
              77.113223,
              28.481881
            ],
            [
              77.112131,
              28.482094
            ],
            [
              77.111918,
              28.482942
            ],
            [
              77.109918,
              28.482256
            ],
            [
              77.106918,
              28.483526
            ],
            [
              77.104165,
              28.481881
            ],
            [
              77.105918,
              28.480467
            ],
            [
              77.106918,
              28.481328
            ],
            [
              77.107328,
              28.479881
            ],
            [
              77.10932,
              28.479283
            ],
            [
              77.109918,
              28.474474
            ],
            [
              77.106918,
              28.474256
            ],
            [
              77.106143,
              28.476106
            ],
            [
              77.104446,
              28.476409
            ],
            [
              77.102962,
              28.477925
            ],
            [
              77.099918,
              28.478463
            ],
            [
              77.097918,
              28.480458
            ],
            [
              77.095918,
              28.480423
            ],
            [
              77.095918,
              28.484282
            ],
            [
              77.097529,
              28.482492
            ],
            [
              77.09933,
              28.482293
            ],
            [
              77.099918,
              28.481249
            ],
            [
              77.100628,
              28.481881
            ],
            [
              77.09948,
              28.482443
            ],
            [
              77.099235,
              28.484198
            ],
            [
              77.096482,
              28.484445
            ],
            [
              77.095176,
              28.487139
            ],
            [
              77.093462,
              28.487425
            ],
            [
              77.090432,
              28.489395
            ],
            [
              77.091918,
              28.494471
            ]
          ]
        ],
        "type": "Polygon"
      },
      "type": "Feature"
    },
    {
      "properties": {
        "fill-opacity": 0.33,
        "fillColor": "#bf4040",
        "opacity": 0.33,
        "fill": "#bf4040",
        "fillOpacity": 0.33,
        "color": "#bf4040",
        "contour": 6.0,
        "metric": "distance",
        "provider_name": "Doko's",
        "zone_type": "distance",
        "distance_km": 6,
        "mode": "motorcycle",
        "center_lat": 28.459881,
        "center_lon": 77.083918,
        "label": "6km"
      },
      "geometry": {
        "coordinates": [
          [
            [
              77.089918,
              28.500616
            ],
            [
              77.08822,
              28.497578
            ],
            [
              77.081655,
              28.492143
            ],
            [
              77.079828,
              28.48897
            ],
            [
              77.078918,
              28.489006
            ],
            [
              77.076918,
              28.487199
            ],
            [
              77.075805,
              28.487993
            ],
            [
              77.074439,
              28.486881
            ],
            [
              77.072963,
              28.483835
            ],
            [
              77.072005,
              28.486968
            ],
            [
              77.068918,
              28.489685
            ],
            [
              77.067604,
              28.488194
            ],
            [
              77.066333,
              28.488296
            ],
            [
              77.066104,
              28.489695
            ],
            [
              77.067447,
              28.489881
            ],
            [
              77.065918,
              28.490638
            ],
            [
              77.065353,
              28.489445
            ],
            [
              77.062959,
              28.487881
            ],
            [
              77.06394,
              28.486858
            ],
            [
              77.060918,
              28.486122
            ],
            [
              77.059918,
              28.487042
            ],
            [
              77.058004,
              28.486881
            ],
            [
              77.059826,
              28.483881
            ],
            [
              77.059611,
              28.483187
            ],
            [
              77.057816,
              28.482982
            ],
            [
              77.05857,
              28.481881
            ],
            [
              77.055918,
              28.479338
            ],
            [
              77.051732,
              28.478695
            ],
            [
              77.050094,
              28.483057
            ],
            [
              77.049697,
              28.482101
            ],
            [
              77.045806,
              28.481881
            ],
            [
              77.045616,
              28.480881
            ],
            [
              77.047014,
              28.479977
            ],
            [
              77.046843,
              28.477881
            ],
            [
              77.048918,
              28.478071
            ],
            [
              77.050381,
              28.476881
            ],
            [
              77.050386,
              28.475349
            ],
            [
              77.052918,
              28.475079
            ],
            [
              77.053137,
              28.4741
            ],
            [
              77.054044,
              28.473881
            ],
            [
              77.047918,
              28.472174
            ],
            [
              77.047369,
              28.470429
            ],
            [
              77.045626,
              28.470172
            ],
            [
              77.045495,
              28.469458
            ],
            [
              77.051918,
              28.468517
            ],
            [
              77.053313,
              28.467276
            ],
            [
              77.055061,
              28.467024
            ],
            [
              77.052793,
              28.465005
            ],
            [
              77.049918,
              28.464508
            ],
            [
              77.048918,
              28.464965
            ],
            [
              77.048629,
              28.463169
            ],
            [
              77.047512,
              28.462881
            ],
            [
              77.047143,
              28.461881
            ],
            [
              77.04832,
              28.458478
            ],
            [
              77.043916,
              28.453881
            ],
            [
              77.045134,
              28.452881
            ],
            [
              77.044445,
              28.451408
            ],
            [
              77.046918,
              28.451515
            ],
            [
              77.047505,
              28.450881
            ],
            [
              77.046918,
              28.450241
            ],
            [
              77.044082,
              28.450716
            ],
            [
              77.042791,
              28.449007
            ],
            [
              77.04435,
              28.448313
            ],
            [
              77.044676,
              28.447122
            ],
            [
              77.044114,
              28.444881
            ],
            [
              77.045172,
              28.443135
            ],
            [
              77.043918,
              28.440539
            ],
            [
              77.045918,
              28.440528
            ],
            [
              77.046446,
              28.439881
            ],
            [
              77.044082,
              28.437881
            ],
            [
              77.044889,
              28.435852
            ],
            [
              77.044673,
              28.433636
            ],
            [
              77.046046,
              28.433009
            ],
            [
              77.044771,
              28.430734
            ],
            [
              77.044918,
              28.430153
            ],
            [
              77.046306,
              28.431492
            ],
            [
              77.047918,
              28.431654
            ],
            [
              77.049918,
              28.430429
            ],
            [
              77.049951,
              28.430913
            ],
            [
              77.048226,
              28.432881
            ],
            [
              77.048918,
              28.433508
            ],
            [
              77.050347,
              28.43331
            ],
            [
              77.052918,
              28.430437
            ],
            [
              77.054918,
              28.430164
            ],
            [
              77.05641,
              28.427881
            ],
            [
              77.05544,
              28.426358
            ],
            [
              77.055689,
              28.424881
            ],
            [
              77.059918,
              28.424959
            ],
            [
              77.060625,
              28.426881
            ],
            [
              77.061726,
              28.428072
            ],
            [
              77.062918,
              28.428217
            ],
            [
              77.063758,
              28.424881
            ],
            [
              77.06747,
              28.424881
            ],
            [
              77.068023,
              28.427881
            ],
            [
              77.06635,
              28.428313
            ],
            [
              77.06649,
              28.429308
            ],
            [
              77.071918,
              28.430191
            ],
            [
              77.072124,
              28.428674
            ],
            [
              77.070293,
              28.425881
            ],
            [
              77.073049,
              28.425749
            ],
            [
              77.073918,
              28.426943
            ],
            [
              77.076918,
              28.425874
            ],
            [
              77.080918,
              28.428556
            ],
            [
              77.084248,
              28.426211
            ],
            [
              77.086918,
              28.422685
            ],
            [
              77.089918,
              28.422571
            ],
            [
              77.089996,
              28.420881
            ],
            [
              77.090918,
              28.41994
            ],
            [
              77.092688,
              28.420881
            ],
            [
              77.091426,
              28.421389
            ],
            [
              77.091717,
              28.424081
            ],
            [
              77.093679,
              28.423881
            ],
            [
              77.094918,
              28.422893
            ],
            [
              77.100218,
              28.42858
            ],
            [
              77.101047,
              28.43101
            ],
            [
              77.104336,
              28.429299
            ],
            [
              77.103918,
              28.428078
            ],
            [
              77.10137,
              28.427881
            ],
            [
              77.103918,
              28.425185
            ],
            [
              77.104918,
              28.421961
            ],
            [
              77.105918,
              28.422151
            ],
            [
              77.107036,
              28.423762
            ],
            [
              77.112813,
              28.427881
            ],
            [
              77.112078,
              28.428041
            ],
            [
              77.11215,
              28.429881
            ],
            [
              77.114119,
              28.430881
            ],
            [
              77.112237,
              28.432881
            ],
            [
              77.116069,
              28.435729
            ],
            [
              77.116228,
              28.437881
            ],
            [
              77.113918,
              28.438277
            ],
            [
              77.112918,
              28.439312
            ],
            [
              77.108918,
              28.439424
            ],
            [
              77.107918,
              28.438451
            ],
            [
              77.106286,
              28.440249
            ],
            [
              77.102709,
              28.441672
            ],
            [
              77.102723,
              28.443075
            ],
            [
              77.103918,
              28.442195
            ],
            [
              77.104918,
              28.443206
            ],
            [
              77.106183,
              28.443146
            ],
            [
              77.106383,
              28.442415
            ],
            [
              77.105406,
              28.441881
            ],
            [
              77.105918,
              28.441369
            ],
            [
              77.107918,
              28.443305
            ],
            [
              77.109918,
              28.442329
            ],
            [
              77.110918,
              28.443313
            ],
            [
              77.113262,
              28.443536
            ],
            [
              77.113277,
              28.44624
            ],
            [
              77.111918,
              28.446442
            ],
            [
              77.110918,
              28.445466
            ],
            [
              77.109539,
              28.445881
            ],
            [
              77.109502,
              28.447296
            ],
            [
              77.111918,
              28.447271
            ],
            [
              77.112918,
              28.448247
            ],
            [
              77.121294,
              28.448257
            ],
            [
              77.121918,
              28.445643
            ],
            [
              77.122458,
              28.456881
            ],
            [
              77.120644,
              28.458607
            ],
            [
              77.120324,
              28.460287
            ],
            [
              77.11759,
              28.462881
            ],
            [
              77.119918,
              28.465319
            ],
            [
              77.122614,
              28.462577
            ],
            [
              77.124537,
              28.461881
            ],
            [
              77.122665,
              28.460881
            ],
            [
              77.123688,
              28.459881
            ],
            [
              77.123872,
              28.457835
            ],
            [
              77.125023,
              28.457775
            ],
            [
              77.125918,
              28.459608
            ],
            [
              77.127013,
              28.458786
            ],
            [
              77.127152,
              28.459881
            ],
            [
              77.125479,
              28.461442
            ],
            [
              77.125192,
              28.463155
            ],
            [
              77.123558,
              28.463521
            ],
            [
              77.120522,
              28.466881
            ],
            [
              77.124243,
              28.467556
            ],
            [
              77.124127,
              28.47109
            ],
            [
              77.121444,
              28.471407
            ],
            [
              77.120739,
              28.476059
            ],
            [
              77.120376,
              28.468881
            ],
            [
              77.119636,
              28.468599
            ],
            [
              77.118436,
              28.470881
            ],
            [
              77.118343,
              28.473881
            ],
            [
              77.119232,
              28.475881
            ],
            [
              77.118052,
              28.477015
            ],
            [
              77.116918,
              28.477046
            ],
            [
              77.116597,
              28.474881
            ],
            [
              77.117492,
              28.473881
            ],
            [
              77.117386,
              28.469881
            ],
            [
              77.118352,
              28.468881
            ],
            [
              77.118158,
              28.46564
            ],
            [
              77.116918,
              28.464561
            ],
            [
              77.114918,
              28.467594
            ],
            [
              77.109675,
              28.467881
            ],
            [
              77.109659,
              28.470881
            ],
            [
              77.111631,
              28.473881
            ],
            [
              77.110918,
              28.478816
            ],
            [
              77.111918,
              28.478703
            ],
            [
              77.112918,
              28.480492
            ],
            [
              77.116918,
              28.480543
            ],
            [
              77.119918,
              28.478683
            ],
            [
              77.122551,
              28.478881
            ],
            [
              77.121168,
              28.480131
            ],
            [
              77.120918,
              28.481794
            ],
            [
              77.116918,
              28.481269
            ],
            [
              77.115918,
              28.482174
            ],
            [
              77.112918,
              28.482387
            ],
            [
              77.111918,
              28.483396
            ],
            [
              77.109651,
              28.482614
            ],
            [
              77.108345,
              28.483881
            ],
            [
              77.108342,
              28.485456
            ],
            [
              77.109204,
              28.485881
            ],
            [
              77.108366,
              28.486329
            ],
            [
              77.108255,
              28.487544
            ],
            [
              77.109053,
              28.488881
            ],
            [
              77.107918,
              28.489951
            ],
            [
              77.105918,
              28.487993
            ],
            [
              77.10527,
              28.489881
            ],
            [
              77.102495,
              28.489881
            ],
            [
              77.100175,
              28.484623
            ],
            [
              77.096709,
              28.484672
            ],
            [
              77.095334,
              28.487297
            ],
            [
              77.09169,
              28.488653
            ],
            [
              77.090608,
              28.489881
            ],
            [
              77.092661,
              28.492881
            ],
            [
              77.093605,
              28.496568
            ],
            [
              77.090142,
              28.498105
            ],
            [
              77.089918,
              28.500616
            ]
          ]
        ],
        "type": "Polygon"
      },
      "type": "Feature"
    }
  ]
}