{
  "type": "FeatureCollection",
  "metadata": {
    "provider_name": "Oven Story Pizza",
    "center_lat": 22.27939845,
    "center_lon": 73.20583709,
    "mode": "motorcycle",
    "total_zones": 4,
    "distance_zones": [
      3,
      4,
      5,
      6
    ],
    "generated_at": "2025-12-29T08:05:21.490431Z"
  },
  "features": [
    {
      "properties": {
        "fill-opacity": 0.33,
        "fillColor": "#bf4040",
        "opacity": 0.33,
        "fill": "#bf4040",
        "fillOpacity": 0.33,
        "color": "#bf4040",
        "contour": 3.0,
        "metric": "distance",
        "provider_name": "Oven Story Pizza",
        "zone_type": "distance",
        "distance_km": 3,
        "mode": "motorcycle",
        "center_lat": 22.27939845,
        "center_lon": 73.20583709,
        "label": "3km"
      },
      "geometry": {
        "coordinates": [
          [
            [
              73.210837,
              22.305795
            ],
            [
              73.207457,
              22.302778
            ],
            [
              73.204697,
              22.302398
            ],
            [
              73.204289,
              22.301398
            ],
            [
              73.20559,
              22.301151
            ],
            [
              73.205336,
              22.299899
            ],
            [
              73.200837,
              22.299682
            ],
            [
              73.199167,
              22.296068
            ],
            [
              73.197822,
              22.296412
            ],
            [
              73.198488,
              22.292398
            ],
            [
              73.195544,
              22.291398
            ],
            [
              73.195491,
              22.289398
            ],
            [
              73.194311,
              22.288398
            ],
            [
              73.195448,
              22.287398
            ],
            [
              73.194175,
              22.286398
            ],
            [
              73.194577,
              22.284398
            ],
            [
              73.193837,
              22.283444
            ],
            [
              73.187602,
              22.283398
            ],
            [
              73.189495,
              22.282398
            ],
            [
              73.188453,
              22.278015
            ],
            [
              73.191463,
              22.276398
            ],
            [
              73.190295,
              22.273939
            ],
            [
              73.188064,
              22.272398
            ],
            [
              73.190837,
              22.26912
            ],
            [
              73.19185,
              22.269412
            ],
            [
              73.192837,
              22.265446
            ],
            [
              73.193023,
              22.266211
            ],
            [
              73.194412,
              22.265973
            ],
            [
              73.194575,
              22.261137
            ],
            [
              73.195439,
              22.260001
            ],
            [
              73.196837,
              22.258795
            ],
            [
              73.197636,
              22.259599
            ],
            [
              73.19889,
              22.259452
            ],
            [
              73.197837,
              22.257811
            ],
            [
              73.195869,
              22.257398
            ],
            [
              73.198362,
              22.256923
            ],
            [
              73.198548,
              22.255687
            ],
            [
              73.197485,
              22.255398
            ],
            [
              73.197837,
              22.253995
            ],
            [
              73.199559,
              22.254676
            ],
            [
              73.200679,
              22.256555
            ],
            [
              73.201837,
              22.25636
            ],
            [
              73.205837,
              22.259005
            ],
            [
              73.209837,
              22.259458
            ],
            [
              73.210837,
              22.257551
            ],
            [
              73.211837,
              22.257292
            ],
            [
              73.213951,
              22.259398
            ],
            [
              73.214164,
              22.260398
            ],
            [
              73.213042,
              22.260604
            ],
            [
              73.213342,
              22.261892
            ],
            [
              73.214489,
              22.262051
            ],
            [
              73.214837,
              22.260712
            ],
            [
              73.215379,
              22.260856
            ],
            [
              73.217647,
              22.263587
            ],
            [
              73.218837,
              22.2638
            ],
            [
              73.219382,
              22.265852
            ],
            [
              73.220837,
              22.266994
            ],
            [
              73.222536,
              22.266398
            ],
            [
              73.220466,
              22.263398
            ],
            [
              73.220837,
              22.262984
            ],
            [
              73.222206,
              22.263398
            ],
            [
              73.222643,
              22.264592
            ],
            [
              73.223837,
              22.265176
            ],
            [
              73.224837,
              22.263642
            ],
            [
              73.225837,
              22.263796
            ],
            [
              73.226321,
              22.264398
            ],
            [
              73.225258,
              22.265398
            ],
            [
              73.225959,
              22.269398
            ],
            [
              73.225161,
              22.269723
            ],
            [
              73.224985,
              22.271249
            ],
            [
              73.225899,
              22.271398
            ],
            [
              73.225181,
              22.273398
            ],
            [
              73.22627,
              22.275398
            ],
            [
              73.223188,
              22.278398
            ],
            [
              73.223837,
              22.279181
            ],
            [
              73.226837,
              22.278689
            ],
            [
              73.23038,
              22.279398
            ],
            [
              73.225632,
              22.286193
            ],
            [
              73.225583,
              22.287652
            ],
            [
              73.226837,
              22.287526
            ],
            [
              73.227518,
              22.288398
            ],
            [
              73.226837,
              22.289347
            ],
            [
              73.223837,
              22.29321
            ],
            [
              73.221987,
              22.294398
            ],
            [
              73.219837,
              22.298069
            ],
            [
              73.216137,
              22.299699
            ],
            [
              73.215837,
              22.301035
            ],
            [
              73.210837,
              22.305795
            ]
          ]
        ],
        "type": "Polygon"
      },
      "type": "Feature"
    },
    {
      "properties": {
        "fill-opacity": 0.33,
        "fillColor": "#bf4040",
        "opacity": 0.33,
        "fill": "#bf4040",
        "fillOpacity": 0.33,
        "color": "#bf4040",
        "contour": 4.0,
        "metric": "distance",
        "provider_name": "Oven Story Pizza",
        "zone_type": "distance",
        "distance_km": 4,
        "mode": "motorcycle",
        "center_lat": 22.27939845,
        "center_lon": 73.20583709,
        "label": "4km"
      },
      "geometry": {
        "coordinates": [
          [
            [
              73.210837,
              22.314438
            ],
            [
              73.209623,
              22.312612
            ],
            [
              73.206523,
              22.311712
            ],
            [
              73.205837,
              22.308629
            ],
            [
              73.204837,
              22.30916
            ],
            [
              73.201837,
              22.30731
            ],
            [
              73.199339,
              22.307895
            ],
            [
              73.195824,
              22.30441
            ],
            [
              73.197533,
              22.304095
            ],
            [
              73.197693,
              22.303398
            ],
            [
              73.196456,
              22.299398
            ],
            [
              73.198297,
              22.297398
            ],
            [
              73.197114,
              22.295398
            ],
            [
              73.198247,
              22.293398
            ],
            [
              73.198097,
              22.292138
            ],
            [
              73.195044,
              22.292605
            ],
            [
              73.194837,
              22.293779
            ],
            [
              73.194337,
              22.290898
            ],
            [
              73.193267,
              22.290828
            ],
            [
              73.192837,
              22.29155
            ],
            [
              73.190023,
              22.291212
            ],
            [
              73.18966,
              22.290398
            ],
            [
              73.191837,
              22.290202
            ],
            [
              73.192551,
              22.289398
            ],
            [
              73.191837,
              22.288657
            ],
            [
              73.188932,
              22.288493
            ],
            [
              73.188837,
              22.28926
            ],
            [
              73.188807,
              22.288368
            ],
            [
              73.190837,
              22.288205
            ],
            [
              73.191521,
              22.287398
            ],
            [
              73.190837,
              22.286637
            ],
            [
              73.187872,
              22.286398
            ],
            [
              73.189837,
              22.286238
            ],
            [
              73.190837,
              22.285226
            ],
            [
              73.191837,
              22.286142
            ],
            [
              73.192612,
              22.284398
            ],
            [
              73.184363,
              22.283398
            ],
            [
              73.187105,
              22.281666
            ],
            [
              73.187494,
              22.280398
            ],
            [
              73.185126,
              22.281108
            ],
            [
              73.182426,
              22.279398
            ],
            [
              73.180847,
              22.277398
            ],
            [
              73.182161,
              22.276398
            ],
            [
              73.1815,
              22.275398
            ],
            [
              73.180837,
              22.274763
            ],
            [
              73.179837,
              22.275084
            ],
            [
              73.178557,
              22.273677
            ],
            [
              73.181837,
              22.269432
            ],
            [
              73.182837,
              22.269248
            ],
            [
              73.185699,
              22.266261
            ],
            [
              73.185816,
              22.265377
            ],
            [
              73.187837,
              22.26426
            ],
            [
              73.188837,
              22.264879
            ],
            [
              73.189837,
              22.263793
            ],
            [
              73.191156,
              22.264398
            ],
            [
              73.189837,
              22.261921
            ],
            [
              73.186267,
              22.259398
            ],
            [
              73.188047,
              22.256398
            ],
            [
              73.189958,
              22.25552
            ],
            [
              73.189693,
              22.254398
            ],
            [
              73.190837,
              22.25316
            ],
            [
              73.192523,
              22.253084
            ],
            [
              73.192626,
              22.250609
            ],
            [
              73.19151,
              22.250398
            ],
            [
              73.194966,
              22.247527
            ],
            [
              73.194862,
              22.245423
            ],
            [
              73.19956,
              22.246675
            ],
            [
              73.200894,
              22.24934
            ],
            [
              73.202837,
              22.249954
            ],
            [
              73.203994,
              22.251398
            ],
            [
              73.203837,
              22.253573
            ],
            [
              73.204837,
              22.252671
            ],
            [
              73.207837,
              22.254936
            ],
            [
              73.210141,
              22.254093
            ],
            [
              73.212837,
              22.255677
            ],
            [
              73.220855,
              22.25638
            ],
            [
              73.221032,
              22.257398
            ],
            [
              73.220102,
              22.257663
            ],
            [
              73.220108,
              22.258398
            ],
            [
              73.222156,
              22.260398
            ],
            [
              73.221287,
              22.261398
            ],
            [
              73.221503,
              22.262731
            ],
            [
              73.222837,
              22.26292
            ],
            [
              73.223837,
              22.26196
            ],
            [
              73.225837,
              22.262909
            ],
            [
              73.230025,
              22.26221
            ],
            [
              73.232848,
              22.265386
            ],
            [
              73.232984,
              22.266545
            ],
            [
              73.232153,
              22.267714
            ],
            [
              73.230347,
              22.267908
            ],
            [
              73.228837,
              22.269879
            ],
            [
              73.228233,
              22.266002
            ],
            [
              73.226459,
              22.266021
            ],
            [
              73.226514,
              22.269398
            ],
            [
              73.225673,
              22.270398
            ],
            [
              73.226566,
              22.273669
            ],
            [
              73.227217,
              22.273779
            ],
            [
              73.227797,
              22.272358
            ],
            [
              73.228837,
              22.272007
            ],
            [
              73.231837,
              22.273477
            ],
            [
              73.234837,
              22.272979
            ],
            [
              73.235837,
              22.273334
            ],
            [
              73.236381,
              22.274853
            ],
            [
              73.238798,
              22.275437
            ],
            [
              73.239411,
              22.276398
            ],
            [
              73.237642,
              22.278398
            ],
            [
              73.238175,
              22.280398
            ],
            [
              73.236022,
              22.283398
            ],
            [
              73.236465,
              22.284398
            ],
            [
              73.234535,
              22.286096
            ],
            [
              73.234738,
              22.287398
            ],
            [
              73.232837,
              22.287073
            ],
            [
              73.232241,
              22.290398
            ],
            [
              73.233115,
              22.292677
            ],
            [
              73.232503,
              22.294398
            ],
            [
              73.229837,
              22.297036
            ],
            [
              73.227837,
              22.296864
            ],
            [
              73.226837,
              22.298532
            ],
            [
              73.224587,
              22.299398
            ],
            [
              73.224364,
              22.300871
            ],
            [
              73.225405,
              22.301398
            ],
            [
              73.223484,
              22.302046
            ],
            [
              73.221954,
              22.304398
            ],
            [
              73.219358,
              22.303919
            ],
            [
              73.219174,
              22.305061
            ],
            [
              73.220599,
              22.305398
            ],
            [
              73.220284,
              22.306398
            ],
            [
              73.218539,
              22.307398
            ],
            [
              73.217365,
              22.309926
            ],
            [
              73.210837,
              22.314438
            ]
          ]
        ],
        "type": "Polygon"
      },
      "type": "Feature"
    },
    {
      "properties": {
        "fill-opacity": 0.33,
        "fillColor": "#bf4040",
        "opacity": 0.33,
        "fill": "#bf4040",
        "fillOpacity": 0.33,
        "color": "#bf4040",
        "contour": 5.0,
        "metric": "distance",
        "provider_name": "Oven Story Pizza",
        "zone_type": "distance",
        "distance_km": 5,
        "mode": "motorcycle",
        "center_lat": 22.27939845,
        "center_lon": 73.20583709,
        "label": "5km"
      },
      "geometry": {
        "coordinates": [
          [
            [
              73.212837,
              22.323476
            ],
            [
              73.207837,
              22.319898
            ],
            [
              73.205665,
              22.319398
            ],
            [
              73.202484,
              22.31475
            ],
            [
              73.201208,
              22.31477
            ],
            [
              73.200837,
              22.316535
            ],
            [
              73.197837,
              22.316122
            ],
            [
              73.196837,
              22.314748
            ],
            [
              73.195837,
              22.315546
            ],
            [
              73.194598,
              22.314637
            ],
            [
              73.193689,
              22.311398
            ],
            [
              73.192625,
              22.310398
            ],
            [
              73.194537,
              22.309398
            ],
            [
              73.192703,
              22.307264
            ],
            [
              73.194312,
              22.306923
            ],
            [
              73.195837,
              22.309024
            ],
            [
              73.197415,
              22.308398
            ],
            [
              73.195837,
              22.306969
            ],
            [
              73.194346,
              22.306889
            ],
            [
              73.194611,
              22.301624
            ],
            [
              73.193008,
              22.301398
            ],
            [
              73.194566,
              22.301127
            ],
            [
              73.194625,
              22.300398
            ],
            [
              73.193837,
              22.299594
            ],
            [
              73.190837,
              22.299135
            ],
            [
              73.189565,
              22.29767
            ],
            [
              73.191612,
              22.296398
            ],
            [
              73.190175,
              22.29206
            ],
            [
              73.188439,
              22.292
            ],
            [
              73.187837,
              22.293542
            ],
            [
              73.185664,
              22.29357
            ],
            [
              73.185651,
              22.292213
            ],
            [
              73.187255,
              22.291816
            ],
            [
              73.188182,
              22.290052
            ],
            [
              73.184479,
              22.290398
            ],
            [
              73.184583,
              22.289145
            ],
            [
              73.186419,
              22.288398
            ],
            [
              73.186524,
              22.286085
            ],
            [
              73.189837,
              22.285854
            ],
            [
              73.190837,
              22.284851
            ],
            [
              73.191837,
              22.285825
            ],
            [
              73.192273,
              22.284398
            ],
            [
              73.184837,
              22.283823
            ],
            [
              73.183837,
              22.284882
            ],
            [
              73.180551,
              22.285112
            ],
            [
              73.179446,
              22.286398
            ],
            [
              73.179837,
              22.28892
            ],
            [
              73.178751,
              22.288398
            ],
            [
              73.178233,
              22.286001
            ],
            [
              73.176091,
              22.285653
            ],
            [
              73.175837,
              22.286468
            ],
            [
              73.175162,
              22.285398
            ],
            [
              73.178837,
              22.285033
            ],
            [
              73.179388,
              22.284398
            ],
            [
              73.178223,
              22.283398
            ],
            [
              73.177837,
              22.281407
            ],
            [
              73.175837,
              22.282645
            ],
            [
              73.175599,
              22.281636
            ],
            [
              73.17431,
              22.281398
            ],
            [
              73.17441,
              22.280398
            ],
            [
              73.172825,
              22.27941
            ],
            [
              73.172792,
              22.278353
            ],
            [
              73.174461,
              22.277023
            ],
            [
              73.174285,
              22.27495
            ],
            [
              73.168788,
              22.274447
            ],
            [
              73.168817,
              22.274378
            ],
            [
              73.170596,
              22.274157
            ],
            [
              73.170837,
              22.273922
            ],
            [
              73.1733,
              22.273862
            ],
            [
              73.172684,
              22.271551
            ],
            [
              73.171569,
              22.27113
            ],
            [
              73.173583,
              22.271144
            ],
            [
              73.173837,
              22.269825
            ],
            [
              73.176837,
              22.271053
            ],
            [
              73.178416,
              22.269398
            ],
            [
              73.178545,
              22.267107
            ],
            [
              73.181222,
              22.266784
            ],
            [
              73.181605,
              22.263398
            ],
            [
              73.180395,
              22.261398
            ],
            [
              73.177837,
              22.261239
            ],
            [
              73.176692,
              22.260398
            ],
            [
              73.178501,
              22.260062
            ],
            [
              73.178666,
              22.258568
            ],
            [
              73.178059,
              22.258398
            ],
            [
              73.181051,
              22.255613
            ],
            [
              73.181896,
              22.253457
            ],
            [
              73.184837,
              22.250364
            ],
            [
              73.186108,
              22.25067
            ],
            [
              73.185171,
              22.249398
            ],
            [
              73.186837,
              22.248013
            ],
            [
              73.190239,
              22.247801
            ],
            [
              73.189837,
              22.245437
            ],
            [
              73.188837,
              22.245111
            ],
            [
              73.187837,
              22.24572
            ],
            [
              73.186176,
              22.244398
            ],
            [
              73.186403,
              22.243398
            ],
            [
              73.188243,
              22.242804
            ],
            [
              73.188837,
              22.240053
            ],
            [
              73.189837,
              22.240211
            ],
            [
              73.191837,
              22.237496
            ],
            [
              73.193583,
              22.238652
            ],
            [
              73.194837,
              22.237291
            ],
            [
              73.195837,
              22.238476
            ],
            [
              73.197837,
              22.238215
            ],
            [
              73.198628,
              22.240607
            ],
            [
              73.200837,
              22.240488
            ],
            [
              73.202729,
              22.244506
            ],
            [
              73.204753,
              22.245398
            ],
            [
              73.205132,
              22.248398
            ],
            [
              73.205837,
              22.249029
            ],
            [
              73.206837,
              22.247083
            ],
            [
              73.208837,
              22.247888
            ],
            [
              73.211837,
              22.246417
            ],
            [
              73.212375,
              22.246859
            ],
            [
              73.214124,
              22.248398
            ],
            [
              73.214672,
              22.251562
            ],
            [
              73.215837,
              22.251786
            ],
            [
              73.216837,
              22.251049
            ],
            [
              73.218903,
              22.253331
            ],
            [
              73.219203,
              22.255032
            ],
            [
              73.221837,
              22.256927
            ],
            [
              73.223099,
              22.256136
            ],
            [
              73.223101,
              22.257663
            ],
            [
              73.220415,
              22.258398
            ],
            [
              73.222432,
              22.260398
            ],
            [
              73.221479,
              22.261398
            ],
            [
              73.221614,
              22.26262
            ],
            [
              73.222837,
              22.262741
            ],
            [
              73.223837,
              22.261758
            ],
            [
              73.225837,
              22.262736
            ],
            [
              73.227837,
              22.261926
            ],
            [
              73.230234,
              22.262
            ],
            [
              73.233174,
              22.265061
            ],
            [
              73.234462,
              22.267772
            ],
            [
              73.237837,
              22.269795
            ],
            [
              73.241857,
              22.269377
            ],
            [
              73.24289,
              22.270398
            ],
            [
              73.242053,
              22.272398
            ],
            [
              73.242837,
              22.273093
            ],
            [
              73.245507,
              22.272068
            ],
            [
              73.245837,
              22.270495
            ],
            [
              73.245837,
              22.27432
            ],
            [
              73.245627,
              22.273608
            ],
            [
              73.244363,
              22.273924
            ],
            [
              73.241966,
              22.277398
            ],
            [
              73.245695,
              22.281398
            ],
            [
              73.242837,
              22.28079
            ],
            [
              73.244142,
              22.287398
            ],
            [
              73.243706,
              22.286528
            ],
            [
              73.242192,
              22.286753
            ],
            [
              73.242036,
              22.288198
            ],
            [
              73.243073,
              22.288398
            ],
            [
              73.240837,
              22.291904
            ],
            [
              73.238569,
              22.29213
            ],
            [
              73.238837,
              22.292891
            ],
            [
              73.24056,
              22.293398
            ],
            [
              73.237837,
              22.296007
            ],
            [
              73.235837,
              22.294372
            ],
            [
              73.234791,
              22.294398
            ],
            [
              73.234513,
              22.296398
            ],
            [
              73.232919,
              22.298398
            ],
            [
              73.235038,
              22.300398
            ],
            [
              73.23258,
              22.304142
            ],
            [
              73.232908,
              22.30747
            ],
            [
              73.228837,
              22.307631
            ],
            [
              73.226837,
              22.308551
            ],
            [
              73.226192,
              22.309753
            ],
            [
              73.223454,
              22.311015
            ],
            [
              73.224163,
              22.312398
            ],
            [
              73.220837,
              22.315444
            ],
            [
              73.219229,
              22.315398
            ],
            [
              73.217837,
              22.313764
            ],
            [
              73.214463,
              22.314025
            ],
            [
              73.2152,
              22.316035
            ],
            [
              73.217542,
              22.316398
            ],
            [
              73.218194,
              22.317398
            ],
            [
              73.216611,
              22.318173
            ],
            [
              73.212837,
              22.323476
            ]
          ]
        ],
        "type": "Polygon"
      },
      "type": "Feature"
    },
    {
      "properties": {
        "fill-opacity": 0.33,
        "fillColor": "#bf4040",
        "opacity": 0.33,
        "fill": "#bf4040",
        "fillOpacity": 0.33,
        "color": "#bf4040",
        "contour": 6.0,
        "metric": "distance",
        "provider_name": "Oven Story Pizza",
        "zone_type": "distance",
        "distance_km": 6,
        "mode": "motorcycle",
        "center_lat": 22.27939845,
        "center_lon": 73.20583709,
        "label": "6km"
      },
      "geometry": {
        "coordinates": [
          [
            [
              73.214837,
              22.331749
            ],
            [
              73.213837,
              22.330876
            ],
            [
              73.214065,
              22.329398
            ],
            [
              73.213188,
              22.328047
            ],
            [
              73.206837,
              22.32797
            ],
            [
              73.203507,
              22.325398
            ],
            [
              73.200837,
              22.322116
            ],
            [
              73.198837,
              22.322184
            ],
            [
              73.198837,
              22.323635
            ],
            [
              73.196837,
              22.324935
            ],
            [
              73.196451,
              22.322784
            ],
            [
              73.194837,
              22.322584
            ],
            [
              73.193735,
              22.321499
            ],
            [
              73.193561,
              22.318122
            ],
            [
              73.194208,
              22.317027
            ],
            [
              73.193117,
              22.317678
            ],
            [
              73.190699,
              22.316536
            ],
            [
              73.19145,
              22.315398
            ],
            [
              73.190498,
              22.314398
            ],
            [
              73.190385,
              22.312849
            ],
            [
              73.18914,
              22.312398
            ],
            [
              73.190886,
              22.310349
            ],
            [
              73.191095,
              22.31114
            ],
            [
              73.192001,
              22.311233
            ],
            [
              73.191146,
              22.311708
            ],
            [
              73.191125,
              22.313398
            ],
            [
              73.193214,
              22.314775
            ],
            [
              73.193297,
              22.311398
            ],
            [
              73.192277,
              22.310398
            ],
            [
              73.193904,
              22.309331
            ],
            [
              73.191837,
              22.30758
            ],
            [
              73.189002,
              22.307564
            ],
            [
              73.188833,
              22.308402
            ],
            [
              73.187922,
              22.306312
            ],
            [
              73.18594,
              22.305398
            ],
            [
              73.18836,
              22.304922
            ],
            [
              73.188317,
              22.303917
            ],
            [
              73.185837,
              22.303505
            ],
            [
              73.185762,
              22.302473
            ],
            [
              73.184818,
              22.30238
            ],
            [
              73.185837,
              22.302221
            ],
            [
              73.187837,
              22.303143
            ],
            [
              73.189504,
              22.300398
            ],
            [
              73.188837,
              22.29986
            ],
            [
              73.185837,
              22.299988
            ],
            [
              73.184837,
              22.298567
            ],
            [
              73.181838,
              22.298398
            ],
            [
              73.18546,
              22.297022
            ],
            [
              73.185837,
              22.295159
            ],
            [
              73.186352,
              22.296882
            ],
            [
              73.19113,
              22.296691
            ],
            [
              73.190061,
              22.292174
            ],
            [
              73.188588,
              22.292149
            ],
            [
              73.188196,
              22.293757
            ],
            [
              73.185837,
              22.29434
            ],
            [
              73.185453,
              22.293014
            ],
            [
              73.188187,
              22.290398
            ],
            [
              73.185837,
              22.290031
            ],
            [
              73.184837,
              22.291007
            ],
            [
              73.184219,
              22.289398
            ],
            [
              73.186078,
              22.28864
            ],
            [
              73.186401,
              22.285962
            ],
            [
              73.189837,
              22.285711
            ],
            [
              73.190837,
              22.28471
            ],
            [
              73.191837,
              22.285697
            ],
            [
              73.192001,
              22.284234
            ],
            [
              73.184837,
              22.284218
            ],
            [
              73.183837,
              22.285058
            ],
            [
              73.18155,
              22.285112
            ],
            [
              73.180282,
              22.286398
            ],
            [
              73.18035,
              22.288398
            ],
            [
              73.181305,
              22.289398
            ],
            [
              73.179575,
              22.292659
            ],
            [
              73.176598,
              22.291398
            ],
            [
              73.17938,
              22.290398
            ],
            [
              73.179165,
              22.289069
            ],
            [
              73.177395,
              22.28784
            ],
            [
              73.175837,
              22.288607
            ],
            [
              73.175227,
              22.287008
            ],
            [
              73.171837,
              22.285795
            ],
            [
              73.169506,
              22.286067
            ],
            [
              73.168837,
              22.288463
            ],
            [
              73.165823,
              22.286411
            ],
            [
              73.168486,
              22.282398
            ],
            [
              73.170837,
              22.282267
            ],
            [
              73.171558,
              22.281119
            ],
            [
              73.173192,
              22.280753
            ],
            [
              73.172319,
              22.278398
            ],
            [
              73.174278,
              22.276398
            ],
            [
              73.173823,
              22.275384
            ],
            [
              73.170837,
              22.275661
            ],
            [
              73.169837,
              22.276666
            ],
            [
              73.167837,
              22.27688
            ],
            [
              73.166837,
              22.275899
            ],
            [
              73.163626,
              22.275609
            ],
            [
              73.163658,
              22.274219
            ],
            [
              73.165308,
              22.273869
            ],
            [
              73.165612,
              22.272173
            ],
            [
              73.170226,
              22.271788
            ],
            [
              73.169837,
              22.270833
            ],
            [
              73.167465,
              22.270398
            ],
            [
              73.168487,
              22.269398
            ],
            [
              73.168561,
              22.268122
            ],
            [
              73.17212,
              22.269114
            ],
            [
              73.172837,
              22.270879
            ],
            [
              73.173389,
              22.26795
            ],
            [
              73.174334,
              22.266895
            ],
            [
              73.177571,
              22.269132
            ],
            [
              73.176837,
              22.262581
            ],
            [
              73.176098,
              22.26266
            ],
            [
              73.175488,
              22.264049
            ],
            [
              73.17372,
              22.264281
            ],
            [
              73.174027,
              22.265398
            ],
            [
              73.172837,
              22.266679
            ],
            [
              73.170926,
              22.265309
            ],
            [
              73.170815,
              22.264419
            ],
            [
              73.168286,
              22.264398
            ],
            [
              73.1704,
              22.262961
            ],
            [
              73.170427,
              22.261807
            ],
            [
              73.169702,
              22.261398
            ],
            [
              73.170707,
              22.260398
            ],
            [
              73.170205,
              22.258398
            ],
            [
              73.171837,
              22.256791
            ],
            [
              73.172837,
              22.257461
            ],
            [
              73.173837,
              22.256024
            ],
            [
              73.175837,
              22.256018
            ],
            [
              73.17608,
              22.257154
            ],
            [
              73.178166,
              22.257727
            ],
            [
              73.17842,
              22.254398
            ],
            [
              73.176642,
              22.252398
            ],
            [
              73.177676,
              22.251237
            ],
            [
              73.179293,
              22.250854
            ],
            [
              73.179626,
              22.247609
            ],
            [
              73.176688,
              22.245398
            ],
            [
              73.177641,
              22.245202
            ],
            [
              73.178643,
              22.243205
            ],
            [
              73.179837,
              22.242834
            ],
            [
              73.182248,
              22.243987
            ],
            [
              73.182837,
              22.245008
            ],
            [
              73.183407,
              22.244398
            ],
            [
              73.182228,
              22.243398
            ],
            [
              73.183453,
              22.242015
            ],
            [
              73.184837,
              22.242951
            ],
            [
              73.18656,
              22.241398
            ],
            [
              73.18522,
              22.240398
            ],
            [
              73.185837,
              22.239307
            ],
            [
              73.183475,
              22.23876
            ],
            [
              73.181969,
              22.237398
            ],
            [
              73.182161,
              22.236723
            ],
            [
              73.184837,
              22.234088
            ],
            [
              73.18739,
              22.236845
            ],
            [
              73.188247,
              22.236809
            ],
            [
              73.188288,
              22.235946
            ],
            [
              73.187374,
              22.235398
            ],
            [
              73.187168,
              22.23173
            ],
            [
              73.187837,
              22.23119
            ],
            [
              73.189558,
              22.232398
            ],
            [
              73.188095,
              22.232656
            ],
            [
              73.188041,
              22.233398
            ],
            [
              73.189504,
              22.234065
            ],
            [
              73.190913,
              22.229321
            ],
            [
              73.191837,
              22.229224
            ],
            [
              73.192837,
              22.231214
            ],
            [
              73.197837,
              22.23247
            ],
            [
              73.19741,
              22.235824
            ],
            [
              73.201246,
              22.234807
            ],
            [
              73.201837,
              22.234003
            ],
            [
              73.20238,
              22.236854
            ],
            [
              73.204837,
              22.239081
            ],
            [
              73.205877,
              22.236358
            ],
            [
              73.20693,
              22.237398
            ],
            [
              73.206852,
              22.238413
            ],
            [
              73.205131,
              22.240398
            ],
            [
              73.206837,
              22.241136
            ],
            [
              73.207837,
              22.24025
            ],
            [
              73.208837,
              22.24029
            ],
            [
              73.207989,
              22.24055
            ],
            [
              73.207969,
              22.242266
            ],
            [
              73.209505,
              22.242066
            ],
            [
              73.209978,
              22.241257
            ],
            [
              73.210388,
              22.242847
            ],
            [
              73.2133,
              22.242935
            ],
            [
              73.216074,
              22.245161
            ],
            [
              73.217537,
              22.245099
            ],
            [
              73.217837,
              22.243707
            ],
            [
              73.220237,
              22.244998
            ],
            [
              73.223003,
              22.244398
            ],
            [
              73.223371,
              22.245398
            ],
            [
              73.222113,
              22.245675
            ],
            [
              73.222292,
              22.247943
            ],
            [
              73.225698,
              22.248398
            ],
            [
              73.224125,
              22.248686
            ],
            [
              73.223837,
              22.249801
            ],
            [
              73.222344,
              22.249905
            ],
            [
              73.221122,
              22.251398
            ],
            [
              73.221837,
              22.252214
            ],
            [
              73.223359,
              22.251398
            ],
            [
              73.223854,
              22.252398
            ],
            [
              73.222117,
              22.252679
            ],
            [
              73.221986,
              22.254248
            ],
            [
              73.22287,
              22.254364
            ],
            [
              73.222837,
              22.255
            ],
            [
              73.222723,
              22.254512
            ],
            [
              73.221837,
              22.254483
            ],
            [
              73.220707,
              22.253527
            ],
            [
              73.220302,
              22.251933
            ],
            [
              73.219074,
              22.252398
            ],
            [
              73.219531,
              22.254704
            ],
            [
              73.221613,
              22.256622
            ],
            [
              73.222837,
              22.255422
            ],
            [
              73.223728,
              22.255507
            ],
            [
              73.223294,
              22.257855
            ],
            [
              73.22054,
              22.258398
            ],
            [
              73.222548,
              22.260398
            ],
            [
              73.221575,
              22.261398
            ],
            [
              73.22167,
              22.262565
            ],
            [
              73.224837,
              22.26166
            ],
            [
              73.226837,
              22.262655
            ],
            [
              73.227837,
              22.261648
            ],
            [
              73.229837,
              22.261444
            ],
            [
              73.232623,
              22.264612
            ],
            [
              73.234774,
              22.26546
            ],
            [
              73.234597,
              22.267638
            ],
            [
              73.235837,
              22.267925
            ],
            [
              73.236837,
              22.266946
            ],
            [
              73.240079,
              22.267156
            ],
            [
              73.243179,
              22.270056
            ],
            [
              73.243369,
              22.271398
            ],
            [
              73.242397,
              22.272398
            ],
            [
              73.244046,
              22.273608
            ],
            [
              73.247716,
              22.266278
            ],
            [
              73.251521,
              22.263398
            ],
            [
              73.24998,
              22.266398
            ],
            [
              73.25195,
              22.267285
            ],
            [
              73.252587,
              22.270148
            ],
            [
              73.251837,
              22.270493
            ],
            [
              73.251598,
              22.269636
            ],
            [
              73.249837,
              22.268682
            ],
            [
              73.248837,
              22.2697
            ],
            [
              73.247837,
              22.268811
            ],
            [
              73.246366,
              22.271398
            ],
            [
              73.246518,
              22.272717
            ],
            [
              73.24828,
              22.274398
            ],
            [
              73.246305,
              22.275398
            ],
            [
              73.246097,
              22.282398
            ],
            [
              73.250046,
              22.287189
            ],
            [
              73.250956,
              22.287398
            ],
            [
              73.250993,
              22.288554
            ],
            [
              73.250837,
              22.28938
            ],
            [
              73.250572,
              22.287663
            ],
            [
              73.249281,
              22.287842
            ],
            [
              73.248837,
              22.288882
            ],
            [
              73.247542,
              22.289104
            ],
            [
              73.246651,
              22.291398
            ],
            [
              73.249916,
              22.292398
            ],
            [
              73.249141,
              22.292703
            ],
            [
              73.248682,
              22.294398
            ],
            [
              73.247527,
              22.294398
            ],
            [
              73.246837,
              22.293364
            ],
            [
              73.244678,
              22.294239
            ],
            [
              73.245025,
              22.297587
            ],
            [
              73.242377,
              22.297858
            ],
            [
              73.24178,
              22.297342
            ],
            [
              73.243314,
              22.299398
            ],
            [
              73.242949,
              22.300398
            ],
            [
              73.238837,
              22.304968
            ],
            [
              73.238579,
              22.303656
            ],
            [
              73.237837,
              22.303462
            ],
            [
              73.236448,
              22.305398
            ],
            [
              73.236837,
              22.307962
            ],
            [
              73.238837,
              22.305861
            ],
            [
              73.239036,
              22.307398
            ],
            [
              73.237168,
              22.309398
            ],
            [
              73.240616,
              22.312398
            ],
            [
              73.238837,
              22.313486
            ],
            [
              73.235837,
              22.313648
            ],
            [
              73.234837,
              22.313049
            ],
            [
              73.233582,
              22.313653
            ],
            [
              73.232837,
              22.312324
            ],
            [
              73.232199,
              22.313761
            ],
            [
              73.223626,
              22.315398
            ],
            [
              73.223414,
              22.321976
            ],
            [
              73.220837,
              22.322393
            ],
            [
              73.219235,
              22.325398
            ],
            [
              73.215505,
              22.327066
            ],
            [
              73.216697,
              22.330398
            ],
            [
              73.214837,
              22.331749
            ]
          ]
        ],
        "type": "Polygon"
      },
      "type": "Feature"
    }
  ]
}