{
  "type": "FeatureCollection",
  "metadata": {
    "provider_name": "Kin Kini",
    "center_lat": 22.57032716,
    "center_lon": 88.31705466,
    "mode": "motorcycle",
    "total_zones": 4,
    "distance_zones": [
      3,
      4,
      5,
      6
    ],
    "generated_at": "2025-12-31T05:27:37.232721Z"
  },
  "features": [
    {
      "properties": {
        "fill-opacity": 0.33,
        "fillColor": "#bf4040",
        "opacity": 0.33,
        "fill": "#bf4040",
        "fillOpacity": 0.33,
        "color": "#bf4040",
        "contour": 3.0,
        "metric": "distance",
        "provider_name": "Kin Kini",
        "zone_type": "distance",
        "distance_km": 3,
        "mode": "motorcycle",
        "center_lat": 22.57032716,
        "center_lon": 88.31705466,
        "label": "3km"
      },
      "geometry": {
        "coordinates": [
          [
            [
              88.321054,
              22.591706
            ],
            [
              88.320054,
              22.591956
            ],
            [
              88.317028,
              22.590353
            ],
            [
              88.317054,
              22.589309
            ],
            [
              88.313935,
              22.588446
            ],
            [
              88.313423,
              22.583958
            ],
            [
              88.307637,
              22.582744
            ],
            [
              88.308361,
              22.58002
            ],
            [
              88.30521,
              22.580171
            ],
            [
              88.305054,
              22.579297
            ],
            [
              88.298884,
              22.579497
            ],
            [
              88.29783,
              22.578327
            ],
            [
              88.298109,
              22.577381
            ],
            [
              88.300548,
              22.576821
            ],
            [
              88.300834,
              22.575106
            ],
            [
              88.303373,
              22.572646
            ],
            [
              88.303569,
              22.571327
            ],
            [
              88.303054,
              22.570795
            ],
            [
              88.302054,
              22.57171
            ],
            [
              88.300822,
              22.571559
            ],
            [
              88.298054,
              22.568704
            ],
            [
              88.297772,
              22.566609
            ],
            [
              88.293921,
              22.563327
            ],
            [
              88.29489,
              22.563162
            ],
            [
              88.295079,
              22.561352
            ],
            [
              88.297054,
              22.560327
            ],
            [
              88.296702,
              22.559327
            ],
            [
              88.297947,
              22.557327
            ],
            [
              88.300614,
              22.556887
            ],
            [
              88.300054,
              22.554309
            ],
            [
              88.307054,
              22.55397
            ],
            [
              88.308054,
              22.5528
            ],
            [
              88.310054,
              22.552643
            ],
            [
              88.310247,
              22.554327
            ],
            [
              88.311054,
              22.554909
            ],
            [
              88.313831,
              22.553327
            ],
            [
              88.313054,
              22.552491
            ],
            [
              88.310968,
              22.552327
            ],
            [
              88.313054,
              22.55125
            ],
            [
              88.313381,
              22.552
            ],
            [
              88.318202,
              22.553179
            ],
            [
              88.320664,
              22.555717
            ],
            [
              88.322341,
              22.55604
            ],
            [
              88.322721,
              22.55766
            ],
            [
              88.324054,
              22.557803
            ],
            [
              88.325054,
              22.558805
            ],
            [
              88.327054,
              22.556904
            ],
            [
              88.328458,
              22.557327
            ],
            [
              88.326699,
              22.558972
            ],
            [
              88.326625,
              22.560327
            ],
            [
              88.329679,
              22.566702
            ],
            [
              88.332054,
              22.567051
            ],
            [
              88.333153,
              22.568228
            ],
            [
              88.334104,
              22.572376
            ],
            [
              88.331641,
              22.573914
            ],
            [
              88.331054,
              22.57885
            ],
            [
              88.328054,
              22.577758
            ],
            [
              88.327525,
              22.579797
            ],
            [
              88.325835,
              22.580108
            ],
            [
              88.327559,
              22.582327
            ],
            [
              88.326513,
              22.583327
            ],
            [
              88.327379,
              22.584327
            ],
            [
              88.324412,
              22.586684
            ],
            [
              88.324054,
              22.589892
            ],
            [
              88.323867,
              22.588514
            ],
            [
              88.322482,
              22.588754
            ],
            [
              88.322401,
              22.590327
            ],
            [
              88.321054,
              22.591706
            ]
          ]
        ],
        "type": "Polygon"
      },
      "type": "Feature"
    },
    {
      "properties": {
        "fill-opacity": 0.33,
        "fillColor": "#bf4040",
        "opacity": 0.33,
        "fill": "#bf4040",
        "fillOpacity": 0.33,
        "color": "#bf4040",
        "contour": 4.0,
        "metric": "distance",
        "provider_name": "Kin Kini",
        "zone_type": "distance",
        "distance_km": 4,
        "mode": "motorcycle",
        "center_lat": 22.57032716,
        "center_lon": 88.31705466,
        "label": "4km"
      },
      "geometry": {
        "coordinates": [
          [
            [
              88.318054,
              22.598398
            ],
            [
              88.317997,
              22.597384
            ],
            [
              88.316391,
              22.59699
            ],
            [
              88.317702,
              22.593327
            ],
            [
              88.313373,
              22.588327
            ],
            [
              88.313135,
              22.584246
            ],
            [
              88.310054,
              22.584248
            ],
            [
              88.310373,
              22.585327
            ],
            [
              88.30911,
              22.587383
            ],
            [
              88.307364,
              22.586017
            ],
            [
              88.305437,
              22.586327
            ],
            [
              88.304277,
              22.585327
            ],
            [
              88.304944,
              22.584327
            ],
            [
              88.304054,
              22.583934
            ],
            [
              88.303545,
              22.584818
            ],
            [
              88.301739,
              22.585011
            ],
            [
              88.301054,
              22.586544
            ],
            [
              88.300695,
              22.585686
            ],
            [
              88.299149,
              22.585422
            ],
            [
              88.295054,
              22.586395
            ],
            [
              88.293054,
              22.583562
            ],
            [
              88.29122,
              22.583492
            ],
            [
              88.291086,
              22.584358
            ],
            [
              88.290405,
              22.584327
            ],
            [
              88.291054,
              22.58287
            ],
            [
              88.292139,
              22.582327
            ],
            [
              88.290794,
              22.580327
            ],
            [
              88.292356,
              22.577629
            ],
            [
              88.291054,
              22.576754
            ],
            [
              88.289861,
              22.577327
            ],
            [
              88.290076,
              22.575348
            ],
            [
              88.297054,
              22.574553
            ],
            [
              88.300054,
              22.576763
            ],
            [
              88.300655,
              22.574927
            ],
            [
              88.30327,
              22.572542
            ],
            [
              88.303394,
              22.571327
            ],
            [
              88.301054,
              22.571932
            ],
            [
              88.299697,
              22.57097
            ],
            [
              88.298207,
              22.572479
            ],
            [
              88.297054,
              22.572464
            ],
            [
              88.295989,
              22.570327
            ],
            [
              88.297489,
              22.569761
            ],
            [
              88.297509,
              22.568327
            ],
            [
              88.295362,
              22.565019
            ],
            [
              88.294054,
              22.564768
            ],
            [
              88.293054,
              22.565707
            ],
            [
              88.288911,
              22.56647
            ],
            [
              88.287372,
              22.566327
            ],
            [
              88.287945,
              22.566217
            ],
            [
              88.287627,
              22.564754
            ],
            [
              88.286335,
              22.564608
            ],
            [
              88.286054,
              22.565752
            ],
            [
              88.284438,
              22.564327
            ],
            [
              88.286054,
              22.561308
            ],
            [
              88.288054,
              22.564059
            ],
            [
              88.289054,
              22.563004
            ],
            [
              88.294378,
              22.56265
            ],
            [
              88.29557,
              22.560327
            ],
            [
              88.293686,
              22.559327
            ],
            [
              88.294773,
              22.557046
            ],
            [
              88.300054,
              22.556776
            ],
            [
              88.3005,
              22.556327
            ],
            [
              88.29955,
              22.554327
            ],
            [
              88.300749,
              22.553022
            ],
            [
              88.302054,
              22.553788
            ],
            [
              88.303054,
              22.552913
            ],
            [
              88.306054,
              22.553012
            ],
            [
              88.308054,
              22.550988
            ],
            [
              88.309054,
              22.551882
            ],
            [
              88.310054,
              22.550881
            ],
            [
              88.311054,
              22.551824
            ],
            [
              88.313054,
              22.550807
            ],
            [
              88.316054,
              22.552722
            ],
            [
              88.318054,
              22.552764
            ],
            [
              88.320808,
              22.555573
            ],
            [
              88.322479,
              22.555902
            ],
            [
              88.322832,
              22.557549
            ],
            [
              88.324054,
              22.557649
            ],
            [
              88.325054,
              22.558948
            ],
            [
              88.32765,
              22.555922
            ],
            [
              88.3295,
              22.555772
            ],
            [
              88.331423,
              22.553696
            ],
            [
              88.332054,
              22.549895
            ],
            [
              88.333556,
              22.552327
            ],
            [
              88.330444,
              22.556716
            ],
            [
              88.328796,
              22.557068
            ],
            [
              88.326823,
              22.559095
            ],
            [
              88.326754,
              22.560327
            ],
            [
              88.329814,
              22.566567
            ],
            [
              88.332441,
              22.56694
            ],
            [
              88.333732,
              22.569649
            ],
            [
              88.337596,
              22.573784
            ],
            [
              88.339189,
              22.574192
            ],
            [
              88.33924,
              22.57614
            ],
            [
              88.340095,
              22.576286
            ],
            [
              88.340054,
              22.576969
            ],
            [
              88.339054,
              22.576643
            ],
            [
              88.338623,
              22.574758
            ],
            [
              88.335669,
              22.574941
            ],
            [
              88.335337,
              22.578327
            ],
            [
              88.336893,
              22.579165
            ],
            [
              88.337508,
              22.578327
            ],
            [
              88.336454,
              22.581327
            ],
            [
              88.337827,
              22.583327
            ],
            [
              88.337054,
              22.583996
            ],
            [
              88.336754,
              22.582627
            ],
            [
              88.334582,
              22.582854
            ],
            [
              88.334507,
              22.583874
            ],
            [
              88.336745,
              22.584327
            ],
            [
              88.335418,
              22.58669
            ],
            [
              88.328687,
              22.584694
            ],
            [
              88.326908,
              22.58518
            ],
            [
              88.324698,
              22.587327
            ],
            [
              88.325452,
              22.591327
            ],
            [
              88.32436,
              22.592327
            ],
            [
              88.325345,
              22.593327
            ],
            [
              88.323559,
              22.593832
            ],
            [
              88.323464,
              22.594917
            ],
            [
              88.324167,
              22.595327
            ],
            [
              88.323054,
              22.596443
            ],
            [
              88.321054,
              22.596436
            ],
            [
              88.320605,
              22.594776
            ],
            [
              88.319524,
              22.594797
            ],
            [
              88.318446,
              22.595719
            ],
            [
              88.318054,
              22.598398
            ]
          ]
        ],
        "type": "Polygon"
      },
      "type": "Feature"
    },
    {
      "properties": {
        "fill-opacity": 0.33,
        "fillColor": "#bf4040",
        "opacity": 0.33,
        "fill": "#bf4040",
        "fillOpacity": 0.33,
        "color": "#bf4040",
        "contour": 5.0,
        "metric": "distance",
        "provider_name": "Kin Kini",
        "zone_type": "distance",
        "distance_km": 5,
        "mode": "motorcycle",
        "center_lat": 22.57032716,
        "center_lon": 88.31705466,
        "label": "5km"
      },
      "geometry": {
        "coordinates": [
          [
            [
              88.318054,
              22.598948
            ],
            [
              88.315281,
              22.597327
            ],
            [
              88.315219,
              22.595491
            ],
            [
              88.317452,
              22.594327
            ],
            [
              88.316038,
              22.59231
            ],
            [
              88.314054,
              22.59529
            ],
            [
              88.310054,
              22.593876
            ],
            [
              88.309054,
              22.592109
            ],
            [
              88.308054,
              22.592835
            ],
            [
              88.307198,
              22.591183
            ],
            [
              88.306054,
              22.592845
            ],
            [
              88.299054,
              22.591808
            ],
            [
              88.298712,
              22.590669
            ],
            [
              88.297325,
              22.590598
            ],
            [
              88.296054,
              22.593834
            ],
            [
              88.291762,
              22.592327
            ],
            [
              88.290628,
              22.590327
            ],
            [
              88.293054,
              22.590101
            ],
            [
              88.294668,
              22.588327
            ],
            [
              88.293758,
              22.587327
            ],
            [
              88.294546,
              22.586327
            ],
            [
              88.293322,
              22.585327
            ],
            [
              88.293054,
              22.583893
            ],
            [
              88.291738,
              22.584011
            ],
            [
              88.290132,
              22.585327
            ],
            [
              88.290148,
              22.586421
            ],
            [
              88.286003,
              22.586275
            ],
            [
              88.284054,
              22.58779
            ],
            [
              88.282054,
              22.586776
            ],
            [
              88.280881,
              22.585327
            ],
            [
              88.283054,
              22.585141
            ],
            [
              88.284054,
              22.584134
            ],
            [
              88.289784,
              22.583327
            ],
            [
              88.290167,
              22.582327
            ],
            [
              88.287054,
              22.581936
            ],
            [
              88.286054,
              22.580566
            ],
            [
              88.283057,
              22.580327
            ],
            [
              88.285054,
              22.578354
            ],
            [
              88.285395,
              22.579986
            ],
            [
              88.286725,
              22.579327
            ],
            [
              88.285065,
              22.578327
            ],
            [
              88.282925,
              22.575327
            ],
            [
              88.285394,
              22.573987
            ],
            [
              88.281054,
              22.570337
            ],
            [
              88.278054,
              22.570229
            ],
            [
              88.278552,
              22.566829
            ],
            [
              88.277324,
              22.566597
            ],
            [
              88.276054,
              22.567338
            ],
            [
              88.275246,
              22.566327
            ],
            [
              88.276762,
              22.566034
            ],
            [
              88.277054,
              22.564532
            ],
            [
              88.278054,
              22.564784
            ],
            [
              88.278502,
              22.565879
            ],
            [
              88.279716,
              22.565327
            ],
            [
              88.277702,
              22.563327
            ],
            [
              88.279858,
              22.559327
            ],
            [
              88.279054,
              22.557301
            ],
            [
              88.281054,
              22.557138
            ],
            [
              88.282054,
              22.556125
            ],
            [
              88.284166,
              22.556215
            ],
            [
              88.284412,
              22.558327
            ],
            [
              88.287388,
              22.560993
            ],
            [
              88.288054,
              22.563749
            ],
            [
              88.289054,
              22.562731
            ],
            [
              88.294054,
              22.562658
            ],
            [
              88.295394,
              22.560327
            ],
            [
              88.293441,
              22.559327
            ],
            [
              88.294632,
              22.556904
            ],
            [
              88.300054,
              22.556637
            ],
            [
              88.299386,
              22.554327
            ],
            [
              88.300622,
              22.552894
            ],
            [
              88.302054,
              22.553648
            ],
            [
              88.303054,
              22.552696
            ],
            [
              88.306054,
              22.552733
            ],
            [
              88.308054,
              22.550725
            ],
            [
              88.309054,
              22.551684
            ],
            [
              88.310054,
              22.550683
            ],
            [
              88.311054,
              22.551659
            ],
            [
              88.313054,
              22.550651
            ],
            [
              88.316054,
              22.55261
            ],
            [
              88.318054,
              22.552631
            ],
            [
              88.320874,
              22.555507
            ],
            [
              88.322543,
              22.555838
            ],
            [
              88.322888,
              22.557493
            ],
            [
              88.325354,
              22.558626
            ],
            [
              88.327576,
              22.555848
            ],
            [
              88.329345,
              22.555617
            ],
            [
              88.33116,
              22.553432
            ],
            [
              88.331081,
              22.550327
            ],
            [
              88.325054,
              22.548047
            ],
            [
              88.326675,
              22.543327
            ],
            [
              88.326408,
              22.541973
            ],
            [
              88.32482,
              22.541561
            ],
            [
              88.32395,
              22.540431
            ],
            [
              88.324054,
              22.539463
            ],
            [
              88.330054,
              22.542538
            ],
            [
              88.330991,
              22.541264
            ],
            [
              88.333728,
              22.540001
            ],
            [
              88.334054,
              22.537943
            ],
            [
              88.334686,
              22.539695
            ],
            [
              88.337735,
              22.540327
            ],
            [
              88.335054,
              22.540557
            ],
            [
              88.333288,
              22.54256
            ],
            [
              88.331493,
              22.543327
            ],
            [
              88.333679,
              22.545702
            ],
            [
              88.335054,
              22.545509
            ],
            [
              88.336653,
              22.547728
            ],
            [
              88.338268,
              22.548113
            ],
            [
              88.339437,
              22.549944
            ],
            [
              88.341109,
              22.550272
            ],
            [
              88.341768,
              22.551327
            ],
            [
              88.340054,
              22.551884
            ],
            [
              88.338547,
              22.549834
            ],
            [
              88.336569,
              22.549841
            ],
            [
              88.336054,
              22.552877
            ],
            [
              88.333041,
              22.553313
            ],
            [
              88.332597,
              22.554869
            ],
            [
              88.326882,
              22.559155
            ],
            [
              88.326823,
              22.560327
            ],
            [
              88.329878,
              22.566503
            ],
            [
              88.332524,
              22.566857
            ],
            [
              88.333837,
              22.569544
            ],
            [
              88.3368,
              22.572581
            ],
            [
              88.339425,
              22.573956
            ],
            [
              88.341581,
              22.5788
            ],
            [
              88.34318,
              22.580327
            ],
            [
              88.343738,
              22.583327
            ],
            [
              88.342943,
              22.584438
            ],
            [
              88.345328,
              22.585327
            ],
            [
              88.342567,
              22.586839
            ],
            [
              88.343054,
              22.590807
            ],
            [
              88.341784,
              22.590056
            ],
            [
              88.339054,
              22.595005
            ],
            [
              88.335005,
              22.593327
            ],
            [
              88.335923,
              22.593196
            ],
            [
              88.335943,
              22.592327
            ],
            [
              88.335054,
              22.587812
            ],
            [
              88.332081,
              22.594354
            ],
            [
              88.331054,
              22.594588
            ],
            [
              88.32826,
              22.592327
            ],
            [
              88.328862,
              22.591327
            ],
            [
              88.326054,
              22.589868
            ],
            [
              88.32488,
              22.592327
            ],
            [
              88.325498,
              22.59377
            ],
            [
              88.323778,
              22.594327
            ],
            [
              88.324444,
              22.595717
            ],
            [
              88.322054,
              22.596878
            ],
            [
              88.319802,
              22.595074
            ],
            [
              88.318686,
              22.596327
            ],
            [
              88.318054,
              22.598948
            ]
          ]
        ],
        "type": "Polygon"
      },
      "type": "Feature"
    },
    {
      "properties": {
        "fill-opacity": 0.33,
        "fillColor": "#bf4040",
        "opacity": 0.33,
        "fill": "#bf4040",
        "fillOpacity": 0.33,
        "color": "#bf4040",
        "contour": 6.0,
        "metric": "distance",
        "provider_name": "Kin Kini",
        "zone_type": "distance",
        "distance_km": 6,
        "mode": "motorcycle",
        "center_lat": 22.57032716,
        "center_lon": 88.31705466,
        "label": "6km"
      },
      "geometry": {
        "coordinates": [
          [
            [
              88.342054,
              22.603581
            ],
            [
              88.340205,
              22.602176
            ],
            [
              88.337746,
              22.601635
            ],
            [
              88.336601,
              22.59878
            ],
            [
              88.334875,
              22.599327
            ],
            [
              88.334733,
              22.597327
            ],
            [
              88.333674,
              22.596327
            ],
            [
              88.333581,
              22.593327
            ],
            [
              88.335525,
              22.592327
            ],
            [
              88.335054,
              22.587987
            ],
            [
              88.332609,
              22.592327
            ],
            [
              88.332394,
              22.594667
            ],
            [
              88.329308,
              22.59758
            ],
            [
              88.327054,
              22.59763
            ],
            [
              88.326054,
              22.59871
            ],
            [
              88.3247,
              22.598681
            ],
            [
              88.323334,
              22.598327
            ],
            [
              88.323654,
              22.597327
            ],
            [
              88.322245,
              22.597327
            ],
            [
              88.322682,
              22.598327
            ],
            [
              88.320715,
              22.599327
            ],
            [
              88.320974,
              22.600327
            ],
            [
              88.319298,
              22.601571
            ],
            [
              88.318054,
              22.601583
            ],
            [
              88.315685,
              22.599327
            ],
            [
              88.31671,
              22.598983
            ],
            [
              88.315683,
              22.597955
            ],
            [
              88.313893,
              22.598166
            ],
            [
              88.313054,
              22.599039
            ],
            [
              88.310461,
              22.598733
            ],
            [
              88.310238,
              22.600143
            ],
            [
              88.31113,
              22.600327
            ],
            [
              88.310054,
              22.601558
            ],
            [
              88.309871,
              22.60051
            ],
            [
              88.30611,
              22.599327
            ],
            [
              88.308639,
              22.598911
            ],
            [
              88.30856,
              22.597821
            ],
            [
              88.306054,
              22.597559
            ],
            [
              88.305054,
              22.596592
            ],
            [
              88.302384,
              22.596657
            ],
            [
              88.302054,
              22.597411
            ],
            [
              88.300483,
              22.597755
            ],
            [
              88.300054,
              22.599335
            ],
            [
              88.299892,
              22.598489
            ],
            [
              88.297669,
              22.598327
            ],
            [
              88.29882,
              22.598093
            ],
            [
              88.298838,
              22.597327
            ],
            [
              88.297054,
              22.594776
            ],
            [
              88.293583,
              22.596327
            ],
            [
              88.294054,
              22.598163
            ],
            [
              88.295499,
              22.598327
            ],
            [
              88.294207,
              22.598479
            ],
            [
              88.294404,
              22.600327
            ],
            [
              88.292456,
              22.600327
            ],
            [
              88.290762,
              22.598619
            ],
            [
              88.289054,
              22.598625
            ],
            [
              88.289294,
              22.597327
            ],
            [
              88.288054,
              22.597563
            ],
            [
              88.287668,
              22.595327
            ],
            [
              88.288599,
              22.594327
            ],
            [
              88.287285,
              22.593327
            ],
            [
              88.287054,
              22.59219
            ],
            [
              88.286054,
              22.591675
            ],
            [
              88.28537,
              22.593643
            ],
            [
              88.284054,
              22.593705
            ],
            [
              88.283463,
              22.590918
            ],
            [
              88.281111,
              22.590384
            ],
            [
              88.280054,
              22.5913
            ],
            [
              88.278206,
              22.590175
            ],
            [
              88.277839,
              22.588542
            ],
            [
              88.276242,
              22.588327
            ],
            [
              88.276915,
              22.588187
            ],
            [
              88.276512,
              22.586869
            ],
            [
              88.275581,
              22.586853
            ],
            [
              88.275054,
              22.587676
            ],
            [
              88.271826,
              22.587555
            ],
            [
              88.274777,
              22.586327
            ],
            [
              88.274681,
              22.5837
            ],
            [
              88.272804,
              22.583327
            ],
            [
              88.277054,
              22.582767
            ],
            [
              88.279054,
              22.584875
            ],
            [
              88.280054,
              22.583426
            ],
            [
              88.283054,
              22.584775
            ],
            [
              88.284054,
              22.583773
            ],
            [
              88.285381,
              22.583653
            ],
            [
              88.285478,
              22.582903
            ],
            [
              88.280054,
              22.582278
            ],
            [
              88.286054,
              22.581943
            ],
            [
              88.286455,
              22.581327
            ],
            [
              88.281054,
              22.580765
            ],
            [
              88.280054,
              22.581221
            ],
            [
              88.279292,
              22.580327
            ],
            [
              88.279535,
              22.578846
            ],
            [
              88.27856,
              22.578327
            ],
            [
              88.278612,
              22.576769
            ],
            [
              88.277455,
              22.576727
            ],
            [
              88.277054,
              22.578579
            ],
            [
              88.275722,
              22.577327
            ],
            [
              88.276052,
              22.576324
            ],
            [
              88.27775,
              22.575327
            ],
            [
              88.277437,
              22.572944
            ],
            [
              88.276656,
              22.572928
            ],
            [
              88.276274,
              22.574547
            ],
            [
              88.274054,
              22.576805
            ],
            [
              88.27372,
              22.575661
            ],
            [
              88.272,
              22.575381
            ],
            [
              88.270916,
              22.571465
            ],
            [
              88.266257,
              22.569327
            ],
            [
              88.266931,
              22.568327
            ],
            [
              88.266157,
              22.567327
            ],
            [
              88.268841,
              22.565114
            ],
            [
              88.270054,
              22.561444
            ],
            [
              88.270455,
              22.563926
            ],
            [
              88.271822,
              22.563327
            ],
            [
              88.271922,
              22.561459
            ],
            [
              88.270091,
              22.561327
            ],
            [
              88.270262,
              22.560327
            ],
            [
              88.271054,
              22.559689
            ],
            [
              88.272615,
              22.559887
            ],
            [
              88.272935,
              22.558208
            ],
            [
              88.275054,
              22.557014
            ],
            [
              88.276054,
              22.557927
            ],
            [
              88.278054,
              22.557856
            ],
            [
              88.279054,
              22.55682
            ],
            [
              88.281054,
              22.556775
            ],
            [
              88.283054,
              22.555777
            ],
            [
              88.286487,
              22.559894
            ],
            [
              88.287851,
              22.563529
            ],
            [
              88.289054,
              22.562614
            ],
            [
              88.294054,
              22.562576
            ],
            [
              88.295308,
              22.560327
            ],
            [
              88.293574,
              22.559807
            ],
            [
              88.293335,
              22.558327
            ],
            [
              88.294566,
              22.556839
            ],
            [
              88.300054,
              22.556563
            ],
            [
              88.299303,
              22.554327
            ],
            [
              88.300561,
              22.552833
            ],
            [
              88.302054,
              22.553567
            ],
            [
              88.303054,
              22.552596
            ],
            [
              88.306054,
              22.552616
            ],
            [
              88.308054,
              22.550611
            ],
            [
              88.309054,
              22.55159
            ],
            [
              88.310054,
              22.55059
            ],
            [
              88.311054,
              22.551576
            ],
            [
              88.313054,
              22.550572
            ],
            [
              88.316054,
              22.552547
            ],
            [
              88.318587,
              22.552793
            ],
            [
              88.320913,
              22.555468
            ],
            [
              88.322633,
              22.555747
            ],
            [
              88.322921,
              22.55746
            ],
            [
              88.324627,
              22.557754
            ],
            [
              88.325054,
              22.558584
            ],
            [
              88.327495,
              22.555767
            ],
            [
              88.329321,
              22.55506
            ],
            [
              88.326807,
              22.552574
            ],
            [
              88.325424,
              22.549957
            ],
            [
              88.324054,
              22.550579
            ],
            [
              88.322653,
              22.549327
            ],
            [
              88.321096,
              22.546327
            ],
            [
              88.321597,
              22.544327
            ],
            [
              88.317779,
              22.541327
            ],
            [
              88.317551,
              22.53883
            ],
            [
              88.316358,
              22.538631
            ],
            [
              88.316054,
              22.539948
            ],
            [
              88.315792,
              22.538589
            ],
            [
              88.314095,
              22.538327
            ],
            [
              88.320054,
              22.532261
            ],
            [
              88.323054,
              22.531548
            ],
            [
              88.325083,
              22.532327
            ],
            [
              88.325561,
              22.53482
            ],
            [
              88.327543,
              22.534838
            ],
            [
              88.327692,
              22.536689
            ],
            [
              88.329054,
              22.537125
            ],
            [
              88.329436,
              22.538945
            ],
            [
              88.330183,
              22.539327
            ],
            [
              88.330519,
              22.540792
            ],
            [
              88.329363,
              22.541327
            ],
            [
              88.330054,
              22.541848
            ],
            [
              88.330564,
              22.540836
            ],
            [
              88.332252,
              22.540524
            ],
            [
              88.333544,
              22.538327
            ],
            [
              88.332474,
              22.534907
            ],
            [
              88.331054,
              22.534248
            ],
            [
              88.329729,
              22.534652
            ],
            [
              88.328382,
              22.533327
            ],
            [
              88.329819,
              22.531327
            ],
            [
              88.332054,
              22.529562
            ],
            [
              88.333783,
              22.531598
            ],
            [
              88.335054,
              22.531318
            ],
            [
              88.335274,
              22.532107
            ],
            [
              88.338054,
              22.53112
            ],
            [
              88.338797,
              22.533584
            ],
            [
              88.340568,
              22.533813
            ],
            [
              88.344028,
              22.537327
            ],
            [
              88.344572,
              22.539809
            ],
            [
              88.347285,
              22.541327
            ],
            [
              88.346781,
              22.542327
            ],
            [
              88.345061,
              22.544334
            ],
            [
              88.344736,
              22.542645
            ],
            [
              88.342599,
              22.541871
            ],
            [
              88.34138,
              22.543327
            ],
            [
              88.341054,
              22.547633
            ],
            [
              88.340729,
              22.543327
            ],
            [
              88.338412,
              22.540969
            ],
            [
              88.335054,
              22.540889
            ],
            [
              88.333458,
              22.542731
            ],
            [
              88.331695,
              22.543327
            ],
            [
              88.333054,
              22.545712
            ],
            [
              88.33434,
              22.545613
            ],
            [
              88.336054,
              22.543873
            ],
            [
              88.337333,
              22.544048
            ],
            [
              88.335791,
              22.54659
            ],
            [
              88.341054,
              22.550321
            ],
            [
              88.341894,
              22.550166
            ],
            [
              88.342054,
              22.549324
            ],
            [
              88.345519,
              22.554862
            ],
            [
              88.348554,
              22.555327
            ],
            [
              88.346427,
              22.5557
            ],
            [
              88.346113,
              22.558268
            ],
            [
              88.346663,
              22.558327
            ],
            [
              88.346054,
              22.559336
            ],
            [
              88.345995,
              22.558386
            ],
            [
              88.344987,
              22.558394
            ],
            [
              88.344054,
              22.556583
            ],
            [
              88.341279,
              22.558102
            ],
            [
              88.340708,
              22.557327
            ],
            [
              88.341695,
              22.556967
            ],
            [
              88.341782,
              22.556054
            ],
            [
              88.343054,
              22.556102
            ],
            [
              88.343728,
              22.555327
            ],
            [
              88.343457,
              22.553924
            ],
            [
              88.341054,
              22.551841
            ],
            [
              88.340538,
              22.552327
            ],
            [
              88.341495,
              22.552886
            ],
            [
              88.341374,
              22.555646
            ],
            [
              88.339054,
              22.553781
            ],
            [
              88.336563,
              22.555818
            ],
            [
              88.336736,
              22.554327
            ],
            [
              88.335656,
              22.553928
            ],
            [
              88.335003,
              22.556327
            ],
            [
              88.333941,
              22.55644
            ],
            [
              88.333054,
              22.55558
            ],
            [
              88.33227,
              22.556327
            ],
            [
              88.3323,
              22.558081
            ],
            [
              88.333054,
              22.558577
            ],
            [
              88.332023,
              22.558358
            ],
            [
              88.331839,
              22.556327
            ],
            [
              88.331054,
              22.556092
            ],
            [
              88.326918,
              22.55919
            ],
            [
              88.326867,
              22.560327
            ],
            [
              88.327668,
              22.560712
            ],
            [
              88.329915,
              22.566466
            ],
            [
              88.332598,
              22.566783
            ],
            [
              88.33389,
              22.569491
            ],
            [
              88.337861,
              22.57352
            ],
            [
              88.339516,
              22.573865
            ],
            [
              88.339841,
              22.57554
            ],
            [
              88.343588,
              22.580327
            ],
            [
              88.343558,
              22.582327
            ],
            [
              88.344722,
              22.584659
            ],
            [
              88.34744,
              22.584712
            ],
            [
              88.348771,
              22.583327
            ],
            [
              88.348874,
              22.581147
            ],
            [
              88.350054,
              22.580234
            ],
            [
              88.353216,
              22.582327
            ],
            [
              88.352054,
              22.586336
            ],
            [
              88.350852,
              22.586529
            ],
            [
              88.350549,
              22.585327
            ],
            [
              88.349054,
              22.584698
            ],
            [
              88.348054,
              22.585739
            ],
            [
              88.345054,
              22.585834
            ],
            [
              88.343199,
              22.587327
            ],
            [
              88.345455,
              22.588327
            ],
            [
              88.343707,
              22.588979
            ],
            [
              88.34357,
              22.590327
            ],
            [
              88.344639,
              22.592742
            ],
            [
              88.346195,
              22.592186
            ],
            [
              88.346573,
              22.595327
            ],
            [
              88.343651,
              22.601923
            ],
            [
              88.342054,
              22.603581
            ]
          ]
        ],
        "type": "Polygon"
      },
      "type": "Feature"
    }
  ]
}