{
  "type": "FeatureCollection",
  "metadata": {
    "provider_name": "Sri Laksnarasimha Tiffins And Snacks",
    "center_lat": 17.34572561722253,
    "center_lon": 78.50864524259424,
    "mode": "motorcycle",
    "total_zones": 4,
    "distance_zones": [
      3,
      4,
      5,
      6
    ],
    "generated_at": "2025-12-26T10:24:17.802847Z"
  },
  "features": [
    {
      "properties": {
        "fill-opacity": 0.33,
        "fillColor": "#bf4040",
        "opacity": 0.33,
        "fill": "#bf4040",
        "fillOpacity": 0.33,
        "color": "#bf4040",
        "contour": 3.0,
        "metric": "distance",
        "provider_name": "Sri Laksnarasimha Tiffins And Snacks",
        "zone_type": "distance",
        "distance_km": 3,
        "mode": "motorcycle",
        "center_lat": 17.34572561722253,
        "center_lon": 78.50864524259424,
        "label": "3km"
      },
      "geometry": {
        "coordinates": [
          [
            [
              78.508645,
              17.36973
            ],
            [
              78.506569,
              17.369725
            ],
            [
              78.505645,
              17.36759
            ],
            [
              78.501423,
              17.369725
            ],
            [
              78.499318,
              17.367052
            ],
            [
              78.497019,
              17.366725
            ],
            [
              78.496608,
              17.365725
            ],
            [
              78.497486,
              17.363725
            ],
            [
              78.49551,
              17.362725
            ],
            [
              78.493448,
              17.358922
            ],
            [
              78.489356,
              17.354725
            ],
            [
              78.490286,
              17.349725
            ],
            [
              78.489433,
              17.347937
            ],
            [
              78.489645,
              17.344932
            ],
            [
              78.489959,
              17.34641
            ],
            [
              78.490645,
              17.346501
            ],
            [
              78.492069,
              17.34615
            ],
            [
              78.492282,
              17.344725
            ],
            [
              78.490335,
              17.344035
            ],
            [
              78.490279,
              17.341725
            ],
            [
              78.489346,
              17.340725
            ],
            [
              78.490296,
              17.339377
            ],
            [
              78.49185,
              17.338931
            ],
            [
              78.492918,
              17.336998
            ],
            [
              78.490281,
              17.335089
            ],
            [
              78.489645,
              17.3328
            ],
            [
              78.488645,
              17.333021
            ],
            [
              78.486598,
              17.331772
            ],
            [
              78.486261,
              17.330725
            ],
            [
              78.486805,
              17.329725
            ],
            [
              78.488645,
              17.329267
            ],
            [
              78.490645,
              17.327426
            ],
            [
              78.494645,
              17.32856
            ],
            [
              78.497645,
              17.32618
            ],
            [
              78.499645,
              17.328831
            ],
            [
              78.499825,
              17.327905
            ],
            [
              78.503645,
              17.327141
            ],
            [
              78.505645,
              17.328907
            ],
            [
              78.505423,
              17.331725
            ],
            [
              78.506645,
              17.331925
            ],
            [
              78.507645,
              17.330351
            ],
            [
              78.508925,
              17.330445
            ],
            [
              78.509645,
              17.331287
            ],
            [
              78.512114,
              17.329195
            ],
            [
              78.512645,
              17.325825
            ],
            [
              78.513381,
              17.325989
            ],
            [
              78.515972,
              17.328725
            ],
            [
              78.515358,
              17.332725
            ],
            [
              78.5163,
              17.33707
            ],
            [
              78.517645,
              17.336085
            ],
            [
              78.51924,
              17.33613
            ],
            [
              78.520645,
              17.33624
            ],
            [
              78.521645,
              17.337315
            ],
            [
              78.522645,
              17.336612
            ],
            [
              78.523645,
              17.337542
            ],
            [
              78.525408,
              17.336725
            ],
            [
              78.525819,
              17.33755
            ],
            [
              78.528645,
              17.336446
            ],
            [
              78.529645,
              17.337511
            ],
            [
              78.532098,
              17.337725
            ],
            [
              78.530251,
              17.338331
            ],
            [
              78.530754,
              17.339725
            ],
            [
              78.529645,
              17.341979
            ],
            [
              78.524373,
              17.346725
            ],
            [
              78.519838,
              17.355919
            ],
            [
              78.517645,
              17.356026
            ],
            [
              78.516791,
              17.356725
            ],
            [
              78.51698,
              17.35739
            ],
            [
              78.518645,
              17.357494
            ],
            [
              78.518645,
              17.358277
            ],
            [
              78.515521,
              17.361601
            ],
            [
              78.513375,
              17.365725
            ],
            [
              78.512575,
              17.366655
            ],
            [
              78.508833,
              17.367725
            ],
            [
              78.509217,
              17.368725
            ],
            [
              78.508645,
              17.36973
            ]
          ]
        ],
        "type": "Polygon"
      },
      "type": "Feature"
    },
    {
      "properties": {
        "fill-opacity": 0.33,
        "fillColor": "#bf4040",
        "opacity": 0.33,
        "fill": "#bf4040",
        "fillOpacity": 0.33,
        "color": "#bf4040",
        "contour": 4.0,
        "metric": "distance",
        "provider_name": "Sri Laksnarasimha Tiffins And Snacks",
        "zone_type": "distance",
        "distance_km": 4,
        "mode": "motorcycle",
        "center_lat": 17.34572561722253,
        "center_lon": 78.50864524259424,
        "label": "4km"
      },
      "geometry": {
        "coordinates": [
          [
            [
              78.498645,
              17.376898
            ],
            [
              78.495652,
              17.375725
            ],
            [
              78.497803,
              17.371567
            ],
            [
              78.491145,
              17.370225
            ],
            [
              78.489645,
              17.36727
            ],
            [
              78.487573,
              17.367725
            ],
            [
              78.487502,
              17.366582
            ],
            [
              78.489645,
              17.366207
            ],
            [
              78.490046,
              17.365324
            ],
            [
              78.488645,
              17.363668
            ],
            [
              78.4862,
              17.362725
            ],
            [
              78.485565,
              17.361725
            ],
            [
              78.48636,
              17.359725
            ],
            [
              78.483658,
              17.357712
            ],
            [
              78.480855,
              17.357515
            ],
            [
              78.481511,
              17.353725
            ],
            [
              78.484072,
              17.351725
            ],
            [
              78.484645,
              17.348259
            ],
            [
              78.488645,
              17.347448
            ],
            [
              78.488853,
              17.344517
            ],
            [
              78.486645,
              17.342357
            ],
            [
              78.486524,
              17.340725
            ],
            [
              78.483645,
              17.336536
            ],
            [
              78.480469,
              17.333725
            ],
            [
              78.481209,
              17.332725
            ],
            [
              78.480837,
              17.331533
            ],
            [
              78.479544,
              17.330725
            ],
            [
              78.477379,
              17.326725
            ],
            [
              78.481645,
              17.323796
            ],
            [
              78.482078,
              17.326291
            ],
            [
              78.483645,
              17.327443
            ],
            [
              78.484645,
              17.326416
            ],
            [
              78.487077,
              17.326158
            ],
            [
              78.486279,
              17.324091
            ],
            [
              78.484975,
              17.323725
            ],
            [
              78.486645,
              17.321443
            ],
            [
              78.489645,
              17.322308
            ],
            [
              78.490812,
              17.324558
            ],
            [
              78.491688,
              17.324768
            ],
            [
              78.492861,
              17.323941
            ],
            [
              78.49335,
              17.322431
            ],
            [
              78.49656,
              17.322641
            ],
            [
              78.497645,
              17.319059
            ],
            [
              78.498645,
              17.318512
            ],
            [
              78.498921,
              17.321725
            ],
            [
              78.499645,
              17.322371
            ],
            [
              78.501174,
              17.322255
            ],
            [
              78.502645,
              17.320181
            ],
            [
              78.503551,
              17.320725
            ],
            [
              78.502793,
              17.320873
            ],
            [
              78.502804,
              17.321725
            ],
            [
              78.503707,
              17.322725
            ],
            [
              78.50287,
              17.323725
            ],
            [
              78.503645,
              17.324566
            ],
            [
              78.504353,
              17.323433
            ],
            [
              78.506474,
              17.322554
            ],
            [
              78.506601,
              17.321681
            ],
            [
              78.507573,
              17.321654
            ],
            [
              78.507645,
              17.320097
            ],
            [
              78.507722,
              17.321803
            ],
            [
              78.505212,
              17.324292
            ],
            [
              78.504121,
              17.326725
            ],
            [
              78.505645,
              17.328229
            ],
            [
              78.507409,
              17.327961
            ],
            [
              78.507907,
              17.329463
            ],
            [
              78.509645,
              17.32945
            ],
            [
              78.510355,
              17.328015
            ],
            [
              78.508522,
              17.327725
            ],
            [
              78.510406,
              17.327486
            ],
            [
              78.510645,
              17.326358
            ],
            [
              78.51076,
              17.32861
            ],
            [
              78.511645,
              17.32913
            ],
            [
              78.512283,
              17.325363
            ],
            [
              78.516254,
              17.322335
            ],
            [
              78.515995,
              17.319725
            ],
            [
              78.516753,
              17.318833
            ],
            [
              78.518645,
              17.31905
            ],
            [
              78.51982,
              17.321725
            ],
            [
              78.51741,
              17.322725
            ],
            [
              78.519718,
              17.323725
            ],
            [
              78.517889,
              17.324725
            ],
            [
              78.519645,
              17.32515
            ],
            [
              78.52032,
              17.327725
            ],
            [
              78.523218,
              17.329152
            ],
            [
              78.523645,
              17.332053
            ],
            [
              78.525645,
              17.328609
            ],
            [
              78.526645,
              17.328645
            ],
            [
              78.528645,
              17.331167
            ],
            [
              78.529554,
              17.334816
            ],
            [
              78.534645,
              17.332232
            ],
            [
              78.535655,
              17.332715
            ],
            [
              78.537645,
              17.33632
            ],
            [
              78.539645,
              17.336648
            ],
            [
              78.53986,
              17.33751
            ],
            [
              78.541491,
              17.337725
            ],
            [
              78.541381,
              17.338461
            ],
            [
              78.538505,
              17.340586
            ],
            [
              78.537645,
              17.34245
            ],
            [
              78.535645,
              17.341556
            ],
            [
              78.533961,
              17.344042
            ],
            [
              78.53051,
              17.345725
            ],
            [
              78.53093,
              17.347725
            ],
            [
              78.528392,
              17.349725
            ],
            [
              78.527767,
              17.353848
            ],
            [
              78.526645,
              17.354908
            ],
            [
              78.524645,
              17.354931
            ],
            [
              78.523946,
              17.355725
            ],
            [
              78.525051,
              17.358319
            ],
            [
              78.526489,
              17.358569
            ],
            [
              78.526614,
              17.357694
            ],
            [
              78.527258,
              17.357725
            ],
            [
              78.527294,
              17.358725
            ],
            [
              78.525645,
              17.361909
            ],
            [
              78.522645,
              17.361887
            ],
            [
              78.522338,
              17.363032
            ],
            [
              78.523359,
              17.363725
            ],
            [
              78.521645,
              17.366075
            ],
            [
              78.520557,
              17.365638
            ],
            [
              78.521064,
              17.366306
            ],
            [
              78.520645,
              17.367833
            ],
            [
              78.519343,
              17.368725
            ],
            [
              78.516645,
              17.36885
            ],
            [
              78.515645,
              17.369821
            ],
            [
              78.51305,
              17.37013
            ],
            [
              78.511645,
              17.371783
            ],
            [
              78.504645,
              17.373121
            ],
            [
              78.503645,
              17.37406
            ],
            [
              78.500645,
              17.373808
            ],
            [
              78.498645,
              17.376898
            ]
          ]
        ],
        "type": "Polygon"
      },
      "type": "Feature"
    },
    {
      "properties": {
        "fill-opacity": 0.33,
        "fillColor": "#bf4040",
        "opacity": 0.33,
        "fill": "#bf4040",
        "fillOpacity": 0.33,
        "color": "#bf4040",
        "contour": 5.0,
        "metric": "distance",
        "provider_name": "Sri Laksnarasimha Tiffins And Snacks",
        "zone_type": "distance",
        "distance_km": 5,
        "mode": "motorcycle",
        "center_lat": 17.34572561722253,
        "center_lon": 78.50864524259424,
        "label": "5km"
      },
      "geometry": {
        "coordinates": [
          [
            [
              78.491645,
              17.382075
            ],
            [
              78.490217,
              17.380725
            ],
            [
              78.491405,
              17.380485
            ],
            [
              78.491205,
              17.379165
            ],
            [
              78.488478,
              17.378892
            ],
            [
              78.486814,
              17.377725
            ],
            [
              78.489976,
              17.373056
            ],
            [
              78.490417,
              17.371725
            ],
            [
              78.489691,
              17.370679
            ],
            [
              78.487645,
              17.372137
            ],
            [
              78.483645,
              17.371902
            ],
            [
              78.481645,
              17.369834
            ],
            [
              78.479397,
              17.369972
            ],
            [
              78.478959,
              17.368725
            ],
            [
              78.480645,
              17.366014
            ],
            [
              78.481645,
              17.366488
            ],
            [
              78.483035,
              17.365725
            ],
            [
              78.48272,
              17.36365
            ],
            [
              78.480645,
              17.365556
            ],
            [
              78.477438,
              17.362932
            ],
            [
              78.474645,
              17.361764
            ],
            [
              78.47452,
              17.35885
            ],
            [
              78.473629,
              17.358741
            ],
            [
              78.473645,
              17.357646
            ],
            [
              78.474275,
              17.356725
            ],
            [
              78.475533,
              17.356614
            ],
            [
              78.476645,
              17.352031
            ],
            [
              78.478645,
              17.35262
            ],
            [
              78.480475,
              17.349555
            ],
            [
              78.484514,
              17.346725
            ],
            [
              78.483588,
              17.345725
            ],
            [
              78.484385,
              17.345465
            ],
            [
              78.484061,
              17.343309
            ],
            [
              78.481398,
              17.342972
            ],
            [
              78.480217,
              17.341725
            ],
            [
              78.481645,
              17.340143
            ],
            [
              78.482645,
              17.341245
            ],
            [
              78.483937,
              17.339725
            ],
            [
              78.482056,
              17.339314
            ],
            [
              78.481645,
              17.338204
            ],
            [
              78.480531,
              17.338725
            ],
            [
              78.479645,
              17.337258
            ],
            [
              78.478645,
              17.337659
            ],
            [
              78.475912,
              17.332725
            ],
            [
              78.476106,
              17.331264
            ],
            [
              78.475,
              17.331081
            ],
            [
              78.474617,
              17.331753
            ],
            [
              78.472645,
              17.329976
            ],
            [
              78.470645,
              17.331052
            ],
            [
              78.469645,
              17.330815
            ],
            [
              78.47056,
              17.32664
            ],
            [
              78.473487,
              17.326725
            ],
            [
              78.469422,
              17.322503
            ],
            [
              78.470645,
              17.32183
            ],
            [
              78.471645,
              17.322165
            ],
            [
              78.472645,
              17.321222
            ],
            [
              78.474645,
              17.321762
            ],
            [
              78.476321,
              17.321401
            ],
            [
              78.476645,
              17.320545
            ],
            [
              78.478645,
              17.320692
            ],
            [
              78.47931,
              17.31906
            ],
            [
              78.477635,
              17.318725
            ],
            [
              78.47846,
              17.31854
            ],
            [
              78.479441,
              17.316521
            ],
            [
              78.480944,
              17.317426
            ],
            [
              78.479937,
              17.318018
            ],
            [
              78.480645,
              17.31948
            ],
            [
              78.484645,
              17.316025
            ],
            [
              78.485966,
              17.316725
            ],
            [
              78.486043,
              17.319327
            ],
            [
              78.489095,
              17.319725
            ],
            [
              78.488157,
              17.320237
            ],
            [
              78.488645,
              17.321244
            ],
            [
              78.489645,
              17.319794
            ],
            [
              78.491248,
              17.319725
            ],
            [
              78.492161,
              17.317242
            ],
            [
              78.497645,
              17.313267
            ],
            [
              78.498244,
              17.315126
            ],
            [
              78.499275,
              17.315725
            ],
            [
              78.498622,
              17.316748
            ],
            [
              78.502645,
              17.317449
            ],
            [
              78.503854,
              17.318516
            ],
            [
              78.504925,
              17.320725
            ],
            [
              78.503188,
              17.321725
            ],
            [
              78.504207,
              17.323163
            ],
            [
              78.507082,
              17.321163
            ],
            [
              78.507433,
              17.319514
            ],
            [
              78.510645,
              17.318401
            ],
            [
              78.510959,
              17.319411
            ],
            [
              78.51286,
              17.319725
            ],
            [
              78.51215,
              17.32222
            ],
            [
              78.513325,
              17.322406
            ],
            [
              78.513529,
              17.321609
            ],
            [
              78.515645,
              17.322119
            ],
            [
              78.515956,
              17.321414
            ],
            [
              78.514105,
              17.319725
            ],
            [
              78.514077,
              17.317725
            ],
            [
              78.515337,
              17.316725
            ],
            [
              78.514371,
              17.315725
            ],
            [
              78.516645,
              17.315351
            ],
            [
              78.519645,
              17.317891
            ],
            [
              78.522367,
              17.319003
            ],
            [
              78.523232,
              17.320725
            ],
            [
              78.523541,
              17.321725
            ],
            [
              78.520253,
              17.323334
            ],
            [
              78.520645,
              17.3253
            ],
            [
              78.523127,
              17.325207
            ],
            [
              78.524004,
              17.323084
            ],
            [
              78.526645,
              17.32067
            ],
            [
              78.529023,
              17.320347
            ],
            [
              78.53087,
              17.322725
            ],
            [
              78.530552,
              17.323725
            ],
            [
              78.531645,
              17.32537
            ],
            [
              78.532645,
              17.324701
            ],
            [
              78.534819,
              17.325725
            ],
            [
              78.536645,
              17.330308
            ],
            [
              78.538645,
              17.329108
            ],
            [
              78.541321,
              17.331049
            ],
            [
              78.543645,
              17.330961
            ],
            [
              78.544955,
              17.331725
            ],
            [
              78.545932,
              17.333438
            ],
            [
              78.545163,
              17.334725
            ],
            [
              78.542645,
              17.33621
            ],
            [
              78.540645,
              17.335329
            ],
            [
              78.540416,
              17.336725
            ],
            [
              78.543645,
              17.338106
            ],
            [
              78.544645,
              17.337709
            ],
            [
              78.547645,
              17.33925
            ],
            [
              78.54927,
              17.341725
            ],
            [
              78.547938,
              17.342725
            ],
            [
              78.54859,
              17.343725
            ],
            [
              78.545645,
              17.343809
            ],
            [
              78.544645,
              17.343004
            ],
            [
              78.542262,
              17.344342
            ],
            [
              78.541382,
              17.345725
            ],
            [
              78.539645,
              17.345339
            ],
            [
              78.537835,
              17.346915
            ],
            [
              78.537143,
              17.349224
            ],
            [
              78.535645,
              17.350702
            ],
            [
              78.533645,
              17.35043
            ],
            [
              78.531645,
              17.353083
            ],
            [
              78.530645,
              17.352483
            ],
            [
              78.530326,
              17.351044
            ],
            [
              78.528645,
              17.351241
            ],
            [
              78.528012,
              17.354092
            ],
            [
              78.526645,
              17.355276
            ],
            [
              78.524234,
              17.355725
            ],
            [
              78.524353,
              17.357017
            ],
            [
              78.525645,
              17.358179
            ],
            [
              78.528645,
              17.356281
            ],
            [
              78.530236,
              17.356725
            ],
            [
              78.530112,
              17.358725
            ],
            [
              78.531748,
              17.361725
            ],
            [
              78.531674,
              17.362725
            ],
            [
              78.530706,
              17.362787
            ],
            [
              78.529658,
              17.364738
            ],
            [
              78.525784,
              17.365865
            ],
            [
              78.525645,
              17.366775
            ],
            [
              78.522918,
              17.366999
            ],
            [
              78.521645,
              17.369055
            ],
            [
              78.516645,
              17.369273
            ],
            [
              78.515645,
              17.370238
            ],
            [
              78.513418,
              17.370499
            ],
            [
              78.511645,
              17.372394
            ],
            [
              78.506801,
              17.373725
            ],
            [
              78.505503,
              17.376725
            ],
            [
              78.504198,
              17.377278
            ],
            [
              78.50399,
              17.379071
            ],
            [
              78.502824,
              17.379905
            ],
            [
              78.49895,
              17.37942
            ],
            [
              78.498013,
              17.377725
            ],
            [
              78.496645,
              17.377307
            ],
            [
              78.493331,
              17.379412
            ],
            [
              78.491645,
              17.382075
            ]
          ]
        ],
        "type": "Polygon"
      },
      "type": "Feature"
    },
    {
      "properties": {
        "fill-opacity": 0.33,
        "fillColor": "#bf4040",
        "opacity": 0.33,
        "fill": "#bf4040",
        "fillOpacity": 0.33,
        "color": "#bf4040",
        "contour": 6.0,
        "metric": "distance",
        "provider_name": "Sri Laksnarasimha Tiffins And Snacks",
        "zone_type": "distance",
        "distance_km": 6,
        "mode": "motorcycle",
        "center_lat": 17.34572561722253,
        "center_lon": 78.50864524259424,
        "label": "6km"
      },
      "geometry": {
        "coordinates": [
          [
            [
              78.496645,
              17.389022
            ],
            [
              78.494645,
              17.389166
            ],
            [
              78.490645,
              17.386901
            ],
            [
              78.487908,
              17.387989
            ],
            [
              78.485645,
              17.387792
            ],
            [
              78.485248,
              17.386122
            ],
            [
              78.483867,
              17.384725
            ],
            [
              78.486587,
              17.381725
            ],
            [
              78.484476,
              17.381557
            ],
            [
              78.482645,
              17.382736
            ],
            [
              78.481151,
              17.381725
            ],
            [
              78.482175,
              17.378255
            ],
            [
              78.485645,
              17.380337
            ],
            [
              78.487044,
              17.380124
            ],
            [
              78.486919,
              17.378451
            ],
            [
              78.482645,
              17.374098
            ],
            [
              78.481645,
              17.375034
            ],
            [
              78.480645,
              17.374834
            ],
            [
              78.481402,
              17.374482
            ],
            [
              78.481332,
              17.373038
            ],
            [
              78.480574,
              17.372796
            ],
            [
              78.480559,
              17.371811
            ],
            [
              78.478081,
              17.371289
            ],
            [
              78.477841,
              17.369529
            ],
            [
              78.476645,
              17.370099
            ],
            [
              78.472645,
              17.368015
            ],
            [
              78.469612,
              17.364758
            ],
            [
              78.469641,
              17.362721
            ],
            [
              78.471447,
              17.362527
            ],
            [
              78.471645,
              17.361666
            ],
            [
              78.471869,
              17.362501
            ],
            [
              78.474286,
              17.362367
            ],
            [
              78.473349,
              17.356725
            ],
            [
              78.475285,
              17.355725
            ],
            [
              78.474325,
              17.353725
            ],
            [
              78.47544,
              17.35152
            ],
            [
              78.476645,
              17.350119
            ],
            [
              78.479645,
              17.350043
            ],
            [
              78.480985,
              17.348065
            ],
            [
              78.483824,
              17.346904
            ],
            [
              78.482835,
              17.345725
            ],
            [
              78.483759,
              17.343725
            ],
            [
              78.482031,
              17.343725
            ],
            [
              78.479362,
              17.346443
            ],
            [
              78.477645,
              17.346964
            ],
            [
              78.475645,
              17.346261
            ],
            [
              78.475351,
              17.343019
            ],
            [
              78.473944,
              17.342725
            ],
            [
              78.474575,
              17.339725
            ],
            [
              78.473645,
              17.337001
            ],
            [
              78.471021,
              17.336725
            ],
            [
              78.47034,
              17.337725
            ],
            [
              78.468645,
              17.337778
            ],
            [
              78.467645,
              17.339428
            ],
            [
              78.465948,
              17.338422
            ],
            [
              78.465952,
              17.336725
            ],
            [
              78.464066,
              17.335725
            ],
            [
              78.463598,
              17.333725
            ],
            [
              78.469026,
              17.333106
            ],
            [
              78.469157,
              17.331725
            ],
            [
              78.468199,
              17.330725
            ],
            [
              78.469138,
              17.329725
            ],
            [
              78.467645,
              17.328867
            ],
            [
              78.464516,
              17.328725
            ],
            [
              78.464452,
              17.327532
            ],
            [
              78.465897,
              17.324977
            ],
            [
              78.464457,
              17.321913
            ],
            [
              78.463645,
              17.321725
            ],
            [
              78.463766,
              17.320604
            ],
            [
              78.462615,
              17.319725
            ],
            [
              78.462809,
              17.318889
            ],
            [
              78.465853,
              17.316934
            ],
            [
              78.465168,
              17.315725
            ],
            [
              78.465645,
              17.314823
            ],
            [
              78.467422,
              17.314948
            ],
            [
              78.469645,
              17.316487
            ],
            [
              78.472235,
              17.315315
            ],
            [
              78.475645,
              17.30813
            ],
            [
              78.478645,
              17.308723
            ],
            [
              78.478857,
              17.309513
            ],
            [
              78.480515,
              17.309595
            ],
            [
              78.480645,
              17.308926
            ],
            [
              78.48147,
              17.309725
            ],
            [
              78.481424,
              17.310945
            ],
            [
              78.483645,
              17.311373
            ],
            [
              78.486645,
              17.313985
            ],
            [
              78.48726,
              17.31234
            ],
            [
              78.488645,
              17.311462
            ],
            [
              78.489193,
              17.313177
            ],
            [
              78.490103,
              17.313184
            ],
            [
              78.491577,
              17.310658
            ],
            [
              78.493391,
              17.309472
            ],
            [
              78.493645,
              17.30824
            ],
            [
              78.495439,
              17.308931
            ],
            [
              78.497645,
              17.308325
            ],
            [
              78.499973,
              17.309397
            ],
            [
              78.501911,
              17.311725
            ],
            [
              78.500081,
              17.312161
            ],
            [
              78.500155,
              17.313215
            ],
            [
              78.502437,
              17.312933
            ],
            [
              78.503492,
              17.313725
            ],
            [
              78.501183,
              17.314263
            ],
            [
              78.500107,
              17.316725
            ],
            [
              78.502645,
              17.317062
            ],
            [
              78.504107,
              17.318263
            ],
            [
              78.50526,
              17.320725
            ],
            [
              78.503331,
              17.321725
            ],
            [
              78.50434,
              17.32303
            ],
            [
              78.506882,
              17.320962
            ],
            [
              78.507211,
              17.319291
            ],
            [
              78.508302,
              17.318383
            ],
            [
              78.510645,
              17.317304
            ],
            [
              78.514899,
              17.31698
            ],
            [
              78.513291,
              17.315079
            ],
            [
              78.511252,
              17.314725
            ],
            [
              78.511645,
              17.314323
            ],
            [
              78.512645,
              17.313577
            ],
            [
              78.514645,
              17.314317
            ],
            [
              78.516645,
              17.31384
            ],
            [
              78.517024,
              17.312104
            ],
            [
              78.519569,
              17.310649
            ],
            [
              78.520551,
              17.312819
            ],
            [
              78.523645,
              17.311152
            ],
            [
              78.524682,
              17.313688
            ],
            [
              78.526212,
              17.313725
            ],
            [
              78.525903,
              17.315467
            ],
            [
              78.527323,
              17.316047
            ],
            [
              78.525951,
              17.317725
            ],
            [
              78.526645,
              17.318291
            ],
            [
              78.528245,
              17.316325
            ],
            [
              78.529645,
              17.317047
            ],
            [
              78.531181,
              17.316261
            ],
            [
              78.531555,
              17.313725
            ],
            [
              78.533645,
              17.3132
            ],
            [
              78.536674,
              17.315725
            ],
            [
              78.53563,
              17.317725
            ],
            [
              78.537514,
              17.318725
            ],
            [
              78.535103,
              17.319725
            ],
            [
              78.535645,
              17.323014
            ],
            [
              78.536657,
              17.322725
            ],
            [
              78.536468,
              17.321548
            ],
            [
              78.537645,
              17.320127
            ],
            [
              78.539598,
              17.320772
            ],
            [
              78.539726,
              17.321644
            ],
            [
              78.548196,
              17.326725
            ],
            [
              78.546903,
              17.328984
            ],
            [
              78.548142,
              17.330725
            ],
            [
              78.547229,
              17.331725
            ],
            [
              78.548819,
              17.332725
            ],
            [
              78.549234,
              17.335136
            ],
            [
              78.550998,
              17.336078
            ],
            [
              78.552645,
              17.332707
            ],
            [
              78.554816,
              17.334725
            ],
            [
              78.555143,
              17.337725
            ],
            [
              78.553028,
              17.340725
            ],
            [
              78.556645,
              17.340827
            ],
            [
              78.558332,
              17.341725
            ],
            [
              78.555497,
              17.344725
            ],
            [
              78.554432,
              17.347725
            ],
            [
              78.554468,
              17.350725
            ],
            [
              78.547095,
              17.350725
            ],
            [
              78.544913,
              17.348725
            ],
            [
              78.545125,
              17.347725
            ],
            [
              78.541645,
              17.347189
            ],
            [
              78.53998,
              17.349061
            ],
            [
              78.53833,
              17.349411
            ],
            [
              78.53685,
              17.352725
            ],
            [
              78.537847,
              17.354523
            ],
            [
              78.538653,
              17.354717
            ],
            [
              78.538476,
              17.355725
            ],
            [
              78.53776,
              17.35584
            ],
            [
              78.534005,
              17.361085
            ],
            [
              78.532645,
              17.361311
            ],
            [
              78.532476,
              17.362725
            ],
            [
              78.525816,
              17.366897
            ],
            [
              78.523186,
              17.367267
            ],
            [
              78.521645,
              17.369447
            ],
            [
              78.516645,
              17.369696
            ],
            [
              78.516419,
              17.370499
            ],
            [
              78.515068,
              17.370725
            ],
            [
              78.511964,
              17.378725
            ],
            [
              78.510213,
              17.378293
            ],
            [
              78.508944,
              17.379025
            ],
            [
              78.50886,
              17.37994
            ],
            [
              78.507211,
              17.380291
            ],
            [
              78.507212,
              17.381158
            ],
            [
              78.508645,
              17.382471
            ],
            [
              78.509284,
              17.382365
            ],
            [
              78.509635,
              17.380716
            ],
            [
              78.510015,
              17.381725
            ],
            [
              78.509645,
              17.383326
            ],
            [
              78.50623,
              17.385725
            ],
            [
              78.502327,
              17.386043
            ],
            [
              78.500645,
              17.383759
            ],
            [
              78.499613,
              17.383757
            ],
            [
              78.498177,
              17.382193
            ],
            [
              78.497175,
              17.382256
            ],
            [
              78.498891,
              17.385479
            ],
            [
              78.500205,
              17.385725
            ],
            [
              78.499645,
              17.386316
            ],
            [
              78.497009,
              17.385089
            ],
            [
              78.495876,
              17.386725
            ],
            [
              78.496645,
              17.389022
            ]
          ]
        ],
        "type": "Polygon"
      },
      "type": "Feature"
    }
  ]
}