{
  "type": "FeatureCollection",
  "metadata": {
    "provider_name": "The Virtual Kitchen",
    "center_lat": 22.58639562,
    "center_lon": 88.39862929,
    "mode": "motorcycle",
    "total_zones": 4,
    "distance_zones": [
      3,
      4,
      5,
      6
    ],
    "generated_at": "2025-12-31T07:06:05.417070Z"
  },
  "features": [
    {
      "properties": {
        "fill-opacity": 0.33,
        "fillColor": "#bf4040",
        "opacity": 0.33,
        "fill": "#bf4040",
        "fillOpacity": 0.33,
        "color": "#bf4040",
        "contour": 3.0,
        "metric": "distance",
        "provider_name": "The Virtual Kitchen",
        "zone_type": "distance",
        "distance_km": 3,
        "mode": "motorcycle",
        "center_lat": 22.58639562,
        "center_lon": 88.39862929,
        "label": "3km"
      },
      "geometry": {
        "coordinates": [
          [
            [
              88.398629,
              22.606063
            ],
            [
              88.396168,
              22.605856
            ],
            [
              88.394629,
              22.604102
            ],
            [
              88.393629,
              22.604846
            ],
            [
              88.392378,
              22.598395
            ],
            [
              88.391629,
              22.597908
            ],
            [
              88.389267,
              22.598034
            ],
            [
              88.387762,
              22.599529
            ],
            [
              88.383752,
              22.600519
            ],
            [
              88.38365,
              22.601417
            ],
            [
              88.382629,
              22.601732
            ],
            [
              88.381789,
              22.601395
            ],
            [
              88.382452,
              22.601219
            ],
            [
              88.382233,
              22.599791
            ],
            [
              88.380629,
              22.599886
            ],
            [
              88.379629,
              22.598867
            ],
            [
              88.378629,
              22.599692
            ],
            [
              88.37693,
              22.595395
            ],
            [
              88.374661,
              22.594395
            ],
            [
              88.375629,
              22.593467
            ],
            [
              88.376835,
              22.593601
            ],
            [
              88.37666,
              22.592395
            ],
            [
              88.37751,
              22.591277
            ],
            [
              88.379629,
              22.592315
            ],
            [
              88.379386,
              22.589395
            ],
            [
              88.38045,
              22.589216
            ],
            [
              88.3807,
              22.588395
            ],
            [
              88.37993,
              22.587395
            ],
            [
              88.382068,
              22.586395
            ],
            [
              88.38046,
              22.585564
            ],
            [
              88.379629,
              22.583934
            ],
            [
              88.378629,
              22.584997
            ],
            [
              88.376745,
              22.584395
            ],
            [
              88.379916,
              22.579682
            ],
            [
              88.380073,
              22.577395
            ],
            [
              88.384567,
              22.574395
            ],
            [
              88.383684,
              22.573395
            ],
            [
              88.385427,
              22.570395
            ],
            [
              88.385804,
              22.57122
            ],
            [
              88.387181,
              22.570947
            ],
            [
              88.38661,
              22.568395
            ],
            [
              88.387153,
              22.567919
            ],
            [
              88.389629,
              22.566957
            ],
            [
              88.392629,
              22.56736
            ],
            [
              88.393154,
              22.56887
            ],
            [
              88.394805,
              22.569219
            ],
            [
              88.395629,
              22.570815
            ],
            [
              88.396727,
              22.568493
            ],
            [
              88.396042,
              22.567395
            ],
            [
              88.396629,
              22.5658
            ],
            [
              88.400238,
              22.566004
            ],
            [
              88.400009,
              22.564395
            ],
            [
              88.402254,
              22.56302
            ],
            [
              88.402536,
              22.561303
            ],
            [
              88.403629,
              22.563156
            ],
            [
              88.405629,
              22.563001
            ],
            [
              88.407499,
              22.561265
            ],
            [
              88.408941,
              22.561083
            ],
            [
              88.409522,
              22.562395
            ],
            [
              88.408146,
              22.562912
            ],
            [
              88.407281,
              22.566743
            ],
            [
              88.410629,
              22.566915
            ],
            [
              88.413173,
              22.569851
            ],
            [
              88.415567,
              22.570395
            ],
            [
              88.413733,
              22.573395
            ],
            [
              88.416272,
              22.575752
            ],
            [
              88.417026,
              22.575792
            ],
            [
              88.417629,
              22.574201
            ],
            [
              88.420729,
              22.575295
            ],
            [
              88.419145,
              22.577395
            ],
            [
              88.420175,
              22.578395
            ],
            [
              88.419111,
              22.580395
            ],
            [
              88.420791,
              22.581233
            ],
            [
              88.419885,
              22.581651
            ],
            [
              88.419923,
              22.583395
            ],
            [
              88.420823,
              22.585201
            ],
            [
              88.421731,
              22.585395
            ],
            [
              88.420629,
              22.585536
            ],
            [
              88.419183,
              22.583841
            ],
            [
              88.417629,
              22.583721
            ],
            [
              88.416878,
              22.584644
            ],
            [
              88.413269,
              22.586035
            ],
            [
              88.413079,
              22.588395
            ],
            [
              88.414629,
              22.589958
            ],
            [
              88.416629,
              22.590033
            ],
            [
              88.417928,
              22.588395
            ],
            [
              88.420459,
              22.588225
            ],
            [
              88.420654,
              22.58737
            ],
            [
              88.421638,
              22.590395
            ],
            [
              88.420522,
              22.591289
            ],
            [
              88.420745,
              22.594395
            ],
            [
              88.414629,
              22.600946
            ],
            [
              88.412387,
              22.601395
            ],
            [
              88.411691,
              22.603395
            ],
            [
              88.410629,
              22.602828
            ],
            [
              88.409629,
              22.603376
            ],
            [
              88.408629,
              22.602537
            ],
            [
              88.407629,
              22.603599
            ],
            [
              88.403629,
              22.604868
            ],
            [
              88.401894,
              22.602395
            ],
            [
              88.398629,
              22.60198
            ],
            [
              88.398629,
              22.606063
            ]
          ]
        ],
        "type": "Polygon"
      },
      "type": "Feature"
    },
    {
      "properties": {
        "fill-opacity": 0.33,
        "fillColor": "#bf4040",
        "opacity": 0.33,
        "fill": "#bf4040",
        "fillOpacity": 0.33,
        "color": "#bf4040",
        "contour": 4.0,
        "metric": "distance",
        "provider_name": "The Virtual Kitchen",
        "zone_type": "distance",
        "distance_km": 4,
        "mode": "motorcycle",
        "center_lat": 22.58639562,
        "center_lon": 88.39862929,
        "label": "4km"
      },
      "geometry": {
        "coordinates": [
          [
            [
              88.403629,
              22.612456
            ],
            [
              88.399879,
              22.611145
            ],
            [
              88.397685,
              22.608339
            ],
            [
              88.394629,
              22.608046
            ],
            [
              88.393345,
              22.608679
            ],
            [
              88.393064,
              22.602395
            ],
            [
              88.392156,
              22.601395
            ],
            [
              88.391866,
              22.598158
            ],
            [
              88.389629,
              22.598056
            ],
            [
              88.387953,
              22.599719
            ],
            [
              88.384207,
              22.600974
            ],
            [
              88.381629,
              22.603869
            ],
            [
              88.376629,
              22.603864
            ],
            [
              88.374629,
              22.602907
            ],
            [
              88.373629,
              22.603511
            ],
            [
              88.372629,
              22.603077
            ],
            [
              88.37183,
              22.600194
            ],
            [
              88.370629,
              22.600404
            ],
            [
              88.369031,
              22.599395
            ],
            [
              88.368824,
              22.5982
            ],
            [
              88.366217,
              22.597395
            ],
            [
              88.365136,
              22.595395
            ],
            [
              88.369935,
              22.587395
            ],
            [
              88.36733,
              22.585694
            ],
            [
              88.367641,
              22.584395
            ],
            [
              88.370629,
              22.580836
            ],
            [
              88.371629,
              22.581033
            ],
            [
              88.373231,
              22.579997
            ],
            [
              88.373629,
              22.578155
            ],
            [
              88.374629,
              22.578655
            ],
            [
              88.374835,
              22.575395
            ],
            [
              88.377629,
              22.572055
            ],
            [
              88.381992,
              22.573758
            ],
            [
              88.382018,
              22.572006
            ],
            [
              88.37917,
              22.569395
            ],
            [
              88.379294,
              22.568395
            ],
            [
              88.380876,
              22.567642
            ],
            [
              88.38477,
              22.561395
            ],
            [
              88.387912,
              22.561112
            ],
            [
              88.390629,
              22.561757
            ],
            [
              88.391629,
              22.560451
            ],
            [
              88.391947,
              22.562077
            ],
            [
              88.39343,
              22.562196
            ],
            [
              88.395642,
              22.560382
            ],
            [
              88.397666,
              22.562433
            ],
            [
              88.399598,
              22.559365
            ],
            [
              88.404629,
              22.558644
            ],
            [
              88.405629,
              22.557705
            ],
            [
              88.406629,
              22.558135
            ],
            [
              88.408615,
              22.556382
            ],
            [
              88.408892,
              22.557132
            ],
            [
              88.410299,
              22.557066
            ],
            [
              88.410548,
              22.556314
            ],
            [
              88.411464,
              22.556231
            ],
            [
              88.41138,
              22.554644
            ],
            [
              88.410576,
              22.554448
            ],
            [
              88.410629,
              22.553504
            ],
            [
              88.410767,
              22.554257
            ],
            [
              88.413465,
              22.554232
            ],
            [
              88.413629,
              22.553715
            ],
            [
              88.415268,
              22.554395
            ],
            [
              88.417005,
              22.558395
            ],
            [
              88.415387,
              22.560153
            ],
            [
              88.414841,
              22.562395
            ],
            [
              88.417263,
              22.566761
            ],
            [
              88.418916,
              22.568108
            ],
            [
              88.423149,
              22.576875
            ],
            [
              88.427653,
              22.579395
            ],
            [
              88.426447,
              22.580577
            ],
            [
              88.427116,
              22.584395
            ],
            [
              88.425434,
              22.586395
            ],
            [
              88.427195,
              22.586829
            ],
            [
              88.427805,
              22.588219
            ],
            [
              88.427214,
              22.59081
            ],
            [
              88.428812,
              22.591395
            ],
            [
              88.428682,
              22.595395
            ],
            [
              88.425547,
              22.596313
            ],
            [
              88.424758,
              22.597395
            ],
            [
              88.424629,
              22.60043
            ],
            [
              88.422262,
              22.601028
            ],
            [
              88.421177,
              22.603395
            ],
            [
              88.418119,
              22.603886
            ],
            [
              88.417629,
              22.605627
            ],
            [
              88.415629,
              22.605168
            ],
            [
              88.414851,
              22.607617
            ],
            [
              88.409688,
              22.611454
            ],
            [
              88.40882,
              22.611204
            ],
            [
              88.408951,
              22.610395
            ],
            [
              88.407138,
              22.607886
            ],
            [
              88.404629,
              22.608556
            ],
            [
              88.404156,
              22.609868
            ],
            [
              88.405814,
              22.610395
            ],
            [
              88.403629,
              22.612456
            ]
          ]
        ],
        "type": "Polygon"
      },
      "type": "Feature"
    },
    {
      "properties": {
        "fill-opacity": 0.33,
        "fillColor": "#bf4040",
        "opacity": 0.33,
        "fill": "#bf4040",
        "fillOpacity": 0.33,
        "color": "#bf4040",
        "contour": 5.0,
        "metric": "distance",
        "provider_name": "The Virtual Kitchen",
        "zone_type": "distance",
        "distance_km": 5,
        "mode": "motorcycle",
        "center_lat": 22.58639562,
        "center_lon": 88.39862929,
        "label": "5km"
      },
      "geometry": {
        "coordinates": [
          [
            [
              88.412629,
              22.619158
            ],
            [
              88.408629,
              22.61681
            ],
            [
              88.407629,
              22.617657
            ],
            [
              88.404629,
              22.617932
            ],
            [
              88.402629,
              22.617191
            ],
            [
              88.399629,
              22.618847
            ],
            [
              88.399122,
              22.618395
            ],
            [
              88.399829,
              22.617195
            ],
            [
              88.397629,
              22.617541
            ],
            [
              88.395629,
              22.616154
            ],
            [
              88.394061,
              22.613395
            ],
            [
              88.394559,
              22.613326
            ],
            [
              88.393975,
              22.610049
            ],
            [
              88.392629,
              22.609169
            ],
            [
              88.389826,
              22.609198
            ],
            [
              88.389341,
              22.607683
            ],
            [
              88.38931,
              22.606395
            ],
            [
              88.391629,
              22.605246
            ],
            [
              88.392629,
              22.605535
            ],
            [
              88.392932,
              22.602395
            ],
            [
              88.391784,
              22.601395
            ],
            [
              88.391804,
              22.59822
            ],
            [
              88.389629,
              22.598142
            ],
            [
              88.388108,
              22.599875
            ],
            [
              88.384411,
              22.601177
            ],
            [
              88.382307,
              22.603395
            ],
            [
              88.382996,
              22.605028
            ],
            [
              88.384385,
              22.605395
            ],
            [
              88.383984,
              22.60575
            ],
            [
              88.380629,
              22.604771
            ],
            [
              88.377131,
              22.606898
            ],
            [
              88.376019,
              22.608395
            ],
            [
              88.376853,
              22.609395
            ],
            [
              88.376887,
              22.611654
            ],
            [
              88.375629,
              22.610816
            ],
            [
              88.374629,
              22.611875
            ],
            [
              88.375088,
              22.607936
            ],
            [
              88.374116,
              22.607883
            ],
            [
              88.373629,
              22.608672
            ],
            [
              88.371755,
              22.608522
            ],
            [
              88.370727,
              22.609493
            ],
            [
              88.367661,
              22.608363
            ],
            [
              88.367459,
              22.606565
            ],
            [
              88.366626,
              22.606392
            ],
            [
              88.367662,
              22.605395
            ],
            [
              88.367762,
              22.604262
            ],
            [
              88.367473,
              22.60524
            ],
            [
              88.365629,
              22.605048
            ],
            [
              88.365186,
              22.604395
            ],
            [
              88.365925,
              22.603099
            ],
            [
              88.362996,
              22.600395
            ],
            [
              88.359095,
              22.600395
            ],
            [
              88.35843,
              22.599594
            ],
            [
              88.356676,
              22.599348
            ],
            [
              88.356004,
              22.598395
            ],
            [
              88.356865,
              22.596395
            ],
            [
              88.355941,
              22.595395
            ],
            [
              88.357629,
              22.592727
            ],
            [
              88.359138,
              22.592904
            ],
            [
              88.360536,
              22.591303
            ],
            [
              88.361306,
              22.589395
            ],
            [
              88.359597,
              22.587395
            ],
            [
              88.360609,
              22.585395
            ],
            [
              88.359433,
              22.584395
            ],
            [
              88.359692,
              22.583395
            ],
            [
              88.361629,
              22.581289
            ],
            [
              88.362629,
              22.581969
            ],
            [
              88.363948,
              22.580395
            ],
            [
              88.366629,
              22.572522
            ],
            [
              88.370629,
              22.573197
            ],
            [
              88.370629,
              22.569669
            ],
            [
              88.371629,
              22.57013
            ],
            [
              88.373629,
              22.569625
            ],
            [
              88.374412,
              22.570612
            ],
            [
              88.375854,
              22.57062
            ],
            [
              88.374914,
              22.56911
            ],
            [
              88.373629,
              22.568951
            ],
            [
              88.373489,
              22.567535
            ],
            [
              88.37226,
              22.567395
            ],
            [
              88.373522,
              22.567289
            ],
            [
              88.374629,
              22.56817
            ],
            [
              88.375499,
              22.567395
            ],
            [
              88.374374,
              22.56365
            ],
            [
              88.373376,
              22.563395
            ],
            [
              88.37597,
              22.562737
            ],
            [
              88.378629,
              22.560864
            ],
            [
              88.38073,
              22.561496
            ],
            [
              88.381432,
              22.559395
            ],
            [
              88.382629,
              22.558483
            ],
            [
              88.386629,
              22.558585
            ],
            [
              88.386182,
              22.557395
            ],
            [
              88.39029,
              22.556056
            ],
            [
              88.390629,
              22.55529
            ],
            [
              88.391196,
              22.556828
            ],
            [
              88.392908,
              22.557116
            ],
            [
              88.394452,
              22.559572
            ],
            [
              88.397629,
              22.55902
            ],
            [
              88.398629,
              22.557182
            ],
            [
              88.401629,
              22.557226
            ],
            [
              88.402629,
              22.558826
            ],
            [
              88.405208,
              22.556395
            ],
            [
              88.401988,
              22.553395
            ],
            [
              88.401988,
              22.549395
            ],
            [
              88.404629,
              22.551134
            ],
            [
              88.408265,
              22.551032
            ],
            [
              88.408629,
              22.550245
            ],
            [
              88.411629,
              22.549599
            ],
            [
              88.414629,
              22.552915
            ],
            [
              88.420629,
              22.547665
            ],
            [
              88.421629,
              22.548213
            ],
            [
              88.421677,
              22.549395
            ],
            [
              88.419177,
              22.551943
            ],
            [
              88.418967,
              22.553395
            ],
            [
              88.419629,
              22.554152
            ],
            [
              88.422581,
              22.554395
            ],
            [
              88.419156,
              22.554922
            ],
            [
              88.419058,
              22.556395
            ],
            [
              88.418069,
              22.557395
            ],
            [
              88.419082,
              22.558395
            ],
            [
              88.418075,
              22.560395
            ],
            [
              88.418629,
              22.561028
            ],
            [
              88.423713,
              22.561395
            ],
            [
              88.421534,
              22.5623
            ],
            [
              88.422629,
              22.563452
            ],
            [
              88.418178,
              22.562944
            ],
            [
              88.418316,
              22.566708
            ],
            [
              88.419629,
              22.568946
            ],
            [
              88.420907,
              22.569117
            ],
            [
              88.421142,
              22.571395
            ],
            [
              88.423255,
              22.574395
            ],
            [
              88.423472,
              22.576552
            ],
            [
              88.425343,
              22.577681
            ],
            [
              88.427369,
              22.576395
            ],
            [
              88.426592,
              22.574395
            ],
            [
              88.42737,
              22.574136
            ],
            [
              88.427629,
              22.572659
            ],
            [
              88.429629,
              22.573542
            ],
            [
              88.430629,
              22.573272
            ],
            [
              88.431159,
              22.574865
            ],
            [
              88.433629,
              22.57507
            ],
            [
              88.433708,
              22.575474
            ],
            [
              88.431931,
              22.577697
            ],
            [
              88.430525,
              22.578291
            ],
            [
              88.430512,
              22.579395
            ],
            [
              88.433379,
              22.579395
            ],
            [
              88.432629,
              22.581573
            ],
            [
              88.435721,
              22.581395
            ],
            [
              88.435224,
              22.582395
            ],
            [
              88.435923,
              22.584395
            ],
            [
              88.434375,
              22.585395
            ],
            [
              88.43647,
              22.590395
            ],
            [
              88.433475,
              22.594241
            ],
            [
              88.427242,
              22.597009
            ],
            [
              88.425042,
              22.601808
            ],
            [
              88.423287,
              22.602395
            ],
            [
              88.425044,
              22.60298
            ],
            [
              88.426629,
              22.605516
            ],
            [
              88.428367,
              22.606395
            ],
            [
              88.427458,
              22.609225
            ],
            [
              88.424629,
              22.608568
            ],
            [
              88.421629,
              22.608947
            ],
            [
              88.421629,
              22.612819
            ],
            [
              88.415629,
              22.613367
            ],
            [
              88.415629,
              22.614893
            ],
            [
              88.413353,
              22.614119
            ],
            [
              88.412608,
              22.615395
            ],
            [
              88.413705,
              22.616471
            ],
            [
              88.412629,
              22.619158
            ]
          ]
        ],
        "type": "Polygon"
      },
      "type": "Feature"
    },
    {
      "properties": {
        "fill-opacity": 0.33,
        "fillColor": "#bf4040",
        "opacity": 0.33,
        "fill": "#bf4040",
        "fillOpacity": 0.33,
        "color": "#bf4040",
        "contour": 6.0,
        "metric": "distance",
        "provider_name": "The Virtual Kitchen",
        "zone_type": "distance",
        "distance_km": 6,
        "mode": "motorcycle",
        "center_lat": 22.58639562,
        "center_lon": 88.39862929,
        "label": "6km"
      },
      "geometry": {
        "coordinates": [
          [
            [
              88.415629,
              22.627749
            ],
            [
              88.412629,
              22.626418
            ],
            [
              88.41204,
              22.624984
            ],
            [
              88.408673,
              22.622351
            ],
            [
              88.40843,
              22.623594
            ],
            [
              88.409586,
              22.624395
            ],
            [
              88.409469,
              22.625395
            ],
            [
              88.408664,
              22.626395
            ],
            [
              88.40748,
              22.626395
            ],
            [
              88.405442,
              22.624395
            ],
            [
              88.406943,
              22.622395
            ],
            [
              88.405629,
              22.621003
            ],
            [
              88.404629,
              22.620897
            ],
            [
              88.403265,
              22.622031
            ],
            [
              88.402629,
              22.625126
            ],
            [
              88.401312,
              22.624712
            ],
            [
              88.398629,
              22.622697
            ],
            [
              88.398404,
              22.62162
            ],
            [
              88.396915,
              22.621109
            ],
            [
              88.396726,
              22.619298
            ],
            [
              88.393629,
              22.619895
            ],
            [
              88.392629,
              22.615415
            ],
            [
              88.390851,
              22.615618
            ],
            [
              88.390629,
              22.617205
            ],
            [
              88.389906,
              22.616118
            ],
            [
              88.388629,
              22.616336
            ],
            [
              88.386629,
              22.615004
            ],
            [
              88.383881,
              22.614647
            ],
            [
              88.380681,
              22.619395
            ],
            [
              88.379326,
              22.619092
            ],
            [
              88.378629,
              22.620464
            ],
            [
              88.377502,
              22.618395
            ],
            [
              88.378629,
              22.618076
            ],
            [
              88.378885,
              22.617139
            ],
            [
              88.376629,
              22.616896
            ],
            [
              88.376231,
              22.615793
            ],
            [
              88.374629,
              22.614807
            ],
            [
              88.373935,
              22.615395
            ],
            [
              88.374221,
              22.618395
            ],
            [
              88.373629,
              22.619321
            ],
            [
              88.372629,
              22.619164
            ],
            [
              88.37027,
              22.616754
            ],
            [
              88.368629,
              22.616371
            ],
            [
              88.368361,
              22.610395
            ],
            [
              88.36695,
              22.607074
            ],
            [
              88.364374,
              22.60565
            ],
            [
              88.361044,
              22.60198
            ],
            [
              88.356297,
              22.599727
            ],
            [
              88.352412,
              22.595612
            ],
            [
              88.351441,
              22.593395
            ],
            [
              88.351629,
              22.591219
            ],
            [
              88.352792,
              22.589395
            ],
            [
              88.352065,
              22.585395
            ],
            [
              88.355305,
              22.582072
            ],
            [
              88.356905,
              22.581671
            ],
            [
              88.356629,
              22.580955
            ],
            [
              88.354615,
              22.580395
            ],
            [
              88.355883,
              22.578649
            ],
            [
              88.356227,
              22.576395
            ],
            [
              88.357629,
              22.575171
            ],
            [
              88.35871,
              22.575477
            ],
            [
              88.358629,
              22.572862
            ],
            [
              88.363629,
              22.575295
            ],
            [
              88.363738,
              22.574286
            ],
            [
              88.362657,
              22.574367
            ],
            [
              88.362913,
              22.573395
            ],
            [
              88.360512,
              22.569395
            ],
            [
              88.363041,
              22.564807
            ],
            [
              88.364312,
              22.564395
            ],
            [
              88.365629,
              22.56535
            ],
            [
              88.366329,
              22.562395
            ],
            [
              88.367551,
              22.561317
            ],
            [
              88.371629,
              22.563588
            ],
            [
              88.37203,
              22.562796
            ],
            [
              88.373966,
              22.562732
            ],
            [
              88.375139,
              22.560395
            ],
            [
              88.372225,
              22.559395
            ],
            [
              88.373328,
              22.557395
            ],
            [
              88.3725,
              22.556395
            ],
            [
              88.372629,
              22.554423
            ],
            [
              88.37285,
              22.556174
            ],
            [
              88.373629,
              22.556224
            ],
            [
              88.376629,
              22.554127
            ],
            [
              88.377686,
              22.554452
            ],
            [
              88.379629,
              22.553158
            ],
            [
              88.381629,
              22.553853
            ],
            [
              88.381963,
              22.553061
            ],
            [
              88.381101,
              22.551395
            ],
            [
              88.381629,
              22.550469
            ],
            [
              88.382629,
              22.550861
            ],
            [
              88.383091,
              22.552933
            ],
            [
              88.384819,
              22.552395
            ],
            [
              88.385629,
              22.55695
            ],
            [
              88.387629,
              22.556688
            ],
            [
              88.390629,
              22.55458
            ],
            [
              88.391457,
              22.554567
            ],
            [
              88.391629,
              22.555914
            ],
            [
              88.393128,
              22.555395
            ],
            [
              88.392629,
              22.554
            ],
            [
              88.396081,
              22.553847
            ],
            [
              88.396149,
              22.552875
            ],
            [
              88.394629,
              22.552994
            ],
            [
              88.394298,
              22.552395
            ],
            [
              88.395576,
              22.548395
            ],
            [
              88.394454,
              22.546395
            ],
            [
              88.396065,
              22.545831
            ],
            [
              88.396629,
              22.54375
            ],
            [
              88.396907,
              22.545117
            ],
            [
              88.398128,
              22.544894
            ],
            [
              88.398281,
              22.543743
            ],
            [
              88.39704,
              22.543395
            ],
            [
              88.397219,
              22.542395
            ],
            [
              88.398495,
              22.542261
            ],
            [
              88.398629,
              22.541286
            ],
            [
              88.399102,
              22.543922
            ],
            [
              88.402491,
              22.543257
            ],
            [
              88.402629,
              22.542439
            ],
            [
              88.403313,
              22.543395
            ],
            [
              88.401865,
              22.543631
            ],
            [
              88.399995,
              22.546395
            ],
            [
              88.400629,
              22.546996
            ],
            [
              88.402061,
              22.546828
            ],
            [
              88.403629,
              22.545182
            ],
            [
              88.40653,
              22.545296
            ],
            [
              88.406864,
              22.544395
            ],
            [
              88.406659,
              22.545426
            ],
            [
              88.404086,
              22.545852
            ],
            [
              88.40223,
              22.547997
            ],
            [
              88.404336,
              22.550688
            ],
            [
              88.407629,
              22.550827
            ],
            [
              88.410629,
              22.548929
            ],
            [
              88.413629,
              22.548999
            ],
            [
              88.414629,
              22.548054
            ],
            [
              88.414864,
              22.549631
            ],
            [
              88.412227,
              22.550395
            ],
            [
              88.413998,
              22.551026
            ],
            [
              88.414629,
              22.552737
            ],
            [
              88.420137,
              22.547395
            ],
            [
              88.41751,
              22.546514
            ],
            [
              88.417569,
              22.545455
            ],
            [
              88.416533,
              22.545395
            ],
            [
              88.417583,
              22.545349
            ],
            [
              88.41767,
              22.544437
            ],
            [
              88.419915,
              22.544681
            ],
            [
              88.420909,
              22.543395
            ],
            [
              88.419629,
              22.543317
            ],
            [
              88.420364,
              22.541395
            ],
            [
              88.422257,
              22.542024
            ],
            [
              88.422526,
              22.541293
            ],
            [
              88.423537,
              22.541303
            ],
            [
              88.423629,
              22.540286
            ],
            [
              88.423656,
              22.541423
            ],
            [
              88.421932,
              22.543395
            ],
            [
              88.422629,
              22.545967
            ],
            [
              88.424064,
              22.544831
            ],
            [
              88.424476,
              22.543242
            ],
            [
              88.426271,
              22.543037
            ],
            [
              88.42789,
              22.541395
            ],
            [
              88.427665,
              22.542432
            ],
            [
              88.426797,
              22.543395
            ],
            [
              88.427739,
              22.544395
            ],
            [
              88.426944,
              22.54471
            ],
            [
              88.426766,
              22.546258
            ],
            [
              88.427788,
              22.546554
            ],
            [
              88.426588,
              22.546436
            ],
            [
              88.426196,
              22.544828
            ],
            [
              88.425176,
              22.544943
            ],
            [
              88.424857,
              22.546624
            ],
            [
              88.423254,
              22.54702
            ],
            [
              88.42197,
              22.549737
            ],
            [
              88.418258,
              22.553395
            ],
            [
              88.424629,
              22.553967
            ],
            [
              88.425629,
              22.553027
            ],
            [
              88.431278,
              22.552395
            ],
            [
              88.430629,
              22.553428
            ],
            [
              88.426629,
              22.553741
            ],
            [
              88.425629,
              22.554785
            ],
            [
              88.419352,
              22.555118
            ],
            [
              88.41827,
              22.557395
            ],
            [
              88.419275,
              22.558395
            ],
            [
              88.418273,
              22.560395
            ],
            [
              88.426629,
              22.560982
            ],
            [
              88.432478,
              22.558395
            ],
            [
              88.431701,
              22.559467
            ],
            [
              88.427629,
              22.561767
            ],
            [
              88.422311,
              22.562078
            ],
            [
              88.423143,
              22.563395
            ],
            [
              88.422629,
              22.56391
            ],
            [
              88.418358,
              22.563125
            ],
            [
              88.418222,
              22.566395
            ],
            [
              88.41943,
              22.568594
            ],
            [
              88.42105,
              22.568974
            ],
            [
              88.420339,
              22.570395
            ],
            [
              88.421629,
              22.57181
            ],
            [
              88.422629,
              22.57014
            ],
            [
              88.423147,
              22.570878
            ],
            [
              88.424629,
              22.571018
            ],
            [
              88.429629,
              22.568222
            ],
            [
              88.432681,
              22.568395
            ],
            [
              88.432161,
              22.570395
            ],
            [
              88.433629,
              22.570698
            ],
            [
              88.434889,
              22.568656
            ],
            [
              88.436629,
              22.5688
            ],
            [
              88.438629,
              22.572082
            ],
            [
              88.439417,
              22.571395
            ],
            [
              88.439629,
              22.569139
            ],
            [
              88.440503,
              22.569395
            ],
            [
              88.439727,
              22.569493
            ],
            [
              88.439988,
              22.571037
            ],
            [
              88.441629,
              22.5718
            ],
            [
              88.440031,
              22.571798
            ],
            [
              88.438921,
              22.573395
            ],
            [
              88.439809,
              22.574395
            ],
            [
              88.43973,
              22.576294
            ],
            [
              88.440529,
              22.577495
            ],
            [
              88.441752,
              22.577395
            ],
            [
              88.443676,
              22.579395
            ],
            [
              88.443784,
              22.58124
            ],
            [
              88.444833,
              22.581395
            ],
            [
              88.442629,
              22.581497
            ],
            [
              88.44085,
              22.582616
            ],
            [
              88.440957,
              22.584067
            ],
            [
              88.442639,
              22.584385
            ],
            [
              88.443263,
              22.586395
            ],
            [
              88.439629,
              22.59062
            ],
            [
              88.439629,
              22.591583
            ],
            [
              88.441744,
              22.59228
            ],
            [
              88.441562,
              22.595395
            ],
            [
              88.43989,
              22.595657
            ],
            [
              88.439629,
              22.596495
            ],
            [
              88.433629,
              22.596961
            ],
            [
              88.432629,
              22.597893
            ],
            [
              88.429629,
              22.598165
            ],
            [
              88.428816,
              22.597208
            ],
            [
              88.427777,
              22.597247
            ],
            [
              88.427512,
              22.598279
            ],
            [
              88.426585,
              22.598395
            ],
            [
              88.426629,
              22.599025
            ],
            [
              88.42788,
              22.599144
            ],
            [
              88.430629,
              22.60111
            ],
            [
              88.432629,
              22.601168
            ],
            [
              88.433971,
              22.604395
            ],
            [
              88.43355,
              22.605474
            ],
            [
              88.435545,
              22.606395
            ],
            [
              88.434629,
              22.609153
            ],
            [
              88.429737,
              22.611395
            ],
            [
              88.432942,
              22.615708
            ],
            [
              88.431629,
              22.617328
            ],
            [
              88.427629,
              22.616246
            ],
            [
              88.426629,
              22.615305
            ],
            [
              88.425629,
              22.616004
            ],
            [
              88.420621,
              22.614388
            ],
            [
              88.419445,
              22.615395
            ],
            [
              88.418908,
              22.617395
            ],
            [
              88.421304,
              22.618395
            ],
            [
              88.420629,
              22.619078
            ],
            [
              88.42049,
              22.618534
            ],
            [
              88.419024,
              22.61879
            ],
            [
              88.41902,
              22.620004
            ],
            [
              88.420439,
              22.620395
            ],
            [
              88.418509,
              22.622395
            ],
            [
              88.419102,
              22.623395
            ],
            [
              88.417822,
              22.626395
            ],
            [
              88.416723,
              22.62649
            ],
            [
              88.415629,
              22.627749
            ]
          ]
        ],
        "type": "Polygon"
      },
      "type": "Feature"
    }
  ]
}