{
  "type": "FeatureCollection",
  "metadata": {
    "provider_name": "Foodies Destination",
    "center_lat": 18.60922936,
    "center_lon": 73.77642502,
    "mode": "motorcycle",
    "total_zones": 4,
    "distance_zones": [
      3,
      4,
      5,
      6
    ],
    "generated_at": "2025-12-28T08:27:22.111910Z"
  },
  "features": [
    {
      "properties": {
        "fill-opacity": 0.33,
        "fillColor": "#bf4040",
        "opacity": 0.33,
        "fill": "#bf4040",
        "fillOpacity": 0.33,
        "color": "#bf4040",
        "contour": 3.0,
        "metric": "distance",
        "provider_name": "Foodies Destination",
        "zone_type": "distance",
        "distance_km": 3,
        "mode": "motorcycle",
        "center_lat": 18.60922936,
        "center_lon": 73.77642502,
        "label": "3km"
      },
      "geometry": {
        "coordinates": [
          [
            [
              73.774425,
              18.631493
            ],
            [
              73.774037,
              18.630229
            ],
            [
              73.775135,
              18.62994
            ],
            [
              73.774893,
              18.627761
            ],
            [
              73.772884,
              18.625769
            ],
            [
              73.770425,
              18.625371
            ],
            [
              73.77014,
              18.624514
            ],
            [
              73.769062,
              18.624229
            ],
            [
              73.768839,
              18.621229
            ],
            [
              73.769425,
              18.620333
            ],
            [
              73.769678,
              18.621975
            ],
            [
              73.770425,
              18.622035
            ],
            [
              73.77091,
              18.620743
            ],
            [
              73.765425,
              18.616667
            ],
            [
              73.762425,
              18.618438
            ],
            [
              73.762345,
              18.618229
            ],
            [
              73.762747,
              18.617229
            ],
            [
              73.763163,
              18.616967
            ],
            [
              73.763268,
              18.616229
            ],
            [
              73.762866,
              18.613787
            ],
            [
              73.759826,
              18.611229
            ],
            [
              73.758576,
              18.609078
            ],
            [
              73.755241,
              18.607045
            ],
            [
              73.756156,
              18.60496
            ],
            [
              73.759399,
              18.602203
            ],
            [
              73.761294,
              18.599229
            ],
            [
              73.762725,
              18.59853
            ],
            [
              73.763197,
              18.597229
            ],
            [
              73.76222,
              18.596433
            ],
            [
              73.761828,
              18.594632
            ],
            [
              73.762425,
              18.592106
            ],
            [
              73.766379,
              18.591183
            ],
            [
              73.767527,
              18.589229
            ],
            [
              73.771324,
              18.590229
            ],
            [
              73.769739,
              18.590543
            ],
            [
              73.770425,
              18.591965
            ],
            [
              73.77206,
              18.589864
            ],
            [
              73.774425,
              18.588865
            ],
            [
              73.776425,
              18.588892
            ],
            [
              73.778236,
              18.590229
            ],
            [
              73.776889,
              18.590694
            ],
            [
              73.775887,
              18.593229
            ],
            [
              73.777425,
              18.59376
            ],
            [
              73.778934,
              18.591229
            ],
            [
              73.778781,
              18.590229
            ],
            [
              73.780425,
              18.590072
            ],
            [
              73.781425,
              18.590934
            ],
            [
              73.782425,
              18.589931
            ],
            [
              73.786425,
              18.589885
            ],
            [
              73.789207,
              18.588011
            ],
            [
              73.789391,
              18.587196
            ],
            [
              73.790425,
              18.587011
            ],
            [
              73.790396,
              18.587258
            ],
            [
              73.789476,
              18.587281
            ],
            [
              73.789495,
              18.588299
            ],
            [
              73.785869,
              18.592229
            ],
            [
              73.787425,
              18.593888
            ],
            [
              73.790425,
              18.593234
            ],
            [
              73.791253,
              18.594229
            ],
            [
              73.790567,
              18.596229
            ],
            [
              73.791303,
              18.597229
            ],
            [
              73.791105,
              18.600548
            ],
            [
              73.792857,
              18.600661
            ],
            [
              73.793425,
              18.599986
            ],
            [
              73.797435,
              18.602229
            ],
            [
              73.797325,
              18.603229
            ],
            [
              73.796425,
              18.604157
            ],
            [
              73.795323,
              18.604128
            ],
            [
              73.793693,
              18.607498
            ],
            [
              73.792059,
              18.607229
            ],
            [
              73.79286,
              18.608229
            ],
            [
              73.791823,
              18.609229
            ],
            [
              73.793509,
              18.611229
            ],
            [
              73.793294,
              18.612229
            ],
            [
              73.79128,
              18.613084
            ],
            [
              73.790494,
              18.614229
            ],
            [
              73.790425,
              18.615347
            ],
            [
              73.792017,
              18.616637
            ],
            [
              73.79163,
              18.618434
            ],
            [
              73.790189,
              18.618994
            ],
            [
              73.789425,
              18.621057
            ],
            [
              73.789172,
              18.619482
            ],
            [
              73.788247,
              18.619406
            ],
            [
              73.785425,
              18.616828
            ],
            [
              73.78479,
              18.617229
            ],
            [
              73.7857,
              18.617954
            ],
            [
              73.78573,
              18.619923
            ],
            [
              73.787423,
              18.620229
            ],
            [
              73.785425,
              18.621331
            ],
            [
              73.783221,
              18.620026
            ],
            [
              73.782425,
              18.621087
            ],
            [
              73.781422,
              18.620229
            ],
            [
              73.782225,
              18.62003
            ],
            [
              73.784059,
              18.617229
            ],
            [
              73.780196,
              18.617
            ],
            [
              73.779703,
              18.619507
            ],
            [
              73.77808,
              18.619885
            ],
            [
              73.777954,
              18.621229
            ],
            [
              73.779053,
              18.6226
            ],
            [
              73.781029,
              18.623229
            ],
            [
              73.77801,
              18.625814
            ],
            [
              73.777512,
              18.627316
            ],
            [
              73.775943,
              18.627748
            ],
            [
              73.776559,
              18.630094
            ],
            [
              73.77736,
              18.630229
            ],
            [
              73.776976,
              18.63078
            ],
            [
              73.774425,
              18.631493
            ]
          ]
        ],
        "type": "Polygon"
      },
      "type": "Feature"
    },
    {
      "properties": {
        "fill-opacity": 0.33,
        "fillColor": "#bf4040",
        "opacity": 0.33,
        "fill": "#bf4040",
        "fillOpacity": 0.33,
        "color": "#bf4040",
        "contour": 4.0,
        "metric": "distance",
        "provider_name": "Foodies Destination",
        "zone_type": "distance",
        "distance_km": 4,
        "mode": "motorcycle",
        "center_lat": 18.60922936,
        "center_lon": 73.77642502,
        "label": "4km"
      },
      "geometry": {
        "coordinates": [
          [
            [
              73.774425,
              18.637385
            ],
            [
              73.773425,
              18.636377
            ],
            [
              73.771593,
              18.636398
            ],
            [
              73.771425,
              18.636948
            ],
            [
              73.769425,
              18.636164
            ],
            [
              73.765325,
              18.633328
            ],
            [
              73.767136,
              18.63294
            ],
            [
              73.768022,
              18.631826
            ],
            [
              73.767993,
              18.630661
            ],
            [
              73.767246,
              18.630229
            ],
            [
              73.768262,
              18.629229
            ],
            [
              73.768425,
              18.627461
            ],
            [
              73.7695,
              18.628153
            ],
            [
              73.769688,
              18.630229
            ],
            [
              73.770425,
              18.630858
            ],
            [
              73.772829,
              18.626824
            ],
            [
              73.77303,
              18.629624
            ],
            [
              73.774864,
              18.629229
            ],
            [
              73.7747,
              18.627954
            ],
            [
              73.772697,
              18.625957
            ],
            [
              73.770425,
              18.625767
            ],
            [
              73.769425,
              18.624742
            ],
            [
              73.768425,
              18.625014
            ],
            [
              73.767425,
              18.623669
            ],
            [
              73.76613,
              18.623523
            ],
            [
              73.765756,
              18.620561
            ],
            [
              73.766859,
              18.620794
            ],
            [
              73.767425,
              18.622789
            ],
            [
              73.767944,
              18.621229
            ],
            [
              73.766781,
              18.620229
            ],
            [
              73.768425,
              18.619878
            ],
            [
              73.768663,
              18.618991
            ],
            [
              73.76564,
              18.618229
            ],
            [
              73.765082,
              18.619887
            ],
            [
              73.762337,
              18.620142
            ],
            [
              73.761425,
              18.621809
            ],
            [
              73.759938,
              18.621742
            ],
            [
              73.75959,
              18.623395
            ],
            [
              73.757668,
              18.624472
            ],
            [
              73.757468,
              18.625272
            ],
            [
              73.756425,
              18.625303
            ],
            [
              73.756425,
              18.625062
            ],
            [
              73.756575,
              18.624379
            ],
            [
              73.756552,
              18.624229
            ],
            [
              73.757191,
              18.623996
            ],
            [
              73.757425,
              18.621703
            ],
            [
              73.758425,
              18.621985
            ],
            [
              73.759082,
              18.621229
            ],
            [
              73.757143,
              18.61951
            ],
            [
              73.757381,
              18.618185
            ],
            [
              73.758935,
              18.617739
            ],
            [
              73.759273,
              18.616078
            ],
            [
              73.760425,
              18.616889
            ],
            [
              73.762743,
              18.616547
            ],
            [
              73.762814,
              18.614229
            ],
            [
              73.761425,
              18.612788
            ],
            [
              73.759126,
              18.612527
            ],
            [
              73.758769,
              18.610885
            ],
            [
              73.757425,
              18.609656
            ],
            [
              73.75677,
              18.610229
            ],
            [
              73.757729,
              18.610925
            ],
            [
              73.757664,
              18.612989
            ],
            [
              73.758531,
              18.613122
            ],
            [
              73.758425,
              18.614318
            ],
            [
              73.755336,
              18.612317
            ],
            [
              73.755391,
              18.608262
            ],
            [
              73.754322,
              18.608229
            ],
            [
              73.75391,
              18.606743
            ],
            [
              73.752312,
              18.606229
            ],
            [
              73.752197,
              18.605001
            ],
            [
              73.754425,
              18.604722
            ],
            [
              73.754857,
              18.603661
            ],
            [
              73.758704,
              18.601229
            ],
            [
              73.758425,
              18.600491
            ],
            [
              73.756425,
              18.599784
            ],
            [
              73.75632,
              18.598124
            ],
            [
              73.758168,
              18.597229
            ],
            [
              73.756271,
              18.596383
            ],
            [
              73.756027,
              18.595229
            ],
            [
              73.757915,
              18.59472
            ],
            [
              73.759257,
              18.593229
            ],
            [
              73.758425,
              18.592488
            ],
            [
              73.754425,
              18.592351
            ],
            [
              73.753665,
              18.591229
            ],
            [
              73.754425,
              18.590649
            ],
            [
              73.756425,
              18.591987
            ],
            [
              73.757425,
              18.589067
            ],
            [
              73.758425,
              18.588255
            ],
            [
              73.759425,
              18.588905
            ],
            [
              73.760425,
              18.587916
            ],
            [
              73.763569,
              18.589084
            ],
            [
              73.764425,
              18.590832
            ],
            [
              73.765765,
              18.590569
            ],
            [
              73.766425,
              18.588772
            ],
            [
              73.768425,
              18.588446
            ],
            [
              73.769425,
              18.589687
            ],
            [
              73.775751,
              18.588555
            ],
            [
              73.776175,
              18.587479
            ],
            [
              73.775418,
              18.587223
            ],
            [
              73.776425,
              18.587096
            ],
            [
              73.777425,
              18.587961
            ],
            [
              73.778395,
              18.587229
            ],
            [
              73.778425,
              18.585565
            ],
            [
              73.78054,
              18.585344
            ],
            [
              73.782425,
              18.583865
            ],
            [
              73.783425,
              18.586405
            ],
            [
              73.785361,
              18.588229
            ],
            [
              73.784768,
              18.589229
            ],
            [
              73.786425,
              18.589625
            ],
            [
              73.787774,
              18.587578
            ],
            [
              73.790425,
              18.585758
            ],
            [
              73.793859,
              18.584663
            ],
            [
              73.797425,
              18.581656
            ],
            [
              73.798133,
              18.582229
            ],
            [
              73.797701,
              18.583505
            ],
            [
              73.795875,
              18.583679
            ],
            [
              73.794751,
              18.585555
            ],
            [
              73.791069,
              18.586874
            ],
            [
              73.786068,
              18.592229
            ],
            [
              73.787425,
              18.593626
            ],
            [
              73.789425,
              18.590826
            ],
            [
              73.796425,
              18.589759
            ],
            [
              73.797425,
              18.591403
            ],
            [
              73.798425,
              18.590997
            ],
            [
              73.800746,
              18.593229
            ],
            [
              73.79911,
              18.595229
            ],
            [
              73.797425,
              18.596127
            ],
            [
              73.796425,
              18.595715
            ],
            [
              73.796147,
              18.596507
            ],
            [
              73.797425,
              18.596381
            ],
            [
              73.798425,
              18.598065
            ],
            [
              73.800425,
              18.598364
            ],
            [
              73.801425,
              18.597801
            ],
            [
              73.805575,
              18.600078
            ],
            [
              73.80484,
              18.602229
            ],
            [
              73.801425,
              18.602591
            ],
            [
              73.800756,
              18.603229
            ],
            [
              73.800876,
              18.604777
            ],
            [
              73.80212,
              18.605229
            ],
            [
              73.802425,
              18.606449
            ],
            [
              73.800168,
              18.608229
            ],
            [
              73.801425,
              18.609074
            ],
            [
              73.802628,
              18.611432
            ],
            [
              73.799425,
              18.614442
            ],
            [
              73.798384,
              18.61427
            ],
            [
              73.798909,
              18.611745
            ],
            [
              73.797013,
              18.611818
            ],
            [
              73.796965,
              18.615229
            ],
            [
              73.795772,
              18.616229
            ],
            [
              73.797235,
              18.617229
            ],
            [
              73.797425,
              18.618244
            ],
            [
              73.797704,
              18.617509
            ],
            [
              73.799727,
              18.617229
            ],
            [
              73.800871,
              18.619229
            ],
            [
              73.798079,
              18.619883
            ],
            [
              73.796533,
              18.623337
            ],
            [
              73.793814,
              18.624618
            ],
            [
              73.793049,
              18.626229
            ],
            [
              73.793425,
              18.629181
            ],
            [
              73.791425,
              18.627956
            ],
            [
              73.790923,
              18.626731
            ],
            [
              73.789223,
              18.626431
            ],
            [
              73.788425,
              18.623885
            ],
            [
              73.784269,
              18.627229
            ],
            [
              73.784443,
              18.628229
            ],
            [
              73.783067,
              18.629229
            ],
            [
              73.783862,
              18.629792
            ],
            [
              73.78363,
              18.631434
            ],
            [
              73.782425,
              18.630779
            ],
            [
              73.779425,
              18.630852
            ],
            [
              73.777425,
              18.633555
            ],
            [
              73.775083,
              18.631887
            ],
            [
              73.774425,
              18.637385
            ]
          ]
        ],
        "type": "Polygon"
      },
      "type": "Feature"
    },
    {
      "properties": {
        "fill-opacity": 0.33,
        "fillColor": "#bf4040",
        "opacity": 0.33,
        "fill": "#bf4040",
        "fillOpacity": 0.33,
        "color": "#bf4040",
        "contour": 5.0,
        "metric": "distance",
        "provider_name": "Foodies Destination",
        "zone_type": "distance",
        "distance_km": 5,
        "mode": "motorcycle",
        "center_lat": 18.60922936,
        "center_lon": 73.77642502,
        "label": "5km"
      },
      "geometry": {
        "coordinates": [
          [
            [
              73.769425,
              18.643782
            ],
            [
              73.766896,
              18.643229
            ],
            [
              73.765425,
              18.642001
            ],
            [
              73.765075,
              18.640579
            ],
            [
              73.761425,
              18.637895
            ],
            [
              73.760425,
              18.638956
            ],
            [
              73.757492,
              18.638229
            ],
            [
              73.75824,
              18.638045
            ],
            [
              73.758884,
              18.632229
            ],
            [
              73.761425,
              18.632038
            ],
            [
              73.761984,
              18.633669
            ],
            [
              73.762997,
              18.633229
            ],
            [
              73.763205,
              18.629229
            ],
            [
              73.762354,
              18.628229
            ],
            [
              73.762278,
              18.625082
            ],
            [
              73.762516,
              18.627138
            ],
            [
              73.764514,
              18.628229
            ],
            [
              73.765031,
              18.631623
            ],
            [
              73.766425,
              18.632707
            ],
            [
              73.76787,
              18.631229
            ],
            [
              73.766876,
              18.630229
            ],
            [
              73.76788,
              18.629229
            ],
            [
              73.767931,
              18.627229
            ],
            [
              73.766995,
              18.626229
            ],
            [
              73.767995,
              18.625229
            ],
            [
              73.767769,
              18.624229
            ],
            [
              73.76594,
              18.623744
            ],
            [
              73.765425,
              18.624542
            ],
            [
              73.764207,
              18.624446
            ],
            [
              73.763764,
              18.62089
            ],
            [
              73.76215,
              18.620954
            ],
            [
              73.761642,
              18.624447
            ],
            [
              73.760269,
              18.622074
            ],
            [
              73.759077,
              18.624881
            ],
            [
              73.757491,
              18.626295
            ],
            [
              73.756607,
              18.629411
            ],
            [
              73.754581,
              18.631385
            ],
            [
              73.753425,
              18.630496
            ],
            [
              73.751611,
              18.631415
            ],
            [
              73.751425,
              18.633197
            ],
            [
              73.750425,
              18.631852
            ],
            [
              73.750339,
              18.630144
            ],
            [
              73.751722,
              18.629229
            ],
            [
              73.751321,
              18.627332
            ],
            [
              73.749856,
              18.626229
            ],
            [
              73.750089,
              18.625229
            ],
            [
              73.751425,
              18.624596
            ],
            [
              73.753425,
              18.624906
            ],
            [
              73.754055,
              18.624229
            ],
            [
              73.753425,
              18.623498
            ],
            [
              73.752035,
              18.623619
            ],
            [
              73.75296,
              18.622229
            ],
            [
              73.752144,
              18.621229
            ],
            [
              73.753169,
              18.619974
            ],
            [
              73.755425,
              18.619822
            ],
            [
              73.75708,
              18.617884
            ],
            [
              73.75886,
              18.617229
            ],
            [
              73.756189,
              18.616464
            ],
            [
              73.755961,
              18.613229
            ],
            [
              73.754739,
              18.612229
            ],
            [
              73.754628,
              18.609026
            ],
            [
              73.753274,
              18.609079
            ],
            [
              73.752425,
              18.610032
            ],
            [
              73.750425,
              18.609804
            ],
            [
              73.749195,
              18.608229
            ],
            [
              73.750916,
              18.60772
            ],
            [
              73.750908,
              18.606746
            ],
            [
              73.748425,
              18.604567
            ],
            [
              73.745766,
              18.604888
            ],
            [
              73.743934,
              18.602229
            ],
            [
              73.744658,
              18.599463
            ],
            [
              73.747742,
              18.599546
            ],
            [
              73.747857,
              18.598229
            ],
            [
              73.749248,
              18.598052
            ],
            [
              73.749425,
              18.597237
            ],
            [
              73.751653,
              18.599001
            ],
            [
              73.752604,
              18.603408
            ],
            [
              73.753742,
              18.597229
            ],
            [
              73.752425,
              18.596972
            ],
            [
              73.752358,
              18.596229
            ],
            [
              73.753202,
              18.596006
            ],
            [
              73.752686,
              18.593229
            ],
            [
              73.751184,
              18.592989
            ],
            [
              73.750656,
              18.59446
            ],
            [
              73.747571,
              18.594376
            ],
            [
              73.747425,
              18.595314
            ],
            [
              73.746708,
              18.594229
            ],
            [
              73.747253,
              18.594058
            ],
            [
              73.746905,
              18.591749
            ],
            [
              73.744154,
              18.591229
            ],
            [
              73.745216,
              18.59102
            ],
            [
              73.745425,
              18.58936
            ],
            [
              73.745588,
              18.590066
            ],
            [
              73.747026,
              18.58983
            ],
            [
              73.747333,
              18.588137
            ],
            [
              73.748938,
              18.589715
            ],
            [
              73.749863,
              18.589667
            ],
            [
              73.750135,
              18.588229
            ],
            [
              73.749373,
              18.587177
            ],
            [
              73.752091,
              18.586896
            ],
            [
              73.75268,
              18.585485
            ],
            [
              73.756186,
              18.587229
            ],
            [
              73.754696,
              18.587501
            ],
            [
              73.754617,
              18.589229
            ],
            [
              73.756706,
              18.59151
            ],
            [
              73.757065,
              18.588229
            ],
            [
              73.756485,
              18.587229
            ],
            [
              73.758786,
              18.58659
            ],
            [
              73.759029,
              18.585229
            ],
            [
              73.760111,
              18.584915
            ],
            [
              73.761425,
              18.579779
            ],
            [
              73.762085,
              18.580229
            ],
            [
              73.761995,
              18.582659
            ],
            [
              73.763144,
              18.582948
            ],
            [
              73.763425,
              18.582384
            ],
            [
              73.764258,
              18.583229
            ],
            [
              73.761916,
              18.58472
            ],
            [
              73.761627,
              18.586432
            ],
            [
              73.760046,
              18.58685
            ],
            [
              73.759963,
              18.58769
            ],
            [
              73.761425,
              18.587632
            ],
            [
              73.763798,
              18.588855
            ],
            [
              73.764164,
              18.590489
            ],
            [
              73.76565,
              18.590454
            ],
            [
              73.765992,
              18.588797
            ],
            [
              73.768425,
              18.587816
            ],
            [
              73.769425,
              18.589543
            ],
            [
              73.770425,
              18.588729
            ],
            [
              73.775644,
              18.588448
            ],
            [
              73.775192,
              18.586997
            ],
            [
              73.776425,
              18.586693
            ],
            [
              73.777705,
              18.587509
            ],
            [
              73.77792,
              18.585734
            ],
            [
              73.777098,
              18.584903
            ],
            [
              73.77793,
              18.585724
            ],
            [
              73.778743,
              18.585547
            ],
            [
              73.780933,
              18.582738
            ],
            [
              73.781425,
              18.580522
            ],
            [
              73.782938,
              18.580229
            ],
            [
              73.782706,
              18.578229
            ],
            [
              73.784118,
              18.577922
            ],
            [
              73.784425,
              18.576974
            ],
            [
              73.785425,
              18.577596
            ],
            [
              73.787668,
              18.576985
            ],
            [
              73.788424,
              18.577229
            ],
            [
              73.786813,
              18.578617
            ],
            [
              73.786662,
              18.580229
            ],
            [
              73.787698,
              18.582229
            ],
            [
              73.784929,
              18.587229
            ],
            [
              73.785866,
              18.587671
            ],
            [
              73.793688,
              18.584492
            ],
            [
              73.793425,
              18.58354
            ],
            [
              73.792204,
              18.583229
            ],
            [
              73.792221,
              18.581229
            ],
            [
              73.795039,
              18.579229
            ],
            [
              73.794878,
              18.574229
            ],
            [
              73.795425,
              18.573899
            ],
            [
              73.795821,
              18.575833
            ],
            [
              73.796632,
              18.576229
            ],
            [
              73.795772,
              18.578229
            ],
            [
              73.797787,
              18.580867
            ],
            [
              73.798912,
              18.580716
            ],
            [
              73.804425,
              18.575348
            ],
            [
              73.805052,
              18.577229
            ],
            [
              73.804607,
              18.578412
            ],
            [
              73.802425,
              18.578508
            ],
            [
              73.801769,
              18.579229
            ],
            [
              73.802425,
              18.57996
            ],
            [
              73.804425,
              18.579574
            ],
            [
              73.806632,
              18.580229
            ],
            [
              73.805653,
              18.581457
            ],
            [
              73.80563,
              18.584229
            ],
            [
              73.804675,
              18.584479
            ],
            [
              73.804539,
              18.586115
            ],
            [
              73.805547,
              18.586351
            ],
            [
              73.802425,
              18.586923
            ],
            [
              73.802056,
              18.587598
            ],
            [
              73.803778,
              18.587875
            ],
            [
              73.803713,
              18.590229
            ],
            [
              73.804711,
              18.591229
            ],
            [
              73.803978,
              18.592675
            ],
            [
              73.805631,
              18.595023
            ],
            [
              73.807425,
              18.595581
            ],
            [
              73.80778,
              18.598229
            ],
            [
              73.81201,
              18.598815
            ],
            [
              73.812425,
              18.596909
            ],
            [
              73.81415,
              18.599229
            ],
            [
              73.814085,
              18.601229
            ],
            [
              73.812425,
              18.602274
            ],
            [
              73.811981,
              18.599673
            ],
            [
              73.810425,
              18.599546
            ],
            [
              73.807425,
              18.602572
            ],
            [
              73.801024,
              18.603229
            ],
            [
              73.801134,
              18.60452
            ],
            [
              73.802902,
              18.605229
            ],
            [
              73.804068,
              18.611586
            ],
            [
              73.805693,
              18.61196
            ],
            [
              73.807699,
              18.614229
            ],
            [
              73.805664,
              18.616229
            ],
            [
              73.806909,
              18.619229
            ],
            [
              73.806754,
              18.622229
            ],
            [
              73.805276,
              18.621378
            ],
            [
              73.803671,
              18.621476
            ],
            [
              73.801425,
              18.624718
            ],
            [
              73.799629,
              18.624433
            ],
            [
              73.799568,
              18.626229
            ],
            [
              73.796161,
              18.629965
            ],
            [
              73.798666,
              18.633229
            ],
            [
              73.799223,
              18.635229
            ],
            [
              73.798425,
              18.636121
            ],
            [
              73.797118,
              18.635535
            ],
            [
              73.796569,
              18.632084
            ],
            [
              73.795425,
              18.631637
            ],
            [
              73.793677,
              18.633229
            ],
            [
              73.793425,
              18.635508
            ],
            [
              73.788425,
              18.633674
            ],
            [
              73.787425,
              18.634782
            ],
            [
              73.786425,
              18.634571
            ],
            [
              73.785425,
              18.633467
            ],
            [
              73.784425,
              18.634422
            ],
            [
              73.782814,
              18.634618
            ],
            [
              73.782425,
              18.637551
            ],
            [
              73.780647,
              18.637007
            ],
            [
              73.779425,
              18.635658
            ],
            [
              73.777142,
              18.636229
            ],
            [
              73.777919,
              18.634229
            ],
            [
              73.776691,
              18.633962
            ],
            [
              73.775425,
              18.631889
            ],
            [
              73.775238,
              18.637229
            ],
            [
              73.774425,
              18.637881
            ],
            [
              73.773425,
              18.636813
            ],
            [
              73.77211,
              18.636914
            ],
            [
              73.772933,
              18.639229
            ],
            [
              73.769396,
              18.642201
            ],
            [
              73.769425,
              18.643782
            ]
          ]
        ],
        "type": "Polygon"
      },
      "type": "Feature"
    },
    {
      "properties": {
        "fill-opacity": 0.33,
        "fillColor": "#bf4040",
        "opacity": 0.33,
        "fill": "#bf4040",
        "fillOpacity": 0.33,
        "color": "#bf4040",
        "contour": 6.0,
        "metric": "distance",
        "provider_name": "Foodies Destination",
        "zone_type": "distance",
        "distance_km": 6,
        "mode": "motorcycle",
        "center_lat": 18.60922936,
        "center_lon": 73.77642502,
        "label": "6km"
      },
      "geometry": {
        "coordinates": [
          [
            [
              73.770425,
              18.652632
            ],
            [
              73.770192,
              18.649461
            ],
            [
              73.768535,
              18.649339
            ],
            [
              73.768441,
              18.650245
            ],
            [
              73.767422,
              18.650232
            ],
            [
              73.76837,
              18.650174
            ],
            [
              73.768262,
              18.647229
            ],
            [
              73.768069,
              18.646584
            ],
            [
              73.766288,
              18.646366
            ],
            [
              73.766082,
              18.644571
            ],
            [
              73.76468,
              18.644485
            ],
            [
              73.764425,
              18.645351
            ],
            [
              73.76131,
              18.645229
            ],
            [
              73.760573,
              18.643229
            ],
            [
              73.761314,
              18.643119
            ],
            [
              73.76124,
              18.642229
            ],
            [
              73.760425,
              18.641509
            ],
            [
              73.759619,
              18.642229
            ],
            [
              73.760377,
              18.643229
            ],
            [
              73.759241,
              18.643229
            ],
            [
              73.759073,
              18.640229
            ],
            [
              73.756927,
              18.638229
            ],
            [
              73.757891,
              18.637229
            ],
            [
              73.757761,
              18.632893
            ],
            [
              73.756425,
              18.632658
            ],
            [
              73.755425,
              18.633589
            ],
            [
              73.754075,
              18.633229
            ],
            [
              73.755915,
              18.630739
            ],
            [
              73.754425,
              18.631783
            ],
            [
              73.753425,
              18.630806
            ],
            [
              73.752088,
              18.632229
            ],
            [
              73.751885,
              18.634229
            ],
            [
              73.750854,
              18.635229
            ],
            [
              73.751468,
              18.638229
            ],
            [
              73.750425,
              18.641863
            ],
            [
              73.749104,
              18.63955
            ],
            [
              73.747244,
              18.639229
            ],
            [
              73.746425,
              18.638229
            ],
            [
              73.747033,
              18.634837
            ],
            [
              73.748425,
              18.635719
            ],
            [
              73.749812,
              18.634617
            ],
            [
              73.749789,
              18.633864
            ],
            [
              73.748425,
              18.63396
            ],
            [
              73.747485,
              18.633229
            ],
            [
              73.748138,
              18.631942
            ],
            [
              73.749912,
              18.631229
            ],
            [
              73.747425,
              18.6286
            ],
            [
              73.746285,
              18.630368
            ],
            [
              73.745425,
              18.62856
            ],
            [
              73.743786,
              18.62959
            ],
            [
              73.743379,
              18.631274
            ],
            [
              73.743232,
              18.629037
            ],
            [
              73.745925,
              18.627229
            ],
            [
              73.744715,
              18.626229
            ],
            [
              73.745731,
              18.625229
            ],
            [
              73.744577,
              18.624077
            ],
            [
              73.744191,
              18.621462
            ],
            [
              73.743039,
              18.621229
            ],
            [
              73.743425,
              18.620026
            ],
            [
              73.744782,
              18.619229
            ],
            [
              73.74447,
              18.618229
            ],
            [
              73.747425,
              18.617914
            ],
            [
              73.749425,
              18.620139
            ],
            [
              73.750632,
              18.619436
            ],
            [
              73.751355,
              18.618229
            ],
            [
              73.751227,
              18.616229
            ],
            [
              73.749728,
              18.615532
            ],
            [
              73.747993,
              18.616661
            ],
            [
              73.748096,
              18.614229
            ],
            [
              73.747425,
              18.613539
            ],
            [
              73.746269,
              18.614385
            ],
            [
              73.745953,
              18.613229
            ],
            [
              73.747131,
              18.612229
            ],
            [
              73.745591,
              18.611063
            ],
            [
              73.743181,
              18.612229
            ],
            [
              73.743403,
              18.613207
            ],
            [
              73.742425,
              18.613221
            ],
            [
              73.742107,
              18.611546
            ],
            [
              73.740275,
              18.611229
            ],
            [
              73.742191,
              18.608995
            ],
            [
              73.74191,
              18.606743
            ],
            [
              73.740233,
              18.606229
            ],
            [
              73.741059,
              18.602229
            ],
            [
              73.740425,
              18.601527
            ],
            [
              73.737425,
              18.601513
            ],
            [
              73.736514,
              18.600229
            ],
            [
              73.739346,
              18.59815
            ],
            [
              73.739279,
              18.597229
            ],
            [
              73.738243,
              18.596229
            ],
            [
              73.737327,
              18.593327
            ],
            [
              73.735543,
              18.593229
            ],
            [
              73.73536,
              18.590229
            ],
            [
              73.737113,
              18.589918
            ],
            [
              73.736829,
              18.588229
            ],
            [
              73.737425,
              18.587593
            ],
            [
              73.740425,
              18.588259
            ],
            [
              73.740425,
              18.586692
            ],
            [
              73.742425,
              18.586118
            ],
            [
              73.742906,
              18.587747
            ],
            [
              73.748425,
              18.587975
            ],
            [
              73.749425,
              18.586709
            ],
            [
              73.75173,
              18.586534
            ],
            [
              73.752425,
              18.584736
            ],
            [
              73.755739,
              18.584914
            ],
            [
              73.756425,
              18.586736
            ],
            [
              73.758659,
              18.586463
            ],
            [
              73.758801,
              18.585229
            ],
            [
              73.760013,
              18.584229
            ],
            [
              73.761196,
              18.579
            ],
            [
              73.763107,
              18.576229
            ],
            [
              73.764449,
              18.571205
            ],
            [
              73.767636,
              18.575229
            ],
            [
              73.76676,
              18.576229
            ],
            [
              73.767124,
              18.578529
            ],
            [
              73.769425,
              18.576983
            ],
            [
              73.770947,
              18.579229
            ],
            [
              73.768814,
              18.580618
            ],
            [
              73.767425,
              18.5828
            ],
            [
              73.766425,
              18.582189
            ],
            [
              73.76567,
              18.583474
            ],
            [
              73.764234,
              18.584038
            ],
            [
              73.763729,
              18.586534
            ],
            [
              73.762425,
              18.58475
            ],
            [
              73.761818,
              18.586622
            ],
            [
              73.760425,
              18.586849
            ],
            [
              73.760109,
              18.587545
            ],
            [
              73.763888,
              18.588766
            ],
            [
              73.764425,
              18.590502
            ],
            [
              73.765593,
              18.590397
            ],
            [
              73.765931,
              18.588736
            ],
            [
              73.768425,
              18.587599
            ],
            [
              73.769425,
              18.589468
            ],
            [
              73.770425,
              18.588562
            ],
            [
              73.775425,
              18.58845
            ],
            [
              73.775012,
              18.586817
            ],
            [
              73.776425,
              18.586546
            ],
            [
              73.777755,
              18.587229
            ],
            [
              73.776983,
              18.584788
            ],
            [
              73.778425,
              18.585553
            ],
            [
              73.77965,
              18.584454
            ],
            [
              73.78085,
              18.582229
            ],
            [
              73.781175,
              18.57898
            ],
            [
              73.783734,
              18.577539
            ],
            [
              73.784425,
              18.575853
            ],
            [
              73.788571,
              18.574376
            ],
            [
              73.788737,
              18.573229
            ],
            [
              73.790117,
              18.572229
            ],
            [
              73.790425,
              18.568199
            ],
            [
              73.792425,
              18.56667
            ],
            [
              73.79651,
              18.567144
            ],
            [
              73.796593,
              18.56806
            ],
            [
              73.79744,
              18.568229
            ],
            [
              73.795902,
              18.568707
            ],
            [
              73.796425,
              18.570861
            ],
            [
              73.801472,
              18.571229
            ],
            [
              73.797425,
              18.571549
            ],
            [
              73.796758,
              18.572229
            ],
            [
              73.796912,
              18.573741
            ],
            [
              73.799014,
              18.574229
            ],
            [
              73.798911,
              18.575229
            ],
            [
              73.797425,
              18.574428
            ],
            [
              73.795959,
              18.575229
            ],
            [
              73.796982,
              18.576229
            ],
            [
              73.79603,
              18.578229
            ],
            [
              73.797425,
              18.580569
            ],
            [
              73.7987,
              18.580505
            ],
            [
              73.805803,
              18.573607
            ],
            [
              73.806455,
              18.571229
            ],
            [
              73.808206,
              18.570229
            ],
            [
              73.808207,
              18.568447
            ],
            [
              73.807425,
              18.568101
            ],
            [
              73.808425,
              18.567968
            ],
            [
              73.808663,
              18.568991
            ],
            [
              73.811234,
              18.569229
            ],
            [
              73.809676,
              18.56948
            ],
            [
              73.808949,
              18.571705
            ],
            [
              73.811152,
              18.571956
            ],
            [
              73.811425,
              18.570932
            ],
            [
              73.812786,
              18.572229
            ],
            [
              73.810532,
              18.574337
            ],
            [
              73.810666,
              18.575987
            ],
            [
              73.812502,
              18.576229
            ],
            [
              73.810425,
              18.57723
            ],
            [
              73.809395,
              18.579229
            ],
            [
              73.80595,
              18.582229
            ],
            [
              73.808425,
              18.583708
            ],
            [
              73.809425,
              18.582702
            ],
            [
              73.811606,
              18.583047
            ],
            [
              73.810674,
              18.585229
            ],
            [
              73.81148,
              18.587229
            ],
            [
              73.810425,
              18.587566
            ],
            [
              73.809923,
              18.585731
            ],
            [
              73.808999,
              18.585803
            ],
            [
              73.808803,
              18.588229
            ],
            [
              73.810913,
              18.590229
            ],
            [
              73.810465,
              18.592269
            ],
            [
              73.809323,
              18.59133
            ],
            [
              73.808898,
              18.589755
            ],
            [
              73.806425,
              18.58769
            ],
            [
              73.804103,
              18.588907
            ],
            [
              73.804009,
              18.590229
            ],
            [
              73.805008,
              18.591229
            ],
            [
              73.804057,
              18.592229
            ],
            [
              73.806425,
              18.59472
            ],
            [
              73.807425,
              18.593758
            ],
            [
              73.808728,
              18.593925
            ],
            [
              73.80886,
              18.595229
            ],
            [
              73.807958,
              18.596229
            ],
            [
              73.809697,
              18.596957
            ],
            [
              73.808876,
              18.598229
            ],
            [
              73.809425,
              18.598617
            ],
            [
              73.811719,
              18.598524
            ],
            [
              73.81213,
              18.594934
            ],
            [
              73.815248,
              18.594229
            ],
            [
              73.814425,
              18.592696
            ],
            [
              73.815425,
              18.592241
            ],
            [
              73.816586,
              18.593067
            ],
            [
              73.819016,
              18.593229
            ],
            [
              73.819915,
              18.594229
            ],
            [
              73.818684,
              18.594488
            ],
            [
              73.817723,
              18.596229
            ],
            [
              73.820231,
              18.597229
            ],
            [
              73.820782,
              18.598229
            ],
            [
              73.820585,
              18.601229
            ],
            [
              73.819246,
              18.602229
            ],
            [
              73.82186,
              18.605229
            ],
            [
              73.821777,
              18.606229
            ],
            [
              73.820425,
              18.60646
            ],
            [
              73.819425,
              18.604501
            ],
            [
              73.818425,
              18.605551
            ],
            [
              73.817425,
              18.604518
            ],
            [
              73.816425,
              18.605392
            ],
            [
              73.814425,
              18.603605
            ],
            [
              73.81213,
              18.604523
            ],
            [
              73.811425,
              18.599808
            ],
            [
              73.810155,
              18.599959
            ],
            [
              73.807425,
              18.602833
            ],
            [
              73.801238,
              18.603043
            ],
            [
              73.801222,
              18.604431
            ],
            [
              73.803081,
              18.605229
            ],
            [
              73.804192,
              18.611461
            ],
            [
              73.805842,
              18.611812
            ],
            [
              73.808004,
              18.614229
            ],
            [
              73.806126,
              18.61593
            ],
            [
              73.80613,
              18.617524
            ],
            [
              73.809425,
              18.617852
            ],
            [
              73.810637,
              18.619229
            ],
            [
              73.810582,
              18.620387
            ],
            [
              73.808755,
              18.621229
            ],
            [
              73.808687,
              18.623491
            ],
            [
              73.805425,
              18.626595
            ],
            [
              73.805133,
              18.625229
            ],
            [
              73.806845,
              18.623649
            ],
            [
              73.806798,
              18.622855
            ],
            [
              73.804425,
              18.621704
            ],
            [
              73.802142,
              18.623946
            ],
            [
              73.801901,
              18.625229
            ],
            [
              73.802875,
              18.627229
            ],
            [
              73.802425,
              18.629838
            ],
            [
              73.79852,
              18.628324
            ],
            [
              73.797852,
              18.629657
            ],
            [
              73.799425,
              18.632988
            ],
            [
              73.801425,
              18.631655
            ],
            [
              73.801589,
              18.633229
            ],
            [
              73.800265,
              18.635229
            ],
            [
              73.801134,
              18.635519
            ],
            [
              73.803902,
              18.639752
            ],
            [
              73.804459,
              18.642263
            ],
            [
              73.803425,
              18.642508
            ],
            [
              73.803163,
              18.641491
            ],
            [
              73.802425,
              18.641434
            ],
            [
              73.800939,
              18.642715
            ],
            [
              73.798425,
              18.63863
            ],
            [
              73.797624,
              18.640429
            ],
            [
              73.795947,
              18.640229
            ],
            [
              73.796282,
              18.642087
            ],
            [
              73.791425,
              18.642894
            ],
            [
              73.790273,
              18.64138
            ],
            [
              73.788651,
              18.641229
            ],
            [
              73.78948,
              18.639229
            ],
            [
              73.788425,
              18.638894
            ],
            [
              73.78824,
              18.641229
            ],
            [
              73.787558,
              18.641362
            ],
            [
              73.786273,
              18.644229
            ],
            [
              73.784791,
              18.644595
            ],
            [
              73.784425,
              18.646237
            ],
            [
              73.784077,
              18.644576
            ],
            [
              73.782607,
              18.644411
            ],
            [
              73.782425,
              18.645229
            ],
            [
              73.780143,
              18.642511
            ],
            [
              73.778425,
              18.6418
            ],
            [
              73.776686,
              18.642229
            ],
            [
              73.775425,
              18.644038
            ],
            [
              73.774425,
              18.643305
            ],
            [
              73.772425,
              18.64408
            ],
            [
              73.77149,
              18.643229
            ],
            [
              73.772671,
              18.641475
            ],
            [
              73.772425,
              18.640091
            ],
            [
              73.772238,
              18.641042
            ],
            [
              73.771273,
              18.641229
            ],
            [
              73.771245,
              18.646409
            ],
            [
              73.774166,
              18.649229
            ],
            [
              73.773491,
              18.649296
            ],
            [
              73.773425,
              18.650154
            ],
            [
              73.771723,
              18.650229
            ],
            [
              73.772135,
              18.651229
            ],
            [
              73.770503,
              18.651307
            ],
            [
              73.770425,
              18.652632
            ]
          ]
        ],
        "type": "Polygon"
      },
      "type": "Feature"
    }
  ]
}