{
  "type": "FeatureCollection",
  "metadata": {
    "provider_name": "Green Rose Fastfood",
    "center_lat": 23.030551,
    "center_lon": 72.532685,
    "mode": "motorcycle",
    "total_zones": 4,
    "distance_zones": [
      3,
      4,
      5,
      6
    ],
    "generated_at": "2025-12-26T11:55:50.831333Z"
  },
  "features": [
    {
      "properties": {
        "fill-opacity": 0.33,
        "fillColor": "#bf4040",
        "opacity": 0.33,
        "fill": "#bf4040",
        "fillOpacity": 0.33,
        "color": "#bf4040",
        "contour": 3.0,
        "metric": "distance",
        "provider_name": "Green Rose Fastfood",
        "zone_type": "distance",
        "distance_km": 3,
        "mode": "motorcycle",
        "center_lat": 23.030551,
        "center_lon": 72.532685,
        "label": "3km"
      },
      "geometry": {
        "coordinates": [
          [
            [
              72.546685,
              23.054329
            ],
            [
              72.546046,
              23.052189
            ],
            [
              72.541745,
              23.050551
            ],
            [
              72.543241,
              23.049107
            ],
            [
              72.542685,
              23.047958
            ],
            [
              72.541491,
              23.049551
            ],
            [
              72.541641,
              23.050507
            ],
            [
              72.537685,
              23.051042
            ],
            [
              72.534447,
              23.049788
            ],
            [
              72.532785,
              23.047551
            ],
            [
              72.529685,
              23.048965
            ],
            [
              72.528685,
              23.047304
            ],
            [
              72.526685,
              23.049061
            ],
            [
              72.526192,
              23.048043
            ],
            [
              72.524685,
              23.047516
            ],
            [
              72.523685,
              23.043948
            ],
            [
              72.522685,
              23.043734
            ],
            [
              72.521892,
              23.044551
            ],
            [
              72.521908,
              23.046328
            ],
            [
              72.522709,
              23.046526
            ],
            [
              72.522685,
              23.047229
            ],
            [
              72.521558,
              23.046677
            ],
            [
              72.519685,
              23.044562
            ],
            [
              72.516433,
              23.045551
            ],
            [
              72.518355,
              23.040221
            ],
            [
              72.519691,
              23.039551
            ],
            [
              72.519719,
              23.037516
            ],
            [
              72.517806,
              23.036429
            ],
            [
              72.518051,
              23.034551
            ],
            [
              72.517331,
              23.033551
            ],
            [
              72.518685,
              23.031571
            ],
            [
              72.51895,
              23.033285
            ],
            [
              72.519685,
              23.033361
            ],
            [
              72.521149,
              23.033015
            ],
            [
              72.522164,
              23.031551
            ],
            [
              72.522051,
              23.030184
            ],
            [
              72.51873,
              23.027551
            ],
            [
              72.521438,
              23.023551
            ],
            [
              72.520649,
              23.022551
            ],
            [
              72.524073,
              23.017939
            ],
            [
              72.527085,
              23.016551
            ],
            [
              72.527987,
              23.014853
            ],
            [
              72.530685,
              23.012699
            ],
            [
              72.534712,
              23.016524
            ],
            [
              72.534857,
              23.017551
            ],
            [
              72.533977,
              23.018551
            ],
            [
              72.535099,
              23.019551
            ],
            [
              72.533869,
              23.020551
            ],
            [
              72.535685,
              23.022637
            ],
            [
              72.540054,
              23.01892
            ],
            [
              72.541685,
              23.018035
            ],
            [
              72.542685,
              23.018827
            ],
            [
              72.542786,
              23.017652
            ],
            [
              72.544685,
              23.016104
            ],
            [
              72.545685,
              23.017546
            ],
            [
              72.545807,
              23.020428
            ],
            [
              72.547685,
              23.020071
            ],
            [
              72.548685,
              23.020759
            ],
            [
              72.552685,
              23.02111
            ],
            [
              72.553685,
              23.020015
            ],
            [
              72.554999,
              23.020551
            ],
            [
              72.553979,
              23.022551
            ],
            [
              72.555909,
              23.025551
            ],
            [
              72.555629,
              23.028551
            ],
            [
              72.556844,
              23.029551
            ],
            [
              72.554255,
              23.031121
            ],
            [
              72.552685,
              23.030094
            ],
            [
              72.550223,
              23.031089
            ],
            [
              72.550241,
              23.031994
            ],
            [
              72.551685,
              23.033334
            ],
            [
              72.553542,
              23.033408
            ],
            [
              72.553771,
              23.032464
            ],
            [
              72.55427,
              23.033551
            ],
            [
              72.552685,
              23.034705
            ],
            [
              72.551685,
              23.035112
            ],
            [
              72.549931,
              23.034551
            ],
            [
              72.55108,
              23.035155
            ],
            [
              72.552335,
              23.0379
            ],
            [
              72.554627,
              23.038551
            ],
            [
              72.552073,
              23.038939
            ],
            [
              72.551919,
              23.040316
            ],
            [
              72.553403,
              23.040551
            ],
            [
              72.551685,
              23.042389
            ],
            [
              72.549827,
              23.047551
            ],
            [
              72.548685,
              23.048509
            ],
            [
              72.545498,
              23.047551
            ],
            [
              72.545411,
              23.048824
            ],
            [
              72.549027,
              23.052551
            ],
            [
              72.547833,
              23.052699
            ],
            [
              72.546685,
              23.054329
            ]
          ]
        ],
        "type": "Polygon"
      },
      "type": "Feature"
    },
    {
      "properties": {
        "fill-opacity": 0.33,
        "fillColor": "#bf4040",
        "opacity": 0.33,
        "fill": "#bf4040",
        "fillOpacity": 0.33,
        "color": "#bf4040",
        "contour": 4.0,
        "metric": "distance",
        "provider_name": "Green Rose Fastfood",
        "zone_type": "distance",
        "distance_km": 4,
        "mode": "motorcycle",
        "center_lat": 23.030551,
        "center_lon": 72.532685,
        "label": "4km"
      },
      "geometry": {
        "coordinates": [
          [
            [
              72.551685,
              23.061755
            ],
            [
              72.548685,
              23.061453
            ],
            [
              72.546975,
              23.05926
            ],
            [
              72.545685,
              23.05965
            ],
            [
              72.545424,
              23.058811
            ],
            [
              72.542934,
              23.0588
            ],
            [
              72.542684,
              23.05955
            ],
            [
              72.542441,
              23.058794
            ],
            [
              72.537933,
              23.058551
            ],
            [
              72.538374,
              23.056551
            ],
            [
              72.537315,
              23.05592
            ],
            [
              72.536204,
              23.05607
            ],
            [
              72.535964,
              23.057271
            ],
            [
              72.537483,
              23.058551
            ],
            [
              72.535685,
              23.058828
            ],
            [
              72.53526,
              23.056976
            ],
            [
              72.533685,
              23.056754
            ],
            [
              72.531685,
              23.054293
            ],
            [
              72.528083,
              23.054949
            ],
            [
              72.527685,
              23.056272
            ],
            [
              72.522519,
              23.054716
            ],
            [
              72.521685,
              23.053731
            ],
            [
              72.520685,
              23.054577
            ],
            [
              72.518685,
              23.053999
            ],
            [
              72.516685,
              23.051804
            ],
            [
              72.515685,
              23.052501
            ],
            [
              72.514685,
              23.052002
            ],
            [
              72.513828,
              23.050551
            ],
            [
              72.512136,
              23.050099
            ],
            [
              72.508685,
              23.046568
            ],
            [
              72.508866,
              23.045551
            ],
            [
              72.510371,
              23.045237
            ],
            [
              72.510016,
              23.043551
            ],
            [
              72.510859,
              23.042551
            ],
            [
              72.51212,
              23.042551
            ],
            [
              72.511878,
              23.043551
            ],
            [
              72.512685,
              23.044288
            ],
            [
              72.51356,
              23.043551
            ],
            [
              72.512416,
              23.04082
            ],
            [
              72.508521,
              23.039551
            ],
            [
              72.51097,
              23.034551
            ],
            [
              72.508588,
              23.031647
            ],
            [
              72.508685,
              23.030748
            ],
            [
              72.511685,
              23.028565
            ],
            [
              72.515685,
              23.029541
            ],
            [
              72.516293,
              23.028551
            ],
            [
              72.515685,
              23.027959
            ],
            [
              72.511685,
              23.028544
            ],
            [
              72.509203,
              23.027551
            ],
            [
              72.510444,
              23.02731
            ],
            [
              72.511685,
              23.024884
            ],
            [
              72.511986,
              23.026249
            ],
            [
              72.513317,
              23.026183
            ],
            [
              72.513685,
              23.025344
            ],
            [
              72.514016,
              23.026219
            ],
            [
              72.515274,
              23.02614
            ],
            [
              72.514932,
              23.024303
            ],
            [
              72.513675,
              23.023551
            ],
            [
              72.515477,
              23.021551
            ],
            [
              72.514685,
              23.020694
            ],
            [
              72.512956,
              23.020551
            ],
            [
              72.514684,
              23.019551
            ],
            [
              72.513655,
              23.018551
            ],
            [
              72.514685,
              23.017558
            ],
            [
              72.516047,
              23.017551
            ],
            [
              72.515605,
              23.016551
            ],
            [
              72.517204,
              23.01507
            ],
            [
              72.517685,
              23.012897
            ],
            [
              72.520712,
              23.011578
            ],
            [
              72.523685,
              23.009202
            ],
            [
              72.526833,
              23.008402
            ],
            [
              72.530685,
              23.008799
            ],
            [
              72.531521,
              23.007387
            ],
            [
              72.53143,
              23.005806
            ],
            [
              72.5306,
              23.005551
            ],
            [
              72.533515,
              23.004381
            ],
            [
              72.535492,
              23.006551
            ],
            [
              72.534103,
              23.006969
            ],
            [
              72.53412,
              23.009115
            ],
            [
              72.537685,
              23.009505
            ],
            [
              72.53777,
              23.010465
            ],
            [
              72.539685,
              23.011007
            ],
            [
              72.540003,
              23.012232
            ],
            [
              72.541501,
              23.011551
            ],
            [
              72.541525,
              23.010711
            ],
            [
              72.540258,
              23.010551
            ],
            [
              72.54175,
              23.010485
            ],
            [
              72.542685,
              23.011194
            ],
            [
              72.544685,
              23.010999
            ],
            [
              72.546685,
              23.008947
            ],
            [
              72.548564,
              23.00843
            ],
            [
              72.54938,
              23.009551
            ],
            [
              72.546372,
              23.011551
            ],
            [
              72.547685,
              23.013082
            ],
            [
              72.549858,
              23.013377
            ],
            [
              72.551685,
              23.01479
            ],
            [
              72.552207,
              23.014551
            ],
            [
              72.551601,
              23.013551
            ],
            [
              72.552648,
              23.012551
            ],
            [
              72.555613,
              23.011622
            ],
            [
              72.55736,
              23.014551
            ],
            [
              72.556478,
              23.015551
            ],
            [
              72.557808,
              23.015674
            ],
            [
              72.558318,
              23.014184
            ],
            [
              72.559685,
              23.014053
            ],
            [
              72.559508,
              23.016727
            ],
            [
              72.561685,
              23.017348
            ],
            [
              72.561985,
              23.01925
            ],
            [
              72.563916,
              23.020551
            ],
            [
              72.561677,
              23.021551
            ],
            [
              72.562312,
              23.022923
            ],
            [
              72.563638,
              23.023551
            ],
            [
              72.561356,
              23.024551
            ],
            [
              72.563943,
              23.027292
            ],
            [
              72.564784,
              23.03165
            ],
            [
              72.561685,
              23.034321
            ],
            [
              72.560685,
              23.036439
            ],
            [
              72.559846,
              23.036551
            ],
            [
              72.559892,
              23.038551
            ],
            [
              72.5613,
              23.039551
            ],
            [
              72.558247,
              23.043551
            ],
            [
              72.559452,
              23.044551
            ],
            [
              72.558969,
              23.046551
            ],
            [
              72.559778,
              23.047551
            ],
            [
              72.556991,
              23.050551
            ],
            [
              72.557361,
              23.051874
            ],
            [
              72.558533,
              23.052551
            ],
            [
              72.555814,
              23.054551
            ],
            [
              72.554685,
              23.059017
            ],
            [
              72.550315,
              23.058181
            ],
            [
              72.552136,
              23.060551
            ],
            [
              72.552294,
              23.061551
            ],
            [
              72.551685,
              23.061755
            ]
          ]
        ],
        "type": "Polygon"
      },
      "type": "Feature"
    },
    {
      "properties": {
        "fill-opacity": 0.33,
        "fillColor": "#bf4040",
        "opacity": 0.33,
        "fill": "#bf4040",
        "fillOpacity": 0.33,
        "color": "#bf4040",
        "contour": 5.0,
        "metric": "distance",
        "provider_name": "Green Rose Fastfood",
        "zone_type": "distance",
        "distance_km": 5,
        "mode": "motorcycle",
        "center_lat": 23.030551,
        "center_lon": 72.532685,
        "label": "5km"
      },
      "geometry": {
        "coordinates": [
          [
            [
              72.557685,
              23.067814
            ],
            [
              72.552819,
              23.067685
            ],
            [
              72.552685,
              23.068369
            ],
            [
              72.550685,
              23.067157
            ],
            [
              72.548685,
              23.067937
            ],
            [
              72.545685,
              23.067833
            ],
            [
              72.543685,
              23.06608
            ],
            [
              72.540273,
              23.064962
            ],
            [
              72.539685,
              23.063625
            ],
            [
              72.539313,
              23.064922
            ],
            [
              72.540277,
              23.065551
            ],
            [
              72.538685,
              23.066243
            ],
            [
              72.537685,
              23.064415
            ],
            [
              72.536439,
              23.064305
            ],
            [
              72.535685,
              23.065454
            ],
            [
              72.532935,
              23.0643
            ],
            [
              72.530903,
              23.064332
            ],
            [
              72.530584,
              23.062551
            ],
            [
              72.528685,
              23.062077
            ],
            [
              72.526739,
              23.062605
            ],
            [
              72.524399,
              23.061836
            ],
            [
              72.523475,
              23.060551
            ],
            [
              72.523685,
              23.059217
            ],
            [
              72.521343,
              23.059551
            ],
            [
              72.522268,
              23.060551
            ],
            [
              72.521685,
              23.062727
            ],
            [
              72.520685,
              23.062329
            ],
            [
              72.518685,
              23.059262
            ],
            [
              72.517685,
              23.060419
            ],
            [
              72.515804,
              23.059551
            ],
            [
              72.516115,
              23.05612
            ],
            [
              72.51522,
              23.056086
            ],
            [
              72.514685,
              23.058096
            ],
            [
              72.511685,
              23.055921
            ],
            [
              72.509685,
              23.056443
            ],
            [
              72.508685,
              23.055175
            ],
            [
              72.506808,
              23.054427
            ],
            [
              72.505999,
              23.050236
            ],
            [
              72.505247,
              23.050113
            ],
            [
              72.504685,
              23.051001
            ],
            [
              72.504331,
              23.049904
            ],
            [
              72.499288,
              23.047551
            ],
            [
              72.501272,
              23.046138
            ],
            [
              72.501929,
              23.043551
            ],
            [
              72.501307,
              23.040928
            ],
            [
              72.499015,
              23.040551
            ],
            [
              72.500685,
              23.038729
            ],
            [
              72.500995,
              23.04024
            ],
            [
              72.502209,
              23.040075
            ],
            [
              72.502399,
              23.038836
            ],
            [
              72.500864,
              23.038551
            ],
            [
              72.501223,
              23.037551
            ],
            [
              72.503465,
              23.036331
            ],
            [
              72.503461,
              23.034774
            ],
            [
              72.502318,
              23.034551
            ],
            [
              72.503461,
              23.034327
            ],
            [
              72.504883,
              23.030551
            ],
            [
              72.504685,
              23.029491
            ],
            [
              72.503685,
              23.030335
            ],
            [
              72.503535,
              23.0297
            ],
            [
              72.501244,
              23.029551
            ],
            [
              72.50136,
              23.027875
            ],
            [
              72.499313,
              23.027551
            ],
            [
              72.502249,
              23.027115
            ],
            [
              72.50257,
              23.024551
            ],
            [
              72.505262,
              23.024128
            ],
            [
              72.5053,
              23.019551
            ],
            [
              72.506343,
              23.018551
            ],
            [
              72.506586,
              23.016452
            ],
            [
              72.508051,
              23.016917
            ],
            [
              72.510424,
              23.013551
            ],
            [
              72.509512,
              23.011551
            ],
            [
              72.512685,
              23.009476
            ],
            [
              72.513767,
              23.009633
            ],
            [
              72.514246,
              23.007551
            ],
            [
              72.515469,
              23.007335
            ],
            [
              72.516685,
              23.005558
            ],
            [
              72.519185,
              23.007551
            ],
            [
              72.523685,
              23.007373
            ],
            [
              72.524813,
              23.005422
            ],
            [
              72.522605,
              23.00563
            ],
            [
              72.521285,
              23.003551
            ],
            [
              72.522685,
              23.002816
            ],
            [
              72.523685,
              23.00329
            ],
            [
              72.524328,
              23.002194
            ],
            [
              72.528685,
              23.000123
            ],
            [
              72.530685,
              23.000618
            ],
            [
              72.530917,
              22.999551
            ],
            [
              72.533372,
              22.998238
            ],
            [
              72.534851,
              22.998384
            ],
            [
              72.535685,
              22.999266
            ],
            [
              72.537685,
              22.996066
            ],
            [
              72.541151,
              23.001551
            ],
            [
              72.539903,
              23.001769
            ],
            [
              72.539938,
              23.004551
            ],
            [
              72.540685,
              23.005315
            ],
            [
              72.542548,
              23.004687
            ],
            [
              72.542685,
              23.005628
            ],
            [
              72.546685,
              23.003849
            ],
            [
              72.548078,
              23.004157
            ],
            [
              72.549568,
              23.005667
            ],
            [
              72.550685,
              23.005671
            ],
            [
              72.550397,
              23.004551
            ],
            [
              72.551507,
              23.003551
            ],
            [
              72.551482,
              23.002753
            ],
            [
              72.550706,
              23.002551
            ],
            [
              72.551206,
              23.002072
            ],
            [
              72.555685,
              23.0021
            ],
            [
              72.556685,
              23.008037
            ],
            [
              72.558901,
              23.009334
            ],
            [
              72.560384,
              23.008551
            ],
            [
              72.559943,
              23.007551
            ],
            [
              72.563685,
              23.006979
            ],
            [
              72.565794,
              23.008441
            ],
            [
              72.567098,
              23.009551
            ],
            [
              72.567685,
              23.011496
            ],
            [
              72.569633,
              23.012551
            ],
            [
              72.56818,
              23.016551
            ],
            [
              72.568246,
              23.018551
            ],
            [
              72.569393,
              23.019842
            ],
            [
              72.572897,
              23.021551
            ],
            [
              72.573259,
              23.022551
            ],
            [
              72.571685,
              23.024457
            ],
            [
              72.569823,
              23.024689
            ],
            [
              72.569311,
              23.026551
            ],
            [
              72.567966,
              23.027551
            ],
            [
              72.569292,
              23.028551
            ],
            [
              72.569685,
              23.030045
            ],
            [
              72.570685,
              23.027613
            ],
            [
              72.570995,
              23.02924
            ],
            [
              72.572606,
              23.029472
            ],
            [
              72.572685,
              23.028589
            ],
            [
              72.572709,
              23.029575
            ],
            [
              72.571938,
              23.029804
            ],
            [
              72.571685,
              23.03513
            ],
            [
              72.569685,
              23.038189
            ],
            [
              72.567685,
              23.038655
            ],
            [
              72.567491,
              23.039357
            ],
            [
              72.568959,
              23.039825
            ],
            [
              72.569685,
              23.039025
            ],
            [
              72.570915,
              23.040551
            ],
            [
              72.569685,
              23.04196
            ],
            [
              72.568685,
              23.040991
            ],
            [
              72.566451,
              23.041317
            ],
            [
              72.565685,
              23.043795
            ],
            [
              72.565213,
              23.042022
            ],
            [
              72.564016,
              23.042551
            ],
            [
              72.565398,
              23.045837
            ],
            [
              72.569573,
              23.046551
            ],
            [
              72.567936,
              23.046802
            ],
            [
              72.567251,
              23.048117
            ],
            [
              72.565685,
              23.047283
            ],
            [
              72.564943,
              23.048551
            ],
            [
              72.568256,
              23.051551
            ],
            [
              72.566685,
              23.054104
            ],
            [
              72.564685,
              23.054976
            ],
            [
              72.564344,
              23.053891
            ],
            [
              72.563171,
              23.054037
            ],
            [
              72.56294,
              23.055295
            ],
            [
              72.563766,
              23.055551
            ],
            [
              72.55976,
              23.057551
            ],
            [
              72.559606,
              23.058551
            ],
            [
              72.560544,
              23.059551
            ],
            [
              72.559237,
              23.061103
            ],
            [
              72.558838,
              23.063704
            ],
            [
              72.557607,
              23.064551
            ],
            [
              72.55914,
              23.065095
            ],
            [
              72.560313,
              23.066551
            ],
            [
              72.557685,
              23.067814
            ]
          ]
        ],
        "type": "Polygon"
      },
      "type": "Feature"
    },
    {
      "properties": {
        "fill-opacity": 0.33,
        "fillColor": "#bf4040",
        "opacity": 0.33,
        "fill": "#bf4040",
        "fillOpacity": 0.33,
        "color": "#bf4040",
        "contour": 6.0,
        "metric": "distance",
        "provider_name": "Green Rose Fastfood",
        "zone_type": "distance",
        "distance_km": 6,
        "mode": "motorcycle",
        "center_lat": 23.030551,
        "center_lon": 72.532685,
        "label": "6km"
      },
      "geometry": {
        "coordinates": [
          [
            [
              72.556685,
              23.075618
            ],
            [
              72.555685,
              23.075747
            ],
            [
              72.554685,
              23.073664
            ],
            [
              72.548204,
              23.076031
            ],
            [
              72.546685,
              23.073956
            ],
            [
              72.5445,
              23.073735
            ],
            [
              72.54285,
              23.072385
            ],
            [
              72.542396,
              23.074551
            ],
            [
              72.540511,
              23.074724
            ],
            [
              72.538531,
              23.070551
            ],
            [
              72.533685,
              23.071079
            ],
            [
              72.530685,
              23.070644
            ],
            [
              72.52925,
              23.068985
            ],
            [
              72.526685,
              23.06784
            ],
            [
              72.525685,
              23.068851
            ],
            [
              72.52388,
              23.068746
            ],
            [
              72.523685,
              23.071024
            ],
            [
              72.523458,
              23.069777
            ],
            [
              72.521513,
              23.069722
            ],
            [
              72.522079,
              23.067156
            ],
            [
              72.520071,
              23.065164
            ],
            [
              72.518299,
              23.064936
            ],
            [
              72.518262,
              23.064128
            ],
            [
              72.521087,
              23.063953
            ],
            [
              72.520026,
              23.062209
            ],
            [
              72.519296,
              23.062162
            ],
            [
              72.518122,
              23.063988
            ],
            [
              72.516301,
              23.064167
            ],
            [
              72.515685,
              23.067281
            ],
            [
              72.513821,
              23.065551
            ],
            [
              72.514137,
              23.063098
            ],
            [
              72.509499,
              23.060551
            ],
            [
              72.509587,
              23.059551
            ],
            [
              72.508685,
              23.059295
            ],
            [
              72.507685,
              23.060172
            ],
            [
              72.501685,
              23.05877
            ],
            [
              72.500685,
              23.059938
            ],
            [
              72.499104,
              23.059551
            ],
            [
              72.500503,
              23.059369
            ],
            [
              72.501278,
              23.058144
            ],
            [
              72.501284,
              23.056951
            ],
            [
              72.499585,
              23.056451
            ],
            [
              72.500912,
              23.055323
            ],
            [
              72.497685,
              23.054095
            ],
            [
              72.495307,
              23.051928
            ],
            [
              72.493543,
              23.051551
            ],
            [
              72.492691,
              23.049545
            ],
            [
              72.491685,
              23.049762
            ],
            [
              72.491386,
              23.048849
            ],
            [
              72.489536,
              23.048551
            ],
            [
              72.490485,
              23.048351
            ],
            [
              72.490685,
              23.046379
            ],
            [
              72.490824,
              23.047411
            ],
            [
              72.493254,
              23.04712
            ],
            [
              72.493363,
              23.045872
            ],
            [
              72.492027,
              23.045551
            ],
            [
              72.497124,
              23.04499
            ],
            [
              72.497321,
              23.043551
            ],
            [
              72.495685,
              23.04195
            ],
            [
              72.494759,
              23.043625
            ],
            [
              72.491685,
              23.044136
            ],
            [
              72.491019,
              23.042216
            ],
            [
              72.489335,
              23.041551
            ],
            [
              72.492035,
              23.037551
            ],
            [
              72.493973,
              23.037839
            ],
            [
              72.494034,
              23.036201
            ],
            [
              72.492782,
              23.035551
            ],
            [
              72.493486,
              23.035352
            ],
            [
              72.493685,
              23.034123
            ],
            [
              72.494685,
              23.033246
            ],
            [
              72.496685,
              23.034254
            ],
            [
              72.498339,
              23.033551
            ],
            [
              72.497685,
              23.032773
            ],
            [
              72.49527,
              23.032965
            ],
            [
              72.494774,
              23.032551
            ],
            [
              72.495513,
              23.032379
            ],
            [
              72.495287,
              23.030948
            ],
            [
              72.492685,
              23.030802
            ],
            [
              72.491901,
              23.029334
            ],
            [
              72.48975,
              23.028551
            ],
            [
              72.493444,
              23.02431
            ],
            [
              72.496111,
              23.023977
            ],
            [
              72.495966,
              23.021551
            ],
            [
              72.497685,
              23.021355
            ],
            [
              72.498076,
              23.022159
            ],
            [
              72.499685,
              23.022221
            ],
            [
              72.502027,
              23.023893
            ],
            [
              72.502242,
              23.022551
            ],
            [
              72.50116,
              23.020075
            ],
            [
              72.499069,
              23.019551
            ],
            [
              72.499685,
              23.018623
            ],
            [
              72.499787,
              23.019448
            ],
            [
              72.502166,
              23.019032
            ],
            [
              72.503467,
              23.016551
            ],
            [
              72.503338,
              23.015897
            ],
            [
              72.501693,
              23.015551
            ],
            [
              72.502747,
              23.014551
            ],
            [
              72.50227,
              23.011965
            ],
            [
              72.500154,
              23.011551
            ],
            [
              72.501271,
              23.011137
            ],
            [
              72.501685,
              23.008948
            ],
            [
              72.503002,
              23.010233
            ],
            [
              72.504265,
              23.010131
            ],
            [
              72.504858,
              23.006551
            ],
            [
              72.505685,
              23.005632
            ],
            [
              72.506988,
              23.005551
            ],
            [
              72.506685,
              23.002235
            ],
            [
              72.507685,
              23.001809
            ],
            [
              72.509051,
              23.002917
            ],
            [
              72.512333,
              23.001199
            ],
            [
              72.513685,
              23.001342
            ],
            [
              72.514448,
              22.999788
            ],
            [
              72.513609,
              22.999475
            ],
            [
              72.518685,
              22.997861
            ],
            [
              72.519685,
              22.998415
            ],
            [
              72.520619,
              22.995485
            ],
            [
              72.522768,
              22.995467
            ],
            [
              72.523685,
              22.996124
            ],
            [
              72.52576,
              22.994626
            ],
            [
              72.525845,
              22.993551
            ],
            [
              72.529685,
              22.993551
            ],
            [
              72.531685,
              22.991743
            ],
            [
              72.533685,
              22.99121
            ],
            [
              72.537685,
              22.99073
            ],
            [
              72.540685,
              22.992285
            ],
            [
              72.543728,
              22.992507
            ],
            [
              72.542925,
              22.992791
            ],
            [
              72.542685,
              22.994596
            ],
            [
              72.540685,
              22.994684
            ],
            [
              72.539685,
              22.993855
            ],
            [
              72.53817,
              22.995551
            ],
            [
              72.542685,
              22.997655
            ],
            [
              72.544685,
              22.997092
            ],
            [
              72.545685,
              22.998344
            ],
            [
              72.546685,
              22.996685
            ],
            [
              72.547685,
              22.996615
            ],
            [
              72.548685,
              22.997718
            ],
            [
              72.549317,
              22.996183
            ],
            [
              72.552685,
              22.99492
            ],
            [
              72.556685,
              22.996718
            ],
            [
              72.558685,
              22.996097
            ],
            [
              72.561685,
              22.997394
            ],
            [
              72.562685,
              22.99664
            ],
            [
              72.563625,
              22.999551
            ],
            [
              72.562018,
              22.999884
            ],
            [
              72.561924,
              23.001311
            ],
            [
              72.564207,
              23.001551
            ],
            [
              72.564267,
              23.000133
            ],
            [
              72.566184,
              23.000551
            ],
            [
              72.56881,
              23.003425
            ],
            [
              72.571239,
              23.008997
            ],
            [
              72.573266,
              23.010969
            ],
            [
              72.574685,
              23.011238
            ],
            [
              72.575685,
              23.010397
            ],
            [
              72.579065,
              23.010551
            ],
            [
              72.578685,
              23.011265
            ],
            [
              72.578604,
              23.010631
            ],
            [
              72.576056,
              23.010922
            ],
            [
              72.575685,
              23.011806
            ],
            [
              72.573073,
              23.012551
            ],
            [
              72.573036,
              23.018551
            ],
            [
              72.574081,
              23.019551
            ],
            [
              72.574329,
              23.021907
            ],
            [
              72.577113,
              23.021979
            ],
            [
              72.577685,
              23.021069
            ],
            [
              72.582128,
              23.021551
            ],
            [
              72.581914,
              23.02278
            ],
            [
              72.579685,
              23.024301
            ],
            [
              72.576685,
              23.022944
            ],
            [
              72.574112,
              23.023551
            ],
            [
              72.57424,
              23.025995
            ],
            [
              72.578451,
              23.027551
            ],
            [
              72.575685,
              23.027872
            ],
            [
              72.574685,
              23.026835
            ],
            [
              72.573293,
              23.027159
            ],
            [
              72.573194,
              23.029551
            ],
            [
              72.572243,
              23.030551
            ],
            [
              72.57214,
              23.039551
            ],
            [
              72.573685,
              23.039884
            ],
            [
              72.574685,
              23.039027
            ],
            [
              72.576685,
              23.039268
            ],
            [
              72.577685,
              23.038561
            ],
            [
              72.579685,
              23.038633
            ],
            [
              72.580637,
              23.039551
            ],
            [
              72.580518,
              23.040551
            ],
            [
              72.57881,
              23.041676
            ],
            [
              72.575698,
              23.040537
            ],
            [
              72.572052,
              23.041551
            ],
            [
              72.573982,
              23.047551
            ],
            [
              72.573886,
              23.050349
            ],
            [
              72.574685,
              23.050954
            ],
            [
              72.571175,
              23.056041
            ],
            [
              72.570275,
              23.05596
            ],
            [
              72.569841,
              23.054394
            ],
            [
              72.568685,
              23.053972
            ],
            [
              72.568148,
              23.054551
            ],
            [
              72.568095,
              23.060961
            ],
            [
              72.566893,
              23.063551
            ],
            [
              72.568255,
              23.066551
            ],
            [
              72.569842,
              23.067551
            ],
            [
              72.566167,
              23.070033
            ],
            [
              72.564882,
              23.072748
            ],
            [
              72.563685,
              23.071601
            ],
            [
              72.559685,
              23.073233
            ],
            [
              72.558685,
              23.072329
            ],
            [
              72.55851,
              23.073551
            ],
            [
              72.557089,
              23.073955
            ],
            [
              72.556685,
              23.075618
            ]
          ]
        ],
        "type": "Polygon"
      },
      "type": "Feature"
    }
  ]
}