{
  "type": "FeatureCollection",
  "metadata": {
    "provider_name": "LunchBox - Meals and Thalis",
    "center_lat": 12.910752,
    "center_lon": 80.196228,
    "mode": "motorcycle",
    "total_zones": 4,
    "distance_zones": [
      3,
      4,
      5,
      6
    ],
    "generated_at": "2025-12-29T10:32:07.122479Z"
  },
  "features": [
    {
      "properties": {
        "fill-opacity": 0.33,
        "fillColor": "#bf4040",
        "opacity": 0.33,
        "fill": "#bf4040",
        "fillOpacity": 0.33,
        "color": "#bf4040",
        "contour": 3.0,
        "metric": "distance",
        "provider_name": "LunchBox - Meals and Thalis",
        "zone_type": "distance",
        "distance_km": 3,
        "mode": "motorcycle",
        "center_lat": 12.910752,
        "center_lon": 80.196228,
        "label": "3km"
      },
      "geometry": {
        "coordinates": [
          [
            [
              80.203228,
              12.932508
            ],
            [
              80.201228,
              12.931187
            ],
            [
              80.195496,
              12.93102
            ],
            [
              80.19399,
              12.93199
            ],
            [
              80.193853,
              12.930126
            ],
            [
              80.191226,
              12.929752
            ],
            [
              80.19289,
              12.927752
            ],
            [
              80.192228,
              12.926104
            ],
            [
              80.191228,
              12.92855
            ],
            [
              80.188228,
              12.927465
            ],
            [
              80.187228,
              12.928177
            ],
            [
              80.186924,
              12.927055
            ],
            [
              80.18577,
              12.926752
            ],
            [
              80.185983,
              12.925507
            ],
            [
              80.187228,
              12.925683
            ],
            [
              80.187355,
              12.924752
            ],
            [
              80.186527,
              12.924452
            ],
            [
              80.186571,
              12.922752
            ],
            [
              80.185641,
              12.921752
            ],
            [
              80.187372,
              12.920896
            ],
            [
              80.187232,
              12.919756
            ],
            [
              80.188255,
              12.919752
            ],
            [
              80.187239,
              12.919741
            ],
            [
              80.18637,
              12.918609
            ],
            [
              80.186495,
              12.917019
            ],
            [
              80.187303,
              12.916752
            ],
            [
              80.186605,
              12.916374
            ],
            [
              80.186444,
              12.914535
            ],
            [
              80.185228,
              12.915263
            ],
            [
              80.183228,
              12.91312
            ],
            [
              80.181228,
              12.913878
            ],
            [
              80.180165,
              12.912752
            ],
            [
              80.181024,
              12.912548
            ],
            [
              80.182228,
              12.908401
            ],
            [
              80.184228,
              12.909964
            ],
            [
              80.185684,
              12.909208
            ],
            [
              80.18604,
              12.907564
            ],
            [
              80.188252,
              12.906752
            ],
            [
              80.187324,
              12.906655
            ],
            [
              80.186696,
              12.904283
            ],
            [
              80.184088,
              12.903891
            ],
            [
              80.184228,
              12.902404
            ],
            [
              80.184454,
              12.903525
            ],
            [
              80.186228,
              12.903492
            ],
            [
              80.189904,
              12.900428
            ],
            [
              80.192702,
              12.900277
            ],
            [
              80.192891,
              12.901088
            ],
            [
              80.194518,
              12.901042
            ],
            [
              80.194228,
              12.900286
            ],
            [
              80.192748,
              12.900231
            ],
            [
              80.19286,
              12.895752
            ],
            [
              80.196609,
              12.895133
            ],
            [
              80.196827,
              12.893752
            ],
            [
              80.195782,
              12.892752
            ],
            [
              80.196686,
              12.89221
            ],
            [
              80.196756,
              12.891224
            ],
            [
              80.194996,
              12.890752
            ],
            [
              80.199228,
              12.888502
            ],
            [
              80.199226,
              12.889753
            ],
            [
              80.202602,
              12.891752
            ],
            [
              80.201314,
              12.893838
            ],
            [
              80.199228,
              12.894092
            ],
            [
              80.198703,
              12.895752
            ],
            [
              80.202651,
              12.897752
            ],
            [
              80.200825,
              12.901752
            ],
            [
              80.200985,
              12.902994
            ],
            [
              80.202228,
              12.903185
            ],
            [
              80.204228,
              12.901739
            ],
            [
              80.205981,
              12.901505
            ],
            [
              80.207228,
              12.899152
            ],
            [
              80.209361,
              12.901752
            ],
            [
              80.208483,
              12.902752
            ],
            [
              80.209228,
              12.904192
            ],
            [
              80.213228,
              12.902341
            ],
            [
              80.215228,
              12.902382
            ],
            [
              80.216228,
              12.901463
            ],
            [
              80.220306,
              12.901752
            ],
            [
              80.218543,
              12.902067
            ],
            [
              80.218228,
              12.90382
            ],
            [
              80.217228,
              12.902759
            ],
            [
              80.21682,
              12.903344
            ],
            [
              80.214228,
              12.903153
            ],
            [
              80.211894,
              12.904418
            ],
            [
              80.210757,
              12.905752
            ],
            [
              80.21051,
              12.909034
            ],
            [
              80.208913,
              12.909437
            ],
            [
              80.208558,
              12.912082
            ],
            [
              80.205908,
              12.914432
            ],
            [
              80.208519,
              12.917752
            ],
            [
              80.208413,
              12.919752
            ],
            [
              80.207521,
              12.920752
            ],
            [
              80.207382,
              12.922906
            ],
            [
              80.205946,
              12.92347
            ],
            [
              80.205279,
              12.925803
            ],
            [
              80.203228,
              12.927691
            ],
            [
              80.20187,
              12.927394
            ],
            [
              80.203184,
              12.927795
            ],
            [
              80.203228,
              12.932508
            ]
          ]
        ],
        "type": "Polygon"
      },
      "type": "Feature"
    },
    {
      "properties": {
        "fill-opacity": 0.33,
        "fillColor": "#bf4040",
        "opacity": 0.33,
        "fill": "#bf4040",
        "fillOpacity": 0.33,
        "color": "#bf4040",
        "contour": 4.0,
        "metric": "distance",
        "provider_name": "LunchBox - Meals and Thalis",
        "zone_type": "distance",
        "distance_km": 4,
        "mode": "motorcycle",
        "center_lat": 12.910752,
        "center_lon": 80.196228,
        "label": "4km"
      },
      "geometry": {
        "coordinates": [
          [
            [
              80.206228,
              12.940789
            ],
            [
              80.205119,
              12.94086
            ],
            [
              80.203643,
              12.938336
            ],
            [
              80.202228,
              12.937541
            ],
            [
              80.200228,
              12.937805
            ],
            [
              80.198121,
              12.936752
            ],
            [
              80.197971,
              12.935752
            ],
            [
              80.200228,
              12.935557
            ],
            [
              80.200892,
              12.934752
            ],
            [
              80.199019,
              12.93396
            ],
            [
              80.199963,
              12.932752
            ],
            [
              80.199228,
              12.931359
            ],
            [
              80.192808,
              12.934171
            ],
            [
              80.192734,
              12.931752
            ],
            [
              80.193692,
              12.930752
            ],
            [
              80.192228,
              12.930275
            ],
            [
              80.189566,
              12.932752
            ],
            [
              80.191247,
              12.933752
            ],
            [
              80.189228,
              12.935901
            ],
            [
              80.187878,
              12.935402
            ],
            [
              80.186228,
              12.936305
            ],
            [
              80.184495,
              12.935484
            ],
            [
              80.184118,
              12.934752
            ],
            [
              80.1869,
              12.932752
            ],
            [
              80.186717,
              12.927752
            ],
            [
              80.183227,
              12.925752
            ],
            [
              80.182698,
              12.921281
            ],
            [
              80.181228,
              12.919997
            ],
            [
              80.178928,
              12.919752
            ],
            [
              80.17844,
              12.918752
            ],
            [
              80.180926,
              12.91745
            ],
            [
              80.182228,
              12.91852
            ],
            [
              80.184228,
              12.918419
            ],
            [
              80.1848,
              12.917752
            ],
            [
              80.184228,
              12.917109
            ],
            [
              80.181924,
              12.917055
            ],
            [
              80.179593,
              12.912752
            ],
            [
              80.180756,
              12.910752
            ],
            [
              80.179984,
              12.907508
            ],
            [
              80.181228,
              12.906323
            ],
            [
              80.18268,
              12.906204
            ],
            [
              80.182893,
              12.904752
            ],
            [
              80.18188,
              12.903752
            ],
            [
              80.180719,
              12.89926
            ],
            [
              80.178307,
              12.898752
            ],
            [
              80.177679,
              12.897752
            ],
            [
              80.180645,
              12.897169
            ],
            [
              80.180228,
              12.894741
            ],
            [
              80.182228,
              12.894878
            ],
            [
              80.183228,
              12.894064
            ],
            [
              80.183941,
              12.897038
            ],
            [
              80.185277,
              12.897702
            ],
            [
              80.183589,
              12.898752
            ],
            [
              80.184915,
              12.903064
            ],
            [
              80.186512,
              12.903036
            ],
            [
              80.188228,
              12.900266
            ],
            [
              80.192571,
              12.900095
            ],
            [
              80.192819,
              12.895343
            ],
            [
              80.197585,
              12.894752
            ],
            [
              80.195228,
              12.893101
            ],
            [
              80.194019,
              12.89396
            ],
            [
              80.193228,
              12.892144
            ],
            [
              80.189111,
              12.891868
            ],
            [
              80.188985,
              12.887752
            ],
            [
              80.190228,
              12.886437
            ],
            [
              80.192228,
              12.886201
            ],
            [
              80.193317,
              12.886752
            ],
            [
              80.193823,
              12.890156
            ],
            [
              80.197534,
              12.889058
            ],
            [
              80.198749,
              12.887752
            ],
            [
              80.198824,
              12.885752
            ],
            [
              80.197877,
              12.884752
            ],
            [
              80.197916,
              12.881064
            ],
            [
              80.197295,
              12.880752
            ],
            [
              80.198228,
              12.879649
            ],
            [
              80.198555,
              12.881424
            ],
            [
              80.201319,
              12.881752
            ],
            [
              80.203159,
              12.88382
            ],
            [
              80.205276,
              12.884752
            ],
            [
              80.204294,
              12.888752
            ],
            [
              80.205343,
              12.889752
            ],
            [
              80.205763,
              12.892216
            ],
            [
              80.207294,
              12.892752
            ],
            [
              80.207456,
              12.894752
            ],
            [
              80.208569,
              12.895752
            ],
            [
              80.208628,
              12.897752
            ],
            [
              80.207715,
              12.898752
            ],
            [
              80.209763,
              12.901752
            ],
            [
              80.208801,
              12.902752
            ],
            [
              80.209007,
              12.903972
            ],
            [
              80.210228,
              12.904069
            ],
            [
              80.213228,
              12.902122
            ],
            [
              80.215228,
              12.902138
            ],
            [
              80.216228,
              12.901167
            ],
            [
              80.221595,
              12.901119
            ],
            [
              80.222973,
              12.899752
            ],
            [
              80.223228,
              12.897687
            ],
            [
              80.224273,
              12.897707
            ],
            [
              80.224785,
              12.900194
            ],
            [
              80.228338,
              12.900752
            ],
            [
              80.228228,
              12.902864
            ],
            [
              80.225782,
              12.901197
            ],
            [
              80.22479,
              12.901314
            ],
            [
              80.224761,
              12.902218
            ],
            [
              80.225839,
              12.902752
            ],
            [
              80.225667,
              12.903752
            ],
            [
              80.222254,
              12.908778
            ],
            [
              80.222228,
              12.910523
            ],
            [
              80.221199,
              12.910723
            ],
            [
              80.220228,
              12.912716
            ],
            [
              80.220048,
              12.910752
            ],
            [
              80.218679,
              12.9083
            ],
            [
              80.216615,
              12.908139
            ],
            [
              80.216228,
              12.908886
            ],
            [
              80.215182,
              12.907797
            ],
            [
              80.2148,
              12.903752
            ],
            [
              80.214228,
              12.903381
            ],
            [
              80.211013,
              12.905537
            ],
            [
              80.210651,
              12.909175
            ],
            [
              80.209014,
              12.909538
            ],
            [
              80.208671,
              12.912195
            ],
            [
              80.206011,
              12.914535
            ],
            [
              80.208618,
              12.917361
            ],
            [
              80.209228,
              12.919608
            ],
            [
              80.213251,
              12.923775
            ],
            [
              80.211262,
              12.926752
            ],
            [
              80.20817,
              12.927752
            ],
            [
              80.208277,
              12.928702
            ],
            [
              80.210815,
              12.930752
            ],
            [
              80.211387,
              12.932752
            ],
            [
              80.209745,
              12.934752
            ],
            [
              80.205224,
              12.935748
            ],
            [
              80.207897,
              12.937752
            ],
            [
              80.207629,
              12.938752
            ],
            [
              80.205428,
              12.939752
            ],
            [
              80.205335,
              12.940644
            ],
            [
              80.206215,
              12.940739
            ],
            [
              80.206228,
              12.940789
            ]
          ]
        ],
        "type": "Polygon"
      },
      "type": "Feature"
    },
    {
      "properties": {
        "fill-opacity": 0.33,
        "fillColor": "#bf4040",
        "opacity": 0.33,
        "fill": "#bf4040",
        "fillOpacity": 0.33,
        "color": "#bf4040",
        "contour": 5.0,
        "metric": "distance",
        "provider_name": "LunchBox - Meals and Thalis",
        "zone_type": "distance",
        "distance_km": 5,
        "mode": "motorcycle",
        "center_lat": 12.910752,
        "center_lon": 80.196228,
        "label": "5km"
      },
      "geometry": {
        "coordinates": [
          [
            [
              80.210228,
              12.949054
            ],
            [
              80.209228,
              12.948919
            ],
            [
              80.208507,
              12.947472
            ],
            [
              80.206228,
              12.94621
            ],
            [
              80.205228,
              12.946185
            ],
            [
              80.204328,
              12.947852
            ],
            [
              80.203228,
              12.947898
            ],
            [
              80.20306,
              12.946752
            ],
            [
              80.203977,
              12.945752
            ],
            [
              80.203228,
              12.944098
            ],
            [
              80.200436,
              12.94596
            ],
            [
              80.200228,
              12.947284
            ],
            [
              80.199468,
              12.946511
            ],
            [
              80.200448,
              12.944752
            ],
            [
              80.198832,
              12.942752
            ],
            [
              80.199209,
              12.940733
            ],
            [
              80.201018,
              12.939542
            ],
            [
              80.200967,
              12.938752
            ],
            [
              80.197228,
              12.938117
            ],
            [
              80.196447,
              12.938971
            ],
            [
              80.195228,
              12.938986
            ],
            [
              80.194016,
              12.937963
            ],
            [
              80.193979,
              12.935503
            ],
            [
              80.198563,
              12.935087
            ],
            [
              80.198656,
              12.933752
            ],
            [
              80.199651,
              12.932752
            ],
            [
              80.199433,
              12.931546
            ],
            [
              80.198228,
              12.932365
            ],
            [
              80.196228,
              12.932396
            ],
            [
              80.194493,
              12.934017
            ],
            [
              80.192915,
              12.934439
            ],
            [
              80.192372,
              12.937896
            ],
            [
              80.190228,
              12.939953
            ],
            [
              80.188228,
              12.940049
            ],
            [
              80.184909,
              12.93807
            ],
            [
              80.184442,
              12.936537
            ],
            [
              80.182463,
              12.935516
            ],
            [
              80.182228,
              12.934548
            ],
            [
              80.178914,
              12.932752
            ],
            [
              80.179228,
              12.930609
            ],
            [
              80.1807,
              12.930224
            ],
            [
              80.18183,
              12.928752
            ],
            [
              80.181728,
              12.924752
            ],
            [
              80.182678,
              12.923752
            ],
            [
              80.182503,
              12.921476
            ],
            [
              80.181228,
              12.920322
            ],
            [
              80.179228,
              12.92026
            ],
            [
              80.178228,
              12.922158
            ],
            [
              80.176819,
              12.920752
            ],
            [
              80.177748,
              12.919752
            ],
            [
              80.177228,
              12.919196
            ],
            [
              80.174228,
              12.919095
            ],
            [
              80.173228,
              12.920002
            ],
            [
              80.169633,
              12.919752
            ],
            [
              80.171228,
              12.917856
            ],
            [
              80.173354,
              12.917752
            ],
            [
              80.173049,
              12.915752
            ],
            [
              80.174859,
              12.914383
            ],
            [
              80.175029,
              12.912553
            ],
            [
              80.176218,
              12.910752
            ],
            [
              80.179007,
              12.910531
            ],
            [
              80.179816,
              12.90734
            ],
            [
              80.182651,
              12.905752
            ],
            [
              80.180228,
              12.899314
            ],
            [
              80.177794,
              12.900318
            ],
            [
              80.177515,
              12.901752
            ],
            [
              80.178228,
              12.902927
            ],
            [
              80.175228,
              12.902372
            ],
            [
              80.174228,
              12.90341
            ],
            [
              80.16982,
              12.900752
            ],
            [
              80.171006,
              12.895752
            ],
            [
              80.173597,
              12.895121
            ],
            [
              80.174677,
              12.893752
            ],
            [
              80.173748,
              12.891231
            ],
            [
              80.174197,
              12.888752
            ],
            [
              80.174235,
              12.888759
            ],
            [
              80.174453,
              12.889526
            ],
            [
              80.178228,
              12.890452
            ],
            [
              80.180625,
              12.892149
            ],
            [
              80.181963,
              12.890752
            ],
            [
              80.182228,
              12.88718
            ],
            [
              80.184228,
              12.885442
            ],
            [
              80.187228,
              12.887542
            ],
            [
              80.188369,
              12.886893
            ],
            [
              80.187886,
              12.881094
            ],
            [
              80.18697,
              12.880752
            ],
            [
              80.188195,
              12.878719
            ],
            [
              80.192961,
              12.879018
            ],
            [
              80.193846,
              12.87737
            ],
            [
              80.198625,
              12.877149
            ],
            [
              80.197989,
              12.875752
            ],
            [
              80.198956,
              12.874752
            ],
            [
              80.198996,
              12.87352
            ],
            [
              80.201228,
              12.872414
            ],
            [
              80.202417,
              12.873752
            ],
            [
              80.200914,
              12.874438
            ],
            [
              80.200784,
              12.877195
            ],
            [
              80.201741,
              12.877265
            ],
            [
              80.202228,
              12.875628
            ],
            [
              80.204137,
              12.876752
            ],
            [
              80.202618,
              12.878142
            ],
            [
              80.202539,
              12.87944
            ],
            [
              80.203968,
              12.880011
            ],
            [
              80.20371,
              12.882752
            ],
            [
              80.205776,
              12.884752
            ],
            [
              80.205527,
              12.887752
            ],
            [
              80.204582,
              12.888752
            ],
            [
              80.205617,
              12.889752
            ],
            [
              80.205954,
              12.892025
            ],
            [
              80.207745,
              12.892752
            ],
            [
              80.207792,
              12.894752
            ],
            [
              80.20883,
              12.895752
            ],
            [
              80.208853,
              12.897752
            ],
            [
              80.207889,
              12.898752
            ],
            [
              80.20991,
              12.901752
            ],
            [
              80.208929,
              12.902752
            ],
            [
              80.209062,
              12.903917
            ],
            [
              80.210228,
              12.903992
            ],
            [
              80.213228,
              12.902022
            ],
            [
              80.215228,
              12.90203
            ],
            [
              80.216228,
              12.901045
            ],
            [
              80.220465,
              12.900989
            ],
            [
              80.222485,
              12.900009
            ],
            [
              80.222997,
              12.897521
            ],
            [
              80.224228,
              12.897388
            ],
            [
              80.224961,
              12.900018
            ],
            [
              80.228818,
              12.900161
            ],
            [
              80.228922,
              12.903057
            ],
            [
              80.230502,
              12.903752
            ],
            [
              80.230815,
              12.904752
            ],
            [
              80.230669,
              12.905752
            ],
            [
              80.228818,
              12.906752
            ],
            [
              80.229228,
              12.911436
            ],
            [
              80.227191,
              12.910788
            ],
            [
              80.225228,
              12.908665
            ],
            [
              80.224517,
              12.911462
            ],
            [
              80.226514,
              12.911465
            ],
            [
              80.226511,
              12.912752
            ],
            [
              80.225392,
              12.913916
            ],
            [
              80.220228,
              12.915184
            ],
            [
              80.219228,
              12.914026
            ],
            [
              80.217024,
              12.913956
            ],
            [
              80.216989,
              12.912513
            ],
            [
              80.218614,
              12.912138
            ],
            [
              80.219678,
              12.910752
            ],
            [
              80.218497,
              12.908482
            ],
            [
              80.217228,
              12.908324
            ],
            [
              80.216228,
              12.909287
            ],
            [
              80.214883,
              12.908097
            ],
            [
              80.214228,
              12.903479
            ],
            [
              80.211065,
              12.905589
            ],
            [
              80.210716,
              12.90924
            ],
            [
              80.209066,
              12.90959
            ],
            [
              80.208727,
              12.912251
            ],
            [
              80.20598,
              12.914752
            ],
            [
              80.209228,
              12.91831
            ],
            [
              80.210016,
              12.91654
            ],
            [
              80.211422,
              12.916557
            ],
            [
              80.21168,
              12.919752
            ],
            [
              80.213881,
              12.924099
            ],
            [
              80.216464,
              12.924515
            ],
            [
              80.217425,
              12.930554
            ],
            [
              80.218852,
              12.930752
            ],
            [
              80.21874,
              12.933752
            ],
            [
              80.216107,
              12.936752
            ],
            [
              80.216748,
              12.937752
            ],
            [
              80.215999,
              12.939523
            ],
            [
              80.213329,
              12.940752
            ],
            [
              80.21321,
              12.942752
            ],
            [
              80.211228,
              12.942952
            ],
            [
              80.208759,
              12.944752
            ],
            [
              80.209715,
              12.945752
            ],
            [
              80.210228,
              12.949054
            ]
          ]
        ],
        "type": "Polygon"
      },
      "type": "Feature"
    },
    {
      "properties": {
        "fill-opacity": 0.33,
        "fillColor": "#bf4040",
        "opacity": 0.33,
        "fill": "#bf4040",
        "fillOpacity": 0.33,
        "color": "#bf4040",
        "contour": 6.0,
        "metric": "distance",
        "provider_name": "LunchBox - Meals and Thalis",
        "zone_type": "distance",
        "distance_km": 6,
        "mode": "motorcycle",
        "center_lat": 12.910752,
        "center_lon": 80.196228,
        "label": "6km"
      },
      "geometry": {
        "coordinates": [
          [
            [
              80.213228,
              12.957333
            ],
            [
              80.211228,
              12.956705
            ],
            [
              80.205399,
              12.952752
            ],
            [
              80.203228,
              12.952161
            ],
            [
              80.200006,
              12.948752
            ],
            [
              80.197228,
              12.948444
            ],
            [
              80.196228,
              12.949157
            ],
            [
              80.195228,
              12.948182
            ],
            [
              80.193081,
              12.947898
            ],
            [
              80.193906,
              12.946752
            ],
            [
              80.193228,
              12.945916
            ],
            [
              80.192418,
              12.945942
            ],
            [
              80.192088,
              12.946752
            ],
            [
              80.192882,
              12.942752
            ],
            [
              80.194228,
              12.942075
            ],
            [
              80.195035,
              12.940559
            ],
            [
              80.196228,
              12.940352
            ],
            [
              80.196273,
              12.939706
            ],
            [
              80.193831,
              12.938148
            ],
            [
              80.193613,
              12.935752
            ],
            [
              80.194228,
              12.935137
            ],
            [
              80.198451,
              12.934975
            ],
            [
              80.199384,
              12.931595
            ],
            [
              80.198228,
              12.932473
            ],
            [
              80.196228,
              12.932489
            ],
            [
              80.194644,
              12.934168
            ],
            [
              80.193015,
              12.934539
            ],
            [
              80.192788,
              12.937752
            ],
            [
              80.190712,
              12.940236
            ],
            [
              80.188228,
              12.940555
            ],
            [
              80.187228,
              12.939616
            ],
            [
              80.185228,
              12.939407
            ],
            [
              80.185028,
              12.939951
            ],
            [
              80.185659,
              12.940752
            ],
            [
              80.183228,
              12.943525
            ],
            [
              80.180881,
              12.941752
            ],
            [
              80.178416,
              12.937563
            ],
            [
              80.17595,
              12.937752
            ],
            [
              80.173469,
              12.936752
            ],
            [
              80.174757,
              12.932752
            ],
            [
              80.173909,
              12.93207
            ],
            [
              80.174042,
              12.930566
            ],
            [
              80.176228,
              12.930395
            ],
            [
              80.177228,
              12.931311
            ],
            [
              80.17891,
              12.929434
            ],
            [
              80.180228,
              12.930191
            ],
            [
              80.181486,
              12.92901
            ],
            [
              80.181561,
              12.924752
            ],
            [
              80.182538,
              12.923752
            ],
            [
              80.182519,
              12.921752
            ],
            [
              80.181426,
              12.920553
            ],
            [
              80.178999,
              12.920523
            ],
            [
              80.178228,
              12.922379
            ],
            [
              80.176599,
              12.920752
            ],
            [
              80.177458,
              12.919522
            ],
            [
              80.174228,
              12.919355
            ],
            [
              80.173228,
              12.920323
            ],
            [
              80.170882,
              12.920406
            ],
            [
              80.170435,
              12.921959
            ],
            [
              80.168228,
              12.924072
            ],
            [
              80.166031,
              12.923948
            ],
            [
              80.165029,
              12.922553
            ],
            [
              80.162505,
              12.923029
            ],
            [
              80.162228,
              12.924287
            ],
            [
              80.1608,
              12.922752
            ],
            [
              80.163228,
              12.918713
            ],
            [
              80.16667,
              12.918194
            ],
            [
              80.167863,
              12.915752
            ],
            [
              80.167016,
              12.91454
            ],
            [
              80.16803,
              12.912752
            ],
            [
              80.168228,
              12.909506
            ],
            [
              80.168402,
              12.910577
            ],
            [
              80.169625,
              12.911355
            ],
            [
              80.172228,
              12.911708
            ],
            [
              80.173601,
              12.911125
            ],
            [
              80.172875,
              12.909752
            ],
            [
              80.174228,
              12.908409
            ],
            [
              80.176228,
              12.908515
            ],
            [
              80.177228,
              12.909292
            ],
            [
              80.178748,
              12.908752
            ],
            [
              80.177789,
              12.907752
            ],
            [
              80.177668,
              12.905311
            ],
            [
              80.173228,
              12.905196
            ],
            [
              80.172228,
              12.904523
            ],
            [
              80.170839,
              12.905752
            ],
            [
              80.168534,
              12.906058
            ],
            [
              80.167545,
              12.907752
            ],
            [
              80.166526,
              12.907752
            ],
            [
              80.165983,
              12.905752
            ],
            [
              80.16686,
              12.905384
            ],
            [
              80.166766,
              12.904213
            ],
            [
              80.165476,
              12.904
            ],
            [
              80.165228,
              12.904632
            ],
            [
              80.16387,
              12.904109
            ],
            [
              80.161998,
              12.901752
            ],
            [
              80.162228,
              12.901194
            ],
            [
              80.162299,
              12.90168
            ],
            [
              80.164228,
              12.901519
            ],
            [
              80.165923,
              12.899752
            ],
            [
              80.165228,
              12.898862
            ],
            [
              80.164182,
              12.899797
            ],
            [
              80.163879,
              12.8981
            ],
            [
              80.162099,
              12.897752
            ],
            [
              80.164791,
              12.897315
            ],
            [
              80.16517,
              12.895694
            ],
            [
              80.168699,
              12.894223
            ],
            [
              80.170115,
              12.892639
            ],
            [
              80.171228,
              12.893467
            ],
            [
              80.171802,
              12.892752
            ],
            [
              80.172256,
              12.887723
            ],
            [
              80.171228,
              12.885886
            ],
            [
              80.170244,
              12.886768
            ],
            [
              80.169228,
              12.886474
            ],
            [
              80.170089,
              12.88389
            ],
            [
              80.168421,
              12.882752
            ],
            [
              80.170623,
              12.882147
            ],
            [
              80.171242,
              12.880738
            ],
            [
              80.171507,
              12.883752
            ],
            [
              80.173513,
              12.886466
            ],
            [
              80.174924,
              12.890055
            ],
            [
              80.176228,
              12.889215
            ],
            [
              80.180476,
              12.892
            ],
            [
              80.181651,
              12.890752
            ],
            [
              80.181746,
              12.886752
            ],
            [
              80.178933,
              12.885752
            ],
            [
              80.181018,
              12.883542
            ],
            [
              80.182228,
              12.884337
            ],
            [
              80.183228,
              12.883354
            ],
            [
              80.186598,
              12.886122
            ],
            [
              80.187197,
              12.884752
            ],
            [
              80.186178,
              12.883752
            ],
            [
              80.186211,
              12.882752
            ],
            [
              80.187661,
              12.881752
            ],
            [
              80.18395,
              12.881029
            ],
            [
              80.183931,
              12.877752
            ],
            [
              80.186228,
              12.877331
            ],
            [
              80.187228,
              12.876355
            ],
            [
              80.191627,
              12.876151
            ],
            [
              80.189674,
              12.872752
            ],
            [
              80.191006,
              12.87153
            ],
            [
              80.191228,
              12.870079
            ],
            [
              80.195228,
              12.872708
            ],
            [
              80.195923,
              12.871447
            ],
            [
              80.197228,
              12.871455
            ],
            [
              80.198228,
              12.872346
            ],
            [
              80.200554,
              12.872078
            ],
            [
              80.20061,
              12.870369
            ],
            [
              80.196561,
              12.869752
            ],
            [
              80.195481,
              12.868752
            ],
            [
              80.195821,
              12.867752
            ],
            [
              80.199692,
              12.867216
            ],
            [
              80.199806,
              12.866173
            ],
            [
              80.197928,
              12.865752
            ],
            [
              80.19817,
              12.864752
            ],
            [
              80.199152,
              12.864676
            ],
            [
              80.199228,
              12.86337
            ],
            [
              80.200397,
              12.863752
            ],
            [
              80.200609,
              12.868752
            ],
            [
              80.201492,
              12.869488
            ],
            [
              80.201867,
              12.872112
            ],
            [
              80.204642,
              12.872752
            ],
            [
              80.203842,
              12.875137
            ],
            [
              80.211228,
              12.878243
            ],
            [
              80.212228,
              12.879493
            ],
            [
              80.210556,
              12.88008
            ],
            [
              80.210228,
              12.882101
            ],
            [
              80.208032,
              12.881556
            ],
            [
              80.208391,
              12.883915
            ],
            [
              80.207228,
              12.885718
            ],
            [
              80.206228,
              12.885579
            ],
            [
              80.205867,
              12.887752
            ],
            [
              80.204869,
              12.888752
            ],
            [
              80.205891,
              12.889752
            ],
            [
              80.206034,
              12.891946
            ],
            [
              80.207662,
              12.892317
            ],
            [
              80.207924,
              12.894752
            ],
            [
              80.208943,
              12.895752
            ],
            [
              80.208955,
              12.897752
            ],
            [
              80.207975,
              12.898752
            ],
            [
              80.209987,
              12.901752
            ],
            [
              80.208997,
              12.902752
            ],
            [
              80.209095,
              12.903884
            ],
            [
              80.210228,
              12.903946
            ],
            [
              80.213228,
              12.901964
            ],
            [
              80.215228,
              12.90197
            ],
            [
              80.216228,
              12.900979
            ],
            [
              80.220403,
              12.900927
            ],
            [
              80.222413,
              12.899937
            ],
            [
              80.223228,
              12.897101
            ],
            [
              80.22468,
              12.897299
            ],
            [
              80.225228,
              12.898551
            ],
            [
              80.226741,
              12.898265
            ],
            [
              80.227228,
              12.892802
            ],
            [
              80.229805,
              12.894752
            ],
            [
              80.228559,
              12.895083
            ],
            [
              80.228736,
              12.896243
            ],
            [
              80.229908,
              12.896432
            ],
            [
              80.230228,
              12.895214
            ],
            [
              80.232561,
              12.896752
            ],
            [
              80.231204,
              12.899775
            ],
            [
              80.234228,
              12.899209
            ],
            [
              80.236189,
              12.899752
            ],
            [
              80.235602,
              12.901752
            ],
            [
              80.233194,
              12.904718
            ],
            [
              80.233628,
              12.906352
            ],
            [
              80.234833,
              12.907147
            ],
            [
              80.235527,
              12.910752
            ],
            [
              80.232228,
              12.912521
            ],
            [
              80.230577,
              12.909402
            ],
            [
              80.229858,
              12.909752
            ],
            [
              80.230228,
              12.914315
            ],
            [
              80.231913,
              12.915752
            ],
            [
              80.230376,
              12.9159
            ],
            [
              80.230228,
              12.920552
            ],
            [
              80.229228,
              12.919998
            ],
            [
              80.228228,
              12.920424
            ],
            [
              80.226228,
              12.918785
            ],
            [
              80.225639,
              12.91434
            ],
            [
              80.220228,
              12.915389
            ],
            [
              80.219228,
              12.914331
            ],
            [
              80.216834,
              12.914145
            ],
            [
              80.216822,
              12.912346
            ],
            [
              80.218472,
              12.911996
            ],
            [
              80.219538,
              12.910752
            ],
            [
              80.218419,
              12.90856
            ],
            [
              80.217228,
              12.908452
            ],
            [
              80.216228,
              12.909435
            ],
            [
              80.214778,
              12.908201
            ],
            [
              80.214228,
              12.903539
            ],
            [
              80.211097,
              12.905621
            ],
            [
              80.210805,
              12.909329
            ],
            [
              80.209097,
              12.909621
            ],
            [
              80.208826,
              12.91235
            ],
            [
              80.206029,
              12.914752
            ],
            [
              80.209228,
              12.91811
            ],
            [
              80.209831,
              12.916355
            ],
            [
              80.211618,
              12.916361
            ],
            [
              80.211857,
              12.918752
            ],
            [
              80.21286,
              12.919752
            ],
            [
              80.212885,
              12.921752
            ],
            [
              80.213999,
              12.92398
            ],
            [
              80.216633,
              12.924346
            ],
            [
              80.216919,
              12.92706
            ],
            [
              80.220678,
              12.932752
            ],
            [
              80.219714,
              12.933752
            ],
            [
              80.220661,
              12.934752
            ],
            [
              80.220495,
              12.936019
            ],
            [
              80.217706,
              12.937752
            ],
            [
              80.218614,
              12.940752
            ],
            [
              80.216564,
              12.944752
            ],
            [
              80.217386,
              12.94591
            ],
            [
              80.216228,
              12.946904
            ],
            [
              80.214228,
              12.945929
            ],
            [
              80.212598,
              12.946752
            ],
            [
              80.213228,
              12.948345
            ],
            [
              80.219477,
              12.948752
            ],
            [
              80.212228,
              12.949193
            ],
            [
              80.211456,
              12.949752
            ],
            [
              80.212633,
              12.955346
            ],
            [
              80.213361,
              12.955752
            ],
            [
              80.213228,
              12.957333
            ]
          ]
        ],
        "type": "Polygon"
      },
      "type": "Feature"
    }
  ]
}