{
  "type": "FeatureCollection",
  "metadata": {
    "provider_name": "Pizza Merrano",
    "center_lat": 18.65929349,
    "center_lon": 73.73288391,
    "mode": "motorcycle",
    "total_zones": 4,
    "distance_zones": [
      3,
      4,
      5,
      6
    ],
    "generated_at": "2025-12-31T06:33:21.017336Z"
  },
  "features": [
    {
      "properties": {
        "fill-opacity": 0.33,
        "fillColor": "#bf4040",
        "opacity": 0.33,
        "fill": "#bf4040",
        "fillOpacity": 0.33,
        "color": "#bf4040",
        "contour": 3.0,
        "metric": "distance",
        "provider_name": "Pizza Merrano",
        "zone_type": "distance",
        "distance_km": 3,
        "mode": "motorcycle",
        "center_lat": 18.65929349,
        "center_lon": 73.73288391,
        "label": "3km"
      },
      "geometry": {
        "coordinates": [
          [
            [
              73.721883,
              18.682983
            ],
            [
              73.721344,
              18.680293
            ],
            [
              73.719916,
              18.678293
            ],
            [
              73.720614,
              18.677293
            ],
            [
              73.719334,
              18.675293
            ],
            [
              73.719853,
              18.674263
            ],
            [
              73.720032,
              18.675144
            ],
            [
              73.721603,
              18.675012
            ],
            [
              73.723232,
              18.673642
            ],
            [
              73.724317,
              18.671293
            ],
            [
              73.722517,
              18.670659
            ],
            [
              73.721559,
              18.667969
            ],
            [
              73.723221,
              18.667955
            ],
            [
              73.723883,
              18.669723
            ],
            [
              73.725144,
              18.667033
            ],
            [
              73.722529,
              18.665648
            ],
            [
              73.721883,
              18.663532
            ],
            [
              73.716883,
              18.663829
            ],
            [
              73.716509,
              18.664667
            ],
            [
              73.718883,
              18.665147
            ],
            [
              73.720036,
              18.666293
            ],
            [
              73.720014,
              18.667423
            ],
            [
              73.718154,
              18.668293
            ],
            [
              73.719835,
              18.669293
            ],
            [
              73.719926,
              18.670293
            ],
            [
              73.718883,
              18.670492
            ],
            [
              73.716883,
              18.66949
            ],
            [
              73.715883,
              18.670347
            ],
            [
              73.714754,
              18.669293
            ],
            [
              73.715512,
              18.668922
            ],
            [
              73.715409,
              18.667767
            ],
            [
              73.711056,
              18.667466
            ],
            [
              73.710883,
              18.668225
            ],
            [
              73.709978,
              18.667293
            ],
            [
              73.710694,
              18.667104
            ],
            [
              73.710449,
              18.665727
            ],
            [
              73.709204,
              18.665614
            ],
            [
              73.707883,
              18.66686
            ],
            [
              73.706507,
              18.665293
            ],
            [
              73.706735,
              18.664293
            ],
            [
              73.707665,
              18.664075
            ],
            [
              73.707883,
              18.662854
            ],
            [
              73.708735,
              18.663442
            ],
            [
              73.709883,
              18.662645
            ],
            [
              73.713255,
              18.662664
            ],
            [
              73.711612,
              18.659293
            ],
            [
              73.712756,
              18.659166
            ],
            [
              73.713883,
              18.657932
            ],
            [
              73.714883,
              18.659842
            ],
            [
              73.717883,
              18.659739
            ],
            [
              73.720146,
              18.658556
            ],
            [
              73.718295,
              18.657293
            ],
            [
              73.71852,
              18.65393
            ],
            [
              73.719247,
              18.65393
            ],
            [
              73.719883,
              18.655692
            ],
            [
              73.722372,
              18.653293
            ],
            [
              73.721576,
              18.651986
            ],
            [
              73.723328,
              18.651849
            ],
            [
              73.724228,
              18.652637
            ],
            [
              73.723625,
              18.651035
            ],
            [
              73.724883,
              18.649928
            ],
            [
              73.72634,
              18.64975
            ],
            [
              73.726693,
              18.648103
            ],
            [
              73.729271,
              18.647681
            ],
            [
              73.731883,
              18.643915
            ],
            [
              73.73241,
              18.648293
            ],
            [
              73.734309,
              18.648718
            ],
            [
              73.736509,
              18.645293
            ],
            [
              73.736445,
              18.643293
            ],
            [
              73.737559,
              18.642293
            ],
            [
              73.737639,
              18.640293
            ],
            [
              73.739883,
              18.636698
            ],
            [
              73.741657,
              18.638293
            ],
            [
              73.739176,
              18.640293
            ],
            [
              73.739236,
              18.642293
            ],
            [
              73.740473,
              18.644704
            ],
            [
              73.743446,
              18.643856
            ],
            [
              73.743883,
              18.64224
            ],
            [
              73.745099,
              18.642293
            ],
            [
              73.745869,
              18.643293
            ],
            [
              73.744883,
              18.644973
            ],
            [
              73.742883,
              18.645019
            ],
            [
              73.742285,
              18.646695
            ],
            [
              73.740491,
              18.6469
            ],
            [
              73.740856,
              18.649266
            ],
            [
              73.739391,
              18.653786
            ],
            [
              73.741594,
              18.654003
            ],
            [
              73.741883,
              18.652475
            ],
            [
              73.743307,
              18.654293
            ],
            [
              73.741272,
              18.654681
            ],
            [
              73.741233,
              18.655944
            ],
            [
              73.743714,
              18.656123
            ],
            [
              73.743883,
              18.65514
            ],
            [
              73.745211,
              18.655965
            ],
            [
              73.746089,
              18.658088
            ],
            [
              73.747109,
              18.658293
            ],
            [
              73.745878,
              18.659298
            ],
            [
              73.747325,
              18.659852
            ],
            [
              73.748746,
              18.662431
            ],
            [
              73.750883,
              18.660849
            ],
            [
              73.752609,
              18.661019
            ],
            [
              73.752883,
              18.66024
            ],
            [
              73.753888,
              18.660288
            ],
            [
              73.752905,
              18.660314
            ],
            [
              73.752916,
              18.661325
            ],
            [
              73.752014,
              18.661423
            ],
            [
              73.751938,
              18.662348
            ],
            [
              73.750157,
              18.662567
            ],
            [
              73.749883,
              18.663451
            ],
            [
              73.746883,
              18.663515
            ],
            [
              73.744417,
              18.664826
            ],
            [
              73.742245,
              18.667293
            ],
            [
              73.742293,
              18.670293
            ],
            [
              73.741294,
              18.671293
            ],
            [
              73.741147,
              18.673556
            ],
            [
              73.733883,
              18.679973
            ],
            [
              73.731951,
              18.679293
            ],
            [
              73.732737,
              18.679147
            ],
            [
              73.732726,
              18.678293
            ],
            [
              73.730732,
              18.674293
            ],
            [
              73.727313,
              18.670863
            ],
            [
              73.726468,
              18.670878
            ],
            [
              73.724862,
              18.677293
            ],
            [
              73.72597,
              18.67938
            ],
            [
              73.724883,
              18.680043
            ],
            [
              73.723687,
              18.679097
            ],
            [
              73.721883,
              18.682983
            ]
          ]
        ],
        "type": "Polygon"
      },
      "type": "Feature"
    },
    {
      "properties": {
        "fill-opacity": 0.33,
        "fillColor": "#bf4040",
        "opacity": 0.33,
        "fill": "#bf4040",
        "fillOpacity": 0.33,
        "color": "#bf4040",
        "contour": 4.0,
        "metric": "distance",
        "provider_name": "Pizza Merrano",
        "zone_type": "distance",
        "distance_km": 4,
        "mode": "motorcycle",
        "center_lat": 18.65929349,
        "center_lon": 73.73288391,
        "label": "4km"
      },
      "geometry": {
        "coordinates": [
          [
            [
              73.722883,
              18.689412
            ],
            [
              73.722506,
              18.688671
            ],
            [
              73.719883,
              18.687979
            ],
            [
              73.718883,
              18.689198
            ],
            [
              73.716999,
              18.689408
            ],
            [
              73.716883,
              18.68996
            ],
            [
              73.716569,
              18.687293
            ],
            [
              73.717645,
              18.687055
            ],
            [
              73.71775,
              18.685427
            ],
            [
              73.716417,
              18.685293
            ],
            [
              73.717883,
              18.685233
            ],
            [
              73.718173,
              18.686003
            ],
            [
              73.719883,
              18.685959
            ],
            [
              73.720518,
              18.683293
            ],
            [
              73.717883,
              18.681518
            ],
            [
              73.716883,
              18.682433
            ],
            [
              73.715802,
              18.682293
            ],
            [
              73.715883,
              18.67776
            ],
            [
              73.718447,
              18.676293
            ],
            [
              73.714883,
              18.67257
            ],
            [
              73.714024,
              18.673293
            ],
            [
              73.713883,
              18.674838
            ],
            [
              73.711706,
              18.672293
            ],
            [
              73.711876,
              18.671285
            ],
            [
              73.713883,
              18.672079
            ],
            [
              73.715304,
              18.670713
            ],
            [
              73.714349,
              18.669293
            ],
            [
              73.715173,
              18.668004
            ],
            [
              73.711561,
              18.667971
            ],
            [
              73.711338,
              18.670748
            ],
            [
              73.709883,
              18.671085
            ],
            [
              73.709374,
              18.666802
            ],
            [
              73.708883,
              18.666814
            ],
            [
              73.706858,
              18.669293
            ],
            [
              73.707914,
              18.670262
            ],
            [
              73.707883,
              18.671153
            ],
            [
              73.707786,
              18.670391
            ],
            [
              73.70639,
              18.6708
            ],
            [
              73.704883,
              18.673698
            ],
            [
              73.704654,
              18.672522
            ],
            [
              73.702991,
              18.6724
            ],
            [
              73.702883,
              18.672987
            ],
            [
              73.702847,
              18.672256
            ],
            [
              73.703668,
              18.672078
            ],
            [
              73.703852,
              18.670293
            ],
            [
              73.701907,
              18.669293
            ],
            [
              73.700709,
              18.667293
            ],
            [
              73.701483,
              18.666293
            ],
            [
              73.704264,
              18.665674
            ],
            [
              73.704275,
              18.664901
            ],
            [
              73.703141,
              18.664293
            ],
            [
              73.704479,
              18.663293
            ],
            [
              73.703883,
              18.662605
            ],
            [
              73.70156,
              18.662293
            ],
            [
              73.704326,
              18.661735
            ],
            [
              73.704883,
              18.660026
            ],
            [
              73.705255,
              18.662293
            ],
            [
              73.706883,
              18.663789
            ],
            [
              73.707372,
              18.663293
            ],
            [
              73.706439,
              18.662738
            ],
            [
              73.706883,
              18.660857
            ],
            [
              73.708883,
              18.660877
            ],
            [
              73.710883,
              18.662688
            ],
            [
              73.712883,
              18.662657
            ],
            [
              73.713126,
              18.66205
            ],
            [
              73.711305,
              18.659293
            ],
            [
              73.713477,
              18.657886
            ],
            [
              73.71429,
              18.657886
            ],
            [
              73.714883,
              18.659648
            ],
            [
              73.717883,
              18.659601
            ],
            [
              73.720072,
              18.658481
            ],
            [
              73.718175,
              18.657293
            ],
            [
              73.718425,
              18.653835
            ],
            [
              73.719342,
              18.653835
            ],
            [
              73.720074,
              18.655484
            ],
            [
              73.722212,
              18.653293
            ],
            [
              73.72145,
              18.65186
            ],
            [
              73.723244,
              18.651654
            ],
            [
              73.724476,
              18.649885
            ],
            [
              73.726155,
              18.649564
            ],
            [
              73.726495,
              18.647904
            ],
            [
              73.729129,
              18.647538
            ],
            [
              73.731883,
              18.643677
            ],
            [
              73.7325,
              18.644293
            ],
            [
              73.732562,
              18.648293
            ],
            [
              73.734138,
              18.648547
            ],
            [
              73.737069,
              18.642293
            ],
            [
              73.737051,
              18.640293
            ],
            [
              73.737883,
              18.639293
            ],
            [
              73.737308,
              18.638293
            ],
            [
              73.739395,
              18.636293
            ],
            [
              73.737894,
              18.632283
            ],
            [
              73.735859,
              18.631293
            ],
            [
              73.736234,
              18.630293
            ],
            [
              73.736883,
              18.629363
            ],
            [
              73.737883,
              18.62946
            ],
            [
              73.739883,
              18.631995
            ],
            [
              73.740699,
              18.631293
            ],
            [
              73.740572,
              18.630605
            ],
            [
              73.739024,
              18.630293
            ],
            [
              73.73943,
              18.629293
            ],
            [
              73.739883,
              18.629018
            ],
            [
              73.740062,
              18.630115
            ],
            [
              73.741554,
              18.629964
            ],
            [
              73.742936,
              18.628241
            ],
            [
              73.744211,
              18.629293
            ],
            [
              73.743541,
              18.631293
            ],
            [
              73.744131,
              18.633046
            ],
            [
              73.745813,
              18.633293
            ],
            [
              73.74417,
              18.633579
            ],
            [
              73.743204,
              18.635293
            ],
            [
              73.74492,
              18.636293
            ],
            [
              73.746122,
              18.638293
            ],
            [
              73.744883,
              18.639397
            ],
            [
              73.744581,
              18.637596
            ],
            [
              73.742883,
              18.637474
            ],
            [
              73.741231,
              18.639641
            ],
            [
              73.739595,
              18.640005
            ],
            [
              73.73949,
              18.642293
            ],
            [
              73.740489,
              18.644293
            ],
            [
              73.740883,
              18.644676
            ],
            [
              73.743176,
              18.643585
            ],
            [
              73.743541,
              18.641951
            ],
            [
              73.745883,
              18.640834
            ],
            [
              73.749615,
              18.642025
            ],
            [
              73.749883,
              18.640099
            ],
            [
              73.751319,
              18.642858
            ],
            [
              73.753883,
              18.643007
            ],
            [
              73.753883,
              18.643844
            ],
            [
              73.752777,
              18.644187
            ],
            [
              73.750917,
              18.647327
            ],
            [
              73.747413,
              18.647823
            ],
            [
              73.746985,
              18.651192
            ],
            [
              73.7479,
              18.651277
            ],
            [
              73.747883,
              18.652417
            ],
            [
              73.752883,
              18.652416
            ],
            [
              73.753875,
              18.653293
            ],
            [
              73.753883,
              18.654457
            ],
            [
              73.753903,
              18.653293
            ],
            [
              73.757883,
              18.652934
            ],
            [
              73.757149,
              18.655293
            ],
            [
              73.759071,
              18.658105
            ],
            [
              73.759971,
              18.658293
            ],
            [
              73.759883,
              18.659157
            ],
            [
              73.759716,
              18.65846
            ],
            [
              73.758883,
              18.658425
            ],
            [
              73.757097,
              18.659507
            ],
            [
              73.754883,
              18.65954
            ],
            [
              73.752133,
              18.662543
            ],
            [
              73.749883,
              18.663753
            ],
            [
              73.746883,
              18.663786
            ],
            [
              73.742641,
              18.667051
            ],
            [
              73.742609,
              18.671018
            ],
            [
              73.741753,
              18.671293
            ],
            [
              73.741145,
              18.677293
            ],
            [
              73.743996,
              18.678293
            ],
            [
              73.742223,
              18.678632
            ],
            [
              73.742052,
              18.680125
            ],
            [
              73.742883,
              18.680766
            ],
            [
              73.734883,
              18.680094
            ],
            [
              73.734352,
              18.681762
            ],
            [
              73.733198,
              18.682608
            ],
            [
              73.730883,
              18.682757
            ],
            [
              73.729113,
              18.684523
            ],
            [
              73.726484,
              18.684894
            ],
            [
              73.723861,
              18.687271
            ],
            [
              73.723883,
              18.689253
            ],
            [
              73.722883,
              18.689412
            ]
          ]
        ],
        "type": "Polygon"
      },
      "type": "Feature"
    },
    {
      "properties": {
        "fill-opacity": 0.33,
        "fillColor": "#bf4040",
        "opacity": 0.33,
        "fill": "#bf4040",
        "fillOpacity": 0.33,
        "color": "#bf4040",
        "contour": 5.0,
        "metric": "distance",
        "provider_name": "Pizza Merrano",
        "zone_type": "distance",
        "distance_km": 5,
        "mode": "motorcycle",
        "center_lat": 18.65929349,
        "center_lon": 73.73288391,
        "label": "5km"
      },
      "geometry": {
        "coordinates": [
          [
            [
              73.715883,
              18.69635
            ],
            [
              73.714883,
              18.693582
            ],
            [
              73.713735,
              18.696293
            ],
            [
              73.712854,
              18.696323
            ],
            [
              73.712523,
              18.694654
            ],
            [
              73.711883,
              18.694527
            ],
            [
              73.709883,
              18.695987
            ],
            [
              73.709835,
              18.695244
            ],
            [
              73.710645,
              18.695055
            ],
            [
              73.713492,
              18.691293
            ],
            [
              73.71254,
              18.690293
            ],
            [
              73.71348,
              18.688293
            ],
            [
              73.712643,
              18.687053
            ],
            [
              73.717344,
              18.686293
            ],
            [
              73.714883,
              18.684726
            ],
            [
              73.713883,
              18.685571
            ],
            [
              73.711883,
              18.685498
            ],
            [
              73.711376,
              18.683801
            ],
            [
              73.709811,
              18.683366
            ],
            [
              73.709611,
              18.681293
            ],
            [
              73.71183,
              18.679293
            ],
            [
              73.709883,
              18.677542
            ],
            [
              73.707813,
              18.677363
            ],
            [
              73.709446,
              18.676856
            ],
            [
              73.709491,
              18.675686
            ],
            [
              73.707455,
              18.675864
            ],
            [
              73.705668,
              18.678508
            ],
            [
              73.704516,
              18.677293
            ],
            [
              73.703883,
              18.67282
            ],
            [
              73.69832,
              18.677729
            ],
            [
              73.697883,
              18.680097
            ],
            [
              73.696883,
              18.679891
            ],
            [
              73.696833,
              18.679242
            ],
            [
              73.697669,
              18.679078
            ],
            [
              73.697751,
              18.677161
            ],
            [
              73.703196,
              18.671606
            ],
            [
              73.703376,
              18.670293
            ],
            [
              73.701883,
              18.669792
            ],
            [
              73.701145,
              18.671554
            ],
            [
              73.698883,
              18.672576
            ],
            [
              73.696089,
              18.672498
            ],
            [
              73.695528,
              18.673293
            ],
            [
              73.695815,
              18.672225
            ],
            [
              73.697883,
              18.672056
            ],
            [
              73.700455,
              18.670293
            ],
            [
              73.697883,
              18.668659
            ],
            [
              73.693883,
              18.668432
            ],
            [
              73.693737,
              18.66744
            ],
            [
              73.692672,
              18.667293
            ],
            [
              73.693883,
              18.66715
            ],
            [
              73.694883,
              18.668079
            ],
            [
              73.699252,
              18.667662
            ],
            [
              73.700504,
              18.663293
            ],
            [
              73.699373,
              18.661804
            ],
            [
              73.697743,
              18.661293
            ],
            [
              73.699883,
              18.660084
            ],
            [
              73.700883,
              18.661958
            ],
            [
              73.704149,
              18.661559
            ],
            [
              73.704883,
              18.659716
            ],
            [
              73.705883,
              18.662662
            ],
            [
              73.706883,
              18.660654
            ],
            [
              73.708883,
              18.660662
            ],
            [
              73.710883,
              18.662576
            ],
            [
              73.712883,
              18.66256
            ],
            [
              73.71118,
              18.659293
            ],
            [
              73.713404,
              18.657813
            ],
            [
              73.714363,
              18.657813
            ],
            [
              73.714883,
              18.659555
            ],
            [
              73.717883,
              18.659529
            ],
            [
              73.718344,
              18.658754
            ],
            [
              73.72003,
              18.65844
            ],
            [
              73.718109,
              18.657293
            ],
            [
              73.71836,
              18.653769
            ],
            [
              73.719407,
              18.653769
            ],
            [
              73.720032,
              18.655441
            ],
            [
              73.722131,
              18.653293
            ],
            [
              73.72139,
              18.651799
            ],
            [
              73.723149,
              18.651558
            ],
            [
              73.724403,
              18.649813
            ],
            [
              73.726076,
              18.649486
            ],
            [
              73.726413,
              18.647823
            ],
            [
              73.729063,
              18.647472
            ],
            [
              73.730395,
              18.644805
            ],
            [
              73.731883,
              18.64357
            ],
            [
              73.732606,
              18.644293
            ],
            [
              73.73264,
              18.648293
            ],
            [
              73.733966,
              18.648376
            ],
            [
              73.736501,
              18.642293
            ],
            [
              73.734883,
              18.63961
            ],
            [
              73.733883,
              18.640505
            ],
            [
              73.732108,
              18.640517
            ],
            [
              73.731859,
              18.641317
            ],
            [
              73.731684,
              18.640293
            ],
            [
              73.732526,
              18.639936
            ],
            [
              73.732749,
              18.637428
            ],
            [
              73.730607,
              18.636293
            ],
            [
              73.732557,
              18.635966
            ],
            [
              73.732648,
              18.635293
            ],
            [
              73.730883,
              18.633539
            ],
            [
              73.729761,
              18.634416
            ],
            [
              73.729794,
              18.632204
            ],
            [
              73.731556,
              18.631293
            ],
            [
              73.730728,
              18.630137
            ],
            [
              73.732883,
              18.628952
            ],
            [
              73.733883,
              18.629906
            ],
            [
              73.734451,
              18.629293
            ],
            [
              73.73169,
              18.625293
            ],
            [
              73.732567,
              18.62361
            ],
            [
              73.730924,
              18.623334
            ],
            [
              73.730883,
              18.62396
            ],
            [
              73.730883,
              18.62292
            ],
            [
              73.731735,
              18.622144
            ],
            [
              73.734883,
              18.622794
            ],
            [
              73.736883,
              18.620724
            ],
            [
              73.73739,
              18.623786
            ],
            [
              73.739883,
              18.625978
            ],
            [
              73.742379,
              18.624788
            ],
            [
              73.742213,
              18.623293
            ],
            [
              73.745022,
              18.621431
            ],
            [
              73.745397,
              18.620293
            ],
            [
              73.746883,
              18.620051
            ],
            [
              73.748588,
              18.623293
            ],
            [
              73.747213,
              18.624623
            ],
            [
              73.747424,
              18.625752
            ],
            [
              73.750883,
              18.625939
            ],
            [
              73.751901,
              18.627276
            ],
            [
              73.751883,
              18.627838
            ],
            [
              73.75185,
              18.627326
            ],
            [
              73.748421,
              18.62683
            ],
            [
              73.748998,
              18.629407
            ],
            [
              73.747883,
              18.6286
            ],
            [
              73.745883,
              18.630599
            ],
            [
              73.744546,
              18.629955
            ],
            [
              73.744574,
              18.632603
            ],
            [
              73.748883,
              18.633078
            ],
            [
              73.749883,
              18.635026
            ],
            [
              73.750793,
              18.633203
            ],
            [
              73.751652,
              18.633062
            ],
            [
              73.751883,
              18.631343
            ],
            [
              73.752044,
              18.633293
            ],
            [
              73.751155,
              18.634564
            ],
            [
              73.752189,
              18.636293
            ],
            [
              73.751313,
              18.638293
            ],
            [
              73.752302,
              18.639293
            ],
            [
              73.75039,
              18.640293
            ],
            [
              73.751883,
              18.642739
            ],
            [
              73.757883,
              18.637129
            ],
            [
              73.759694,
              18.637103
            ],
            [
              73.759883,
              18.636528
            ],
            [
              73.761246,
              18.639293
            ],
            [
              73.757883,
              18.639555
            ],
            [
              73.757189,
              18.640293
            ],
            [
              73.757883,
              18.641029
            ],
            [
              73.7618,
              18.641293
            ],
            [
              73.761999,
              18.643178
            ],
            [
              73.759487,
              18.643897
            ],
            [
              73.758568,
              18.645608
            ],
            [
              73.760883,
              18.647623
            ],
            [
              73.763883,
              18.646662
            ],
            [
              73.764883,
              18.647032
            ],
            [
              73.76499,
              18.650187
            ],
            [
              73.763883,
              18.652976
            ],
            [
              73.760883,
              18.65233
            ],
            [
              73.760611,
              18.65302
            ],
            [
              73.758748,
              18.653157
            ],
            [
              73.758684,
              18.654293
            ],
            [
              73.75746,
              18.655293
            ],
            [
              73.757694,
              18.656293
            ],
            [
              73.759415,
              18.656762
            ],
            [
              73.760883,
              18.658795
            ],
            [
              73.761832,
              18.658293
            ],
            [
              73.761929,
              18.657339
            ],
            [
              73.762883,
              18.65733
            ],
            [
              73.763883,
              18.658729
            ],
            [
              73.764883,
              18.656607
            ],
            [
              73.765883,
              18.656954
            ],
            [
              73.767229,
              18.658947
            ],
            [
              73.767669,
              18.661508
            ],
            [
              73.769086,
              18.662293
            ],
            [
              73.767883,
              18.663321
            ],
            [
              73.765561,
              18.662971
            ],
            [
              73.764883,
              18.66542
            ],
            [
              73.763883,
              18.66471
            ],
            [
              73.762883,
              18.665513
            ],
            [
              73.762532,
              18.663645
            ],
            [
              73.759264,
              18.663293
            ],
            [
              73.758654,
              18.661522
            ],
            [
              73.759596,
              18.661005
            ],
            [
              73.759387,
              18.659293
            ],
            [
              73.757883,
              18.658867
            ],
            [
              73.756883,
              18.660071
            ],
            [
              73.754579,
              18.659988
            ],
            [
              73.752328,
              18.662737
            ],
            [
              73.749883,
              18.664055
            ],
            [
              73.746883,
              18.664057
            ],
            [
              73.746545,
              18.664955
            ],
            [
              73.744768,
              18.665178
            ],
            [
              73.744701,
              18.666111
            ],
            [
              73.742788,
              18.667293
            ],
            [
              73.742811,
              18.669293
            ],
            [
              73.744119,
              18.669529
            ],
            [
              73.744883,
              18.668674
            ],
            [
              73.746658,
              18.669293
            ],
            [
              73.746177,
              18.672293
            ],
            [
              73.747121,
              18.673293
            ],
            [
              73.744219,
              18.674293
            ],
            [
              73.745261,
              18.675293
            ],
            [
              73.745304,
              18.677293
            ],
            [
              73.746883,
              18.677809
            ],
            [
              73.747883,
              18.676932
            ],
            [
              73.752802,
              18.677212
            ],
            [
              73.752883,
              18.676654
            ],
            [
              73.752883,
              18.677761
            ],
            [
              73.748883,
              18.677621
            ],
            [
              73.747145,
              18.679293
            ],
            [
              73.749141,
              18.680293
            ],
            [
              73.749149,
              18.681558
            ],
            [
              73.747883,
              18.681743
            ],
            [
              73.746239,
              18.683293
            ],
            [
              73.747883,
              18.685088
            ],
            [
              73.748671,
              18.68508
            ],
            [
              73.748895,
              18.684282
            ],
            [
              73.749866,
              18.685293
            ],
            [
              73.74839,
              18.687799
            ],
            [
              73.747883,
              18.688166
            ],
            [
              73.747561,
              18.686615
            ],
            [
              73.746883,
              18.686489
            ],
            [
              73.745883,
              18.687384
            ],
            [
              73.744497,
              18.687293
            ],
            [
              73.745702,
              18.687112
            ],
            [
              73.746347,
              18.68483
            ],
            [
              73.743624,
              18.683552
            ],
            [
              73.743237,
              18.68194
            ],
            [
              73.740883,
              18.680802
            ],
            [
              73.738883,
              18.680816
            ],
            [
              73.738442,
              18.681734
            ],
            [
              73.74003,
              18.683293
            ],
            [
              73.736403,
              18.682812
            ],
            [
              73.735883,
              18.687158
            ],
            [
              73.735712,
              18.686464
            ],
            [
              73.734636,
              18.686293
            ],
            [
              73.733095,
              18.683082
            ],
            [
              73.731574,
              18.683983
            ],
            [
              73.730213,
              18.686622
            ],
            [
              73.731422,
              18.688755
            ],
            [
              73.73135,
              18.69076
            ],
            [
              73.729883,
              18.691583
            ],
            [
              73.729503,
              18.690673
            ],
            [
              73.728375,
              18.690784
            ],
            [
              73.727176,
              18.691585
            ],
            [
              73.726869,
              18.693293
            ],
            [
              73.726081,
              18.692293
            ],
            [
              73.726741,
              18.691293
            ],
            [
              73.725656,
              18.690293
            ],
            [
              73.726579,
              18.689293
            ],
            [
              73.724883,
              18.688775
            ],
            [
              73.724198,
              18.690607
            ],
            [
              73.722498,
              18.690907
            ],
            [
              73.717975,
              18.695385
            ],
            [
              73.716202,
              18.695611
            ],
            [
              73.715883,
              18.69635
            ]
          ]
        ],
        "type": "Polygon"
      },
      "type": "Feature"
    },
    {
      "properties": {
        "fill-opacity": 0.33,
        "fillColor": "#bf4040",
        "opacity": 0.33,
        "fill": "#bf4040",
        "fillOpacity": 0.33,
        "color": "#bf4040",
        "contour": 6.0,
        "metric": "distance",
        "provider_name": "Pizza Merrano",
        "zone_type": "distance",
        "distance_km": 6,
        "mode": "motorcycle",
        "center_lat": 18.65929349,
        "center_lon": 73.73288391,
        "label": "6km"
      },
      "geometry": {
        "coordinates": [
          [
            [
              73.716883,
              18.701462
            ],
            [
              73.713654,
              18.701523
            ],
            [
              73.712883,
              18.699642
            ],
            [
              73.711221,
              18.701293
            ],
            [
              73.710282,
              18.701293
            ],
            [
              73.711685,
              18.699094
            ],
            [
              73.713472,
              18.698293
            ],
            [
              73.711883,
              18.694859
            ],
            [
              73.710211,
              18.69662
            ],
            [
              73.708521,
              18.696931
            ],
            [
              73.708962,
              18.698372
            ],
            [
              73.707375,
              18.698785
            ],
            [
              73.707248,
              18.699928
            ],
            [
              73.708621,
              18.701293
            ],
            [
              73.707883,
              18.701916
            ],
            [
              73.707109,
              18.701068
            ],
            [
              73.705883,
              18.701464
            ],
            [
              73.704883,
              18.700509
            ],
            [
              73.70282,
              18.700356
            ],
            [
              73.702338,
              18.698839
            ],
            [
              73.700509,
              18.698293
            ],
            [
              73.700883,
              18.697184
            ],
            [
              73.706883,
              18.696889
            ],
            [
              73.709218,
              18.695627
            ],
            [
              73.713262,
              18.691293
            ],
            [
              73.71228,
              18.690293
            ],
            [
              73.713257,
              18.688293
            ],
            [
              73.712477,
              18.686886
            ],
            [
              73.717199,
              18.686293
            ],
            [
              73.714883,
              18.684931
            ],
            [
              73.713883,
              18.685874
            ],
            [
              73.711512,
              18.685664
            ],
            [
              73.711167,
              18.68401
            ],
            [
              73.709355,
              18.683293
            ],
            [
              73.708403,
              18.681293
            ],
            [
              73.708514,
              18.678293
            ],
            [
              73.70731,
              18.676866
            ],
            [
              73.706622,
              18.677031
            ],
            [
              73.706281,
              18.67869
            ],
            [
              73.705486,
              18.67869
            ],
            [
              73.704254,
              18.676293
            ],
            [
              73.704098,
              18.673078
            ],
            [
              73.698592,
              18.678001
            ],
            [
              73.698187,
              18.681596
            ],
            [
              73.696883,
              18.680779
            ],
            [
              73.694156,
              18.682565
            ],
            [
              73.693883,
              18.683625
            ],
            [
              73.692577,
              18.683293
            ],
            [
              73.697195,
              18.678605
            ],
            [
              73.697513,
              18.676923
            ],
            [
              73.703096,
              18.671506
            ],
            [
              73.70309,
              18.670087
            ],
            [
              73.701651,
              18.670061
            ],
            [
              73.701298,
              18.671708
            ],
            [
              73.698883,
              18.672876
            ],
            [
              73.696568,
              18.672978
            ],
            [
              73.695354,
              18.674293
            ],
            [
              73.695135,
              18.676545
            ],
            [
              73.693437,
              18.676847
            ],
            [
              73.693021,
              18.67843
            ],
            [
              73.688883,
              18.678973
            ],
            [
              73.688796,
              18.675293
            ],
            [
              73.689883,
              18.674285
            ],
            [
              73.690153,
              18.675024
            ],
            [
              73.691395,
              18.674805
            ],
            [
              73.691569,
              18.673608
            ],
            [
              73.690801,
              18.67321
            ],
            [
              73.693883,
              18.673847
            ],
            [
              73.695532,
              18.671942
            ],
            [
              73.697883,
              18.671726
            ],
            [
              73.700247,
              18.670293
            ],
            [
              73.697883,
              18.668905
            ],
            [
              73.693883,
              18.66883
            ],
            [
              73.692883,
              18.667798
            ],
            [
              73.691883,
              18.668767
            ],
            [
              73.689883,
              18.667699
            ],
            [
              73.688883,
              18.668618
            ],
            [
              73.686437,
              18.668293
            ],
            [
              73.685839,
              18.667337
            ],
            [
              73.683953,
              18.667293
            ],
            [
              73.683883,
              18.666195
            ],
            [
              73.690279,
              18.665689
            ],
            [
              73.68967,
              18.66208
            ],
            [
              73.691444,
              18.662853
            ],
            [
              73.691883,
              18.660544
            ],
            [
              73.692086,
              18.66209
            ],
            [
              73.69304,
              18.662293
            ],
            [
              73.692195,
              18.664293
            ],
            [
              73.693468,
              18.665709
            ],
            [
              73.695043,
              18.666133
            ],
            [
              73.694576,
              18.6676
            ],
            [
              73.698883,
              18.667669
            ],
            [
              73.700233,
              18.665293
            ],
            [
              73.700266,
              18.663293
            ],
            [
              73.699166,
              18.662011
            ],
            [
              73.697525,
              18.661651
            ],
            [
              73.697525,
              18.660935
            ],
            [
              73.699883,
              18.659735
            ],
            [
              73.70061,
              18.661566
            ],
            [
              73.703883,
              18.661583
            ],
            [
              73.704883,
              18.65959
            ],
            [
              73.705883,
              18.662563
            ],
            [
              73.706883,
              18.660558
            ],
            [
              73.708883,
              18.660562
            ],
            [
              73.710883,
              18.662514
            ],
            [
              73.712883,
              18.662504
            ],
            [
              73.711112,
              18.659293
            ],
            [
              73.711497,
              18.658906
            ],
            [
              73.713883,
              18.657512
            ],
            [
              73.714883,
              18.6595
            ],
            [
              73.717883,
              18.659484
            ],
            [
              73.718258,
              18.658668
            ],
            [
              73.720004,
              18.658413
            ],
            [
              73.718252,
              18.657925
            ],
            [
              73.718268,
              18.653678
            ],
            [
              73.719499,
              18.653678
            ],
            [
              73.720005,
              18.655414
            ],
            [
              73.722082,
              18.653293
            ],
            [
              73.721295,
              18.652881
            ],
            [
              73.721295,
              18.651705
            ],
            [
              73.723093,
              18.651503
            ],
            [
              73.724321,
              18.64973
            ],
            [
              73.726033,
              18.649443
            ],
            [
              73.726338,
              18.647748
            ],
            [
              73.729025,
              18.647434
            ],
            [
              73.730091,
              18.646293
            ],
            [
              73.730305,
              18.644715
            ],
            [
              73.731883,
              18.64351
            ],
            [
              73.732666,
              18.644293
            ],
            [
              73.732688,
              18.648293
            ],
            [
              73.733543,
              18.648293
            ],
            [
              73.736154,
              18.643023
            ],
            [
              73.735148,
              18.640028
            ],
            [
              73.731883,
              18.641802
            ],
            [
              73.730883,
              18.640629
            ],
            [
              73.726798,
              18.641293
            ],
            [
              73.725746,
              18.63943
            ],
            [
              73.72482,
              18.639356
            ],
            [
              73.72444,
              18.637736
            ],
            [
              73.721784,
              18.638293
            ],
            [
              73.723523,
              18.636933
            ],
            [
              73.723883,
              18.633144
            ],
            [
              73.725399,
              18.635778
            ],
            [
              73.72658,
              18.635293
            ],
            [
              73.726779,
              18.631397
            ],
            [
              73.725849,
              18.631328
            ],
            [
              73.725883,
              18.630795
            ],
            [
              73.726913,
              18.631263
            ],
            [
              73.727307,
              18.632869
            ],
            [
              73.728883,
              18.633124
            ],
            [
              73.729526,
              18.631936
            ],
            [
              73.731159,
              18.631569
            ],
            [
              73.730317,
              18.630293
            ],
            [
              73.733293,
              18.628702
            ],
            [
              73.733281,
              18.627293
            ],
            [
              73.730883,
              18.624791
            ],
            [
              73.728883,
              18.626644
            ],
            [
              73.726431,
              18.625841
            ],
            [
              73.725883,
              18.628534
            ],
            [
              73.724149,
              18.628293
            ],
            [
              73.723719,
              18.626293
            ],
            [
              73.724536,
              18.624641
            ],
            [
              73.72304,
              18.624293
            ],
            [
              73.722877,
              18.623293
            ],
            [
              73.72393,
              18.623247
            ],
            [
              73.724112,
              18.624065
            ],
            [
              73.726334,
              18.623744
            ],
            [
              73.724868,
              18.620278
            ],
            [
              73.726486,
              18.619895
            ],
            [
              73.72769,
              18.6181
            ],
            [
              73.729353,
              18.617763
            ],
            [
              73.729836,
              18.615245
            ],
            [
              73.731791,
              18.615385
            ],
            [
              73.731948,
              18.616229
            ],
            [
              73.734021,
              18.617156
            ],
            [
              73.734421,
              18.618755
            ],
            [
              73.737883,
              18.618889
            ],
            [
              73.739171,
              18.620005
            ],
            [
              73.738345,
              18.621293
            ],
            [
              73.739135,
              18.622545
            ],
            [
              73.737449,
              18.623293
            ],
            [
              73.740166,
              18.625575
            ],
            [
              73.742362,
              18.624293
            ],
            [
              73.740621,
              18.623293
            ],
            [
              73.740663,
              18.622073
            ],
            [
              73.742286,
              18.621695
            ],
            [
              73.742471,
              18.620706
            ],
            [
              73.741883,
              18.619605
            ],
            [
              73.740748,
              18.620429
            ],
            [
              73.740707,
              18.618293
            ],
            [
              73.741883,
              18.618981
            ],
            [
              73.743511,
              18.617293
            ],
            [
              73.742883,
              18.616598
            ],
            [
              73.741713,
              18.617464
            ],
            [
              73.74146,
              18.616717
            ],
            [
              73.738983,
              18.616293
            ],
            [
              73.738952,
              18.615293
            ],
            [
              73.740883,
              18.615159
            ],
            [
              73.741883,
              18.616047
            ],
            [
              73.743883,
              18.615949
            ],
            [
              73.744883,
              18.615054
            ],
            [
              73.745462,
              18.616714
            ],
            [
              73.746883,
              18.616894
            ],
            [
              73.74752,
              18.616293
            ],
            [
              73.747427,
              18.613837
            ],
            [
              73.749883,
              18.611403
            ],
            [
              73.749996,
              18.615293
            ],
            [
              73.749199,
              18.616293
            ],
            [
              73.750411,
              18.618766
            ],
            [
              73.75152,
              18.61893
            ],
            [
              73.751883,
              18.616777
            ],
            [
              73.753883,
              18.618037
            ],
            [
              73.753086,
              18.618496
            ],
            [
              73.753192,
              18.620984
            ],
            [
              73.754135,
              18.621293
            ],
            [
              73.754178,
              18.622999
            ],
            [
              73.755761,
              18.623293
            ],
            [
              73.755074,
              18.623484
            ],
            [
              73.754883,
              18.624666
            ],
            [
              73.753671,
              18.623506
            ],
            [
              73.752883,
              18.623397
            ],
            [
              73.752193,
              18.624293
            ],
            [
              73.753533,
              18.625293
            ],
            [
              73.753478,
              18.627698
            ],
            [
              73.754883,
              18.627599
            ],
            [
              73.755483,
              18.629293
            ],
            [
              73.752552,
              18.631962
            ],
            [
              73.751588,
              18.633998
            ],
            [
              73.751478,
              18.635293
            ],
            [
              73.752473,
              18.636293
            ],
            [
              73.75152,
              18.638293
            ],
            [
              73.752516,
              18.639293
            ],
            [
              73.750553,
              18.640293
            ],
            [
              73.751883,
              18.642602
            ],
            [
              73.75718,
              18.63759
            ],
            [
              73.758544,
              18.635293
            ],
            [
              73.75759,
              18.634293
            ],
            [
              73.757496,
              18.632681
            ],
            [
              73.756033,
              18.632293
            ],
            [
              73.756883,
              18.6306
            ],
            [
              73.758192,
              18.631984
            ],
            [
              73.759883,
              18.632007
            ],
            [
              73.761883,
              18.633696
            ],
            [
              73.76361,
              18.63302
            ],
            [
              73.763883,
              18.631537
            ],
            [
              73.768358,
              18.632819
            ],
            [
              73.766104,
              18.637293
            ],
            [
              73.767275,
              18.637901
            ],
            [
              73.767883,
              18.640522
            ],
            [
              73.772671,
              18.642505
            ],
            [
              73.773071,
              18.644293
            ],
            [
              73.772883,
              18.645317
            ],
            [
              73.770466,
              18.645876
            ],
            [
              73.770883,
              18.648606
            ],
            [
              73.76894,
              18.649293
            ],
            [
              73.769026,
              18.651293
            ],
            [
              73.773883,
              18.655069
            ],
            [
              73.774051,
              18.656461
            ],
            [
              73.772883,
              18.65631
            ],
            [
              73.771266,
              18.657293
            ],
            [
              73.771826,
              18.661351
            ],
            [
              73.772883,
              18.662222
            ],
            [
              73.775936,
              18.661241
            ],
            [
              73.775379,
              18.662788
            ],
            [
              73.773501,
              18.664293
            ],
            [
              73.775249,
              18.664927
            ],
            [
              73.776721,
              18.667293
            ],
            [
              73.773883,
              18.667342
            ],
            [
              73.771883,
              18.665622
            ],
            [
              73.7687,
              18.668477
            ],
            [
              73.766883,
              18.666711
            ],
            [
              73.765883,
              18.667674
            ],
            [
              73.761883,
              18.667653
            ],
            [
              73.760883,
              18.668554
            ],
            [
              73.759454,
              18.666293
            ],
            [
              73.761284,
              18.665694
            ],
            [
              73.762188,
              18.663989
            ],
            [
              73.758883,
              18.663842
            ],
            [
              73.754768,
              18.660177
            ],
            [
              73.75368,
              18.662089
            ],
            [
              73.752836,
              18.662246
            ],
            [
              73.752824,
              18.663234
            ],
            [
              73.750933,
              18.663293
            ],
            [
              73.752148,
              18.664293
            ],
            [
              73.751727,
              18.666293
            ],
            [
              73.753883,
              18.667045
            ],
            [
              73.753918,
              18.669328
            ],
            [
              73.751883,
              18.671543
            ],
            [
              73.750883,
              18.670629
            ],
            [
              73.748883,
              18.670703
            ],
            [
              73.747531,
              18.66994
            ],
            [
              73.746469,
              18.672293
            ],
            [
              73.74732,
              18.67373
            ],
            [
              73.744484,
              18.674293
            ],
            [
              73.745845,
              18.674331
            ],
            [
              73.746059,
              18.676293
            ],
            [
              73.746883,
              18.677093
            ],
            [
              73.747883,
              18.67621
            ],
            [
              73.751883,
              18.676488
            ],
            [
              73.752883,
              18.675638
            ],
            [
              73.756341,
              18.67575
            ],
            [
              73.757049,
              18.674293
            ],
            [
              73.760883,
              18.675128
            ],
            [
              73.761883,
              18.674495
            ],
            [
              73.761912,
              18.676321
            ],
            [
              73.759883,
              18.678591
            ],
            [
              73.759686,
              18.676293
            ],
            [
              73.758883,
              18.675588
            ],
            [
              73.757883,
              18.676627
            ],
            [
              73.753396,
              18.677293
            ],
            [
              73.75246,
              18.680717
            ],
            [
              73.757579,
              18.681293
            ],
            [
              73.754883,
              18.681524
            ],
            [
              73.753883,
              18.682585
            ],
            [
              73.751493,
              18.682902
            ],
            [
              73.751303,
              18.685713
            ],
            [
              73.750359,
              18.686293
            ],
            [
              73.750883,
              18.686916
            ],
            [
              73.751525,
              18.685935
            ],
            [
              73.753171,
              18.686293
            ],
            [
              73.752246,
              18.687293
            ],
            [
              73.753179,
              18.688293
            ],
            [
              73.753112,
              18.692293
            ],
            [
              73.754757,
              18.694293
            ],
            [
              73.754348,
              18.694757
            ],
            [
              73.75367,
              18.693506
            ],
            [
              73.750745,
              18.692432
            ],
            [
              73.750296,
              18.69088
            ],
            [
              73.747552,
              18.688624
            ],
            [
              73.747189,
              18.686987
            ],
            [
              73.745883,
              18.687817
            ],
            [
              73.743509,
              18.687919
            ],
            [
              73.742883,
              18.688666
            ],
            [
              73.740883,
              18.686657
            ],
            [
              73.738883,
              18.686558
            ],
            [
              73.738505,
              18.687671
            ],
            [
              73.740128,
              18.688049
            ],
            [
              73.740419,
              18.689757
            ],
            [
              73.742073,
              18.690293
            ],
            [
              73.740883,
              18.6932
            ],
            [
              73.739299,
              18.688877
            ],
            [
              73.737883,
              18.688732
            ],
            [
              73.737261,
              18.689671
            ],
            [
              73.735384,
              18.689793
            ],
            [
              73.735207,
              18.692616
            ],
            [
              73.733883,
              18.692687
            ],
            [
              73.732883,
              18.693664
            ],
            [
              73.732245,
              18.691931
            ],
            [
              73.731533,
              18.691942
            ],
            [
              73.731163,
              18.693572
            ],
            [
              73.729473,
              18.694883
            ],
            [
              73.728883,
              18.696579
            ],
            [
              73.727529,
              18.695293
            ],
            [
              73.727461,
              18.69387
            ],
            [
              73.728434,
              18.693293
            ],
            [
              73.728366,
              18.69181
            ],
            [
              73.727577,
              18.691987
            ],
            [
              73.727336,
              18.693745
            ],
            [
              73.72551,
              18.694919
            ],
            [
              73.725266,
              18.696293
            ],
            [
              73.722339,
              18.696749
            ],
            [
              73.721883,
              18.699043
            ],
            [
              73.720799,
              18.696209
            ],
            [
              73.721883,
              18.695084
            ],
            [
              73.722883,
              18.696006
            ],
            [
              73.724295,
              18.695705
            ],
            [
              73.726345,
              18.691293
            ],
            [
              73.725319,
              18.690293
            ],
            [
              73.726294,
              18.689293
            ],
            [
              73.724883,
              18.688952
            ],
            [
              73.72432,
              18.690729
            ],
            [
              73.722639,
              18.691049
            ],
            [
              73.718241,
              18.695651
            ],
            [
              73.715534,
              18.696943
            ],
            [
              73.715236,
              18.700293
            ],
            [
              73.716883,
              18.701462
            ]
          ]
        ],
        "type": "Polygon"
      },
      "type": "Feature"
    }
  ]
}