{
  "type": "FeatureCollection",
  "metadata": {
    "provider_name": "Burger King",
    "center_lat": 25.6104998,
    "center_lon": 85.1400296,
    "mode": "motorcycle",
    "total_zones": 4,
    "distance_zones": [
      3,
      4,
      5,
      6
    ],
    "generated_at": "2025-12-29T08:36:45.887236Z"
  },
  "features": [
    {
      "properties": {
        "fill-opacity": 0.33,
        "fillColor": "#bf4040",
        "opacity": 0.33,
        "fill": "#bf4040",
        "fillOpacity": 0.33,
        "color": "#bf4040",
        "contour": 3.0,
        "metric": "distance",
        "provider_name": "Burger King",
        "zone_type": "distance",
        "distance_km": 3,
        "mode": "motorcycle",
        "center_lat": 25.6104998,
        "center_lon": 85.1400296,
        "label": "3km"
      },
      "geometry": {
        "coordinates": [
          [
            [
              85.135029,
              25.629563
            ],
            [
              85.134673,
              25.627856
            ],
            [
              85.133244,
              25.627714
            ],
            [
              85.132674,
              25.628499
            ],
            [
              85.132594,
              25.627499
            ],
            [
              85.130498,
              25.626031
            ],
            [
              85.129327,
              25.625798
            ],
            [
              85.129029,
              25.626472
            ],
            [
              85.128604,
              25.624924
            ],
            [
              85.124843,
              25.623499
            ],
            [
              85.126955,
              25.621499
            ],
            [
              85.125412,
              25.621117
            ],
            [
              85.124329,
              25.619199
            ],
            [
              85.121702,
              25.617826
            ],
            [
              85.12144,
              25.616499
            ],
            [
              85.122188,
              25.615499
            ],
            [
              85.12018,
              25.612499
            ],
            [
              85.119029,
              25.613884
            ],
            [
              85.117447,
              25.613499
            ],
            [
              85.117315,
              25.612214
            ],
            [
              85.115812,
              25.611499
            ],
            [
              85.116547,
              25.610499
            ],
            [
              85.116243,
              25.607285
            ],
            [
              85.113063,
              25.605499
            ],
            [
              85.112533,
              25.604499
            ],
            [
              85.114888,
              25.604359
            ],
            [
              85.115029,
              25.603346
            ],
            [
              85.116935,
              25.603593
            ],
            [
              85.118029,
              25.604788
            ],
            [
              85.121029,
              25.601177
            ],
            [
              85.123029,
              25.600833
            ],
            [
              85.124029,
              25.6019
            ],
            [
              85.125498,
              25.600969
            ],
            [
              85.125029,
              25.599765
            ],
            [
              85.122244,
              25.600285
            ],
            [
              85.122029,
              25.5994
            ],
            [
              85.119953,
              25.598575
            ],
            [
              85.119997,
              25.597499
            ],
            [
              85.121315,
              25.596499
            ],
            [
              85.124029,
              25.59714
            ],
            [
              85.125029,
              25.598117
            ],
            [
              85.12789,
              25.598499
            ],
            [
              85.12658,
              25.59905
            ],
            [
              85.127029,
              25.599904
            ],
            [
              85.130786,
              25.599256
            ],
            [
              85.132029,
              25.600131
            ],
            [
              85.132491,
              25.598038
            ],
            [
              85.130955,
              25.595499
            ],
            [
              85.132029,
              25.594282
            ],
            [
              85.133206,
              25.595499
            ],
            [
              85.133606,
              25.597922
            ],
            [
              85.135114,
              25.598585
            ],
            [
              85.136656,
              25.598126
            ],
            [
              85.137029,
              25.596874
            ],
            [
              85.139152,
              25.597623
            ],
            [
              85.141029,
              25.594432
            ],
            [
              85.142029,
              25.594289
            ],
            [
              85.14259,
              25.592499
            ],
            [
              85.144029,
              25.591937
            ],
            [
              85.151285,
              25.597499
            ],
            [
              85.151237,
              25.599499
            ],
            [
              85.152268,
              25.600499
            ],
            [
              85.151202,
              25.601672
            ],
            [
              85.149588,
              25.602059
            ],
            [
              85.149659,
              25.602869
            ],
            [
              85.154029,
              25.602961
            ],
            [
              85.155029,
              25.602131
            ],
            [
              85.158029,
              25.601838
            ],
            [
              85.162324,
              25.603499
            ],
            [
              85.16205,
              25.604499
            ],
            [
              85.163203,
              25.606325
            ],
            [
              85.164683,
              25.606499
            ],
            [
              85.163451,
              25.608499
            ],
            [
              85.165734,
              25.610499
            ],
            [
              85.163416,
              25.610886
            ],
            [
              85.16321,
              25.611499
            ],
            [
              85.164001,
              25.612499
            ],
            [
              85.163174,
              25.614354
            ],
            [
              85.164607,
              25.615499
            ],
            [
              85.162906,
              25.616376
            ],
            [
              85.163029,
              25.617654
            ],
            [
              85.160731,
              25.618201
            ],
            [
              85.160093,
              25.619563
            ],
            [
              85.15654,
              25.62001
            ],
            [
              85.156029,
              25.621732
            ],
            [
              85.154095,
              25.622565
            ],
            [
              85.153029,
              25.621955
            ],
            [
              85.152029,
              25.623068
            ],
            [
              85.151029,
              25.62192
            ],
            [
              85.150029,
              25.623294
            ],
            [
              85.144029,
              25.6238
            ],
            [
              85.143029,
              25.624821
            ],
            [
              85.139029,
              25.624992
            ],
            [
              85.138029,
              25.625943
            ],
            [
              85.136605,
              25.626075
            ],
            [
              85.136029,
              25.629312
            ],
            [
              85.135029,
              25.629563
            ]
          ]
        ],
        "type": "Polygon"
      },
      "type": "Feature"
    },
    {
      "properties": {
        "fill-opacity": 0.33,
        "fillColor": "#bf4040",
        "opacity": 0.33,
        "fill": "#bf4040",
        "fillOpacity": 0.33,
        "color": "#bf4040",
        "contour": 4.0,
        "metric": "distance",
        "provider_name": "Burger King",
        "zone_type": "distance",
        "distance_km": 4,
        "mode": "motorcycle",
        "center_lat": 25.6104998,
        "center_lon": 85.1400296,
        "label": "4km"
      },
      "geometry": {
        "coordinates": [
          [
            [
              85.140029,
              25.6375
            ],
            [
              85.138978,
              25.637551
            ],
            [
              85.137029,
              25.635698
            ],
            [
              85.136029,
              25.636547
            ],
            [
              85.134768,
              25.636499
            ],
            [
              85.135928,
              25.636398
            ],
            [
              85.13595,
              25.63542
            ],
            [
              85.137723,
              25.634499
            ],
            [
              85.134029,
              25.628051
            ],
            [
              85.130419,
              25.630499
            ],
            [
              85.131029,
              25.633886
            ],
            [
              85.129029,
              25.63381
            ],
            [
              85.128762,
              25.632766
            ],
            [
              85.125513,
              25.630499
            ],
            [
              85.125096,
              25.629433
            ],
            [
              85.122361,
              25.630831
            ],
            [
              85.122029,
              25.631674
            ],
            [
              85.120726,
              25.631802
            ],
            [
              85.124461,
              25.627931
            ],
            [
              85.12452,
              25.627009
            ],
            [
              85.122918,
              25.626611
            ],
            [
              85.12279,
              25.624738
            ],
            [
              85.119985,
              25.625544
            ],
            [
              85.120018,
              25.62351
            ],
            [
              85.118061,
              25.621499
            ],
            [
              85.117029,
              25.617145
            ],
            [
              85.115029,
              25.616152
            ],
            [
              85.112029,
              25.618113
            ],
            [
              85.111676,
              25.616852
            ],
            [
              85.110066,
              25.616499
            ],
            [
              85.112,
              25.612499
            ],
            [
              85.11161,
              25.611499
            ],
            [
              85.109029,
              25.610812
            ],
            [
              85.107899,
              25.608369
            ],
            [
              85.108649,
              25.605499
            ],
            [
              85.110437,
              25.604908
            ],
            [
              85.110388,
              25.60414
            ],
            [
              85.104029,
              25.604315
            ],
            [
              85.103008,
              25.603499
            ],
            [
              85.106019,
              25.602499
            ],
            [
              85.106029,
              25.600301
            ],
            [
              85.108029,
              25.602312
            ],
            [
              85.109506,
              25.601976
            ],
            [
              85.107801,
              25.597499
            ],
            [
              85.110784,
              25.596254
            ],
            [
              85.111029,
              25.594899
            ],
            [
              85.113137,
              25.592607
            ],
            [
              85.115279,
              25.59175
            ],
            [
              85.119057,
              25.591527
            ],
            [
              85.121029,
              25.590274
            ],
            [
              85.124783,
              25.592499
            ],
            [
              85.127029,
              25.592209
            ],
            [
              85.126783,
              25.589499
            ],
            [
              85.130029,
              25.585627
            ],
            [
              85.130448,
              25.58808
            ],
            [
              85.131278,
              25.588499
            ],
            [
              85.131433,
              25.591499
            ],
            [
              85.133329,
              25.5932
            ],
            [
              85.134792,
              25.592499
            ],
            [
              85.134259,
              25.589499
            ],
            [
              85.135029,
              25.588133
            ],
            [
              85.136297,
              25.589499
            ],
            [
              85.140029,
              25.591153
            ],
            [
              85.141423,
              25.589499
            ],
            [
              85.14074,
              25.58821
            ],
            [
              85.144661,
              25.587132
            ],
            [
              85.145029,
              25.586367
            ],
            [
              85.14777,
              25.586499
            ],
            [
              85.148116,
              25.587412
            ],
            [
              85.151039,
              25.587499
            ],
            [
              85.152029,
              25.5887
            ],
            [
              85.152387,
              25.592499
            ],
            [
              85.153508,
              25.593499
            ],
            [
              85.152432,
              25.594499
            ],
            [
              85.152666,
              25.596862
            ],
            [
              85.154672,
              25.597142
            ],
            [
              85.155029,
              25.595719
            ],
            [
              85.157029,
              25.594368
            ],
            [
              85.158029,
              25.594751
            ],
            [
              85.161133,
              25.597395
            ],
            [
              85.160328,
              25.598499
            ],
            [
              85.161408,
              25.599499
            ],
            [
              85.159634,
              25.600105
            ],
            [
              85.159688,
              25.60184
            ],
            [
              85.164029,
              25.602268
            ],
            [
              85.165029,
              25.601344
            ],
            [
              85.167691,
              25.601499
            ],
            [
              85.167029,
              25.603088
            ],
            [
              85.165585,
              25.603055
            ],
            [
              85.165478,
              25.604948
            ],
            [
              85.163683,
              25.605499
            ],
            [
              85.165507,
              25.606021
            ],
            [
              85.16567,
              25.607858
            ],
            [
              85.166708,
              25.607499
            ],
            [
              85.166733,
              25.606203
            ],
            [
              85.168029,
              25.606194
            ],
            [
              85.170029,
              25.609148
            ],
            [
              85.173278,
              25.608499
            ],
            [
              85.173319,
              25.611789
            ],
            [
              85.172446,
              25.612499
            ],
            [
              85.174127,
              25.613499
            ],
            [
              85.172534,
              25.615004
            ],
            [
              85.172225,
              25.616695
            ],
            [
              85.17082,
              25.616291
            ],
            [
              85.166775,
              25.621245
            ],
            [
              85.161029,
              25.622184
            ],
            [
              85.159374,
              25.620155
            ],
            [
              85.157029,
              25.620069
            ],
            [
              85.156295,
              25.622234
            ],
            [
              85.158238,
              25.622499
            ],
            [
              85.153633,
              25.623104
            ],
            [
              85.153029,
              25.623841
            ],
            [
              85.144029,
              25.624088
            ],
            [
              85.143029,
              25.625095
            ],
            [
              85.139029,
              25.625163
            ],
            [
              85.13677,
              25.62624
            ],
            [
              85.136512,
              25.630499
            ],
            [
              85.138361,
              25.633499
            ],
            [
              85.138409,
              25.63612
            ],
            [
              85.139697,
              25.636499
            ],
            [
              85.140029,
              25.6375
            ]
          ]
        ],
        "type": "Polygon"
      },
      "type": "Feature"
    },
    {
      "properties": {
        "fill-opacity": 0.33,
        "fillColor": "#bf4040",
        "opacity": 0.33,
        "fill": "#bf4040",
        "fillOpacity": 0.33,
        "color": "#bf4040",
        "contour": 5.0,
        "metric": "distance",
        "provider_name": "Burger King",
        "zone_type": "distance",
        "distance_km": 5,
        "mode": "motorcycle",
        "center_lat": 25.6104998,
        "center_lon": 85.1400296,
        "label": "5km"
      },
      "geometry": {
        "coordinates": [
          [
            [
              85.133029,
              25.63885
            ],
            [
              85.131029,
              25.636909
            ],
            [
              85.130029,
              25.636825
            ],
            [
              85.129029,
              25.63781
            ],
            [
              85.128474,
              25.637055
            ],
            [
              85.126723,
              25.636805
            ],
            [
              85.12841,
              25.63488
            ],
            [
              85.128509,
              25.633499
            ],
            [
              85.125912,
              25.631382
            ],
            [
              85.12493,
              25.631499
            ],
            [
              85.125465,
              25.633499
            ],
            [
              85.124029,
              25.632655
            ],
            [
              85.123252,
              25.633499
            ],
            [
              85.123319,
              25.63621
            ],
            [
              85.124081,
              25.636448
            ],
            [
              85.124413,
              25.637499
            ],
            [
              85.124009,
              25.637519
            ],
            [
              85.123871,
              25.636657
            ],
            [
              85.122936,
              25.636593
            ],
            [
              85.121462,
              25.634066
            ],
            [
              85.119029,
              25.633626
            ],
            [
              85.117204,
              25.634674
            ],
            [
              85.117029,
              25.635814
            ],
            [
              85.115116,
              25.637586
            ],
            [
              85.114154,
              25.637624
            ],
            [
              85.114029,
              25.638297
            ],
            [
              85.113989,
              25.637459
            ],
            [
              85.11485,
              25.63732
            ],
            [
              85.114924,
              25.636394
            ],
            [
              85.117635,
              25.633499
            ],
            [
              85.117029,
              25.632745
            ],
            [
              85.115141,
              25.633611
            ],
            [
              85.115029,
              25.634459
            ],
            [
              85.114456,
              25.634072
            ],
            [
              85.115962,
              25.627433
            ],
            [
              85.117029,
              25.628913
            ],
            [
              85.118029,
              25.627134
            ],
            [
              85.119029,
              25.626967
            ],
            [
              85.120029,
              25.627812
            ],
            [
              85.122029,
              25.627276
            ],
            [
              85.12213,
              25.625398
            ],
            [
              85.121804,
              25.626274
            ],
            [
              85.119162,
              25.626367
            ],
            [
              85.119241,
              25.624288
            ],
            [
              85.117029,
              25.621959
            ],
            [
              85.115606,
              25.623076
            ],
            [
              85.115177,
              25.624647
            ],
            [
              85.114029,
              25.623758
            ],
            [
              85.113029,
              25.624746
            ],
            [
              85.111258,
              25.624728
            ],
            [
              85.111029,
              25.625642
            ],
            [
              85.105356,
              25.624173
            ],
            [
              85.105022,
              25.623492
            ],
            [
              85.106965,
              25.620499
            ],
            [
              85.105266,
              25.616499
            ],
            [
              85.106007,
              25.613478
            ],
            [
              85.10774,
              25.612499
            ],
            [
              85.107029,
              25.610398
            ],
            [
              85.106029,
              25.611179
            ],
            [
              85.104808,
              25.610278
            ],
            [
              85.104029,
              25.611097
            ],
            [
              85.102029,
              25.610112
            ],
            [
              85.101157,
              25.609499
            ],
            [
              85.10162,
              25.608499
            ],
            [
              85.100564,
              25.605964
            ],
            [
              85.099337,
              25.605191
            ],
            [
              85.095029,
              25.60547
            ],
            [
              85.092848,
              25.604499
            ],
            [
              85.096516,
              25.603986
            ],
            [
              85.096029,
              25.602349
            ],
            [
              85.098029,
              25.602215
            ],
            [
              85.099616,
              25.603912
            ],
            [
              85.100406,
              25.603876
            ],
            [
              85.099656,
              25.602873
            ],
            [
              85.09987,
              25.598499
            ],
            [
              85.101515,
              25.597985
            ],
            [
              85.101788,
              25.595499
            ],
            [
              85.101682,
              25.594846
            ],
            [
              85.100205,
              25.594499
            ],
            [
              85.101566,
              25.593036
            ],
            [
              85.102029,
              25.590896
            ],
            [
              85.105041,
              25.590511
            ],
            [
              85.10385,
              25.58832
            ],
            [
              85.109727,
              25.587197
            ],
            [
              85.111029,
              25.587832
            ],
            [
              85.114029,
              25.584948
            ],
            [
              85.116029,
              25.585637
            ],
            [
              85.119029,
              25.583897
            ],
            [
              85.120467,
              25.584937
            ],
            [
              85.120821,
              25.583499
            ],
            [
              85.122082,
              25.582499
            ],
            [
              85.123029,
              25.581796
            ],
            [
              85.124029,
              25.582251
            ],
            [
              85.125063,
              25.580499
            ],
            [
              85.123895,
              25.579499
            ],
            [
              85.127029,
              25.577058
            ],
            [
              85.129977,
              25.578552
            ],
            [
              85.128773,
              25.581499
            ],
            [
              85.12976,
              25.581769
            ],
            [
              85.130029,
              25.584334
            ],
            [
              85.131535,
              25.584006
            ],
            [
              85.132769,
              25.582499
            ],
            [
              85.132029,
              25.581634
            ],
            [
              85.131166,
              25.581636
            ],
            [
              85.131029,
              25.582423
            ],
            [
              85.130651,
              25.581121
            ],
            [
              85.134029,
              25.579756
            ],
            [
              85.13551,
              25.582019
            ],
            [
              85.140234,
              25.584499
            ],
            [
              85.137555,
              25.586025
            ],
            [
              85.138029,
              25.58711
            ],
            [
              85.141029,
              25.584759
            ],
            [
              85.144029,
              25.586784
            ],
            [
              85.145029,
              25.585831
            ],
            [
              85.148029,
              25.586012
            ],
            [
              85.149029,
              25.587079
            ],
            [
              85.153029,
              25.587154
            ],
            [
              85.155029,
              25.586238
            ],
            [
              85.156029,
              25.587458
            ],
            [
              85.157846,
              25.587316
            ],
            [
              85.158029,
              25.585569
            ],
            [
              85.163349,
              25.590499
            ],
            [
              85.162459,
              25.595499
            ],
            [
              85.160617,
              25.598499
            ],
            [
              85.16328,
              25.599249
            ],
            [
              85.163727,
              25.601499
            ],
            [
              85.166166,
              25.600499
            ],
            [
              85.169029,
              25.596541
            ],
            [
              85.175145,
              25.599384
            ],
            [
              85.175609,
              25.600919
            ],
            [
              85.177517,
              25.601499
            ],
            [
              85.168863,
              25.602499
            ],
            [
              85.17046,
              25.603499
            ],
            [
              85.168838,
              25.606308
            ],
            [
              85.169771,
              25.608757
            ],
            [
              85.171172,
              25.608642
            ],
            [
              85.172029,
              25.607746
            ],
            [
              85.174029,
              25.608082
            ],
            [
              85.175029,
              25.607303
            ],
            [
              85.177029,
              25.608416
            ],
            [
              85.178029,
              25.6074
            ],
            [
              85.178765,
              25.608763
            ],
            [
              85.18065,
              25.608879
            ],
            [
              85.183726,
              25.611499
            ],
            [
              85.182354,
              25.611824
            ],
            [
              85.182029,
              25.612726
            ],
            [
              85.178808,
              25.613278
            ],
            [
              85.178055,
              25.614499
            ],
            [
              85.179471,
              25.616499
            ],
            [
              85.175029,
              25.621526
            ],
            [
              85.173029,
              25.621854
            ],
            [
              85.172029,
              25.620789
            ],
            [
              85.171029,
              25.621978
            ],
            [
              85.170029,
              25.622034
            ],
            [
              85.169029,
              25.620233
            ],
            [
              85.167902,
              25.621499
            ],
            [
              85.168177,
              25.622499
            ],
            [
              85.154398,
              25.623131
            ],
            [
              85.153029,
              25.624102
            ],
            [
              85.144029,
              25.624208
            ],
            [
              85.143029,
              25.625212
            ],
            [
              85.139029,
              25.625247
            ],
            [
              85.136842,
              25.626313
            ],
            [
              85.136688,
              25.630499
            ],
            [
              85.138628,
              25.633499
            ],
            [
              85.138732,
              25.635797
            ],
            [
              85.142458,
              25.636499
            ],
            [
              85.139029,
              25.638019
            ],
            [
              85.137029,
              25.636054
            ],
            [
              85.136029,
              25.637012
            ],
            [
              85.133654,
              25.637124
            ],
            [
              85.133029,
              25.63885
            ]
          ]
        ],
        "type": "Polygon"
      },
      "type": "Feature"
    },
    {
      "properties": {
        "fill-opacity": 0.33,
        "fillColor": "#bf4040",
        "opacity": 0.33,
        "fill": "#bf4040",
        "fillOpacity": 0.33,
        "color": "#bf4040",
        "contour": 6.0,
        "metric": "distance",
        "provider_name": "Burger King",
        "zone_type": "distance",
        "distance_km": 6,
        "mode": "motorcycle",
        "center_lat": 25.6104998,
        "center_lon": 85.1400296,
        "label": "6km"
      },
      "geometry": {
        "coordinates": [
          [
            [
              85.108029,
              25.643672
            ],
            [
              85.106158,
              25.643499
            ],
            [
              85.109692,
              25.640499
            ],
            [
              85.109029,
              25.63966
            ],
            [
              85.108252,
              25.639722
            ],
            [
              85.108029,
              25.640558
            ],
            [
              85.107241,
              25.640287
            ],
            [
              85.108234,
              25.638499
            ],
            [
              85.107619,
              25.636499
            ],
            [
              85.108877,
              25.634499
            ],
            [
              85.108831,
              25.633698
            ],
            [
              85.10694,
              25.632499
            ],
            [
              85.108024,
              25.630494
            ],
            [
              85.110179,
              25.629649
            ],
            [
              85.110029,
              25.628688
            ],
            [
              85.107029,
              25.627156
            ],
            [
              85.106029,
              25.628063
            ],
            [
              85.104273,
              25.628256
            ],
            [
              85.104017,
              25.627512
            ],
            [
              85.102065,
              25.627535
            ],
            [
              85.102029,
              25.628298
            ],
            [
              85.101963,
              25.625499
            ],
            [
              85.101227,
              25.624499
            ],
            [
              85.102054,
              25.621499
            ],
            [
              85.100029,
              25.621802
            ],
            [
              85.099685,
              25.620844
            ],
            [
              85.097949,
              25.620499
            ],
            [
              85.099029,
              25.619166
            ],
            [
              85.101029,
              25.61886
            ],
            [
              85.102468,
              25.617499
            ],
            [
              85.097029,
              25.614769
            ],
            [
              85.09602,
              25.613499
            ],
            [
              85.097298,
              25.611768
            ],
            [
              85.097088,
              25.610441
            ],
            [
              85.094029,
              25.612171
            ],
            [
              85.090038,
              25.609499
            ],
            [
              85.090878,
              25.609348
            ],
            [
              85.090689,
              25.60784
            ],
            [
              85.088029,
              25.607994
            ],
            [
              85.087029,
              25.606495
            ],
            [
              85.086029,
              25.607411
            ],
            [
              85.083029,
              25.604958
            ],
            [
              85.085649,
              25.60212
            ],
            [
              85.08623,
              25.599499
            ],
            [
              85.088748,
              25.598218
            ],
            [
              85.089029,
              25.596693
            ],
            [
              85.089585,
              25.597943
            ],
            [
              85.091456,
              25.597926
            ],
            [
              85.093317,
              25.596787
            ],
            [
              85.094029,
              25.595319
            ],
            [
              85.094474,
              25.596054
            ],
            [
              85.096029,
              25.596158
            ],
            [
              85.098396,
              25.594866
            ],
            [
              85.097518,
              25.59201
            ],
            [
              85.095933,
              25.591595
            ],
            [
              85.095866,
              25.589663
            ],
            [
              85.095082,
              25.589499
            ],
            [
              85.097656,
              25.588499
            ],
            [
              85.097177,
              25.586351
            ],
            [
              85.094745,
              25.585499
            ],
            [
              85.096609,
              25.583499
            ],
            [
              85.098029,
              25.583266
            ],
            [
              85.100029,
              25.584296
            ],
            [
              85.100676,
              25.583499
            ],
            [
              85.09996,
              25.58243
            ],
            [
              85.101029,
              25.581484
            ],
            [
              85.102029,
              25.582203
            ],
            [
              85.102875,
              25.581345
            ],
            [
              85.105029,
              25.581336
            ],
            [
              85.107029,
              25.583269
            ],
            [
              85.111771,
              25.583241
            ],
            [
              85.111995,
              25.582465
            ],
            [
              85.113617,
              25.582087
            ],
            [
              85.114029,
              25.578765
            ],
            [
              85.115051,
              25.578521
            ],
            [
              85.115029,
              25.577265
            ],
            [
              85.11813,
              25.576499
            ],
            [
              85.117982,
              25.574546
            ],
            [
              85.119022,
              25.572499
            ],
            [
              85.121029,
              25.571637
            ],
            [
              85.123029,
              25.573021
            ],
            [
              85.124518,
              25.571988
            ],
            [
              85.124638,
              25.57089
            ],
            [
              85.12335,
              25.569499
            ],
            [
              85.125029,
              25.568462
            ],
            [
              85.12523,
              25.569298
            ],
            [
              85.12843,
              25.570098
            ],
            [
              85.134029,
              25.573938
            ],
            [
              85.137029,
              25.574901
            ],
            [
              85.138029,
              25.574577
            ],
            [
              85.140029,
              25.57561
            ],
            [
              85.141029,
              25.578933
            ],
            [
              85.144029,
              25.578599
            ],
            [
              85.14447,
              25.580499
            ],
            [
              85.145779,
              25.581749
            ],
            [
              85.147029,
              25.581438
            ],
            [
              85.149997,
              25.583499
            ],
            [
              85.147519,
              25.585499
            ],
            [
              85.148828,
              25.5857
            ],
            [
              85.149029,
              25.586668
            ],
            [
              85.153029,
              25.586745
            ],
            [
              85.154029,
              25.585753
            ],
            [
              85.155481,
              25.586047
            ],
            [
              85.156029,
              25.586949
            ],
            [
              85.157321,
              25.586791
            ],
            [
              85.157687,
              25.584158
            ],
            [
              85.159826,
              25.583499
            ],
            [
              85.159029,
              25.581452
            ],
            [
              85.161029,
              25.580212
            ],
            [
              85.166749,
              25.584499
            ],
            [
              85.167087,
              25.585499
            ],
            [
              85.164727,
              25.587197
            ],
            [
              85.166029,
              25.589317
            ],
            [
              85.168029,
              25.588459
            ],
            [
              85.168749,
              25.58878
            ],
            [
              85.172029,
              25.591037
            ],
            [
              85.173232,
              25.592499
            ],
            [
              85.172728,
              25.593801
            ],
            [
              85.175029,
              25.595788
            ],
            [
              85.176029,
              25.594016
            ],
            [
              85.177029,
              25.593661
            ],
            [
              85.179029,
              25.595726
            ],
            [
              85.182335,
              25.596499
            ],
            [
              85.183227,
              25.599302
            ],
            [
              85.185029,
              25.600293
            ],
            [
              85.187493,
              25.600499
            ],
            [
              85.181029,
              25.600772
            ],
            [
              85.179029,
              25.602147
            ],
            [
              85.17602,
              25.602499
            ],
            [
              85.178409,
              25.604499
            ],
            [
              85.178569,
              25.605499
            ],
            [
              85.181029,
              25.605767
            ],
            [
              85.182029,
              25.607234
            ],
            [
              85.188029,
              25.607339
            ],
            [
              85.18834,
              25.608188
            ],
            [
              85.191974,
              25.608499
            ],
            [
              85.190422,
              25.608893
            ],
            [
              85.188029,
              25.611184
            ],
            [
              85.185924,
              25.611394
            ],
            [
              85.186029,
              25.612467
            ],
            [
              85.188802,
              25.613726
            ],
            [
              85.189053,
              25.614475
            ],
            [
              85.186029,
              25.618999
            ],
            [
              85.184029,
              25.618804
            ],
            [
              85.18128,
              25.62075
            ],
            [
              85.176029,
              25.621661
            ],
            [
              85.174029,
              25.622792
            ],
            [
              85.154299,
              25.62323
            ],
            [
              85.153029,
              25.624215
            ],
            [
              85.144029,
              25.624274
            ],
            [
              85.143029,
              25.625276
            ],
            [
              85.139029,
              25.625298
            ],
            [
              85.138612,
              25.626082
            ],
            [
              85.136799,
              25.626499
            ],
            [
              85.136775,
              25.630499
            ],
            [
              85.138743,
              25.633499
            ],
            [
              85.138823,
              25.635705
            ],
            [
              85.142029,
              25.635863
            ],
            [
              85.142454,
              25.636924
            ],
            [
              85.139029,
              25.638175
            ],
            [
              85.137029,
              25.636191
            ],
            [
              85.136029,
              25.637172
            ],
            [
              85.133789,
              25.637259
            ],
            [
              85.133029,
              25.639106
            ],
            [
              85.131029,
              25.637128
            ],
            [
              85.129029,
              25.638072
            ],
            [
              85.127029,
              25.637092
            ],
            [
              85.126029,
              25.637958
            ],
            [
              85.124029,
              25.638007
            ],
            [
              85.121292,
              25.634237
            ],
            [
              85.119029,
              25.633792
            ],
            [
              85.113029,
              25.640284
            ],
            [
              85.108029,
              25.643672
            ]
          ]
        ],
        "type": "Polygon"
      },
      "type": "Feature"
    }
  ]
}