{
  "type": "FeatureCollection",
  "metadata": {
    "provider_name": "Food Mate Cafe",
    "center_lat": 23.10737202,
    "center_lon": 72.58285255,
    "mode": "motorcycle",
    "total_zones": 4,
    "distance_zones": [
      3,
      4,
      5,
      6
    ],
    "generated_at": "2025-12-28T06:47:26.008606Z"
  },
  "features": [
    {
      "properties": {
        "fill-opacity": 0.33,
        "fillColor": "#bf4040",
        "opacity": 0.33,
        "fill": "#bf4040",
        "fillOpacity": 0.33,
        "color": "#bf4040",
        "contour": 3.0,
        "metric": "distance",
        "provider_name": "Food Mate Cafe",
        "zone_type": "distance",
        "distance_km": 3,
        "mode": "motorcycle",
        "center_lat": 23.10737202,
        "center_lon": 72.58285255,
        "label": "3km"
      },
      "geometry": {
        "coordinates": [
          [
            [
              72.584852,
              23.13132
            ],
            [
              72.580838,
              23.129385
            ],
            [
              72.581713,
              23.129232
            ],
            [
              72.581441,
              23.127782
            ],
            [
              72.579219,
              23.127372
            ],
            [
              72.58053,
              23.12705
            ],
            [
              72.581259,
              23.124965
            ],
            [
              72.57839,
              23.124909
            ],
            [
              72.578043,
              23.127181
            ],
            [
              72.578584,
              23.127372
            ],
            [
              72.577181,
              23.127372
            ],
            [
              72.575931,
              23.125372
            ],
            [
              72.577364,
              23.124884
            ],
            [
              72.577297,
              23.123927
            ],
            [
              72.576366,
              23.123885
            ],
            [
              72.574852,
              23.126001
            ],
            [
              72.574482,
              23.123742
            ],
            [
              72.57237,
              23.123372
            ],
            [
              72.573569,
              23.123089
            ],
            [
              72.57343,
              23.121794
            ],
            [
              72.572129,
              23.121648
            ],
            [
              72.571852,
              23.122782
            ],
            [
              72.571478,
              23.120746
            ],
            [
              72.569978,
              23.120498
            ],
            [
              72.569852,
              23.121081
            ],
            [
              72.569201,
              23.120372
            ],
            [
              72.569852,
              23.119696
            ],
            [
              72.569978,
              23.120246
            ],
            [
              72.571465,
              23.119984
            ],
            [
              72.571661,
              23.118563
            ],
            [
              72.568852,
              23.114465
            ],
            [
              72.567852,
              23.11767
            ],
            [
              72.567366,
              23.115858
            ],
            [
              72.566189,
              23.115709
            ],
            [
              72.565852,
              23.116504
            ],
            [
              72.564852,
              23.116552
            ],
            [
              72.564875,
              23.114348
            ],
            [
              72.562813,
              23.114411
            ],
            [
              72.563485,
              23.110004
            ],
            [
              72.565401,
              23.108372
            ],
            [
              72.56461,
              23.105613
            ],
            [
              72.563187,
              23.105372
            ],
            [
              72.562691,
              23.104372
            ],
            [
              72.563852,
              23.102848
            ],
            [
              72.565852,
              23.10311
            ],
            [
              72.566852,
              23.102053
            ],
            [
              72.570852,
              23.101053
            ],
            [
              72.571852,
              23.098349
            ],
            [
              72.573576,
              23.098372
            ],
            [
              72.572175,
              23.099695
            ],
            [
              72.572494,
              23.10073
            ],
            [
              72.573852,
              23.100814
            ],
            [
              72.574852,
              23.09979
            ],
            [
              72.577109,
              23.100629
            ],
            [
              72.5773,
              23.098372
            ],
            [
              72.581473,
              23.091372
            ],
            [
              72.581402,
              23.089822
            ],
            [
              72.579892,
              23.087412
            ],
            [
              72.582501,
              23.08802
            ],
            [
              72.583177,
              23.085372
            ],
            [
              72.585852,
              23.083772
            ],
            [
              72.588313,
              23.086372
            ],
            [
              72.591852,
              23.085805
            ],
            [
              72.592472,
              23.086372
            ],
            [
              72.592808,
              23.091372
            ],
            [
              72.594245,
              23.092372
            ],
            [
              72.59272,
              23.095372
            ],
            [
              72.596176,
              23.098372
            ],
            [
              72.594717,
              23.099237
            ],
            [
              72.59448,
              23.100372
            ],
            [
              72.600852,
              23.099411
            ],
            [
              72.605382,
              23.101372
            ],
            [
              72.603603,
              23.107372
            ],
            [
              72.604873,
              23.111372
            ],
            [
              72.601704,
              23.111372
            ],
            [
              72.602852,
              23.11443
            ],
            [
              72.601852,
              23.114606
            ],
            [
              72.601639,
              23.113584
            ],
            [
              72.600269,
              23.113789
            ],
            [
              72.60012,
              23.115104
            ],
            [
              72.601205,
              23.116372
            ],
            [
              72.600973,
              23.117372
            ],
            [
              72.59993,
              23.117449
            ],
            [
              72.599341,
              23.118372
            ],
            [
              72.598601,
              23.120372
            ],
            [
              72.598983,
              23.121372
            ],
            [
              72.597957,
              23.121477
            ],
            [
              72.596852,
              23.123419
            ],
            [
              72.596673,
              23.122551
            ],
            [
              72.592852,
              23.119766
            ],
            [
              72.591138,
              23.121658
            ],
            [
              72.588464,
              23.121983
            ],
            [
              72.588852,
              23.123646
            ],
            [
              72.587626,
              23.123598
            ],
            [
              72.587233,
              23.121991
            ],
            [
              72.586472,
              23.121992
            ],
            [
              72.585259,
              23.123372
            ],
            [
              72.585158,
              23.125678
            ],
            [
              72.584223,
              23.126372
            ],
            [
              72.584852,
              23.12712
            ],
            [
              72.585745,
              23.126264
            ],
            [
              72.586702,
              23.126372
            ],
            [
              72.588225,
              23.127372
            ],
            [
              72.586168,
              23.127687
            ],
            [
              72.584852,
              23.13132
            ]
          ]
        ],
        "type": "Polygon"
      },
      "type": "Feature"
    },
    {
      "properties": {
        "fill-opacity": 0.33,
        "fillColor": "#bf4040",
        "opacity": 0.33,
        "fill": "#bf4040",
        "fillOpacity": 0.33,
        "color": "#bf4040",
        "contour": 4.0,
        "metric": "distance",
        "provider_name": "Food Mate Cafe",
        "zone_type": "distance",
        "distance_km": 4,
        "mode": "motorcycle",
        "center_lat": 23.10737202,
        "center_lon": 72.58285255,
        "label": "4km"
      },
      "geometry": {
        "coordinates": [
          [
            [
              72.586852,
              23.140183
            ],
            [
              72.585783,
              23.139372
            ],
            [
              72.585525,
              23.137699
            ],
            [
              72.584048,
              23.137567
            ],
            [
              72.583852,
              23.138472
            ],
            [
              72.579852,
              23.13564
            ],
            [
              72.578605,
              23.133372
            ],
            [
              72.579144,
              23.132079
            ],
            [
              72.574852,
              23.132642
            ],
            [
              72.572852,
              23.130625
            ],
            [
              72.571852,
              23.13186
            ],
            [
              72.571547,
              23.130676
            ],
            [
              72.56949,
              23.130372
            ],
            [
              72.571492,
              23.130011
            ],
            [
              72.571354,
              23.12887
            ],
            [
              72.567484,
              23.128372
            ],
            [
              72.567493,
              23.12573
            ],
            [
              72.564853,
              23.125372
            ],
            [
              72.567423,
              23.124942
            ],
            [
              72.567312,
              23.123912
            ],
            [
              72.56522,
              23.123739
            ],
            [
              72.564852,
              23.125371
            ],
            [
              72.56454,
              23.123683
            ],
            [
              72.562852,
              23.123551
            ],
            [
              72.562142,
              23.120081
            ],
            [
              72.560852,
              23.120849
            ],
            [
              72.560028,
              23.120372
            ],
            [
              72.56077,
              23.12029
            ],
            [
              72.560642,
              23.116582
            ],
            [
              72.559311,
              23.116372
            ],
            [
              72.557076,
              23.114372
            ],
            [
              72.559694,
              23.112214
            ],
            [
              72.560583,
              23.107372
            ],
            [
              72.558852,
              23.105674
            ],
            [
              72.555852,
              23.106442
            ],
            [
              72.555238,
              23.105372
            ],
            [
              72.556116,
              23.104372
            ],
            [
              72.555671,
              23.102372
            ],
            [
              72.55847,
              23.10199
            ],
            [
              72.558727,
              23.101372
            ],
            [
              72.557195,
              23.100372
            ],
            [
              72.557005,
              23.098524
            ],
            [
              72.559828,
              23.096348
            ],
            [
              72.560177,
              23.098046
            ],
            [
              72.560957,
              23.098372
            ],
            [
              72.560085,
              23.099372
            ],
            [
              72.561094,
              23.10013
            ],
            [
              72.561476,
              23.101748
            ],
            [
              72.563852,
              23.101888
            ],
            [
              72.564852,
              23.102818
            ],
            [
              72.566852,
              23.101777
            ],
            [
              72.5691,
              23.10162
            ],
            [
              72.571147,
              23.099667
            ],
            [
              72.571515,
              23.098034
            ],
            [
              72.573191,
              23.097711
            ],
            [
              72.574424,
              23.096372
            ],
            [
              72.57434,
              23.093883
            ],
            [
              72.572046,
              23.093372
            ],
            [
              72.572011,
              23.091372
            ],
            [
              72.575328,
              23.090847
            ],
            [
              72.574852,
              23.087724
            ],
            [
              72.575852,
              23.087265
            ],
            [
              72.57638,
              23.089844
            ],
            [
              72.578239,
              23.089758
            ],
            [
              72.578538,
              23.088057
            ],
            [
              72.581201,
              23.085721
            ],
            [
              72.582762,
              23.082281
            ],
            [
              72.587303,
              23.079822
            ],
            [
              72.587474,
              23.078372
            ],
            [
              72.588787,
              23.077306
            ],
            [
              72.590746,
              23.077265
            ],
            [
              72.590852,
              23.076264
            ],
            [
              72.592142,
              23.079082
            ],
            [
              72.594852,
              23.078882
            ],
            [
              72.59624,
              23.082372
            ],
            [
              72.597852,
              23.083354
            ],
            [
              72.597034,
              23.083554
            ],
            [
              72.59703,
              23.086372
            ],
            [
              72.596106,
              23.087372
            ],
            [
              72.596966,
              23.090372
            ],
            [
              72.596347,
              23.092876
            ],
            [
              72.598852,
              23.092998
            ],
            [
              72.599603,
              23.095621
            ],
            [
              72.60115,
              23.09467
            ],
            [
              72.601675,
              23.093194
            ],
            [
              72.605916,
              23.093372
            ],
            [
              72.605061,
              23.09358
            ],
            [
              72.604231,
              23.097372
            ],
            [
              72.606169,
              23.100054
            ],
            [
              72.606492,
              23.101732
            ],
            [
              72.607386,
              23.101906
            ],
            [
              72.609852,
              23.099454
            ],
            [
              72.613857,
              23.104372
            ],
            [
              72.612852,
              23.105188
            ],
            [
              72.611535,
              23.105054
            ],
            [
              72.611715,
              23.106372
            ],
            [
              72.608836,
              23.108355
            ],
            [
              72.611648,
              23.109372
            ],
            [
              72.612054,
              23.110169
            ],
            [
              72.612007,
              23.112216
            ],
            [
              72.612802,
              23.112372
            ],
            [
              72.612026,
              23.112545
            ],
            [
              72.612012,
              23.114211
            ],
            [
              72.613109,
              23.114372
            ],
            [
              72.610808,
              23.115327
            ],
            [
              72.611979,
              23.116245
            ],
            [
              72.612091,
              23.117372
            ],
            [
              72.607307,
              23.117372
            ],
            [
              72.607049,
              23.116372
            ],
            [
              72.608481,
              23.116001
            ],
            [
              72.607852,
              23.114724
            ],
            [
              72.606137,
              23.115372
            ],
            [
              72.606773,
              23.116372
            ],
            [
              72.605852,
              23.118714
            ],
            [
              72.604852,
              23.119153
            ],
            [
              72.603543,
              23.116681
            ],
            [
              72.602242,
              23.117372
            ],
            [
              72.6024,
              23.118824
            ],
            [
              72.605852,
              23.120013
            ],
            [
              72.605212,
              23.122011
            ],
            [
              72.607683,
              23.122372
            ],
            [
              72.605171,
              23.12269
            ],
            [
              72.604997,
              23.123516
            ],
            [
              72.60321,
              23.123729
            ],
            [
              72.602952,
              23.124471
            ],
            [
              72.594852,
              23.128309
            ],
            [
              72.592257,
              23.128776
            ],
            [
              72.591103,
              23.130622
            ],
            [
              72.585481,
              23.131001
            ],
            [
              72.586314,
              23.132372
            ],
            [
              72.586201,
              23.135372
            ],
            [
              72.58717,
              23.136372
            ],
            [
              72.586852,
              23.140183
            ]
          ]
        ],
        "type": "Polygon"
      },
      "type": "Feature"
    },
    {
      "properties": {
        "fill-opacity": 0.33,
        "fillColor": "#bf4040",
        "opacity": 0.33,
        "fill": "#bf4040",
        "fillOpacity": 0.33,
        "color": "#bf4040",
        "contour": 5.0,
        "metric": "distance",
        "provider_name": "Food Mate Cafe",
        "zone_type": "distance",
        "distance_km": 5,
        "mode": "motorcycle",
        "center_lat": 23.10737202,
        "center_lon": 72.58285255,
        "label": "5km"
      },
      "geometry": {
        "coordinates": [
          [
            [
              72.587852,
              23.149131
            ],
            [
              72.587127,
              23.148372
            ],
            [
              72.587682,
              23.148202
            ],
            [
              72.587428,
              23.146796
            ],
            [
              72.586173,
              23.146692
            ],
            [
              72.585604,
              23.14762
            ],
            [
              72.583171,
              23.146372
            ],
            [
              72.58373,
              23.145372
            ],
            [
              72.583242,
              23.139982
            ],
            [
              72.575852,
              23.139297
            ],
            [
              72.575475,
              23.140372
            ],
            [
              72.573639,
              23.140372
            ],
            [
              72.572672,
              23.138552
            ],
            [
              72.571852,
              23.137898
            ],
            [
              72.570852,
              23.138418
            ],
            [
              72.570056,
              23.137372
            ],
            [
              72.570687,
              23.137207
            ],
            [
              72.570339,
              23.134885
            ],
            [
              72.566993,
              23.134513
            ],
            [
              72.566852,
              23.135141
            ],
            [
              72.565683,
              23.13354
            ],
            [
              72.5645,
              23.133372
            ],
            [
              72.565652,
              23.133171
            ],
            [
              72.566217,
              23.129006
            ],
            [
              72.561852,
              23.127656
            ],
            [
              72.560852,
              23.128524
            ],
            [
              72.558852,
              23.127864
            ],
            [
              72.557535,
              23.128372
            ],
            [
              72.559494,
              23.124372
            ],
            [
              72.55949,
              23.120372
            ],
            [
              72.56044,
              23.119372
            ],
            [
              72.560153,
              23.117071
            ],
            [
              72.558852,
              23.117782
            ],
            [
              72.554684,
              23.117539
            ],
            [
              72.552262,
              23.113372
            ],
            [
              72.553253,
              23.112372
            ],
            [
              72.552367,
              23.108857
            ],
            [
              72.551304,
              23.108823
            ],
            [
              72.549852,
              23.110852
            ],
            [
              72.549115,
              23.110372
            ],
            [
              72.550535,
              23.108372
            ],
            [
              72.549533,
              23.106372
            ],
            [
              72.549852,
              23.104836
            ],
            [
              72.550104,
              23.10612
            ],
            [
              72.551852,
              23.107088
            ],
            [
              72.555338,
              23.103372
            ],
            [
              72.553408,
              23.102372
            ],
            [
              72.55425,
              23.099974
            ],
            [
              72.551678,
              23.099546
            ],
            [
              72.551626,
              23.098598
            ],
            [
              72.550777,
              23.098372
            ],
            [
              72.550852,
              23.096683
            ],
            [
              72.551852,
              23.097196
            ],
            [
              72.552626,
              23.096372
            ],
            [
              72.552549,
              23.095675
            ],
            [
              72.551052,
              23.095372
            ],
            [
              72.551852,
              23.094931
            ],
            [
              72.554935,
              23.095289
            ],
            [
              72.555056,
              23.096575
            ],
            [
              72.554143,
              23.097372
            ],
            [
              72.554852,
              23.097937
            ],
            [
              72.556427,
              23.096372
            ],
            [
              72.556206,
              23.094018
            ],
            [
              72.553852,
              23.094087
            ],
            [
              72.552551,
              23.093372
            ],
            [
              72.553629,
              23.093148
            ],
            [
              72.553852,
              23.09189
            ],
            [
              72.556852,
              23.089949
            ],
            [
              72.557852,
              23.09172
            ],
            [
              72.558852,
              23.09067
            ],
            [
              72.559909,
              23.091315
            ],
            [
              72.561852,
              23.091169
            ],
            [
              72.562727,
              23.089496
            ],
            [
              72.561829,
              23.089372
            ],
            [
              72.562852,
              23.088771
            ],
            [
              72.563485,
              23.089739
            ],
            [
              72.564852,
              23.089072
            ],
            [
              72.566079,
              23.089599
            ],
            [
              72.567852,
              23.086223
            ],
            [
              72.570852,
              23.085871
            ],
            [
              72.571852,
              23.086983
            ],
            [
              72.573222,
              23.086741
            ],
            [
              72.5747,
              23.085219
            ],
            [
              72.574774,
              23.083293
            ],
            [
              72.576852,
              23.082615
            ],
            [
              72.576818,
              23.081372
            ],
            [
              72.578852,
              23.082227
            ],
            [
              72.581852,
              23.082306
            ],
            [
              72.586475,
              23.077994
            ],
            [
              72.587852,
              23.073147
            ],
            [
              72.588186,
              23.076705
            ],
            [
              72.587183,
              23.077372
            ],
            [
              72.587852,
              23.077815
            ],
            [
              72.588412,
              23.076932
            ],
            [
              72.590349,
              23.076372
            ],
            [
              72.590852,
              23.071523
            ],
            [
              72.590997,
              23.072226
            ],
            [
              72.591852,
              23.072261
            ],
            [
              72.592852,
              23.07137
            ],
            [
              72.593852,
              23.071359
            ],
            [
              72.593848,
              23.071376
            ],
            [
              72.592856,
              23.071376
            ],
            [
              72.593072,
              23.073372
            ],
            [
              72.59444,
              23.075784
            ],
            [
              72.596852,
              23.077981
            ],
            [
              72.597852,
              23.077059
            ],
            [
              72.59919,
              23.078372
            ],
            [
              72.598261,
              23.079372
            ],
            [
              72.598357,
              23.083372
            ],
            [
              72.597385,
              23.084372
            ],
            [
              72.596563,
              23.088661
            ],
            [
              72.598141,
              23.088083
            ],
            [
              72.601478,
              23.092746
            ],
            [
              72.608852,
              23.092969
            ],
            [
              72.609852,
              23.094012
            ],
            [
              72.610852,
              23.093105
            ],
            [
              72.612852,
              23.09317
            ],
            [
              72.613852,
              23.094206
            ],
            [
              72.616687,
              23.094372
            ],
            [
              72.615975,
              23.094495
            ],
            [
              72.616258,
              23.097965
            ],
            [
              72.61881,
              23.098372
            ],
            [
              72.618018,
              23.098537
            ],
            [
              72.617852,
              23.099556
            ],
            [
              72.617656,
              23.098567
            ],
            [
              72.615852,
              23.098608
            ],
            [
              72.615254,
              23.09997
            ],
            [
              72.62032,
              23.105904
            ],
            [
              72.62298,
              23.106372
            ],
            [
              72.620228,
              23.106747
            ],
            [
              72.619852,
              23.108078
            ],
            [
              72.618409,
              23.106815
            ],
            [
              72.61736,
              23.10688
            ],
            [
              72.617082,
              23.108142
            ],
            [
              72.617894,
              23.108372
            ],
            [
              72.616852,
              23.109387
            ],
            [
              72.616534,
              23.107689
            ],
            [
              72.615852,
              23.107459
            ],
            [
              72.615238,
              23.108372
            ],
            [
              72.61528,
              23.113372
            ],
            [
              72.6164,
              23.115824
            ],
            [
              72.617178,
              23.117045
            ],
            [
              72.618623,
              23.117142
            ],
            [
              72.618852,
              23.116094
            ],
            [
              72.619057,
              23.117167
            ],
            [
              72.620652,
              23.117372
            ],
            [
              72.619978,
              23.117498
            ],
            [
              72.618852,
              23.120962
            ],
            [
              72.61867,
              23.119554
            ],
            [
              72.616852,
              23.118653
            ],
            [
              72.616191,
              23.119372
            ],
            [
              72.617329,
              23.120895
            ],
            [
              72.618688,
              23.121372
            ],
            [
              72.619032,
              23.123372
            ],
            [
              72.617852,
              23.123098
            ],
            [
              72.615852,
              23.124481
            ],
            [
              72.614852,
              23.124141
            ],
            [
              72.614677,
              23.121372
            ],
            [
              72.615526,
              23.120372
            ],
            [
              72.613852,
              23.119785
            ],
            [
              72.602499,
              23.125018
            ],
            [
              72.601852,
              23.127841
            ],
            [
              72.599852,
              23.125972
            ],
            [
              72.599133,
              23.127372
            ],
            [
              72.599928,
              23.128448
            ],
            [
              72.595852,
              23.127946
            ],
            [
              72.594852,
              23.129842
            ],
            [
              72.593852,
              23.128896
            ],
            [
              72.592558,
              23.129077
            ],
            [
              72.592852,
              23.131858
            ],
            [
              72.596264,
              23.131784
            ],
            [
              72.596852,
              23.130091
            ],
            [
              72.59803,
              23.130194
            ],
            [
              72.598852,
              23.131169
            ],
            [
              72.600726,
              23.131245
            ],
            [
              72.601272,
              23.130372
            ],
            [
              72.600852,
              23.13143
            ],
            [
              72.597852,
              23.131607
            ],
            [
              72.597241,
              23.132372
            ],
            [
              72.597415,
              23.133808
            ],
            [
              72.599852,
              23.135188
            ],
            [
              72.600852,
              23.134314
            ],
            [
              72.60193,
              23.134372
            ],
            [
              72.60097,
              23.13449
            ],
            [
              72.600852,
              23.135497
            ],
            [
              72.598852,
              23.135607
            ],
            [
              72.593517,
              23.133037
            ],
            [
              72.595195,
              23.136372
            ],
            [
              72.594852,
              23.138077
            ],
            [
              72.592178,
              23.133046
            ],
            [
              72.588159,
              23.132372
            ],
            [
              72.590852,
              23.131865
            ],
            [
              72.591145,
              23.131079
            ],
            [
              72.585768,
              23.131288
            ],
            [
              72.586768,
              23.133372
            ],
            [
              72.58658,
              23.135643
            ],
            [
              72.589001,
              23.136372
            ],
            [
              72.588183,
              23.136702
            ],
            [
              72.58751,
              23.138714
            ],
            [
              72.590852,
              23.1392
            ],
            [
              72.591631,
              23.139151
            ],
            [
              72.591852,
              23.138332
            ],
            [
              72.592979,
              23.138372
            ],
            [
              72.591936,
              23.138456
            ],
            [
              72.591852,
              23.139482
            ],
            [
              72.587852,
              23.139721
            ],
            [
              72.587497,
              23.140727
            ],
            [
              72.594743,
              23.141262
            ],
            [
              72.594852,
              23.140348
            ],
            [
              72.595287,
              23.141372
            ],
            [
              72.591852,
              23.142118
            ],
            [
              72.588852,
              23.141781
            ],
            [
              72.587992,
              23.142372
            ],
            [
              72.588852,
              23.143456
            ],
            [
              72.591245,
              23.143372
            ],
            [
              72.588658,
              23.146178
            ],
            [
              72.588566,
              23.148372
            ],
            [
              72.587852,
              23.149131
            ]
          ]
        ],
        "type": "Polygon"
      },
      "type": "Feature"
    },
    {
      "properties": {
        "fill-opacity": 0.33,
        "fillColor": "#bf4040",
        "opacity": 0.33,
        "fill": "#bf4040",
        "fillOpacity": 0.33,
        "color": "#bf4040",
        "contour": 6.0,
        "metric": "distance",
        "provider_name": "Food Mate Cafe",
        "zone_type": "distance",
        "distance_km": 6,
        "mode": "motorcycle",
        "center_lat": 23.10737202,
        "center_lon": 72.58285255,
        "label": "6km"
      },
      "geometry": {
        "coordinates": [
          [
            [
              72.587852,
              23.158018
            ],
            [
              72.587352,
              23.154872
            ],
            [
              72.58459,
              23.155372
            ],
            [
              72.582947,
              23.152277
            ],
            [
              72.582778,
              23.151372
            ],
            [
              72.586113,
              23.15111
            ],
            [
              72.586852,
              23.152046
            ],
            [
              72.587422,
              23.151372
            ],
            [
              72.584231,
              23.148992
            ],
            [
              72.582463,
              23.148983
            ],
            [
              72.581852,
              23.150106
            ],
            [
              72.580401,
              23.149921
            ],
            [
              72.578155,
              23.151674
            ],
            [
              72.577852,
              23.152924
            ],
            [
              72.575819,
              23.152372
            ],
            [
              72.576126,
              23.150372
            ],
            [
              72.579298,
              23.148817
            ],
            [
              72.579692,
              23.145212
            ],
            [
              72.580852,
              23.147033
            ],
            [
              72.583215,
              23.145734
            ],
            [
              72.583098,
              23.140126
            ],
            [
              72.576852,
              23.139891
            ],
            [
              72.575852,
              23.140857
            ],
            [
              72.572852,
              23.140857
            ],
            [
              72.572003,
              23.143523
            ],
            [
              72.570852,
              23.14273
            ],
            [
              72.568852,
              23.144503
            ],
            [
              72.567371,
              23.144372
            ],
            [
              72.568602,
              23.144122
            ],
            [
              72.568959,
              23.142372
            ],
            [
              72.564831,
              23.142393
            ],
            [
              72.564355,
              23.139372
            ],
            [
              72.56646,
              23.138372
            ],
            [
              72.565223,
              23.136001
            ],
            [
              72.563395,
              23.135915
            ],
            [
              72.562852,
              23.137207
            ],
            [
              72.562665,
              23.136559
            ],
            [
              72.560695,
              23.136529
            ],
            [
              72.558852,
              23.134662
            ],
            [
              72.554973,
              23.134372
            ],
            [
              72.557852,
              23.13414
            ],
            [
              72.558576,
              23.133372
            ],
            [
              72.558558,
              23.131666
            ],
            [
              72.557754,
              23.131372
            ],
            [
              72.558345,
              23.130372
            ],
            [
              72.556852,
              23.128852
            ],
            [
              72.555457,
              23.128977
            ],
            [
              72.553852,
              23.130578
            ],
            [
              72.551721,
              23.130503
            ],
            [
              72.556424,
              23.127372
            ],
            [
              72.556606,
              23.123372
            ],
            [
              72.555737,
              23.122372
            ],
            [
              72.555852,
              23.120927
            ],
            [
              72.556852,
              23.120798
            ],
            [
              72.557241,
              23.126372
            ],
            [
              72.558155,
              23.126674
            ],
            [
              72.559243,
              23.124372
            ],
            [
              72.559118,
              23.120372
            ],
            [
              72.56008,
              23.119372
            ],
            [
              72.560059,
              23.117164
            ],
            [
              72.558852,
              23.118001
            ],
            [
              72.55417,
              23.118054
            ],
            [
              72.552591,
              23.116633
            ],
            [
              72.55224,
              23.114983
            ],
            [
              72.550852,
              23.114743
            ],
            [
              72.550487,
              23.112737
            ],
            [
              72.548893,
              23.112412
            ],
            [
              72.547923,
              23.112443
            ],
            [
              72.547852,
              23.113378
            ],
            [
              72.546368,
              23.113888
            ],
            [
              72.545852,
              23.115453
            ],
            [
              72.545605,
              23.113619
            ],
            [
              72.54404,
              23.113559
            ],
            [
              72.543801,
              23.114423
            ],
            [
              72.540624,
              23.114372
            ],
            [
              72.54356,
              23.114079
            ],
            [
              72.543397,
              23.112827
            ],
            [
              72.541823,
              23.112372
            ],
            [
              72.541566,
              23.109372
            ],
            [
              72.541946,
              23.109465
            ],
            [
              72.541993,
              23.110231
            ],
            [
              72.543538,
              23.110058
            ],
            [
              72.5446,
              23.108372
            ],
            [
              72.543681,
              23.106542
            ],
            [
              72.542541,
              23.10606
            ],
            [
              72.544852,
              23.10566
            ],
            [
              72.545962,
              23.106372
            ],
            [
              72.546409,
              23.108814
            ],
            [
              72.547499,
              23.108372
            ],
            [
              72.547635,
              23.101372
            ],
            [
              72.546852,
              23.100571
            ],
            [
              72.545735,
              23.101372
            ],
            [
              72.546481,
              23.098372
            ],
            [
              72.54603,
              23.097372
            ],
            [
              72.548438,
              23.095372
            ],
            [
              72.547265,
              23.094372
            ],
            [
              72.548282,
              23.091941
            ],
            [
              72.546612,
              23.091372
            ],
            [
              72.548422,
              23.090941
            ],
            [
              72.548737,
              23.089486
            ],
            [
              72.547494,
              23.089372
            ],
            [
              72.548768,
              23.089288
            ],
            [
              72.550119,
              23.088105
            ],
            [
              72.552328,
              23.090847
            ],
            [
              72.550852,
              23.090488
            ],
            [
              72.550386,
              23.091837
            ],
            [
              72.552341,
              23.091372
            ],
            [
              72.554133,
              23.088372
            ],
            [
              72.553439,
              23.083959
            ],
            [
              72.55751,
              23.08303
            ],
            [
              72.558852,
              23.081328
            ],
            [
              72.559852,
              23.082885
            ],
            [
              72.563852,
              23.082848
            ],
            [
              72.564922,
              23.083442
            ],
            [
              72.567852,
              23.082061
            ],
            [
              72.568852,
              23.079601
            ],
            [
              72.56968,
              23.080544
            ],
            [
              72.570852,
              23.080384
            ],
            [
              72.570948,
              23.081276
            ],
            [
              72.572616,
              23.081135
            ],
            [
              72.572852,
              23.080254
            ],
            [
              72.573129,
              23.081095
            ],
            [
              72.582185,
              23.081704
            ],
            [
              72.583558,
              23.080372
            ],
            [
              72.583649,
              23.079169
            ],
            [
              72.586226,
              23.078746
            ],
            [
              72.586347,
              23.076372
            ],
            [
              72.587297,
              23.075372
            ],
            [
              72.587365,
              23.071372
            ],
            [
              72.588423,
              23.070372
            ],
            [
              72.587852,
              23.069756
            ],
            [
              72.581852,
              23.069057
            ],
            [
              72.58826,
              23.06878
            ],
            [
              72.588272,
              23.065952
            ],
            [
              72.587427,
              23.064372
            ],
            [
              72.588852,
              23.064263
            ],
            [
              72.589185,
              23.065039
            ],
            [
              72.590768,
              23.065372
            ],
            [
              72.591071,
              23.066372
            ],
            [
              72.589318,
              23.066837
            ],
            [
              72.589475,
              23.069749
            ],
            [
              72.591852,
              23.071842
            ],
            [
              72.593178,
              23.071697
            ],
            [
              72.593852,
              23.069769
            ],
            [
              72.595172,
              23.070051
            ],
            [
              72.593414,
              23.073372
            ],
            [
              72.596611,
              23.077612
            ],
            [
              72.597852,
              23.076779
            ],
            [
              72.599454,
              23.078372
            ],
            [
              72.59848,
              23.079372
            ],
            [
              72.598521,
              23.084372
            ],
            [
              72.596553,
              23.087372
            ],
            [
              72.59665,
              23.088573
            ],
            [
              72.598278,
              23.087946
            ],
            [
              72.601852,
              23.092681
            ],
            [
              72.608852,
              23.092746
            ],
            [
              72.609852,
              23.093762
            ],
            [
              72.610852,
              23.092795
            ],
            [
              72.612852,
              23.092816
            ],
            [
              72.613852,
              23.093826
            ],
            [
              72.623852,
              23.094181
            ],
            [
              72.62396,
              23.095264
            ],
            [
              72.625863,
              23.095361
            ],
            [
              72.624852,
              23.096152
            ],
            [
              72.624616,
              23.095607
            ],
            [
              72.623153,
              23.095672
            ],
            [
              72.622852,
              23.099737
            ],
            [
              72.619852,
              23.099825
            ],
            [
              72.618526,
              23.099045
            ],
            [
              72.618326,
              23.101372
            ],
            [
              72.617429,
              23.102372
            ],
            [
              72.621261,
              23.105962
            ],
            [
              72.623852,
              23.105897
            ],
            [
              72.624852,
              23.104946
            ],
            [
              72.629957,
              23.105477
            ],
            [
              72.625852,
              23.105788
            ],
            [
              72.624852,
              23.10775
            ],
            [
              72.623512,
              23.107031
            ],
            [
              72.624271,
              23.108372
            ],
            [
              72.622852,
              23.11075
            ],
            [
              72.620579,
              23.110645
            ],
            [
              72.620203,
              23.10902
            ],
            [
              72.618353,
              23.107872
            ],
            [
              72.617141,
              23.111372
            ],
            [
              72.619253,
              23.113372
            ],
            [
              72.619852,
              23.116853
            ],
            [
              72.623852,
              23.116976
            ],
            [
              72.624852,
              23.115134
            ],
            [
              72.625852,
              23.116583
            ],
            [
              72.629008,
              23.116372
            ],
            [
              72.630259,
              23.117372
            ],
            [
              72.628212,
              23.117732
            ],
            [
              72.626903,
              23.120423
            ],
            [
              72.624994,
              23.121372
            ],
            [
              72.627228,
              23.123372
            ],
            [
              72.627391,
              23.125372
            ],
            [
              72.624856,
              23.126372
            ],
            [
              72.626852,
              23.128667
            ],
            [
              72.620568,
              23.129372
            ],
            [
              72.620819,
              23.128339
            ],
            [
              72.622557,
              23.127372
            ],
            [
              72.620209,
              23.124014
            ],
            [
              72.617852,
              23.123855
            ],
            [
              72.617441,
              23.124783
            ],
            [
              72.619095,
              23.126372
            ],
            [
              72.617852,
              23.126674
            ],
            [
              72.616459,
              23.125978
            ],
            [
              72.616125,
              23.129372
            ],
            [
              72.617187,
              23.130372
            ],
            [
              72.615852,
              23.130607
            ],
            [
              72.614549,
              23.128372
            ],
            [
              72.615478,
              23.127372
            ],
            [
              72.612987,
              23.123372
            ],
            [
              72.614176,
              23.122695
            ],
            [
              72.614852,
              23.119993
            ],
            [
              72.61157,
              23.121089
            ],
            [
              72.611278,
              23.123372
            ],
            [
              72.609852,
              23.12385
            ],
            [
              72.609543,
              23.12268
            ],
            [
              72.608852,
              23.122647
            ],
            [
              72.606603,
              23.123122
            ],
            [
              72.6053,
              23.124372
            ],
            [
              72.605852,
              23.12499
            ],
            [
              72.606522,
              23.124041
            ],
            [
              72.607852,
              23.124092
            ],
            [
              72.607852,
              23.12562
            ],
            [
              72.604852,
              23.1258
            ],
            [
              72.603852,
              23.124866
            ],
            [
              72.602621,
              23.125141
            ],
            [
              72.602499,
              23.129725
            ],
            [
              72.603852,
              23.129948
            ],
            [
              72.604852,
              23.12902
            ],
            [
              72.606091,
              23.129611
            ],
            [
              72.605123,
              23.130643
            ],
            [
              72.601852,
              23.130859
            ],
            [
              72.600852,
              23.131887
            ],
            [
              72.597852,
              23.131938
            ],
            [
              72.597465,
              23.133372
            ],
            [
              72.599852,
              23.134821
            ],
            [
              72.600852,
              23.133857
            ],
            [
              72.605852,
              23.133865
            ],
            [
              72.60623,
              23.13475
            ],
            [
              72.601852,
              23.134873
            ],
            [
              72.600852,
              23.135905
            ],
            [
              72.598852,
              23.135938
            ],
            [
              72.595852,
              23.134004
            ],
            [
              72.594488,
              23.134007
            ],
            [
              72.595517,
              23.137707
            ],
            [
              72.597102,
              23.138622
            ],
            [
              72.592852,
              23.138875
            ],
            [
              72.591852,
              23.139901
            ],
            [
              72.587516,
              23.140372
            ],
            [
              72.593852,
              23.140834
            ],
            [
              72.594852,
              23.139866
            ],
            [
              72.597852,
              23.139967
            ],
            [
              72.600852,
              23.138115
            ],
            [
              72.60395,
              23.137372
            ],
            [
              72.602901,
              23.139421
            ],
            [
              72.601229,
              23.139748
            ],
            [
              72.599189,
              23.141372
            ],
            [
              72.600353,
              23.143871
            ],
            [
              72.602834,
              23.144372
            ],
            [
              72.603343,
              23.145372
            ],
            [
              72.601852,
              23.145609
            ],
            [
              72.601562,
              23.144662
            ],
            [
              72.599852,
              23.144623
            ],
            [
              72.597254,
              23.145774
            ],
            [
              72.595906,
              23.147425
            ],
            [
              72.594915,
              23.147435
            ],
            [
              72.594852,
              23.147971
            ],
            [
              72.594474,
              23.147372
            ],
            [
              72.595678,
              23.147198
            ],
            [
              72.595634,
              23.145372
            ],
            [
              72.596533,
              23.144372
            ],
            [
              72.595209,
              23.143015
            ],
            [
              72.590526,
              23.145046
            ],
            [
              72.589487,
              23.146737
            ],
            [
              72.590852,
              23.146952
            ],
            [
              72.592251,
              23.148372
            ],
            [
              72.588344,
              23.149372
            ],
            [
              72.587852,
              23.158018
            ]
          ]
        ],
        "type": "Polygon"
      },
      "type": "Feature"
    }
  ]
}