{
  "type": "FeatureCollection",
  "metadata": {
    "provider_name": "Malik Shawarma",
    "center_lat": 23.24908241,
    "center_lon": 77.42645323,
    "mode": "motorcycle",
    "total_zones": 4,
    "distance_zones": [
      3,
      4,
      5,
      6
    ],
    "generated_at": "2025-12-28T13:58:09.962368Z"
  },
  "features": [
    {
      "properties": {
        "fill-opacity": 0.33,
        "fillColor": "#bf4040",
        "opacity": 0.33,
        "fill": "#bf4040",
        "fillOpacity": 0.33,
        "color": "#bf4040",
        "contour": 3.0,
        "metric": "distance",
        "provider_name": "Malik Shawarma",
        "zone_type": "distance",
        "distance_km": 3,
        "mode": "motorcycle",
        "center_lat": 23.24908241,
        "center_lon": 77.42645323,
        "label": "3km"
      },
      "geometry": {
        "coordinates": [
          [
            [
              77.434453,
              23.265522
            ],
            [
              77.433453,
              23.264996
            ],
            [
              77.430675,
              23.26586
            ],
            [
              77.429649,
              23.264886
            ],
            [
              77.426453,
              23.26495
            ],
            [
              77.423453,
              23.263682
            ],
            [
              77.422453,
              23.265513
            ],
            [
              77.418453,
              23.265694
            ],
            [
              77.416453,
              23.263401
            ],
            [
              77.414252,
              23.262881
            ],
            [
              77.413453,
              23.264137
            ],
            [
              77.413203,
              23.263332
            ],
            [
              77.410453,
              23.263293
            ],
            [
              77.408883,
              23.261652
            ],
            [
              77.406927,
              23.261607
            ],
            [
              77.406198,
              23.260337
            ],
            [
              77.403453,
              23.259761
            ],
            [
              77.401326,
              23.258209
            ],
            [
              77.398944,
              23.256082
            ],
            [
              77.402453,
              23.250144
            ],
            [
              77.404453,
              23.250933
            ],
            [
              77.405453,
              23.250003
            ],
            [
              77.405985,
              23.25155
            ],
            [
              77.407726,
              23.251808
            ],
            [
              77.409453,
              23.253555
            ],
            [
              77.411453,
              23.253509
            ],
            [
              77.412837,
              23.252082
            ],
            [
              77.409192,
              23.250343
            ],
            [
              77.4079,
              23.246634
            ],
            [
              77.404837,
              23.244082
            ],
            [
              77.405787,
              23.242747
            ],
            [
              77.405045,
              23.242674
            ],
            [
              77.404453,
              23.24384
            ],
            [
              77.403227,
              23.243082
            ],
            [
              77.402969,
              23.238598
            ],
            [
              77.405461,
              23.238074
            ],
            [
              77.406718,
              23.238817
            ],
            [
              77.409453,
              23.238798
            ],
            [
              77.413453,
              23.242283
            ],
            [
              77.414224,
              23.242082
            ],
            [
              77.414453,
              23.239767
            ],
            [
              77.415453,
              23.239648
            ],
            [
              77.416453,
              23.237988
            ],
            [
              77.417961,
              23.240574
            ],
            [
              77.420453,
              23.240689
            ],
            [
              77.421104,
              23.240082
            ],
            [
              77.420763,
              23.238772
            ],
            [
              77.418739,
              23.238082
            ],
            [
              77.418972,
              23.237082
            ],
            [
              77.422453,
              23.23609
            ],
            [
              77.423453,
              23.234731
            ],
            [
              77.425943,
              23.234572
            ],
            [
              77.426333,
              23.232202
            ],
            [
              77.424628,
              23.232082
            ],
            [
              77.426453,
              23.231662
            ],
            [
              77.430453,
              23.228465
            ],
            [
              77.431903,
              23.229532
            ],
            [
              77.432372,
              23.228082
            ],
            [
              77.434453,
              23.22738
            ],
            [
              77.435453,
              23.227345
            ],
            [
              77.436453,
              23.228996
            ],
            [
              77.437453,
              23.228956
            ],
            [
              77.437728,
              23.230807
            ],
            [
              77.439274,
              23.231082
            ],
            [
              77.441199,
              23.233082
            ],
            [
              77.43977,
              23.235082
            ],
            [
              77.44083,
              23.236082
            ],
            [
              77.440139,
              23.238082
            ],
            [
              77.441588,
              23.241947
            ],
            [
              77.439649,
              23.243082
            ],
            [
              77.439762,
              23.243772
            ],
            [
              77.441424,
              23.244082
            ],
            [
              77.441437,
              23.246066
            ],
            [
              77.439991,
              23.247082
            ],
            [
              77.440223,
              23.248312
            ],
            [
              77.442453,
              23.247818
            ],
            [
              77.448095,
              23.253082
            ],
            [
              77.444298,
              23.255927
            ],
            [
              77.441453,
              23.259485
            ],
            [
              77.440453,
              23.259496
            ],
            [
              77.43889,
              23.255645
            ],
            [
              77.437453,
              23.255332
            ],
            [
              77.436904,
              23.256082
            ],
            [
              77.437836,
              23.257082
            ],
            [
              77.436839,
              23.258082
            ],
            [
              77.437709,
              23.259082
            ],
            [
              77.437677,
              23.260858
            ],
            [
              77.43843,
              23.261082
            ],
            [
              77.434453,
              23.265522
            ]
          ]
        ],
        "type": "Polygon"
      },
      "type": "Feature"
    },
    {
      "properties": {
        "fill-opacity": 0.33,
        "fillColor": "#bf4040",
        "opacity": 0.33,
        "fill": "#bf4040",
        "fillOpacity": 0.33,
        "color": "#bf4040",
        "contour": 4.0,
        "metric": "distance",
        "provider_name": "Malik Shawarma",
        "zone_type": "distance",
        "distance_km": 4,
        "mode": "motorcycle",
        "center_lat": 23.24908241,
        "center_lon": 77.42645323,
        "label": "4km"
      },
      "geometry": {
        "coordinates": [
          [
            [
              77.431453,
              23.27309
            ],
            [
              77.428453,
              23.270994
            ],
            [
              77.424453,
              23.271974
            ],
            [
              77.421453,
              23.270248
            ],
            [
              77.420666,
              23.270295
            ],
            [
              77.420453,
              23.272575
            ],
            [
              77.420334,
              23.271201
            ],
            [
              77.419184,
              23.271082
            ],
            [
              77.418841,
              23.269694
            ],
            [
              77.417453,
              23.270585
            ],
            [
              77.415453,
              23.270153
            ],
            [
              77.413961,
              23.267574
            ],
            [
              77.412118,
              23.268416
            ],
            [
              77.411453,
              23.266493
            ],
            [
              77.410743,
              23.267792
            ],
            [
              77.411574,
              23.269082
            ],
            [
              77.410453,
              23.269279
            ],
            [
              77.408989,
              23.268082
            ],
            [
              77.409791,
              23.267421
            ],
            [
              77.409702,
              23.265833
            ],
            [
              77.407453,
              23.266823
            ],
            [
              77.405453,
              23.266613
            ],
            [
              77.404453,
              23.265647
            ],
            [
              77.400453,
              23.26645
            ],
            [
              77.399621,
              23.266082
            ],
            [
              77.398286,
              23.263082
            ],
            [
              77.396546,
              23.261989
            ],
            [
              77.395453,
              23.262552
            ],
            [
              77.394453,
              23.261524
            ],
            [
              77.393453,
              23.262032
            ],
            [
              77.392054,
              23.261082
            ],
            [
              77.392989,
              23.260082
            ],
            [
              77.391424,
              23.259111
            ],
            [
              77.392565,
              23.258082
            ],
            [
              77.391569,
              23.257082
            ],
            [
              77.393453,
              23.255923
            ],
            [
              77.395453,
              23.255793
            ],
            [
              77.397994,
              23.254082
            ],
            [
              77.395221,
              23.24985
            ],
            [
              77.395992,
              23.247082
            ],
            [
              77.3972,
              23.246082
            ],
            [
              77.397254,
              23.240082
            ],
            [
              77.394638,
              23.235082
            ],
            [
              77.395214,
              23.233082
            ],
            [
              77.396042,
              23.232671
            ],
            [
              77.397453,
              23.232436
            ],
            [
              77.398453,
              23.233334
            ],
            [
              77.399453,
              23.231922
            ],
            [
              77.400453,
              23.233032
            ],
            [
              77.401453,
              23.230254
            ],
            [
              77.402545,
              23.231082
            ],
            [
              77.402441,
              23.232094
            ],
            [
              77.406753,
              23.233782
            ],
            [
              77.408755,
              23.236082
            ],
            [
              77.408931,
              23.237604
            ],
            [
              77.411196,
              23.237825
            ],
            [
              77.411453,
              23.236898
            ],
            [
              77.412777,
              23.237082
            ],
            [
              77.411768,
              23.237397
            ],
            [
              77.412453,
              23.239072
            ],
            [
              77.413771,
              23.238082
            ],
            [
              77.415453,
              23.233876
            ],
            [
              77.416453,
              23.233021
            ],
            [
              77.41773,
              23.234082
            ],
            [
              77.417988,
              23.231547
            ],
            [
              77.41558,
              23.231082
            ],
            [
              77.41786,
              23.230489
            ],
            [
              77.418047,
              23.229487
            ],
            [
              77.417354,
              23.229082
            ],
            [
              77.418453,
              23.228323
            ],
            [
              77.419453,
              23.229211
            ],
            [
              77.420453,
              23.228912
            ],
            [
              77.422816,
              23.226445
            ],
            [
              77.426017,
              23.225082
            ],
            [
              77.427453,
              23.22211
            ],
            [
              77.427861,
              23.223674
            ],
            [
              77.429634,
              23.222901
            ],
            [
              77.431453,
              23.224425
            ],
            [
              77.432495,
              23.222124
            ],
            [
              77.439453,
              23.2191
            ],
            [
              77.439594,
              23.222082
            ],
            [
              77.437784,
              23.223082
            ],
            [
              77.439635,
              23.224082
            ],
            [
              77.437925,
              23.228082
            ],
            [
              77.438141,
              23.230394
            ],
            [
              77.439453,
              23.229778
            ],
            [
              77.440453,
              23.230504
            ],
            [
              77.441918,
              23.229617
            ],
            [
              77.443121,
              23.232082
            ],
            [
              77.442036,
              23.232665
            ],
            [
              77.442012,
              23.233522
            ],
            [
              77.444676,
              23.234082
            ],
            [
              77.446453,
              23.235944
            ],
            [
              77.447453,
              23.23519
            ],
            [
              77.449632,
              23.235903
            ],
            [
              77.450133,
              23.237082
            ],
            [
              77.448272,
              23.244082
            ],
            [
              77.449869,
              23.244665
            ],
            [
              77.450727,
              23.246808
            ],
            [
              77.451932,
              23.247082
            ],
            [
              77.450776,
              23.247406
            ],
            [
              77.451085,
              23.250449
            ],
            [
              77.452453,
              23.251725
            ],
            [
              77.455243,
              23.250872
            ],
            [
              77.457738,
              23.251082
            ],
            [
              77.456453,
              23.252974
            ],
            [
              77.456259,
              23.252276
            ],
            [
              77.454872,
              23.252502
            ],
            [
              77.454453,
              23.254694
            ],
            [
              77.453453,
              23.253355
            ],
            [
              77.45289,
              23.255082
            ],
            [
              77.454288,
              23.256082
            ],
            [
              77.453453,
              23.257304
            ],
            [
              77.453213,
              23.256322
            ],
            [
              77.451882,
              23.256511
            ],
            [
              77.451614,
              23.257921
            ],
            [
              77.452182,
              23.258082
            ],
            [
              77.451453,
              23.25903
            ],
            [
              77.449596,
              23.257082
            ],
            [
              77.448347,
              23.256977
            ],
            [
              77.447958,
              23.258577
            ],
            [
              77.449311,
              23.259082
            ],
            [
              77.450036,
              23.261082
            ],
            [
              77.447809,
              23.261438
            ],
            [
              77.447234,
              23.262301
            ],
            [
              77.447731,
              23.263082
            ],
            [
              77.446453,
              23.263382
            ],
            [
              77.445105,
              23.262735
            ],
            [
              77.444453,
              23.264374
            ],
            [
              77.443453,
              23.263651
            ],
            [
              77.442265,
              23.263894
            ],
            [
              77.441784,
              23.265413
            ],
            [
              77.440087,
              23.265716
            ],
            [
              77.440453,
              23.267455
            ],
            [
              77.435453,
              23.272776
            ],
            [
              77.432812,
              23.272441
            ],
            [
              77.431453,
              23.27309
            ]
          ]
        ],
        "type": "Polygon"
      },
      "type": "Feature"
    },
    {
      "properties": {
        "fill-opacity": 0.33,
        "fillColor": "#bf4040",
        "opacity": 0.33,
        "fill": "#bf4040",
        "fillOpacity": 0.33,
        "color": "#bf4040",
        "contour": 5.0,
        "metric": "distance",
        "provider_name": "Malik Shawarma",
        "zone_type": "distance",
        "distance_km": 5,
        "mode": "motorcycle",
        "center_lat": 23.24908241,
        "center_lon": 77.42645323,
        "label": "5km"
      },
      "geometry": {
        "coordinates": [
          [
            [
              77.425453,
              23.278217
            ],
            [
              77.422453,
              23.277751
            ],
            [
              77.423151,
              23.275082
            ],
            [
              77.421453,
              23.273442
            ],
            [
              77.41873,
              23.278082
            ],
            [
              77.418135,
              23.2764
            ],
            [
              77.416843,
              23.276472
            ],
            [
              77.416453,
              23.277205
            ],
            [
              77.415258,
              23.276276
            ],
            [
              77.415088,
              23.275082
            ],
            [
              77.416103,
              23.274082
            ],
            [
              77.414696,
              23.273082
            ],
            [
              77.414951,
              23.270082
            ],
            [
              77.414027,
              23.269508
            ],
            [
              77.413453,
              23.267659
            ],
            [
              77.41262,
              23.269082
            ],
            [
              77.413598,
              23.269936
            ],
            [
              77.413403,
              23.272032
            ],
            [
              77.409453,
              23.272776
            ],
            [
              77.408193,
              23.272082
            ],
            [
              77.409305,
              23.271934
            ],
            [
              77.408453,
              23.270317
            ],
            [
              77.406453,
              23.27178
            ],
            [
              77.404453,
              23.270742
            ],
            [
              77.402453,
              23.273368
            ],
            [
              77.401453,
              23.27332
            ],
            [
              77.397453,
              23.27059
            ],
            [
              77.396421,
              23.271113
            ],
            [
              77.395453,
              23.270414
            ],
            [
              77.394283,
              23.271252
            ],
            [
              77.389963,
              23.268082
            ],
            [
              77.392954,
              23.267583
            ],
            [
              77.392453,
              23.262522
            ],
            [
              77.389779,
              23.265082
            ],
            [
              77.389453,
              23.26678
            ],
            [
              77.388453,
              23.265546
            ],
            [
              77.387453,
              23.265861
            ],
            [
              77.38413,
              23.263405
            ],
            [
              77.382611,
              23.263082
            ],
            [
              77.383421,
              23.259082
            ],
            [
              77.385453,
              23.258899
            ],
            [
              77.386453,
              23.259816
            ],
            [
              77.390453,
              23.25662
            ],
            [
              77.395713,
              23.255342
            ],
            [
              77.397081,
              23.253082
            ],
            [
              77.396726,
              23.251809
            ],
            [
              77.391876,
              23.246658
            ],
            [
              77.387486,
              23.245082
            ],
            [
              77.390022,
              23.244651
            ],
            [
              77.390213,
              23.243322
            ],
            [
              77.389356,
              23.243082
            ],
            [
              77.389319,
              23.242082
            ],
            [
              77.391619,
              23.241082
            ],
            [
              77.391283,
              23.238082
            ],
            [
              77.390698,
              23.237837
            ],
            [
              77.391077,
              23.236082
            ],
            [
              77.389292,
              23.234243
            ],
            [
              77.389321,
              23.231082
            ],
            [
              77.388433,
              23.230082
            ],
            [
              77.387988,
              23.227082
            ],
            [
              77.391453,
              23.226038
            ],
            [
              77.396453,
              23.226011
            ],
            [
              77.397453,
              23.224826
            ],
            [
              77.401642,
              23.223271
            ],
            [
              77.403453,
              23.221497
            ],
            [
              77.404796,
              23.224738
            ],
            [
              77.405874,
              23.225082
            ],
            [
              77.405764,
              23.226082
            ],
            [
              77.406969,
              23.227082
            ],
            [
              77.406169,
              23.229366
            ],
            [
              77.408987,
              23.232548
            ],
            [
              77.410453,
              23.23277
            ],
            [
              77.410936,
              23.230599
            ],
            [
              77.408029,
              23.230082
            ],
            [
              77.409453,
              23.227169
            ],
            [
              77.411062,
              23.227082
            ],
            [
              77.410453,
              23.224927
            ],
            [
              77.41619,
              23.221819
            ],
            [
              77.419258,
              23.223082
            ],
            [
              77.421848,
              23.220477
            ],
            [
              77.422162,
              23.218791
            ],
            [
              77.423453,
              23.219051
            ],
            [
              77.424194,
              23.216823
            ],
            [
              77.427453,
              23.215596
            ],
            [
              77.430215,
              23.215845
            ],
            [
              77.433453,
              23.213927
            ],
            [
              77.434548,
              23.214177
            ],
            [
              77.441453,
              23.211381
            ],
            [
              77.443453,
              23.212076
            ],
            [
              77.443496,
              23.213082
            ],
            [
              77.442141,
              23.21377
            ],
            [
              77.439812,
              23.222441
            ],
            [
              77.438052,
              23.223082
            ],
            [
              77.440428,
              23.224082
            ],
            [
              77.438107,
              23.228082
            ],
            [
              77.438219,
              23.229316
            ],
            [
              77.440453,
              23.229827
            ],
            [
              77.441103,
              23.229082
            ],
            [
              77.440162,
              23.227082
            ],
            [
              77.441713,
              23.226082
            ],
            [
              77.440775,
              23.224082
            ],
            [
              77.442453,
              23.222376
            ],
            [
              77.443582,
              23.224082
            ],
            [
              77.443187,
              23.227082
            ],
            [
              77.444755,
              23.228384
            ],
            [
              77.445453,
              23.226052
            ],
            [
              77.445786,
              23.227749
            ],
            [
              77.446643,
              23.228082
            ],
            [
              77.447032,
              23.231503
            ],
            [
              77.449453,
              23.23184
            ],
            [
              77.450453,
              23.22984
            ],
            [
              77.451453,
              23.231726
            ],
            [
              77.452638,
              23.232082
            ],
            [
              77.453548,
              23.232178
            ],
            [
              77.454453,
              23.230927
            ],
            [
              77.457453,
              23.231688
            ],
            [
              77.457904,
              23.232082
            ],
            [
              77.455453,
              23.232283
            ],
            [
              77.453677,
              23.234307
            ],
            [
              77.452058,
              23.234687
            ],
            [
              77.451867,
              23.236082
            ],
            [
              77.452885,
              23.237082
            ],
            [
              77.452794,
              23.240082
            ],
            [
              77.451045,
              23.240674
            ],
            [
              77.451036,
              23.241499
            ],
            [
              77.456886,
              23.242082
            ],
            [
              77.454847,
              23.243476
            ],
            [
              77.455453,
              23.244992
            ],
            [
              77.457093,
              23.244722
            ],
            [
              77.457453,
              23.242712
            ],
            [
              77.457792,
              23.244743
            ],
            [
              77.459253,
              23.244882
            ],
            [
              77.459453,
              23.2439
            ],
            [
              77.459647,
              23.244888
            ],
            [
              77.460924,
              23.245082
            ],
            [
              77.459684,
              23.245313
            ],
            [
              77.459905,
              23.24663
            ],
            [
              77.462322,
              23.246952
            ],
            [
              77.462453,
              23.246425
            ],
            [
              77.462809,
              23.248725
            ],
            [
              77.464337,
              23.248967
            ],
            [
              77.464453,
              23.248053
            ],
            [
              77.464814,
              23.24972
            ],
            [
              77.466285,
              23.249914
            ],
            [
              77.466453,
              23.248934
            ],
            [
              77.467411,
              23.250082
            ],
            [
              77.464453,
              23.253957
            ],
            [
              77.463453,
              23.25462
            ],
            [
              77.462453,
              23.254123
            ],
            [
              77.462349,
              23.256082
            ],
            [
              77.457453,
              23.261818
            ],
            [
              77.455453,
              23.260569
            ],
            [
              77.454711,
              23.26334
            ],
            [
              77.451038,
              23.263668
            ],
            [
              77.450989,
              23.264546
            ],
            [
              77.452643,
              23.265082
            ],
            [
              77.452758,
              23.267082
            ],
            [
              77.449117,
              23.269082
            ],
            [
              77.446851,
              23.26948
            ],
            [
              77.445634,
              23.271082
            ],
            [
              77.445453,
              23.273049
            ],
            [
              77.444453,
              23.273345
            ],
            [
              77.443279,
              23.272082
            ],
            [
              77.4442,
              23.271829
            ],
            [
              77.443994,
              23.270541
            ],
            [
              77.442738,
              23.270367
            ],
            [
              77.442008,
              23.273082
            ],
            [
              77.440001,
              23.27463
            ],
            [
              77.439453,
              23.276193
            ],
            [
              77.439123,
              23.275412
            ],
            [
              77.436453,
              23.274395
            ],
            [
              77.431453,
              23.274548
            ],
            [
              77.430453,
              23.275702
            ],
            [
              77.429453,
              23.27572
            ],
            [
              77.427453,
              23.273272
            ],
            [
              77.426284,
              23.275082
            ],
            [
              77.42721,
              23.277082
            ],
            [
              77.425453,
              23.278217
            ]
          ]
        ],
        "type": "Polygon"
      },
      "type": "Feature"
    },
    {
      "properties": {
        "fill-opacity": 0.33,
        "fillColor": "#bf4040",
        "opacity": 0.33,
        "fill": "#bf4040",
        "fillOpacity": 0.33,
        "color": "#bf4040",
        "contour": 6.0,
        "metric": "distance",
        "provider_name": "Malik Shawarma",
        "zone_type": "distance",
        "distance_km": 6,
        "mode": "motorcycle",
        "center_lat": 23.24908241,
        "center_lon": 77.42645323,
        "label": "6km"
      },
      "geometry": {
        "coordinates": [
          [
            [
              77.431453,
              23.283511
            ],
            [
              77.430406,
              23.283129
            ],
            [
              77.430052,
              23.281482
            ],
            [
              77.427453,
              23.280711
            ],
            [
              77.425862,
              23.281082
            ],
            [
              77.424453,
              23.283828
            ],
            [
              77.4185,
              23.279034
            ],
            [
              77.414453,
              23.279248
            ],
            [
              77.412611,
              23.280082
            ],
            [
              77.412762,
              23.278772
            ],
            [
              77.410453,
              23.277327
            ],
            [
              77.408065,
              23.277694
            ],
            [
              77.406453,
              23.279366
            ],
            [
              77.403912,
              23.279541
            ],
            [
              77.403696,
              23.280839
            ],
            [
              77.405211,
              23.281082
            ],
            [
              77.403453,
              23.282283
            ],
            [
              77.395453,
              23.27796
            ],
            [
              77.393453,
              23.278137
            ],
            [
              77.393078,
              23.276456
            ],
            [
              77.387888,
              23.276082
            ],
            [
              77.387408,
              23.274082
            ],
            [
              77.385453,
              23.273203
            ],
            [
              77.383453,
              23.273257
            ],
            [
              77.383036,
              23.270498
            ],
            [
              77.381453,
              23.270266
            ],
            [
              77.380658,
              23.269082
            ],
            [
              77.382119,
              23.267082
            ],
            [
              77.381453,
              23.265544
            ],
            [
              77.378453,
              23.268657
            ],
            [
              77.3766,
              23.269229
            ],
            [
              77.376283,
              23.270252
            ],
            [
              77.375929,
              23.269082
            ],
            [
              77.377362,
              23.267082
            ],
            [
              77.374671,
              23.263082
            ],
            [
              77.37539,
              23.262019
            ],
            [
              77.375258,
              23.260082
            ],
            [
              77.378453,
              23.259836
            ],
            [
              77.379453,
              23.260878
            ],
            [
              77.381453,
              23.258641
            ],
            [
              77.385453,
              23.258532
            ],
            [
              77.386453,
              23.259505
            ],
            [
              77.390453,
              23.256432
            ],
            [
              77.39564,
              23.255269
            ],
            [
              77.396839,
              23.253082
            ],
            [
              77.396647,
              23.251888
            ],
            [
              77.391712,
              23.246823
            ],
            [
              77.389453,
              23.246631
            ],
            [
              77.386453,
              23.244552
            ],
            [
              77.381453,
              23.243332
            ],
            [
              77.381034,
              23.242501
            ],
            [
              77.379383,
              23.242151
            ],
            [
              77.379337,
              23.241197
            ],
            [
              77.378669,
              23.241082
            ],
            [
              77.379453,
              23.24078
            ],
            [
              77.379672,
              23.241863
            ],
            [
              77.382159,
              23.241789
            ],
            [
              77.382134,
              23.240401
            ],
            [
              77.380704,
              23.240082
            ],
            [
              77.381326,
              23.238082
            ],
            [
              77.383453,
              23.238468
            ],
            [
              77.384136,
              23.239398
            ],
            [
              77.385763,
              23.239392
            ],
            [
              77.386144,
              23.234774
            ],
            [
              77.387453,
              23.235847
            ],
            [
              77.38798,
              23.235082
            ],
            [
              77.386571,
              23.234082
            ],
            [
              77.387162,
              23.231082
            ],
            [
              77.386571,
              23.229963
            ],
            [
              77.384235,
              23.2293
            ],
            [
              77.38228,
              23.227255
            ],
            [
              77.382744,
              23.225082
            ],
            [
              77.380696,
              23.224082
            ],
            [
              77.380608,
              23.223082
            ],
            [
              77.381976,
              23.222082
            ],
            [
              77.38167,
              23.220299
            ],
            [
              77.383971,
              23.220082
            ],
            [
              77.383666,
              23.222082
            ],
            [
              77.384453,
              23.222792
            ],
            [
              77.385284,
              23.221251
            ],
            [
              77.384702,
              23.220082
            ],
            [
              77.387103,
              23.219431
            ],
            [
              77.387022,
              23.223513
            ],
            [
              77.387886,
              23.223516
            ],
            [
              77.389453,
              23.219713
            ],
            [
              77.393027,
              23.221508
            ],
            [
              77.393714,
              23.223343
            ],
            [
              77.396843,
              23.221082
            ],
            [
              77.396453,
              23.216689
            ],
            [
              77.400723,
              23.217352
            ],
            [
              77.401797,
              23.214426
            ],
            [
              77.402453,
              23.21425
            ],
            [
              77.409521,
              23.217082
            ],
            [
              77.407767,
              23.217397
            ],
            [
              77.407633,
              23.218082
            ],
            [
              77.409453,
              23.21962
            ],
            [
              77.410453,
              23.217834
            ],
            [
              77.414411,
              23.219124
            ],
            [
              77.416669,
              23.218298
            ],
            [
              77.418453,
              23.216612
            ],
            [
              77.422453,
              23.216748
            ],
            [
              77.423085,
              23.216082
            ],
            [
              77.423148,
              23.212082
            ],
            [
              77.424204,
              23.211082
            ],
            [
              77.423355,
              23.20918
            ],
            [
              77.422443,
              23.209082
            ],
            [
              77.423373,
              23.209002
            ],
            [
              77.424453,
              23.206958
            ],
            [
              77.429731,
              23.209361
            ],
            [
              77.432483,
              23.208113
            ],
            [
              77.436453,
              23.204815
            ],
            [
              77.437453,
              23.204425
            ],
            [
              77.439453,
              23.205794
            ],
            [
              77.443453,
              23.202904
            ],
            [
              77.444611,
              23.203924
            ],
            [
              77.446713,
              23.204082
            ],
            [
              77.44501,
              23.208082
            ],
            [
              77.445065,
              23.21047
            ],
            [
              77.448859,
              23.209488
            ],
            [
              77.449453,
              23.207827
            ],
            [
              77.452297,
              23.211082
            ],
            [
              77.451582,
              23.211211
            ],
            [
              77.451453,
              23.212434
            ],
            [
              77.451272,
              23.211263
            ],
            [
              77.449844,
              23.211473
            ],
            [
              77.449453,
              23.21313
            ],
            [
              77.449138,
              23.212397
            ],
            [
              77.447272,
              23.212263
            ],
            [
              77.446453,
              23.211461
            ],
            [
              77.444453,
              23.211529
            ],
            [
              77.444159,
              23.213788
            ],
            [
              77.443234,
              23.214082
            ],
            [
              77.443183,
              23.215351
            ],
            [
              77.445453,
              23.216521
            ],
            [
              77.446845,
              23.21969
            ],
            [
              77.448301,
              23.21993
            ],
            [
              77.448453,
              23.219323
            ],
            [
              77.449205,
              23.220082
            ],
            [
              77.44777,
              23.220399
            ],
            [
              77.447676,
              23.221082
            ],
            [
              77.448739,
              23.222796
            ],
            [
              77.45004,
              23.223082
            ],
            [
              77.445924,
              23.225082
            ],
            [
              77.447195,
              23.23134
            ],
            [
              77.449739,
              23.231369
            ],
            [
              77.450453,
              23.228604
            ],
            [
              77.452873,
              23.229502
            ],
            [
              77.45426,
              23.228082
            ],
            [
              77.454139,
              23.227396
            ],
            [
              77.452947,
              23.227082
            ],
            [
              77.454453,
              23.225171
            ],
            [
              77.45478,
              23.226755
            ],
            [
              77.455453,
              23.226889
            ],
            [
              77.456453,
              23.225347
            ],
            [
              77.457322,
              23.225213
            ],
            [
              77.457491,
              23.226044
            ],
            [
              77.461453,
              23.225576
            ],
            [
              77.462208,
              23.227327
            ],
            [
              77.463761,
              23.227774
            ],
            [
              77.464453,
              23.229882
            ],
            [
              77.465598,
              23.229936
            ],
            [
              77.467474,
              23.232082
            ],
            [
              77.466453,
              23.233171
            ],
            [
              77.466255,
              23.23228
            ],
            [
              77.463961,
              23.232591
            ],
            [
              77.462692,
              23.234082
            ],
            [
              77.462453,
              23.236867
            ],
            [
              77.461962,
              23.234572
            ],
            [
              77.460409,
              23.235038
            ],
            [
              77.460241,
              23.236294
            ],
            [
              77.461666,
              23.238082
            ],
            [
              77.460453,
              23.238184
            ],
            [
              77.459771,
              23.239082
            ],
            [
              77.462987,
              23.240082
            ],
            [
              77.460453,
              23.240425
            ],
            [
              77.460073,
              23.241462
            ],
            [
              77.462931,
              23.241603
            ],
            [
              77.463079,
              23.244456
            ],
            [
              77.465064,
              23.244471
            ],
            [
              77.465453,
              23.249104
            ],
            [
              77.46567,
              23.243865
            ],
            [
              77.464453,
              23.243207
            ],
            [
              77.464119,
              23.242082
            ],
            [
              77.466453,
              23.240034
            ],
            [
              77.467453,
              23.240106
            ],
            [
              77.469309,
              23.242082
            ],
            [
              77.468944,
              23.244591
            ],
            [
              77.471453,
              23.245027
            ],
            [
              77.473453,
              23.244025
            ],
            [
              77.476943,
              23.249082
            ],
            [
              77.471806,
              23.254435
            ],
            [
              77.470453,
              23.254373
            ],
            [
              77.468937,
              23.255566
            ],
            [
              77.46978,
              23.257082
            ],
            [
              77.469453,
              23.258439
            ],
            [
              77.468281,
              23.258082
            ],
            [
              77.468126,
              23.259755
            ],
            [
              77.466453,
              23.262082
            ],
            [
              77.461738,
              23.268082
            ],
            [
              77.459453,
              23.268491
            ],
            [
              77.458453,
              23.270765
            ],
            [
              77.455453,
              23.269248
            ],
            [
              77.455218,
              23.267317
            ],
            [
              77.454453,
              23.267171
            ],
            [
              77.454233,
              23.269082
            ],
            [
              77.453055,
              23.269684
            ],
            [
              77.453002,
              23.270533
            ],
            [
              77.455453,
              23.270445
            ],
            [
              77.455988,
              23.271082
            ],
            [
              77.452976,
              23.271605
            ],
            [
              77.452873,
              23.272662
            ],
            [
              77.454606,
              23.273082
            ],
            [
              77.45282,
              23.273449
            ],
            [
              77.452519,
              23.274149
            ],
            [
              77.450079,
              23.274082
            ],
            [
              77.452134,
              23.273763
            ],
            [
              77.451915,
              23.27162
            ],
            [
              77.449453,
              23.269575
            ],
            [
              77.447154,
              23.269783
            ],
            [
              77.446002,
              23.271082
            ],
            [
              77.445818,
              23.273447
            ],
            [
              77.444908,
              23.274082
            ],
            [
              77.445914,
              23.275082
            ],
            [
              77.444899,
              23.276082
            ],
            [
              77.444748,
              23.279787
            ],
            [
              77.446082,
              23.280082
            ],
            [
              77.444453,
              23.281446
            ],
            [
              77.442453,
              23.281051
            ],
            [
              77.442014,
              23.279082
            ],
            [
              77.443174,
              23.278082
            ],
            [
              77.441919,
              23.276616
            ],
            [
              77.439453,
              23.276611
            ],
            [
              77.438453,
              23.275617
            ],
            [
              77.437453,
              23.275982
            ],
            [
              77.436453,
              23.274675
            ],
            [
              77.434453,
              23.274731
            ],
            [
              77.433663,
              23.275082
            ],
            [
              77.433864,
              23.275671
            ],
            [
              77.436263,
              23.276082
            ],
            [
              77.432719,
              23.280082
            ],
            [
              77.431453,
              23.283511
            ]
          ]
        ],
        "type": "Polygon"
      },
      "type": "Feature"
    }
  ]
}