{
  "type": "FeatureCollection",
  "metadata": {
    "provider_name": "Pancakes N Waffles",
    "center_lat": 17.5403358,
    "center_lon": 78.47694775,
    "mode": "motorcycle",
    "total_zones": 4,
    "distance_zones": [
      3,
      4,
      5,
      6
    ],
    "generated_at": "2025-12-29T12:27:55.180306Z"
  },
  "features": [
    {
      "properties": {
        "fill-opacity": 0.33,
        "fillColor": "#bf4040",
        "opacity": 0.33,
        "fill": "#bf4040",
        "fillOpacity": 0.33,
        "color": "#bf4040",
        "contour": 3.0,
        "metric": "distance",
        "provider_name": "Pancakes N Waffles",
        "zone_type": "distance",
        "distance_km": 3,
        "mode": "motorcycle",
        "center_lat": 17.5403358,
        "center_lon": 78.47694775,
        "label": "3km"
      },
      "geometry": {
        "coordinates": [
          [
            [
              78.492947,
              17.548407
            ],
            [
              78.490587,
              17.547335
            ],
            [
              78.489947,
              17.546052
            ],
            [
              78.488947,
              17.546839
            ],
            [
              78.484947,
              17.546066
            ],
            [
              78.483473,
              17.544809
            ],
            [
              78.482947,
              17.543145
            ],
            [
              78.481822,
              17.54321
            ],
            [
              78.480947,
              17.544534
            ],
            [
              78.478947,
              17.543612
            ],
            [
              78.477947,
              17.544721
            ],
            [
              78.4755,
              17.544335
            ],
            [
              78.477383,
              17.542335
            ],
            [
              78.476024,
              17.542259
            ],
            [
              78.476463,
              17.537851
            ],
            [
              78.478531,
              17.535919
            ],
            [
              78.480294,
              17.535335
            ],
            [
              78.477947,
              17.533905
            ],
            [
              78.475613,
              17.535001
            ],
            [
              78.474172,
              17.53756
            ],
            [
              78.472719,
              17.537564
            ],
            [
              78.472675,
              17.534608
            ],
            [
              78.471637,
              17.532335
            ],
            [
              78.473353,
              17.531742
            ],
            [
              78.475947,
              17.526273
            ],
            [
              78.476125,
              17.527158
            ],
            [
              78.477252,
              17.527335
            ],
            [
              78.477024,
              17.530335
            ],
            [
              78.477947,
              17.530426
            ],
            [
              78.478947,
              17.531768
            ],
            [
              78.478962,
              17.52735
            ],
            [
              78.480907,
              17.525295
            ],
            [
              78.484947,
              17.525562
            ],
            [
              78.488976,
              17.528306
            ],
            [
              78.488147,
              17.528535
            ],
            [
              78.488475,
              17.531335
            ],
            [
              78.490614,
              17.535335
            ],
            [
              78.490864,
              17.538335
            ],
            [
              78.491662,
              17.538621
            ],
            [
              78.492249,
              17.541033
            ],
            [
              78.494082,
              17.5422
            ],
            [
              78.492335,
              17.543335
            ],
            [
              78.492347,
              17.546335
            ],
            [
              78.493012,
              17.54727
            ],
            [
              78.492947,
              17.548407
            ]
          ]
        ],
        "type": "Polygon"
      },
      "type": "Feature"
    },
    {
      "properties": {
        "fill-opacity": 0.33,
        "fillColor": "#bf4040",
        "opacity": 0.33,
        "fill": "#bf4040",
        "fillOpacity": 0.33,
        "color": "#bf4040",
        "contour": 4.0,
        "metric": "distance",
        "provider_name": "Pancakes N Waffles",
        "zone_type": "distance",
        "distance_km": 4,
        "mode": "motorcycle",
        "center_lat": 17.5403358,
        "center_lon": 78.47694775,
        "label": "4km"
      },
      "geometry": {
        "coordinates": [
          [
            [
              78.492947,
              17.557056
            ],
            [
              78.491598,
              17.555335
            ],
            [
              78.492248,
              17.554636
            ],
            [
              78.491972,
              17.553311
            ],
            [
              78.485947,
              17.552925
            ],
            [
              78.482947,
              17.551708
            ],
            [
              78.481493,
              17.550335
            ],
            [
              78.48191,
              17.549335
            ],
            [
              78.480947,
              17.547968
            ],
            [
              78.478947,
              17.550686
            ],
            [
              78.478351,
              17.548931
            ],
            [
              78.476947,
              17.547684
            ],
            [
              78.474462,
              17.54785
            ],
            [
              78.473854,
              17.549429
            ],
            [
              78.472781,
              17.548335
            ],
            [
              78.473585,
              17.546335
            ],
            [
              78.472947,
              17.545751
            ],
            [
              78.470947,
              17.547857
            ],
            [
              78.468947,
              17.548365
            ],
            [
              78.466382,
              17.546335
            ],
            [
              78.467947,
              17.544071
            ],
            [
              78.468947,
              17.543612
            ],
            [
              78.469947,
              17.544111
            ],
            [
              78.470655,
              17.543335
            ],
            [
              78.469455,
              17.542335
            ],
            [
              78.468947,
              17.54022
            ],
            [
              78.470178,
              17.540105
            ],
            [
              78.471924,
              17.541335
            ],
            [
              78.471186,
              17.541574
            ],
            [
              78.471468,
              17.542815
            ],
            [
              78.472697,
              17.542335
            ],
            [
              78.472003,
              17.540279
            ],
            [
              78.469976,
              17.538335
            ],
            [
              78.470947,
              17.536719
            ],
            [
              78.471196,
              17.538086
            ],
            [
              78.472358,
              17.537746
            ],
            [
              78.472326,
              17.534335
            ],
            [
              78.471355,
              17.532335
            ],
            [
              78.4732,
              17.531588
            ],
            [
              78.47542,
              17.527335
            ],
            [
              78.474481,
              17.525335
            ],
            [
              78.474579,
              17.519703
            ],
            [
              78.472947,
              17.519324
            ],
            [
              78.474947,
              17.518735
            ],
            [
              78.475302,
              17.522335
            ],
            [
              78.475947,
              17.522949
            ],
            [
              78.476947,
              17.521034
            ],
            [
              78.47996,
              17.521322
            ],
            [
              78.477947,
              17.521541
            ],
            [
              78.477234,
              17.522335
            ],
            [
              78.477298,
              17.524335
            ],
            [
              78.478947,
              17.52587
            ],
            [
              78.483704,
              17.524335
            ],
            [
              78.482755,
              17.523335
            ],
            [
              78.481947,
              17.518583
            ],
            [
              78.485826,
              17.520456
            ],
            [
              78.487211,
              17.522071
            ],
            [
              78.487133,
              17.523521
            ],
            [
              78.484947,
              17.523636
            ],
            [
              78.484567,
              17.524716
            ],
            [
              78.486947,
              17.524979
            ],
            [
              78.487773,
              17.524161
            ],
            [
              78.490947,
              17.523963
            ],
            [
              78.491647,
              17.526035
            ],
            [
              78.48883,
              17.529218
            ],
            [
              78.488947,
              17.530966
            ],
            [
              78.4899,
              17.531382
            ],
            [
              78.49025,
              17.534335
            ],
            [
              78.491185,
              17.535098
            ],
            [
              78.49247,
              17.540335
            ],
            [
              78.493641,
              17.541642
            ],
            [
              78.494424,
              17.541812
            ],
            [
              78.494947,
              17.540437
            ],
            [
              78.498436,
              17.538824
            ],
            [
              78.498562,
              17.53772
            ],
            [
              78.496805,
              17.537335
            ],
            [
              78.497947,
              17.535579
            ],
            [
              78.50017,
              17.537113
            ],
            [
              78.501917,
              17.537335
            ],
            [
              78.500245,
              17.537633
            ],
            [
              78.500947,
              17.539077
            ],
            [
              78.502707,
              17.539095
            ],
            [
              78.502881,
              17.538269
            ],
            [
              78.504117,
              17.538335
            ],
            [
              78.503085,
              17.538473
            ],
            [
              78.502947,
              17.539449
            ],
            [
              78.500475,
              17.539863
            ],
            [
              78.501141,
              17.541335
            ],
            [
              78.500947,
              17.544073
            ],
            [
              78.500532,
              17.541751
            ],
            [
              78.498947,
              17.540705
            ],
            [
              78.496947,
              17.541782
            ],
            [
              78.494471,
              17.541859
            ],
            [
              78.494493,
              17.54279
            ],
            [
              78.49594,
              17.543343
            ],
            [
              78.496292,
              17.544991
            ],
            [
              78.497061,
              17.545221
            ],
            [
              78.497255,
              17.547335
            ],
            [
              78.496947,
              17.548548
            ],
            [
              78.496477,
              17.547806
            ],
            [
              78.495474,
              17.547862
            ],
            [
              78.494483,
              17.549871
            ],
            [
              78.494142,
              17.55453
            ],
            [
              78.493084,
              17.555472
            ],
            [
              78.492947,
              17.557056
            ]
          ]
        ],
        "type": "Polygon"
      },
      "type": "Feature"
    },
    {
      "properties": {
        "fill-opacity": 0.33,
        "fillColor": "#bf4040",
        "opacity": 0.33,
        "fill": "#bf4040",
        "fillOpacity": 0.33,
        "color": "#bf4040",
        "contour": 5.0,
        "metric": "distance",
        "provider_name": "Pancakes N Waffles",
        "zone_type": "distance",
        "distance_km": 5,
        "mode": "motorcycle",
        "center_lat": 17.5403358,
        "center_lon": 78.47694775,
        "label": "5km"
      },
      "geometry": {
        "coordinates": [
          [
            [
              78.493947,
              17.5658
            ],
            [
              78.491892,
              17.564335
            ],
            [
              78.492663,
              17.562335
            ],
            [
              78.491947,
              17.560617
            ],
            [
              78.490947,
              17.56155
            ],
            [
              78.48996,
              17.561348
            ],
            [
              78.489342,
              17.563335
            ],
            [
              78.486947,
              17.563884
            ],
            [
              78.487158,
              17.562335
            ],
            [
              78.485888,
              17.561394
            ],
            [
              78.485947,
              17.559672
            ],
            [
              78.490137,
              17.557146
            ],
            [
              78.486652,
              17.55704
            ],
            [
              78.484947,
              17.55778
            ],
            [
              78.483477,
              17.556335
            ],
            [
              78.484421,
              17.555809
            ],
            [
              78.484287,
              17.554995
            ],
            [
              78.478947,
              17.555053
            ],
            [
              78.477972,
              17.553335
            ],
            [
              78.478834,
              17.552335
            ],
            [
              78.476622,
              17.551335
            ],
            [
              78.477584,
              17.550335
            ],
            [
              78.476947,
              17.547941
            ],
            [
              78.474666,
              17.548054
            ],
            [
              78.473947,
              17.549873
            ],
            [
              78.472584,
              17.548699
            ],
            [
              78.472386,
              17.546896
            ],
            [
              78.471664,
              17.547052
            ],
            [
              78.470408,
              17.549335
            ],
            [
              78.47034,
              17.551335
            ],
            [
              78.46922,
              17.552335
            ],
            [
              78.469099,
              17.554487
            ],
            [
              78.467166,
              17.554554
            ],
            [
              78.466947,
              17.5557
            ],
            [
              78.466414,
              17.551869
            ],
            [
              78.464241,
              17.551629
            ],
            [
              78.462947,
              17.552309
            ],
            [
              78.461373,
              17.55091
            ],
            [
              78.459947,
              17.551104
            ],
            [
              78.459632,
              17.549651
            ],
            [
              78.458291,
              17.549335
            ],
            [
              78.458906,
              17.548294
            ],
            [
              78.461947,
              17.548011
            ],
            [
              78.462569,
              17.547335
            ],
            [
              78.461701,
              17.545335
            ],
            [
              78.461689,
              17.542594
            ],
            [
              78.460937,
              17.542325
            ],
            [
              78.462527,
              17.541915
            ],
            [
              78.462947,
              17.538124
            ],
            [
              78.464091,
              17.539191
            ],
            [
              78.465947,
              17.539072
            ],
            [
              78.466734,
              17.538335
            ],
            [
              78.465767,
              17.537155
            ],
            [
              78.469947,
              17.535571
            ],
            [
              78.471345,
              17.535937
            ],
            [
              78.471467,
              17.537335
            ],
            [
              78.472201,
              17.537589
            ],
            [
              78.472222,
              17.534335
            ],
            [
              78.471383,
              17.5339
            ],
            [
              78.471237,
              17.532335
            ],
            [
              78.47313,
              17.531518
            ],
            [
              78.475268,
              17.527335
            ],
            [
              78.474295,
              17.525335
            ],
            [
              78.473947,
              17.519863
            ],
            [
              78.468947,
              17.522645
            ],
            [
              78.464148,
              17.523335
            ],
            [
              78.465947,
              17.521849
            ],
            [
              78.469393,
              17.520781
            ],
            [
              78.468947,
              17.518032
            ],
            [
              78.470947,
              17.515934
            ],
            [
              78.472962,
              17.51635
            ],
            [
              78.472767,
              17.515335
            ],
            [
              78.473785,
              17.515173
            ],
            [
              78.474947,
              17.513335
            ],
            [
              78.475149,
              17.514134
            ],
            [
              78.476947,
              17.514929
            ],
            [
              78.479364,
              17.513752
            ],
            [
              78.479947,
              17.51005
            ],
            [
              78.481523,
              17.512759
            ],
            [
              78.483462,
              17.512335
            ],
            [
              78.484947,
              17.513771
            ],
            [
              78.487947,
              17.514113
            ],
            [
              78.489995,
              17.515335
            ],
            [
              78.490215,
              17.518335
            ],
            [
              78.491947,
              17.520299
            ],
            [
              78.492947,
              17.519875
            ],
            [
              78.49338,
              17.521902
            ],
            [
              78.495537,
              17.522746
            ],
            [
              78.495411,
              17.524872
            ],
            [
              78.499359,
              17.527335
            ],
            [
              78.499736,
              17.528335
            ],
            [
              78.497165,
              17.528553
            ],
            [
              78.494947,
              17.528627
            ],
            [
              78.492947,
              17.527763
            ],
            [
              78.490435,
              17.531335
            ],
            [
              78.490537,
              17.534335
            ],
            [
              78.491423,
              17.534859
            ],
            [
              78.492624,
              17.540335
            ],
            [
              78.493737,
              17.541545
            ],
            [
              78.49427,
              17.541658
            ],
            [
              78.494486,
              17.539335
            ],
            [
              78.492653,
              17.536335
            ],
            [
              78.492536,
              17.534747
            ],
            [
              78.491604,
              17.534679
            ],
            [
              78.491845,
              17.533335
            ],
            [
              78.496947,
              17.532336
            ],
            [
              78.499153,
              17.533541
            ],
            [
              78.499217,
              17.532065
            ],
            [
              78.496947,
              17.532319
            ],
            [
              78.496854,
              17.531429
            ],
            [
              78.498589,
              17.530978
            ],
            [
              78.498947,
              17.530151
            ],
            [
              78.502409,
              17.535335
            ],
            [
              78.50228,
              17.536668
            ],
            [
              78.500507,
              17.538335
            ],
            [
              78.500947,
              17.538761
            ],
            [
              78.504295,
              17.537683
            ],
            [
              78.505581,
              17.536335
            ],
            [
              78.503214,
              17.533335
            ],
            [
              78.503947,
              17.531766
            ],
            [
              78.506947,
              17.532798
            ],
            [
              78.508947,
              17.532592
            ],
            [
              78.512129,
              17.534154
            ],
            [
              78.511316,
              17.535704
            ],
            [
              78.509947,
              17.535569
            ],
            [
              78.508497,
              17.536885
            ],
            [
              78.508132,
              17.53852
            ],
            [
              78.506947,
              17.538639
            ],
            [
              78.505947,
              17.537771
            ],
            [
              78.502947,
              17.539866
            ],
            [
              78.500671,
              17.540059
            ],
            [
              78.501501,
              17.541335
            ],
            [
              78.500947,
              17.544826
            ],
            [
              78.500399,
              17.542335
            ],
            [
              78.499217,
              17.541066
            ],
            [
              78.494625,
              17.542013
            ],
            [
              78.494947,
              17.542817
            ],
            [
              78.49628,
              17.543002
            ],
            [
              78.497494,
              17.545335
            ],
            [
              78.497611,
              17.548335
            ],
            [
              78.496947,
              17.549102
            ],
            [
              78.495789,
              17.548177
            ],
            [
              78.495642,
              17.55003
            ],
            [
              78.494826,
              17.550335
            ],
            [
              78.494513,
              17.554335
            ],
            [
              78.495193,
              17.555335
            ],
            [
              78.493526,
              17.556335
            ],
            [
              78.493947,
              17.5658
            ]
          ]
        ],
        "type": "Polygon"
      },
      "type": "Feature"
    },
    {
      "properties": {
        "fill-opacity": 0.33,
        "fillColor": "#bf4040",
        "opacity": 0.33,
        "fill": "#bf4040",
        "fillOpacity": 0.33,
        "color": "#bf4040",
        "contour": 6.0,
        "metric": "distance",
        "provider_name": "Pancakes N Waffles",
        "zone_type": "distance",
        "distance_km": 6,
        "mode": "motorcycle",
        "center_lat": 17.5403358,
        "center_lon": 78.47694775,
        "label": "6km"
      },
      "geometry": {
        "coordinates": [
          [
            [
              78.492947,
              17.574451
            ],
            [
              78.491947,
              17.574461
            ],
            [
              78.491981,
              17.574302
            ],
            [
              78.492859,
              17.574247
            ],
            [
              78.492735,
              17.572335
            ],
            [
              78.491947,
              17.57152
            ],
            [
              78.487947,
              17.569979
            ],
            [
              78.487018,
              17.571407
            ],
            [
              78.484947,
              17.571397
            ],
            [
              78.483575,
              17.569708
            ],
            [
              78.481663,
              17.569335
            ],
            [
              78.482494,
              17.566335
            ],
            [
              78.481947,
              17.565709
            ],
            [
              78.480807,
              17.566475
            ],
            [
              78.48081,
              17.564335
            ],
            [
              78.47984,
              17.563335
            ],
            [
              78.480712,
              17.562335
            ],
            [
              78.479852,
              17.561335
            ],
            [
              78.480862,
              17.560335
            ],
            [
              78.479668,
              17.557056
            ],
            [
              78.480709,
              17.556335
            ],
            [
              78.479947,
              17.555789
            ],
            [
              78.47865,
              17.556632
            ],
            [
              78.477452,
              17.554335
            ],
            [
              78.47746,
              17.552335
            ],
            [
              78.47635,
              17.551335
            ],
            [
              78.477336,
              17.550335
            ],
            [
              78.476947,
              17.548053
            ],
            [
              78.47475,
              17.548138
            ],
            [
              78.473947,
              17.550019
            ],
            [
              78.471748,
              17.547136
            ],
            [
              78.470597,
              17.549335
            ],
            [
              78.470569,
              17.551335
            ],
            [
              78.469526,
              17.552335
            ],
            [
              78.469572,
              17.55471
            ],
            [
              78.470526,
              17.556756
            ],
            [
              78.471947,
              17.55807
            ],
            [
              78.474028,
              17.558255
            ],
            [
              78.47413,
              17.559153
            ],
            [
              78.474912,
              17.559335
            ],
            [
              78.474566,
              17.559954
            ],
            [
              78.473947,
              17.560106
            ],
            [
              78.473686,
              17.558596
            ],
            [
              78.470947,
              17.558643
            ],
            [
              78.468947,
              17.560682
            ],
            [
              78.467513,
              17.560769
            ],
            [
              78.466948,
              17.560335
            ],
            [
              78.467836,
              17.558224
            ],
            [
              78.466491,
              17.558879
            ],
            [
              78.466256,
              17.560027
            ],
            [
              78.466944,
              17.560335
            ],
            [
              78.466197,
              17.560585
            ],
            [
              78.463947,
              17.558838
            ],
            [
              78.461947,
              17.558975
            ],
            [
              78.461296,
              17.558335
            ],
            [
              78.461879,
              17.557267
            ],
            [
              78.463442,
              17.55683
            ],
            [
              78.463551,
              17.555335
            ],
            [
              78.462549,
              17.554937
            ],
            [
              78.46074,
              17.556543
            ],
            [
              78.4615,
              17.553335
            ],
            [
              78.458947,
              17.55182
            ],
            [
              78.457575,
              17.551963
            ],
            [
              78.45409,
              17.555478
            ],
            [
              78.452148,
              17.555536
            ],
            [
              78.451947,
              17.556444
            ],
            [
              78.451067,
              17.556335
            ],
            [
              78.451861,
              17.555249
            ],
            [
              78.45261,
              17.554998
            ],
            [
              78.452947,
              17.552705
            ],
            [
              78.4533,
              17.553982
            ],
            [
              78.454408,
              17.553796
            ],
            [
              78.454409,
              17.552874
            ],
            [
              78.452713,
              17.551569
            ],
            [
              78.453864,
              17.550252
            ],
            [
              78.454943,
              17.550331
            ],
            [
              78.454404,
              17.547878
            ],
            [
              78.452754,
              17.545529
            ],
            [
              78.451932,
              17.545351
            ],
            [
              78.451947,
              17.544904
            ],
            [
              78.451995,
              17.545287
            ],
            [
              78.452947,
              17.545239
            ],
            [
              78.453947,
              17.546121
            ],
            [
              78.455947,
              17.545034
            ],
            [
              78.456947,
              17.545925
            ],
            [
              78.459947,
              17.545919
            ],
            [
              78.460364,
              17.546335
            ],
            [
              78.459417,
              17.547335
            ],
            [
              78.459947,
              17.547773
            ],
            [
              78.462331,
              17.547335
            ],
            [
              78.460463,
              17.541335
            ],
            [
              78.460947,
              17.540851
            ],
            [
              78.462243,
              17.541631
            ],
            [
              78.462467,
              17.537335
            ],
            [
              78.460947,
              17.53571
            ],
            [
              78.457891,
              17.535392
            ],
            [
              78.457,
              17.534335
            ],
            [
              78.456692,
              17.53208
            ],
            [
              78.459947,
              17.531001
            ],
            [
              78.461947,
              17.532212
            ],
            [
              78.464947,
              17.532016
            ],
            [
              78.467947,
              17.53333
            ],
            [
              78.469947,
              17.532119
            ],
            [
              78.470947,
              17.533058
            ],
            [
              78.471397,
              17.531785
            ],
            [
              78.473091,
              17.531479
            ],
            [
              78.473388,
              17.529776
            ],
            [
              78.47519,
              17.527335
            ],
            [
              78.474206,
              17.525335
            ],
            [
              78.473947,
              17.520014
            ],
            [
              78.468947,
              17.522927
            ],
            [
              78.466947,
              17.522903
            ],
            [
              78.463947,
              17.524808
            ],
            [
              78.462553,
              17.524941
            ],
            [
              78.461947,
              17.527744
            ],
            [
              78.460947,
              17.526755
            ],
            [
              78.456947,
              17.52634
            ],
            [
              78.457758,
              17.526146
            ],
            [
              78.457515,
              17.524335
            ],
            [
              78.458695,
              17.520084
            ],
            [
              78.459947,
              17.518388
            ],
            [
              78.4613,
              17.518688
            ],
            [
              78.462947,
              17.51678
            ],
            [
              78.466557,
              17.515945
            ],
            [
              78.466947,
              17.515183
            ],
            [
              78.469285,
              17.515673
            ],
            [
              78.469947,
              17.512897
            ],
            [
              78.471718,
              17.514564
            ],
            [
              78.472947,
              17.514622
            ],
            [
              78.474255,
              17.512643
            ],
            [
              78.475575,
              17.512335
            ],
            [
              78.474947,
              17.510681
            ],
            [
              78.473478,
              17.510804
            ],
            [
              78.47199,
              17.509293
            ],
            [
              78.473345,
              17.506733
            ],
            [
              78.476425,
              17.506813
            ],
            [
              78.476537,
              17.505745
            ],
            [
              78.475828,
              17.505335
            ],
            [
              78.476599,
              17.504987
            ],
            [
              78.476411,
              17.503335
            ],
            [
              78.477947,
              17.501196
            ],
            [
              78.478947,
              17.50158
            ],
            [
              78.479264,
              17.503019
            ],
            [
              78.481947,
              17.504034
            ],
            [
              78.484609,
              17.507674
            ],
            [
              78.486776,
              17.508335
            ],
            [
              78.485568,
              17.508956
            ],
            [
              78.48565,
              17.512632
            ],
            [
              78.486947,
              17.512887
            ],
            [
              78.487947,
              17.511964
            ],
            [
              78.491914,
              17.512302
            ],
            [
              78.492947,
              17.511201
            ],
            [
              78.496087,
              17.513196
            ],
            [
              78.493228,
              17.517335
            ],
            [
              78.491542,
              17.51793
            ],
            [
              78.491617,
              17.518665
            ],
            [
              78.493713,
              17.519335
            ],
            [
              78.493655,
              17.521627
            ],
            [
              78.494437,
              17.521335
            ],
            [
              78.494319,
              17.519335
            ],
            [
              78.494947,
              17.518682
            ],
            [
              78.499947,
              17.519197
            ],
            [
              78.501947,
              17.520769
            ],
            [
              78.501519,
              17.522763
            ],
            [
              78.502947,
              17.524716
            ],
            [
              78.506947,
              17.52487
            ],
            [
              78.510947,
              17.527455
            ],
            [
              78.512947,
              17.525896
            ],
            [
              78.5132,
              17.527083
            ],
            [
              78.517947,
              17.528402
            ],
            [
              78.519152,
              17.532131
            ],
            [
              78.518172,
              17.53256
            ],
            [
              78.515266,
              17.538335
            ],
            [
              78.514993,
              17.540335
            ],
            [
              78.513144,
              17.541532
            ],
            [
              78.509947,
              17.539007
            ],
            [
              78.509665,
              17.537053
            ],
            [
              78.510522,
              17.536335
            ],
            [
              78.509947,
              17.535901
            ],
            [
              78.507947,
              17.538916
            ],
            [
              78.505947,
              17.537974
            ],
            [
              78.502947,
              17.540016
            ],
            [
              78.500752,
              17.54014
            ],
            [
              78.501639,
              17.541335
            ],
            [
              78.50161,
              17.544335
            ],
            [
              78.500947,
              17.544998
            ],
            [
              78.500285,
              17.544335
            ],
            [
              78.500258,
              17.542335
            ],
            [
              78.499139,
              17.541143
            ],
            [
              78.494703,
              17.542091
            ],
            [
              78.496392,
              17.542891
            ],
            [
              78.497635,
              17.545335
            ],
            [
              78.498294,
              17.549989
            ],
            [
              78.501964,
              17.550335
            ],
            [
              78.501053,
              17.550441
            ],
            [
              78.501078,
              17.551335
            ],
            [
              78.499497,
              17.551885
            ],
            [
              78.498476,
              17.553335
            ],
            [
              78.494711,
              17.554099
            ],
            [
              78.495947,
              17.555154
            ],
            [
              78.496181,
              17.558102
            ],
            [
              78.497762,
              17.55815
            ],
            [
              78.497902,
              17.55729
            ],
            [
              78.498947,
              17.556908
            ],
            [
              78.499406,
              17.561876
            ],
            [
              78.500992,
              17.563335
            ],
            [
              78.498947,
              17.565464
            ],
            [
              78.494549,
              17.566937
            ],
            [
              78.494947,
              17.568994
            ],
            [
              78.495947,
              17.56806
            ],
            [
              78.497642,
              17.56803
            ],
            [
              78.497947,
              17.567039
            ],
            [
              78.499671,
              17.568335
            ],
            [
              78.496947,
              17.568496
            ],
            [
              78.494516,
              17.569904
            ],
            [
              78.493264,
              17.571335
            ],
            [
              78.492947,
              17.574451
            ]
          ]
        ],
        "type": "Polygon"
      },
      "type": "Feature"
    }
  ]
}