{
  "type": "FeatureCollection",
  "metadata": {
    "provider_name": "Kimono Krew Pan Asian And Sober Bar",
    "center_lat": 18.5379701,
    "center_lon": 73.9000789,
    "mode": "motorcycle",
    "total_zones": 4,
    "distance_zones": [
      3,
      4,
      5,
      6
    ],
    "generated_at": "2025-12-28T14:33:17.968445Z"
  },
  "features": [
    {
      "properties": {
        "fill-opacity": 0.33,
        "fillColor": "#bf4040",
        "opacity": 0.33,
        "fill": "#bf4040",
        "fillOpacity": 0.33,
        "color": "#bf4040",
        "contour": 3.0,
        "metric": "distance",
        "provider_name": "Kimono Krew Pan Asian And Sober Bar",
        "zone_type": "distance",
        "distance_km": 3,
        "mode": "motorcycle",
        "center_lat": 18.5379701,
        "center_lon": 73.9000789,
        "label": "3km"
      },
      "geometry": {
        "coordinates": [
          [
            [
              73.906078,
              18.561465
            ],
            [
              73.905486,
              18.555562
            ],
            [
              73.900838,
              18.55421
            ],
            [
              73.899122,
              18.552926
            ],
            [
              73.899078,
              18.551624
            ],
            [
              73.899015,
              18.552906
            ],
            [
              73.897078,
              18.554241
            ],
            [
              73.896677,
              18.552371
            ],
            [
              73.893967,
              18.55197
            ],
            [
              73.894319,
              18.55097
            ],
            [
              73.896532,
              18.550423
            ],
            [
              73.896386,
              18.545662
            ],
            [
              73.892078,
              18.545391
            ],
            [
              73.891078,
              18.547317
            ],
            [
              73.889078,
              18.548663
            ],
            [
              73.886604,
              18.546495
            ],
            [
              73.887078,
              18.546688
            ],
            [
              73.887078,
              18.545888
            ],
            [
              73.883573,
              18.54797
            ],
            [
              73.883208,
              18.54597
            ],
            [
              73.882078,
              18.545641
            ],
            [
              73.881673,
              18.544375
            ],
            [
              73.879418,
              18.54397
            ],
            [
              73.882546,
              18.543437
            ],
            [
              73.883478,
              18.54197
            ],
            [
              73.882615,
              18.539506
            ],
            [
              73.884536,
              18.53797
            ],
            [
              73.884078,
              18.537463
            ],
            [
              73.880078,
              18.538261
            ],
            [
              73.876796,
              18.536253
            ],
            [
              73.875712,
              18.53497
            ],
            [
              73.877877,
              18.53397
            ],
            [
              73.876918,
              18.531809
            ],
            [
              73.879078,
              18.53114
            ],
            [
              73.880098,
              18.53195
            ],
            [
              73.880296,
              18.53397
            ],
            [
              73.881078,
              18.534598
            ],
            [
              73.882078,
              18.531697
            ],
            [
              73.889078,
              18.531422
            ],
            [
              73.890078,
              18.53237
            ],
            [
              73.892078,
              18.530382
            ],
            [
              73.901078,
              18.530179
            ],
            [
              73.902078,
              18.529012
            ],
            [
              73.903078,
              18.529577
            ],
            [
              73.905801,
              18.527692
            ],
            [
              73.906078,
              18.525643
            ],
            [
              73.90693,
              18.526118
            ],
            [
              73.906866,
              18.529182
            ],
            [
              73.911078,
              18.528501
            ],
            [
              73.912078,
              18.529819
            ],
            [
              73.914078,
              18.528729
            ],
            [
              73.916078,
              18.531535
            ],
            [
              73.916647,
              18.53097
            ],
            [
              73.916944,
              18.525836
            ],
            [
              73.918078,
              18.524205
            ],
            [
              73.91859,
              18.52597
            ],
            [
              73.917654,
              18.52697
            ],
            [
              73.918078,
              18.530062
            ],
            [
              73.919078,
              18.528361
            ],
            [
              73.921518,
              18.52953
            ],
            [
              73.92197,
              18.52997
            ],
            [
              73.921081,
              18.53197
            ],
            [
              73.921617,
              18.533431
            ],
            [
              73.9256,
              18.53397
            ],
            [
              73.923078,
              18.53675
            ],
            [
              73.922758,
              18.53529
            ],
            [
              73.921547,
              18.535439
            ],
            [
              73.921078,
              18.537998
            ],
            [
              73.919908,
              18.53697
            ],
            [
              73.919492,
              18.533556
            ],
            [
              73.917078,
              18.533457
            ],
            [
              73.91634,
              18.537231
            ],
            [
              73.913625,
              18.53797
            ],
            [
              73.914401,
              18.539292
            ],
            [
              73.913078,
              18.539453
            ],
            [
              73.912078,
              18.538501
            ],
            [
              73.911078,
              18.540527
            ],
            [
              73.910078,
              18.539585
            ],
            [
              73.908078,
              18.539624
            ],
            [
              73.907078,
              18.54061
            ],
            [
              73.90488,
              18.540771
            ],
            [
              73.906078,
              18.543318
            ],
            [
              73.907078,
              18.541438
            ],
            [
              73.910078,
              18.543428
            ],
            [
              73.912406,
              18.543642
            ],
            [
              73.912393,
              18.548285
            ],
            [
              73.911257,
              18.54897
            ],
            [
              73.912078,
              18.5498
            ],
            [
              73.912874,
              18.549765
            ],
            [
              73.913078,
              18.548974
            ],
            [
              73.913972,
              18.54997
            ],
            [
              73.910078,
              18.555989
            ],
            [
              73.908891,
              18.55497
            ],
            [
              73.908898,
              18.55297
            ],
            [
              73.907709,
              18.5526
            ],
            [
              73.906078,
              18.561465
            ]
          ]
        ],
        "type": "Polygon"
      },
      "type": "Feature"
    },
    {
      "properties": {
        "fill-opacity": 0.33,
        "fillColor": "#bf4040",
        "opacity": 0.33,
        "fill": "#bf4040",
        "fillOpacity": 0.33,
        "color": "#bf4040",
        "contour": 4.0,
        "metric": "distance",
        "provider_name": "Kimono Krew Pan Asian And Sober Bar",
        "zone_type": "distance",
        "distance_km": 4,
        "mode": "motorcycle",
        "center_lat": 18.5379701,
        "center_lon": 73.9000789,
        "label": "4km"
      },
      "geometry": {
        "coordinates": [
          [
            [
              73.907078,
              18.570406
            ],
            [
              73.905078,
              18.569045
            ],
            [
              73.905791,
              18.565682
            ],
            [
              73.9067,
              18.56497
            ],
            [
              73.906078,
              18.564349
            ],
            [
              73.904857,
              18.565191
            ],
            [
              73.905443,
              18.562605
            ],
            [
              73.904356,
              18.563247
            ],
            [
              73.900925,
              18.56297
            ],
            [
              73.900618,
              18.55951
            ],
            [
              73.901078,
              18.559006
            ],
            [
              73.901227,
              18.559821
            ],
            [
              73.902655,
              18.559547
            ],
            [
              73.902713,
              18.558335
            ],
            [
              73.901253,
              18.558145
            ],
            [
              73.901078,
              18.558939
            ],
            [
              73.900078,
              18.558183
            ],
            [
              73.899108,
              18.561999
            ],
            [
              73.897078,
              18.562544
            ],
            [
              73.89587,
              18.56197
            ],
            [
              73.896124,
              18.56097
            ],
            [
              73.891663,
              18.55897
            ],
            [
              73.892631,
              18.558522
            ],
            [
              73.892994,
              18.55697
            ],
            [
              73.892078,
              18.55637
            ],
            [
              73.891078,
              18.55749
            ],
            [
              73.889936,
              18.55597
            ],
            [
              73.889521,
              18.553527
            ],
            [
              73.882078,
              18.552551
            ],
            [
              73.880078,
              18.550337
            ],
            [
              73.878078,
              18.550675
            ],
            [
              73.877531,
              18.546517
            ],
            [
              73.875078,
              18.546419
            ],
            [
              73.873078,
              18.548191
            ],
            [
              73.871406,
              18.54797
            ],
            [
              73.873146,
              18.546037
            ],
            [
              73.873078,
              18.544189
            ],
            [
              73.873201,
              18.544847
            ],
            [
              73.875078,
              18.544711
            ],
            [
              73.875723,
              18.54397
            ],
            [
              73.873872,
              18.543176
            ],
            [
              73.873713,
              18.542335
            ],
            [
              73.871631,
              18.54197
            ],
            [
              73.874078,
              18.541791
            ],
            [
              73.877078,
              18.543552
            ],
            [
              73.882078,
              18.543415
            ],
            [
              73.882744,
              18.54197
            ],
            [
              73.881078,
              18.540321
            ],
            [
              73.880078,
              18.542321
            ],
            [
              73.877078,
              18.540339
            ],
            [
              73.873221,
              18.540112
            ],
            [
              73.871006,
              18.53897
            ],
            [
              73.87069,
              18.537358
            ],
            [
              73.869901,
              18.53697
            ],
            [
              73.870654,
              18.536545
            ],
            [
              73.870767,
              18.53397
            ],
            [
              73.871827,
              18.532221
            ],
            [
              73.868421,
              18.52997
            ],
            [
              73.869078,
              18.529004
            ],
            [
              73.86917,
              18.529878
            ],
            [
              73.873707,
              18.529598
            ],
            [
              73.873872,
              18.528176
            ],
            [
              73.872069,
              18.527979
            ],
            [
              73.872149,
              18.52704
            ],
            [
              73.873804,
              18.526695
            ],
            [
              73.878078,
              18.522155
            ],
            [
              73.878548,
              18.5235
            ],
            [
              73.881305,
              18.52397
            ],
            [
              73.880778,
              18.52527
            ],
            [
              73.882078,
              18.525079
            ],
            [
              73.883241,
              18.526807
            ],
            [
              73.885899,
              18.52797
            ],
            [
              73.883819,
              18.53097
            ],
            [
              73.889078,
              18.531281
            ],
            [
              73.890078,
              18.532256
            ],
            [
              73.892078,
              18.530262
            ],
            [
              73.897018,
              18.52997
            ],
            [
              73.896078,
              18.529545
            ],
            [
              73.895078,
              18.52497
            ],
            [
              73.899674,
              18.524565
            ],
            [
              73.902893,
              18.521784
            ],
            [
              73.903065,
              18.519956
            ],
            [
              73.903967,
              18.519858
            ],
            [
              73.907078,
              18.516692
            ],
            [
              73.909078,
              18.518746
            ],
            [
              73.909078,
              18.520165
            ],
            [
              73.910125,
              18.51997
            ],
            [
              73.910372,
              18.521676
            ],
            [
              73.913638,
              18.52297
            ],
            [
              73.911921,
              18.523812
            ],
            [
              73.911973,
              18.52497
            ],
            [
              73.910308,
              18.52597
            ],
            [
              73.912078,
              18.529081
            ],
            [
              73.912257,
              18.528149
            ],
            [
              73.914078,
              18.526949
            ],
            [
              73.915078,
              18.526683
            ],
            [
              73.915404,
              18.527644
            ],
            [
              73.916411,
              18.527303
            ],
            [
              73.916475,
              18.525573
            ],
            [
              73.915354,
              18.52497
            ],
            [
              73.917249,
              18.52314
            ],
            [
              73.917445,
              18.521603
            ],
            [
              73.916544,
              18.520504
            ],
            [
              73.914455,
              18.51997
            ],
            [
              73.915078,
              18.518717
            ],
            [
              73.916506,
              18.518397
            ],
            [
              73.919328,
              18.51572
            ],
            [
              73.922043,
              18.51797
            ],
            [
              73.922339,
              18.520709
            ],
            [
              73.923635,
              18.52097
            ],
            [
              73.923078,
              18.522185
            ],
            [
              73.919638,
              18.521529
            ],
            [
              73.919694,
              18.526354
            ],
            [
              73.922078,
              18.527601
            ],
            [
              73.925078,
              18.527579
            ],
            [
              73.926078,
              18.526665
            ],
            [
              73.930741,
              18.52697
            ],
            [
              73.929204,
              18.528095
            ],
            [
              73.929378,
              18.53067
            ],
            [
              73.932078,
              18.531996
            ],
            [
              73.933078,
              18.531687
            ],
            [
              73.93471,
              18.53297
            ],
            [
              73.933566,
              18.53497
            ],
            [
              73.932078,
              18.535116
            ],
            [
              73.931243,
              18.536135
            ],
            [
              73.929078,
              18.53631
            ],
            [
              73.928078,
              18.537314
            ],
            [
              73.927078,
              18.53639
            ],
            [
              73.925078,
              18.536436
            ],
            [
              73.924364,
              18.538255
            ],
            [
              73.923528,
              18.538419
            ],
            [
              73.922769,
              18.538279
            ],
            [
              73.922078,
              18.53553
            ],
            [
              73.921586,
              18.53797
            ],
            [
              73.92074,
              18.538308
            ],
            [
              73.919532,
              18.53697
            ],
            [
              73.919334,
              18.533714
            ],
            [
              73.917078,
              18.533631
            ],
            [
              73.916493,
              18.537384
            ],
            [
              73.913767,
              18.53797
            ],
            [
              73.914516,
              18.539407
            ],
            [
              73.913078,
              18.539629
            ],
            [
              73.912078,
              18.538651
            ],
            [
              73.911078,
              18.540663
            ],
            [
              73.910078,
              18.539692
            ],
            [
              73.908078,
              18.539713
            ],
            [
              73.907078,
              18.540705
            ],
            [
              73.904926,
              18.540817
            ],
            [
              73.906078,
              18.543228
            ],
            [
              73.907078,
              18.541289
            ],
            [
              73.910078,
              18.543284
            ],
            [
              73.912571,
              18.543477
            ],
            [
              73.912643,
              18.548405
            ],
            [
              73.913677,
              18.54797
            ],
            [
              73.914078,
              18.542149
            ],
            [
              73.915078,
              18.542269
            ],
            [
              73.915406,
              18.543642
            ],
            [
              73.916182,
              18.54397
            ],
            [
              73.915476,
              18.544368
            ],
            [
              73.915602,
              18.545446
            ],
            [
              73.918524,
              18.54597
            ],
            [
              73.917971,
              18.54697
            ],
            [
              73.918904,
              18.548144
            ],
            [
              73.920078,
              18.54566
            ],
            [
              73.921848,
              18.5462
            ],
            [
              73.922133,
              18.546915
            ],
            [
              73.920771,
              18.54997
            ],
            [
              73.92095,
              18.551841
            ],
            [
              73.91884,
              18.55297
            ],
            [
              73.918078,
              18.554291
            ],
            [
              73.915265,
              18.555156
            ],
            [
              73.915078,
              18.555978
            ],
            [
              73.91329,
              18.55397
            ],
            [
              73.914519,
              18.55297
            ],
            [
              73.914094,
              18.55197
            ],
            [
              73.914645,
              18.55097
            ],
            [
              73.913763,
              18.550654
            ],
            [
              73.913931,
              18.551822
            ],
            [
              73.91302,
              18.551912
            ],
            [
              73.912735,
              18.553626
            ],
            [
              73.912011,
              18.553903
            ],
            [
              73.910828,
              18.556719
            ],
            [
              73.909959,
              18.55697
            ],
            [
              73.911078,
              18.557227
            ],
            [
              73.912078,
              18.558586
            ],
            [
              73.914078,
              18.558841
            ],
            [
              73.914244,
              18.559804
            ],
            [
              73.915071,
              18.55997
            ],
            [
              73.913095,
              18.563986
            ],
            [
              73.911078,
              18.566537
            ],
            [
              73.910078,
              18.566104
            ],
            [
              73.907078,
              18.570406
            ]
          ]
        ],
        "type": "Polygon"
      },
      "type": "Feature"
    },
    {
      "properties": {
        "fill-opacity": 0.33,
        "fillColor": "#bf4040",
        "opacity": 0.33,
        "fill": "#bf4040",
        "fillOpacity": 0.33,
        "color": "#bf4040",
        "contour": 5.0,
        "metric": "distance",
        "provider_name": "Kimono Krew Pan Asian And Sober Bar",
        "zone_type": "distance",
        "distance_km": 5,
        "mode": "motorcycle",
        "center_lat": 18.5379701,
        "center_lon": 73.9000789,
        "label": "5km"
      },
      "geometry": {
        "coordinates": [
          [
            [
              73.909078,
              18.578028
            ],
            [
              73.906374,
              18.57797
            ],
            [
              73.906407,
              18.576641
            ],
            [
              73.904078,
              18.576632
            ],
            [
              73.903545,
              18.57597
            ],
            [
              73.905696,
              18.575587
            ],
            [
              73.906536,
              18.574428
            ],
            [
              73.905546,
              18.572502
            ],
            [
              73.900225,
              18.572117
            ],
            [
              73.900078,
              18.572745
            ],
            [
              73.900015,
              18.571906
            ],
            [
              73.900806,
              18.571697
            ],
            [
              73.900873,
              18.569765
            ],
            [
              73.904078,
              18.569549
            ],
            [
              73.905504,
              18.56697
            ],
            [
              73.904489,
              18.563559
            ],
            [
              73.900702,
              18.563347
            ],
            [
              73.900412,
              18.560636
            ],
            [
              73.899759,
              18.56065
            ],
            [
              73.899419,
              18.562311
            ],
            [
              73.89783,
              18.562721
            ],
            [
              73.896562,
              18.564453
            ],
            [
              73.894078,
              18.565627
            ],
            [
              73.892078,
              18.562835
            ],
            [
              73.891078,
              18.562576
            ],
            [
              73.891352,
              18.56397
            ],
            [
              73.890078,
              18.564843
            ],
            [
              73.889277,
              18.563771
            ],
            [
              73.887078,
              18.563683
            ],
            [
              73.886211,
              18.56297
            ],
            [
              73.886322,
              18.56197
            ],
            [
              73.887772,
              18.561664
            ],
            [
              73.887935,
              18.56097
            ],
            [
              73.886872,
              18.55797
            ],
            [
              73.889078,
              18.559665
            ],
            [
              73.890594,
              18.55897
            ],
            [
              73.889345,
              18.553703
            ],
            [
              73.88674,
              18.553631
            ],
            [
              73.884815,
              18.556706
            ],
            [
              73.881843,
              18.557205
            ],
            [
              73.878078,
              18.55673
            ],
            [
              73.876078,
              18.553319
            ],
            [
              73.874888,
              18.55397
            ],
            [
              73.875078,
              18.556141
            ],
            [
              73.874926,
              18.555122
            ],
            [
              73.869954,
              18.554094
            ],
            [
              73.869078,
              18.553133
            ],
            [
              73.868078,
              18.55411
            ],
            [
              73.867078,
              18.553159
            ],
            [
              73.863581,
              18.55297
            ],
            [
              73.865542,
              18.550434
            ],
            [
              73.86934,
              18.54797
            ],
            [
              73.86775,
              18.546298
            ],
            [
              73.867499,
              18.544549
            ],
            [
              73.865597,
              18.54297
            ],
            [
              73.866023,
              18.541914
            ],
            [
              73.86622,
              18.542828
            ],
            [
              73.868805,
              18.542697
            ],
            [
              73.869184,
              18.54197
            ],
            [
              73.867687,
              18.540579
            ],
            [
              73.874078,
              18.541421
            ],
            [
              73.877078,
              18.543338
            ],
            [
              73.882078,
              18.543278
            ],
            [
              73.882478,
              18.54197
            ],
            [
              73.881078,
              18.540576
            ],
            [
              73.880078,
              18.542576
            ],
            [
              73.877078,
              18.540583
            ],
            [
              73.873078,
              18.540406
            ],
            [
              73.870775,
              18.539273
            ],
            [
              73.868826,
              18.535222
            ],
            [
              73.867975,
              18.53497
            ],
            [
              73.867495,
              18.532553
            ],
            [
              73.862078,
              18.53107
            ],
            [
              73.861893,
              18.530155
            ],
            [
              73.858992,
              18.529883
            ],
            [
              73.861759,
              18.52965
            ],
            [
              73.862667,
              18.52797
            ],
            [
              73.86152,
              18.52697
            ],
            [
              73.864253,
              18.526144
            ],
            [
              73.864078,
              18.523705
            ],
            [
              73.867078,
              18.520961
            ],
            [
              73.869002,
              18.522047
            ],
            [
              73.870576,
              18.521467
            ],
            [
              73.870669,
              18.51997
            ],
            [
              73.874078,
              18.516815
            ],
            [
              73.877078,
              18.516369
            ],
            [
              73.87929,
              18.517181
            ],
            [
              73.880078,
              18.515891
            ],
            [
              73.881078,
              18.515948
            ],
            [
              73.885166,
              18.51797
            ],
            [
              73.884511,
              18.51997
            ],
            [
              73.885078,
              18.520326
            ],
            [
              73.887078,
              18.519493
            ],
            [
              73.889078,
              18.522417
            ],
            [
              73.891078,
              18.522106
            ],
            [
              73.891646,
              18.523403
            ],
            [
              73.892468,
              18.52358
            ],
            [
              73.893687,
              18.52297
            ],
            [
              73.892371,
              18.52197
            ],
            [
              73.892591,
              18.51997
            ],
            [
              73.894545,
              18.518436
            ],
            [
              73.896045,
              18.515936
            ],
            [
              73.897341,
              18.51597
            ],
            [
              73.897612,
              18.519436
            ],
            [
              73.899267,
              18.519781
            ],
            [
              73.901078,
              18.522501
            ],
            [
              73.902418,
              18.521309
            ],
            [
              73.902716,
              18.519607
            ],
            [
              73.904388,
              18.518279
            ],
            [
              73.90463,
              18.516521
            ],
            [
              73.906287,
              18.51497
            ],
            [
              73.906078,
              18.512482
            ],
            [
              73.904156,
              18.50997
            ],
            [
              73.906728,
              18.509619
            ],
            [
              73.907078,
              18.507836
            ],
            [
              73.908078,
              18.508386
            ],
            [
              73.908242,
              18.50997
            ],
            [
              73.907345,
              18.51097
            ],
            [
              73.908217,
              18.512831
            ],
            [
              73.912078,
              18.514369
            ],
            [
              73.914151,
              18.51397
            ],
            [
              73.91321,
              18.51197
            ],
            [
              73.913559,
              18.51097
            ],
            [
              73.91783,
              18.510218
            ],
            [
              73.917804,
              18.51197
            ],
            [
              73.916749,
              18.51297
            ],
            [
              73.919078,
              18.513545
            ],
            [
              73.919665,
              18.51297
            ],
            [
              73.919246,
              18.51197
            ],
            [
              73.920765,
              18.51097
            ],
            [
              73.920922,
              18.508813
            ],
            [
              73.924078,
              18.508706
            ],
            [
              73.924202,
              18.509093
            ],
            [
              73.922431,
              18.509322
            ],
            [
              73.92144,
              18.51197
            ],
            [
              73.922654,
              18.512545
            ],
            [
              73.922642,
              18.51097
            ],
            [
              73.924078,
              18.51095
            ],
            [
              73.924198,
              18.51209
            ],
            [
              73.923443,
              18.512334
            ],
            [
              73.923599,
              18.51345
            ],
            [
              73.924663,
              18.513554
            ],
            [
              73.926078,
              18.512312
            ],
            [
              73.926955,
              18.51297
            ],
            [
              73.924682,
              18.51497
            ],
            [
              73.925608,
              18.51644
            ],
            [
              73.927312,
              18.51697
            ],
            [
              73.926689,
              18.51758
            ],
            [
              73.927078,
              18.518477
            ],
            [
              73.928078,
              18.518364
            ],
            [
              73.92884,
              18.519208
            ],
            [
              73.929334,
              18.52097
            ],
            [
              73.928689,
              18.522359
            ],
            [
              73.933131,
              18.52297
            ],
            [
              73.932762,
              18.52597
            ],
            [
              73.934078,
              18.527652
            ],
            [
              73.936078,
              18.527742
            ],
            [
              73.938078,
              18.529397
            ],
            [
              73.940078,
              18.527927
            ],
            [
              73.943414,
              18.529634
            ],
            [
              73.94261,
              18.53297
            ],
            [
              73.943308,
              18.53497
            ],
            [
              73.940153,
              18.536044
            ],
            [
              73.939758,
              18.53529
            ],
            [
              73.934738,
              18.534629
            ],
            [
              73.935078,
              18.536693
            ],
            [
              73.938662,
              18.53697
            ],
            [
              73.93765,
              18.537541
            ],
            [
              73.936761,
              18.53997
            ],
            [
              73.935603,
              18.540494
            ],
            [
              73.935078,
              18.543519
            ],
            [
              73.933442,
              18.541606
            ],
            [
              73.931078,
              18.540745
            ],
            [
              73.929931,
              18.539117
            ],
            [
              73.929962,
              18.537854
            ],
            [
              73.931566,
              18.537457
            ],
            [
              73.931683,
              18.536574
            ],
            [
              73.933482,
              18.537373
            ],
            [
              73.93342,
              18.535629
            ],
            [
              73.929078,
              18.536572
            ],
            [
              73.928078,
              18.537574
            ],
            [
              73.927078,
              18.536603
            ],
            [
              73.925078,
              18.536622
            ],
            [
              73.924502,
              18.538394
            ],
            [
              73.923078,
              18.538621
            ],
            [
              73.922078,
              18.535664
            ],
            [
              73.921078,
              18.53864
            ],
            [
              73.91939,
              18.53697
            ],
            [
              73.919078,
              18.5337
            ],
            [
              73.916912,
              18.533803
            ],
            [
              73.916562,
              18.537453
            ],
            [
              73.913841,
              18.53797
            ],
            [
              73.914574,
              18.539466
            ],
            [
              73.913078,
              18.539716
            ],
            [
              73.912078,
              18.538728
            ],
            [
              73.911078,
              18.540735
            ],
            [
              73.910078,
              18.539752
            ],
            [
              73.908078,
              18.539765
            ],
            [
              73.907078,
              18.540761
            ],
            [
              73.904954,
              18.540845
            ],
            [
              73.906078,
              18.543175
            ],
            [
              73.907078,
              18.541212
            ],
            [
              73.910078,
              18.543209
            ],
            [
              73.912419,
              18.54331
            ],
            [
              73.912759,
              18.54165
            ],
            [
              73.915078,
              18.540512
            ],
            [
              73.915769,
              18.543279
            ],
            [
              73.917067,
              18.54397
            ],
            [
              73.915801,
              18.545247
            ],
            [
              73.919078,
              18.54552
            ],
            [
              73.919557,
              18.543492
            ],
            [
              73.918296,
              18.543187
            ],
            [
              73.917535,
              18.54397
            ],
            [
              73.918006,
              18.542898
            ],
            [
              73.920563,
              18.542454
            ],
            [
              73.920925,
              18.541123
            ],
            [
              73.920364,
              18.54097
            ],
            [
              73.921155,
              18.53997
            ],
            [
              73.925225,
              18.539823
            ],
            [
              73.9273,
              18.54197
            ],
            [
              73.927611,
              18.543437
            ],
            [
              73.928913,
              18.54397
            ],
            [
              73.928098,
              18.54499
            ],
            [
              73.928276,
              18.54697
            ],
            [
              73.927261,
              18.54797
            ],
            [
              73.928201,
              18.549848
            ],
            [
              73.928115,
              18.55297
            ],
            [
              73.926302,
              18.554193
            ],
            [
              73.926088,
              18.555979
            ],
            [
              73.923078,
              18.556105
            ],
            [
              73.922078,
              18.557215
            ],
            [
              73.920078,
              18.557199
            ],
            [
              73.919078,
              18.558254
            ],
            [
              73.917238,
              18.55797
            ],
            [
              73.917665,
              18.560383
            ],
            [
              73.924089,
              18.561959
            ],
            [
              73.923911,
              18.562802
            ],
            [
              73.920078,
              18.563534
            ],
            [
              73.918925,
              18.562817
            ],
            [
              73.918847,
              18.564201
            ],
            [
              73.919867,
              18.56497
            ],
            [
              73.918078,
              18.566882
            ],
            [
              73.916381,
              18.56497
            ],
            [
              73.91494,
              18.564831
            ],
            [
              73.916747,
              18.567301
            ],
            [
              73.918078,
              18.567242
            ],
            [
              73.918219,
              18.56797
            ],
            [
              73.915527,
              18.568419
            ],
            [
              73.915367,
              18.569681
            ],
            [
              73.91617,
              18.56997
            ],
            [
              73.915708,
              18.5706
            ],
            [
              73.914078,
              18.57121
            ],
            [
              73.913708,
              18.57034
            ],
            [
              73.912594,
              18.570486
            ],
            [
              73.912435,
              18.572614
            ],
            [
              73.913683,
              18.57297
            ],
            [
              73.913468,
              18.57397
            ],
            [
              73.911078,
              18.575432
            ],
            [
              73.908588,
              18.575479
            ],
            [
              73.908431,
              18.576617
            ],
            [
              73.908824,
              18.57697
            ],
            [
              73.909078,
              18.578028
            ]
          ]
        ],
        "type": "Polygon"
      },
      "type": "Feature"
    },
    {
      "properties": {
        "fill-opacity": 0.33,
        "fillColor": "#bf4040",
        "opacity": 0.33,
        "fill": "#bf4040",
        "fillOpacity": 0.33,
        "color": "#bf4040",
        "contour": 6.0,
        "metric": "distance",
        "provider_name": "Kimono Krew Pan Asian And Sober Bar",
        "zone_type": "distance",
        "distance_km": 6,
        "mode": "motorcycle",
        "center_lat": 18.5379701,
        "center_lon": 73.9000789,
        "label": "6km"
      },
      "geometry": {
        "coordinates": [
          [
            [
              73.903078,
              18.584051
            ],
            [
              73.90193,
              18.583118
            ],
            [
              73.902732,
              18.582623
            ],
            [
              73.902572,
              18.581476
            ],
            [
              73.899136,
              18.57997
            ],
            [
              73.900733,
              18.579624
            ],
            [
              73.901475,
              18.577574
            ],
            [
              73.899387,
              18.578278
            ],
            [
              73.899078,
              18.579876
            ],
            [
              73.897078,
              18.57671
            ],
            [
              73.89502,
              18.57597
            ],
            [
              73.894896,
              18.57497
            ],
            [
              73.897658,
              18.57455
            ],
            [
              73.89803,
              18.572921
            ],
            [
              73.898858,
              18.572749
            ],
            [
              73.897536,
              18.569512
            ],
            [
              73.896078,
              18.570232
            ],
            [
              73.893278,
              18.570169
            ],
            [
              73.892492,
              18.57097
            ],
            [
              73.893737,
              18.56897
            ],
            [
              73.892078,
              18.566439
            ],
            [
              73.891258,
              18.569149
            ],
            [
              73.888396,
              18.569287
            ],
            [
              73.888078,
              18.570839
            ],
            [
              73.887783,
              18.569265
            ],
            [
              73.886904,
              18.56897
            ],
            [
              73.887706,
              18.56697
            ],
            [
              73.887078,
              18.565426
            ],
            [
              73.885416,
              18.56697
            ],
            [
              73.885078,
              18.571269
            ],
            [
              73.884453,
              18.564595
            ],
            [
              73.88367,
              18.564561
            ],
            [
              73.883078,
              18.566497
            ],
            [
              73.881078,
              18.567904
            ],
            [
              73.88081,
              18.566238
            ],
            [
              73.87867,
              18.56597
            ],
            [
              73.878506,
              18.56497
            ],
            [
              73.880931,
              18.56297
            ],
            [
              73.880954,
              18.562094
            ],
            [
              73.87979,
              18.56197
            ],
            [
              73.881117,
              18.561931
            ],
            [
              73.881299,
              18.56397
            ],
            [
              73.882506,
              18.564397
            ],
            [
              73.883408,
              18.557641
            ],
            [
              73.882078,
              18.557516
            ],
            [
              73.881078,
              18.558431
            ],
            [
              73.880078,
              18.557409
            ],
            [
              73.878078,
              18.557426
            ],
            [
              73.876716,
              18.558607
            ],
            [
              73.877078,
              18.564739
            ],
            [
              73.87493,
              18.56197
            ],
            [
              73.87553,
              18.560518
            ],
            [
              73.873781,
              18.55997
            ],
            [
              73.874678,
              18.55797
            ],
            [
              73.874399,
              18.555649
            ],
            [
              73.872078,
              18.555419
            ],
            [
              73.871078,
              18.554522
            ],
            [
              73.868078,
              18.555236
            ],
            [
              73.864078,
              18.55391
            ],
            [
              73.860078,
              18.557743
            ],
            [
              73.858078,
              18.557226
            ],
            [
              73.857078,
              18.558108
            ],
            [
              73.855932,
              18.55797
            ],
            [
              73.856926,
              18.552817
            ],
            [
              73.861463,
              18.554355
            ],
            [
              73.861531,
              18.552517
            ],
            [
              73.857998,
              18.55097
            ],
            [
              73.859841,
              18.54997
            ],
            [
              73.85976,
              18.547288
            ],
            [
              73.858972,
              18.54697
            ],
            [
              73.859078,
              18.545667
            ],
            [
              73.859287,
              18.546761
            ],
            [
              73.861078,
              18.547212
            ],
            [
              73.861078,
              18.545877
            ],
            [
              73.862078,
              18.545914
            ],
            [
              73.862836,
              18.54497
            ],
            [
              73.862731,
              18.544317
            ],
            [
              73.861026,
              18.544022
            ],
            [
              73.860556,
              18.541493
            ],
            [
              73.858078,
              18.541124
            ],
            [
              73.857908,
              18.54014
            ],
            [
              73.855078,
              18.53797
            ],
            [
              73.858323,
              18.537725
            ],
            [
              73.859078,
              18.538663
            ],
            [
              73.859746,
              18.53797
            ],
            [
              73.858578,
              18.53647
            ],
            [
              73.85692,
              18.53597
            ],
            [
              73.857078,
              18.534498
            ],
            [
              73.857388,
              18.53566
            ],
            [
              73.858684,
              18.535575
            ],
            [
              73.859577,
              18.533471
            ],
            [
              73.856628,
              18.53297
            ],
            [
              73.861273,
              18.532776
            ],
            [
              73.861664,
              18.534384
            ],
            [
              73.866799,
              18.539249
            ],
            [
              73.874078,
              18.54128
            ],
            [
              73.877078,
              18.543239
            ],
            [
              73.882078,
              18.543205
            ],
            [
              73.882364,
              18.54197
            ],
            [
              73.881078,
              18.540687
            ],
            [
              73.880078,
              18.542687
            ],
            [
              73.877078,
              18.540691
            ],
            [
              73.873078,
              18.540738
            ],
            [
              73.872078,
              18.539664
            ],
            [
              73.870522,
              18.539526
            ],
            [
              73.870285,
              18.537763
            ],
            [
              73.867551,
              18.53497
            ],
            [
              73.867335,
              18.532713
            ],
            [
              73.862078,
              18.531496
            ],
            [
              73.861078,
              18.530375
            ],
            [
              73.856078,
              18.530492
            ],
            [
              73.8517,
              18.53397
            ],
            [
              73.851632,
              18.53297
            ],
            [
              73.852813,
              18.532704
            ],
            [
              73.853822,
              18.53097
            ],
            [
              73.851003,
              18.52897
            ],
            [
              73.850736,
              18.52797
            ],
            [
              73.851078,
              18.526923
            ],
            [
              73.852078,
              18.527158
            ],
            [
              73.852445,
              18.528603
            ],
            [
              73.853726,
              18.528617
            ],
            [
              73.854203,
              18.527845
            ],
            [
              73.859078,
              18.528219
            ],
            [
              73.859858,
              18.529191
            ],
            [
              73.861276,
              18.529167
            ],
            [
              73.861692,
              18.52797
            ],
            [
              73.859078,
              18.525371
            ],
            [
              73.858078,
              18.525065
            ],
            [
              73.857078,
              18.526366
            ],
            [
              73.855078,
              18.526044
            ],
            [
              73.855783,
              18.52497
            ],
            [
              73.855078,
              18.52345
            ],
            [
              73.856078,
              18.523852
            ],
            [
              73.856805,
              18.52297
            ],
            [
              73.856078,
              18.522174
            ],
            [
              73.855078,
              18.522688
            ],
            [
              73.855017,
              18.52097
            ],
            [
              73.857827,
              18.520718
            ],
            [
              73.85805,
              18.519942
            ],
            [
              73.860078,
              18.519508
            ],
            [
              73.860016,
              18.518032
            ],
            [
              73.860929,
              18.51782
            ],
            [
              73.861078,
              18.516767
            ],
            [
              73.865315,
              18.515206
            ],
            [
              73.869078,
              18.512526
            ],
            [
              73.870687,
              18.51497
            ],
            [
              73.872078,
              18.51518
            ],
            [
              73.873078,
              18.514342
            ],
            [
              73.875645,
              18.51397
            ],
            [
              73.876616,
              18.512508
            ],
            [
              73.878078,
              18.512623
            ],
            [
              73.878381,
              18.51097
            ],
            [
              73.879976,
              18.508867
            ],
            [
              73.883078,
              18.51171
            ],
            [
              73.884568,
              18.51146
            ],
            [
              73.885078,
              18.508941
            ],
            [
              73.886257,
              18.50997
            ],
            [
              73.885291,
              18.510182
            ],
            [
              73.886078,
              18.512672
            ],
            [
              73.888204,
              18.510845
            ],
            [
              73.889859,
              18.51197
            ],
            [
              73.890173,
              18.513875
            ],
            [
              73.892592,
              18.515457
            ],
            [
              73.895078,
              18.514505
            ],
            [
              73.895645,
              18.515403
            ],
            [
              73.898078,
              18.515227
            ],
            [
              73.900519,
              18.51141
            ],
            [
              73.899648,
              18.50997
            ],
            [
              73.90172,
              18.50897
            ],
            [
              73.900825,
              18.507223
            ],
            [
              73.899095,
              18.50697
            ],
            [
              73.89993,
              18.506821
            ],
            [
              73.901314,
              18.50397
            ],
            [
              73.903364,
              18.50397
            ],
            [
              73.904078,
              18.505003
            ],
            [
              73.904807,
              18.503698
            ],
            [
              73.907078,
              18.503627
            ],
            [
              73.908078,
              18.50536
            ],
            [
              73.911183,
              18.50497
            ],
            [
              73.912078,
              18.503944
            ],
            [
              73.913078,
              18.504094
            ],
            [
              73.914078,
              18.50557
            ],
            [
              73.917078,
              18.504652
            ],
            [
              73.920078,
              18.505575
            ],
            [
              73.921264,
              18.50397
            ],
            [
              73.92292,
              18.503811
            ],
            [
              73.923169,
              18.50297
            ],
            [
              73.92587,
              18.502761
            ],
            [
              73.927078,
              18.501832
            ],
            [
              73.926898,
              18.50397
            ],
            [
              73.928202,
              18.504846
            ],
            [
              73.930473,
              18.50897
            ],
            [
              73.929426,
              18.50997
            ],
            [
              73.929241,
              18.512132
            ],
            [
              73.928078,
              18.51217
            ],
            [
              73.927731,
              18.513317
            ],
            [
              73.931078,
              18.515114
            ],
            [
              73.93214,
              18.514031
            ],
            [
              73.934078,
              18.514521
            ],
            [
              73.935041,
              18.51597
            ],
            [
              73.933744,
              18.517635
            ],
            [
              73.934078,
              18.518455
            ],
            [
              73.93621,
              18.518101
            ],
            [
              73.937078,
              18.517062
            ],
            [
              73.93939,
              18.51897
            ],
            [
              73.93889,
              18.520158
            ],
            [
              73.940078,
              18.519529
            ],
            [
              73.941899,
              18.51997
            ],
            [
              73.941078,
              18.521602
            ],
            [
              73.93776,
              18.522652
            ],
            [
              73.937742,
              18.523306
            ],
            [
              73.93935,
              18.524241
            ],
            [
              73.936078,
              18.52433
            ],
            [
              73.934721,
              18.523612
            ],
            [
              73.933504,
              18.52497
            ],
            [
              73.935444,
              18.52597
            ],
            [
              73.933744,
              18.526635
            ],
            [
              73.933811,
              18.527237
            ],
            [
              73.936078,
              18.527405
            ],
            [
              73.937434,
              18.528325
            ],
            [
              73.939447,
              18.526338
            ],
            [
              73.939708,
              18.5246
            ],
            [
              73.941078,
              18.524617
            ],
            [
              73.942078,
              18.523714
            ],
            [
              73.943078,
              18.526702
            ],
            [
              73.948659,
              18.52655
            ],
            [
              73.949078,
              18.524915
            ],
            [
              73.951078,
              18.525509
            ],
            [
              73.952527,
              18.52697
            ],
            [
              73.952135,
              18.52797
            ],
            [
              73.950078,
              18.530944
            ],
            [
              73.949078,
              18.530569
            ],
            [
              73.947369,
              18.53197
            ],
            [
              73.948078,
              18.532746
            ],
            [
              73.949441,
              18.532607
            ],
            [
              73.950078,
              18.534075
            ],
            [
              73.951078,
              18.533129
            ],
            [
              73.952078,
              18.534309
            ],
            [
              73.952467,
              18.535358
            ],
            [
              73.950981,
              18.53597
            ],
            [
              73.951957,
              18.53797
            ],
            [
              73.945078,
              18.540742
            ],
            [
              73.939581,
              18.536472
            ],
            [
              73.939544,
              18.538435
            ],
            [
              73.938484,
              18.53897
            ],
            [
              73.938292,
              18.540757
            ],
            [
              73.939078,
              18.541217
            ],
            [
              73.939619,
              18.53851
            ],
            [
              73.940373,
              18.538675
            ],
            [
              73.942344,
              18.54197
            ],
            [
              73.942392,
              18.543656
            ],
            [
              73.943182,
              18.543866
            ],
            [
              73.943166,
              18.545058
            ],
            [
              73.94213,
              18.54697
            ],
            [
              73.940529,
              18.54742
            ],
            [
              73.940078,
              18.548317
            ],
            [
              73.93693,
              18.547822
            ],
            [
              73.938422,
              18.55097
            ],
            [
              73.937078,
              18.552398
            ],
            [
              73.934078,
              18.549286
            ],
            [
              73.932827,
              18.549221
            ],
            [
              73.932078,
              18.547729
            ],
            [
              73.931232,
              18.54897
            ],
            [
              73.929078,
              18.549881
            ],
            [
              73.928754,
              18.55297
            ],
            [
              73.926903,
              18.554794
            ],
            [
              73.926738,
              18.556629
            ],
            [
              73.923078,
              18.556744
            ],
            [
              73.922768,
              18.55766
            ],
            [
              73.920078,
              18.557852
            ],
            [
              73.919976,
              18.558867
            ],
            [
              73.917665,
              18.55997
            ],
            [
              73.918993,
              18.55997
            ],
            [
              73.918641,
              18.559532
            ],
            [
              73.920078,
              18.559342
            ],
            [
              73.921078,
              18.558126
            ],
            [
              73.926334,
              18.560225
            ],
            [
              73.928078,
              18.557723
            ],
            [
              73.930078,
              18.55917
            ],
            [
              73.930876,
              18.562172
            ],
            [
              73.93346,
              18.56297
            ],
            [
              73.932078,
              18.564651
            ],
            [
              73.930872,
              18.56397
            ],
            [
              73.929301,
              18.567192
            ],
            [
              73.927078,
              18.567525
            ],
            [
              73.925416,
              18.565633
            ],
            [
              73.922688,
              18.565579
            ],
            [
              73.923078,
              18.56689
            ],
            [
              73.92411,
              18.56697
            ],
            [
              73.922665,
              18.567556
            ],
            [
              73.922483,
              18.56897
            ],
            [
              73.924229,
              18.569819
            ],
            [
              73.924278,
              18.571169
            ],
            [
              73.923078,
              18.571912
            ],
            [
              73.920078,
              18.571276
            ],
            [
              73.919363,
              18.57197
            ],
            [
              73.920078,
              18.572785
            ],
            [
              73.922027,
              18.572919
            ],
            [
              73.922078,
              18.57218
            ],
            [
              73.922078,
              18.573236
            ],
            [
              73.920411,
              18.573302
            ],
            [
              73.920078,
              18.574053
            ],
            [
              73.917078,
              18.573165
            ],
            [
              73.916078,
              18.57201
            ],
            [
              73.913534,
              18.57497
            ],
            [
              73.91446,
              18.57597
            ],
            [
              73.913484,
              18.57697
            ],
            [
              73.914078,
              18.577801
            ],
            [
              73.916715,
              18.57797
            ],
            [
              73.916086,
              18.57997
            ],
            [
              73.914078,
              18.580242
            ],
            [
              73.913688,
              18.57936
            ],
            [
              73.912153,
              18.579044
            ],
            [
              73.912078,
              18.579992
            ],
            [
              73.911901,
              18.579147
            ],
            [
              73.909078,
              18.579436
            ],
            [
              73.908078,
              18.578504
            ],
            [
              73.906078,
              18.578458
            ],
            [
              73.905622,
              18.579426
            ],
            [
              73.907182,
              18.579866
            ],
            [
              73.907138,
              18.581029
            ],
            [
              73.904947,
              18.581101
            ],
            [
              73.904492,
              18.579556
            ],
            [
              73.903665,
              18.579556
            ],
            [
              73.903078,
              18.584051
            ]
          ]
        ],
        "type": "Polygon"
      },
      "type": "Feature"
    }
  ]
}