{
  "type": "FeatureCollection",
  "metadata": {
    "provider_name": "Barbeque Nation",
    "center_lat": 26.8656949,
    "center_lon": 81.01260692,
    "mode": "motorcycle",
    "total_zones": 4,
    "distance_zones": [
      3,
      4,
      5,
      6
    ],
    "generated_at": "2025-12-26T06:44:36.063988Z"
  },
  "features": [
    {
      "properties": {
        "fill-opacity": 0.33,
        "fillColor": "#bf4040",
        "opacity": 0.33,
        "fill": "#bf4040",
        "fillOpacity": 0.33,
        "color": "#bf4040",
        "contour": 3.0,
        "metric": "distance",
        "provider_name": "Barbeque Nation",
        "zone_type": "distance",
        "distance_km": 3,
        "mode": "motorcycle",
        "center_lat": 26.8656949,
        "center_lon": 81.01260692,
        "label": "3km"
      },
      "geometry": {
        "coordinates": [
          [
            [
              81.023606,
              26.886729
            ],
            [
              81.013606,
              26.885518
            ],
            [
              81.007606,
              26.883037
            ],
            [
              81.004606,
              26.879998
            ],
            [
              81.004188,
              26.878113
            ],
            [
              81.003349,
              26.877694
            ],
            [
              81.002847,
              26.874454
            ],
            [
              80.999581,
              26.873669
            ],
            [
              80.995606,
              26.875403
            ],
            [
              80.993606,
              26.873742
            ],
            [
              80.993317,
              26.872694
            ],
            [
              80.996387,
              26.871694
            ],
            [
              80.995352,
              26.864694
            ],
            [
              80.994226,
              26.862075
            ],
            [
              80.992554,
              26.861747
            ],
            [
              80.992452,
              26.860849
            ],
            [
              80.991468,
              26.860694
            ],
            [
              80.992681,
              26.86062
            ],
            [
              80.992937,
              26.861364
            ],
            [
              80.994606,
              26.861383
            ],
            [
              80.995606,
              26.862289
            ],
            [
              80.997606,
              26.861037
            ],
            [
              81.000606,
              26.860858
            ],
            [
              81.001606,
              26.862191
            ],
            [
              81.002421,
              26.860694
            ],
            [
              81.000896,
              26.859694
            ],
            [
              81.002025,
              26.857694
            ],
            [
              81.000774,
              26.855527
            ],
            [
              80.997525,
              26.853694
            ],
            [
              81.000858,
              26.848694
            ],
            [
              81.0012,
              26.845694
            ],
            [
              81.000633,
              26.844694
            ],
            [
              81.008606,
              26.844375
            ],
            [
              81.009606,
              26.841782
            ],
            [
              81.010021,
              26.84428
            ],
            [
              81.010947,
              26.845354
            ],
            [
              81.012616,
              26.845685
            ],
            [
              81.014524,
              26.847777
            ],
            [
              81.01583,
              26.847694
            ],
            [
              81.016987,
              26.848694
            ],
            [
              81.017869,
              26.851432
            ],
            [
              81.021802,
              26.851499
            ],
            [
              81.022453,
              26.855848
            ],
            [
              81.026606,
              26.856324
            ],
            [
              81.027606,
              26.855647
            ],
            [
              81.029549,
              26.855752
            ],
            [
              81.029968,
              26.857333
            ],
            [
              81.033621,
              26.859694
            ],
            [
              81.032772,
              26.85986
            ],
            [
              81.032161,
              26.867694
            ],
            [
              81.029245,
              26.869333
            ],
            [
              81.02705,
              26.871694
            ],
            [
              81.028063,
              26.872151
            ],
            [
              81.029378,
              26.870466
            ],
            [
              81.031541,
              26.870629
            ],
            [
              81.031806,
              26.869694
            ],
            [
              81.0319,
              26.873694
            ],
            [
              81.034528,
              26.878694
            ],
            [
              81.032606,
              26.878544
            ],
            [
              81.030465,
              26.879553
            ],
            [
              81.029612,
              26.882694
            ],
            [
              81.029606,
              26.882694
            ],
            [
              81.02949,
              26.881811
            ],
            [
              81.029483,
              26.881694
            ],
            [
              81.029281,
              26.88102
            ],
            [
              81.028,
              26.881088
            ],
            [
              81.025808,
              26.883896
            ],
            [
              81.025672,
              26.88576
            ],
            [
              81.023917,
              26.886005
            ],
            [
              81.023606,
              26.886729
            ]
          ]
        ],
        "type": "Polygon"
      },
      "type": "Feature"
    },
    {
      "properties": {
        "fill-opacity": 0.33,
        "fillColor": "#bf4040",
        "opacity": 0.33,
        "fill": "#bf4040",
        "fillOpacity": 0.33,
        "color": "#bf4040",
        "contour": 4.0,
        "metric": "distance",
        "provider_name": "Barbeque Nation",
        "zone_type": "distance",
        "distance_km": 4,
        "mode": "motorcycle",
        "center_lat": 26.8656949,
        "center_lon": 81.01260692,
        "label": "4km"
      },
      "geometry": {
        "coordinates": [
          [
            [
              81.018606,
              26.893126
            ],
            [
              81.014606,
              26.89166
            ],
            [
              81.010606,
              26.892158
            ],
            [
              81.008465,
              26.889836
            ],
            [
              81.0066,
              26.889701
            ],
            [
              81.006573,
              26.888661
            ],
            [
              81.00833,
              26.888417
            ],
            [
              81.008423,
              26.887694
            ],
            [
              81.006284,
              26.885694
            ],
            [
              81.005934,
              26.883367
            ],
            [
              81.002789,
              26.880694
            ],
            [
              81.00363,
              26.878671
            ],
            [
              81.001184,
              26.880272
            ],
            [
              80.999584,
              26.882694
            ],
            [
              80.996606,
              26.882865
            ],
            [
              80.995606,
              26.884449
            ],
            [
              80.994212,
              26.882694
            ],
            [
              80.994702,
              26.881599
            ],
            [
              80.990554,
              26.879694
            ],
            [
              80.987415,
              26.876886
            ],
            [
              80.987131,
              26.875694
            ],
            [
              80.983287,
              26.872694
            ],
            [
              80.985098,
              26.872186
            ],
            [
              80.985606,
              26.870482
            ],
            [
              80.987352,
              26.87044
            ],
            [
              80.988606,
              26.868356
            ],
            [
              80.989014,
              26.869287
            ],
            [
              80.990477,
              26.869824
            ],
            [
              80.990382,
              26.870694
            ],
            [
              80.989001,
              26.871089
            ],
            [
              80.98916,
              26.872141
            ],
            [
              80.990987,
              26.872075
            ],
            [
              80.991606,
              26.870897
            ],
            [
              80.992606,
              26.87221
            ],
            [
              80.994954,
              26.872042
            ],
            [
              80.994963,
              26.864694
            ],
            [
              80.99374,
              26.862561
            ],
            [
              80.991606,
              26.861589
            ],
            [
              80.985606,
              26.86362
            ],
            [
              80.984981,
              26.86132
            ],
            [
              80.983589,
              26.860694
            ],
            [
              80.983368,
              26.858933
            ],
            [
              80.982071,
              26.857694
            ],
            [
              80.984319,
              26.857407
            ],
            [
              80.984606,
              26.855931
            ],
            [
              80.988467,
              26.858834
            ],
            [
              80.990606,
              26.859071
            ],
            [
              80.991606,
              26.860059
            ],
            [
              80.992416,
              26.859694
            ],
            [
              80.992355,
              26.857946
            ],
            [
              80.989492,
              26.855809
            ],
            [
              80.989326,
              26.853414
            ],
            [
              80.990606,
              26.851555
            ],
            [
              80.991743,
              26.851831
            ],
            [
              80.991905,
              26.849694
            ],
            [
              80.994497,
              26.845694
            ],
            [
              80.991852,
              26.842694
            ],
            [
              80.992606,
              26.841742
            ],
            [
              80.992763,
              26.842538
            ],
            [
              80.9951,
              26.842188
            ],
            [
              80.995411,
              26.83989
            ],
            [
              80.994154,
              26.839694
            ],
            [
              80.995606,
              26.839594
            ],
            [
              80.995883,
              26.840418
            ],
            [
              80.997606,
              26.840424
            ],
            [
              80.998606,
              26.838252
            ],
            [
              80.999606,
              26.838188
            ],
            [
              81.000606,
              26.838502
            ],
            [
              81.001016,
              26.841285
            ],
            [
              81.003695,
              26.841694
            ],
            [
              81.002595,
              26.842706
            ],
            [
              81.008606,
              26.842386
            ],
            [
              81.008528,
              26.837773
            ],
            [
              81.009399,
              26.837487
            ],
            [
              81.009606,
              26.835916
            ],
            [
              81.010691,
              26.835779
            ],
            [
              81.01148,
              26.834694
            ],
            [
              81.014606,
              26.834113
            ],
            [
              81.016192,
              26.835694
            ],
            [
              81.016061,
              26.838694
            ],
            [
              81.017114,
              26.841694
            ],
            [
              81.015606,
              26.845078
            ],
            [
              81.014924,
              26.844377
            ],
            [
              81.013606,
              26.844522
            ],
            [
              81.01328,
              26.846021
            ],
            [
              81.014606,
              26.845973
            ],
            [
              81.015606,
              26.847188
            ],
            [
              81.020606,
              26.847205
            ],
            [
              81.021606,
              26.850225
            ],
            [
              81.024606,
              26.848575
            ],
            [
              81.029394,
              26.849694
            ],
            [
              81.030293,
              26.851694
            ],
            [
              81.028566,
              26.854694
            ],
            [
              81.03006,
              26.855241
            ],
            [
              81.030133,
              26.857168
            ],
            [
              81.033606,
              26.859194
            ],
            [
              81.035224,
              26.858694
            ],
            [
              81.0334,
              26.856694
            ],
            [
              81.033606,
              26.854432
            ],
            [
              81.036606,
              26.854505
            ],
            [
              81.038977,
              26.855324
            ],
            [
              81.040539,
              26.856762
            ],
            [
              81.040747,
              26.858694
            ],
            [
              81.037847,
              26.863694
            ],
            [
              81.040527,
              26.866694
            ],
            [
              81.039317,
              26.869694
            ],
            [
              81.037924,
              26.870012
            ],
            [
              81.037847,
              26.870694
            ],
            [
              81.038606,
              26.87151
            ],
            [
              81.041312,
              26.871694
            ],
            [
              81.042282,
              26.872694
            ],
            [
              81.041606,
              26.874101
            ],
            [
              81.041446,
              26.872855
            ],
            [
              81.040006,
              26.873094
            ],
            [
              81.039899,
              26.874402
            ],
            [
              81.041031,
              26.874694
            ],
            [
              81.036374,
              26.877694
            ],
            [
              81.036606,
              26.878791
            ],
            [
              81.041606,
              26.87884
            ],
            [
              81.042264,
              26.879694
            ],
            [
              81.041885,
              26.881416
            ],
            [
              81.043511,
              26.882694
            ],
            [
              81.041606,
              26.884444
            ],
            [
              81.039606,
              26.883821
            ],
            [
              81.035606,
              26.885189
            ],
            [
              81.032606,
              26.883713
            ],
            [
              81.03239,
              26.881694
            ],
            [
              81.031606,
              26.881068
            ],
            [
              81.030261,
              26.881349
            ],
            [
              81.031389,
              26.883694
            ],
            [
              81.030199,
              26.884102
            ],
            [
              81.028606,
              26.881258
            ],
            [
              81.027931,
              26.883019
            ],
            [
              81.026277,
              26.884365
            ],
            [
              81.025957,
              26.886045
            ],
            [
              81.024298,
              26.886386
            ],
            [
              81.022796,
              26.887694
            ],
            [
              81.022861,
              26.889694
            ],
            [
              81.021648,
              26.891736
            ],
            [
              81.020606,
              26.890924
            ],
            [
              81.018606,
              26.893126
            ]
          ]
        ],
        "type": "Polygon"
      },
      "type": "Feature"
    },
    {
      "properties": {
        "fill-opacity": 0.33,
        "fillColor": "#bf4040",
        "opacity": 0.33,
        "fill": "#bf4040",
        "fillOpacity": 0.33,
        "color": "#bf4040",
        "contour": 5.0,
        "metric": "distance",
        "provider_name": "Barbeque Nation",
        "zone_type": "distance",
        "distance_km": 5,
        "mode": "motorcycle",
        "center_lat": 26.8656949,
        "center_lon": 81.01260692,
        "label": "5km"
      },
      "geometry": {
        "coordinates": [
          [
            [
              81.013606,
              26.898701
            ],
            [
              81.012525,
              26.897776
            ],
            [
              81.010496,
              26.897805
            ],
            [
              81.010104,
              26.896197
            ],
            [
              81.008415,
              26.894886
            ],
            [
              81.009243,
              26.892694
            ],
            [
              81.00792,
              26.890381
            ],
            [
              81.006207,
              26.890094
            ],
            [
              81.005916,
              26.889004
            ],
            [
              81.006132,
              26.88822
            ],
            [
              81.007878,
              26.887694
            ],
            [
              81.005884,
              26.886417
            ],
            [
              81.005606,
              26.885209
            ],
            [
              81.001652,
              26.887694
            ],
            [
              80.998247,
              26.891335
            ],
            [
              80.995606,
              26.893007
            ],
            [
              80.993606,
              26.891852
            ],
            [
              80.991452,
              26.888849
            ],
            [
              80.989285,
              26.888016
            ],
            [
              80.989286,
              26.886694
            ],
            [
              80.986495,
              26.885694
            ],
            [
              80.988418,
              26.884694
            ],
            [
              80.98806,
              26.882241
            ],
            [
              80.986344,
              26.881957
            ],
            [
              80.983606,
              26.879923
            ],
            [
              80.980606,
              26.879664
            ],
            [
              80.979378,
              26.878694
            ],
            [
              80.977668,
              26.875633
            ],
            [
              80.9749,
              26.873694
            ],
            [
              80.973419,
              26.870694
            ],
            [
              80.975606,
              26.869372
            ],
            [
              80.978606,
              26.868898
            ],
            [
              80.979606,
              26.869701
            ],
            [
              80.981606,
              26.866575
            ],
            [
              80.982935,
              26.867023
            ],
            [
              80.982898,
              26.865694
            ],
            [
              80.980606,
              26.865339
            ],
            [
              80.979606,
              26.866167
            ],
            [
              80.977127,
              26.865694
            ],
            [
              80.976624,
              26.862694
            ],
            [
              80.977442,
              26.86253
            ],
            [
              80.977151,
              26.86015
            ],
            [
              80.975606,
              26.858842
            ],
            [
              80.974748,
              26.858836
            ],
            [
              80.974636,
              26.859724
            ],
            [
              80.974037,
              26.859694
            ],
            [
              80.974526,
              26.859614
            ],
            [
              80.97456,
              26.858648
            ],
            [
              80.975606,
              26.857699
            ],
            [
              80.977606,
              26.859424
            ],
            [
              80.980606,
              26.859306
            ],
            [
              80.981606,
              26.860252
            ],
            [
              80.983086,
              26.859694
            ],
            [
              80.981606,
              26.858256
            ],
            [
              80.977166,
              26.858135
            ],
            [
              80.976606,
              26.857545
            ],
            [
              80.972517,
              26.856605
            ],
            [
              80.972588,
              26.855676
            ],
            [
              80.973606,
              26.855172
            ],
            [
              80.974675,
              26.855763
            ],
            [
              80.975606,
              26.854107
            ],
            [
              80.979606,
              26.857268
            ],
            [
              80.983919,
              26.857007
            ],
            [
              80.978389,
              26.849694
            ],
            [
              80.979606,
              26.848664
            ],
            [
              80.980989,
              26.849312
            ],
            [
              80.985606,
              26.849092
            ],
            [
              80.986076,
              26.850694
            ],
            [
              80.986705,
              26.850694
            ],
            [
              80.986606,
              26.848865
            ],
            [
              80.984603,
              26.847698
            ],
            [
              80.984379,
              26.843694
            ],
            [
              80.983645,
              26.842694
            ],
            [
              80.984686,
              26.841774
            ],
            [
              80.984526,
              26.838775
            ],
            [
              80.983928,
              26.838694
            ],
            [
              80.985019,
              26.836694
            ],
            [
              80.986606,
              26.836587
            ],
            [
              80.986936,
              26.837365
            ],
            [
              80.988606,
              26.837437
            ],
            [
              80.991606,
              26.839274
            ],
            [
              80.995606,
              26.839168
            ],
            [
              80.997606,
              26.840116
            ],
            [
              80.998139,
              26.837694
            ],
            [
              80.999313,
              26.836401
            ],
            [
              81.001876,
              26.836964
            ],
            [
              81.000965,
              26.834694
            ],
            [
              81.002606,
              26.833087
            ],
            [
              81.002919,
              26.834382
            ],
            [
              81.004132,
              26.83422
            ],
            [
              81.005425,
              26.830513
            ],
            [
              81.005803,
              26.831497
            ],
            [
              81.007544,
              26.831632
            ],
            [
              81.007631,
              26.830719
            ],
            [
              81.009606,
              26.828993
            ],
            [
              81.009813,
              26.830488
            ],
            [
              81.011158,
              26.830246
            ],
            [
              81.01083,
              26.827694
            ],
            [
              81.012606,
              26.825853
            ],
            [
              81.013145,
              26.828156
            ],
            [
              81.018606,
              26.828564
            ],
            [
              81.019289,
              26.830012
            ],
            [
              81.021567,
              26.830734
            ],
            [
              81.022817,
              26.832484
            ],
            [
              81.02208,
              26.833694
            ],
            [
              81.023081,
              26.834694
            ],
            [
              81.022562,
              26.836739
            ],
            [
              81.024651,
              26.840739
            ],
            [
              81.024319,
              26.847982
            ],
            [
              81.026606,
              26.847891
            ],
            [
              81.027606,
              26.849057
            ],
            [
              81.031539,
              26.848627
            ],
            [
              81.031606,
              26.847601
            ],
            [
              81.035606,
              26.847256
            ],
            [
              81.038038,
              26.849694
            ],
            [
              81.038379,
              26.852694
            ],
            [
              81.037606,
              26.852736
            ],
            [
              81.037265,
              26.854036
            ],
            [
              81.037979,
              26.854067
            ],
            [
              81.038606,
              26.852715
            ],
            [
              81.039478,
              26.853823
            ],
            [
              81.041606,
              26.854019
            ],
            [
              81.042606,
              26.854922
            ],
            [
              81.043757,
              26.854845
            ],
            [
              81.045112,
              26.8532
            ],
            [
              81.046606,
              26.852803
            ],
            [
              81.047606,
              26.852693
            ],
            [
              81.048552,
              26.853694
            ],
            [
              81.04597,
              26.854058
            ],
            [
              81.045373,
              26.855928
            ],
            [
              81.047389,
              26.857694
            ],
            [
              81.045606,
              26.857686
            ],
            [
              81.044436,
              26.858694
            ],
            [
              81.043806,
              26.861694
            ],
            [
              81.046856,
              26.864694
            ],
            [
              81.046809,
              26.867694
            ],
            [
              81.048606,
              26.867874
            ],
            [
              81.05162,
              26.869681
            ],
            [
              81.050787,
              26.869874
            ],
            [
              81.050606,
              26.871488
            ],
            [
              81.047146,
              26.872234
            ],
            [
              81.046759,
              26.874694
            ],
            [
              81.047768,
              26.875856
            ],
            [
              81.045158,
              26.877694
            ],
            [
              81.046085,
              26.880173
            ],
            [
              81.044606,
              26.880064
            ],
            [
              81.043606,
              26.879136
            ],
            [
              81.042108,
              26.880694
            ],
            [
              81.043606,
              26.882196
            ],
            [
              81.046606,
              26.881373
            ],
            [
              81.050126,
              26.881694
            ],
            [
              81.050358,
              26.884694
            ],
            [
              81.051112,
              26.886189
            ],
            [
              81.052427,
              26.886694
            ],
            [
              81.048606,
              26.887981
            ],
            [
              81.047338,
              26.886963
            ],
            [
              81.045058,
              26.887146
            ],
            [
              81.044133,
              26.890694
            ],
            [
              81.045373,
              26.891694
            ],
            [
              81.044606,
              26.892884
            ],
            [
              81.042606,
              26.891436
            ],
            [
              81.041606,
              26.891778
            ],
            [
              81.041371,
              26.890694
            ],
            [
              81.039625,
              26.889676
            ],
            [
              81.037606,
              26.889281
            ],
            [
              81.033606,
              26.890711
            ],
            [
              81.032606,
              26.890851
            ],
            [
              81.031606,
              26.889927
            ],
            [
              81.03068,
              26.890768
            ],
            [
              81.029606,
              26.890819
            ],
            [
              81.029625,
              26.890676
            ],
            [
              81.030411,
              26.890499
            ],
            [
              81.032245,
              26.887694
            ],
            [
              81.030057,
              26.885244
            ],
            [
              81.028426,
              26.884875
            ],
            [
              81.02928,
              26.883694
            ],
            [
              81.028606,
              26.88139
            ],
            [
              81.028047,
              26.883135
            ],
            [
              81.026386,
              26.884474
            ],
            [
              81.026059,
              26.886147
            ],
            [
              81.024395,
              26.886483
            ],
            [
              81.023159,
              26.887694
            ],
            [
              81.023179,
              26.889694
            ],
            [
              81.02195,
              26.892038
            ],
            [
              81.020606,
              26.891259
            ],
            [
              81.019303,
              26.892391
            ],
            [
              81.020073,
              26.893694
            ],
            [
              81.018988,
              26.894694
            ],
            [
              81.018762,
              26.896849
            ],
            [
              81.017504,
              26.897797
            ],
            [
              81.014822,
              26.89691
            ],
            [
              81.013606,
              26.898701
            ]
          ]
        ],
        "type": "Polygon"
      },
      "type": "Feature"
    },
    {
      "properties": {
        "fill-opacity": 0.33,
        "fillColor": "#bf4040",
        "opacity": 0.33,
        "fill": "#bf4040",
        "fillOpacity": 0.33,
        "color": "#bf4040",
        "contour": 6.0,
        "metric": "distance",
        "provider_name": "Barbeque Nation",
        "zone_type": "distance",
        "distance_km": 6,
        "mode": "motorcycle",
        "center_lat": 26.8656949,
        "center_lon": 81.01260692,
        "label": "6km"
      },
      "geometry": {
        "coordinates": [
          [
            [
              81.047606,
              26.900942
            ],
            [
              81.046606,
              26.900551
            ],
            [
              81.046187,
              26.899114
            ],
            [
              81.043772,
              26.89886
            ],
            [
              81.043606,
              26.899501
            ],
            [
              81.041606,
              26.896996
            ],
            [
              81.037906,
              26.896994
            ],
            [
              81.036606,
              26.897773
            ],
            [
              81.036471,
              26.89583
            ],
            [
              81.035859,
              26.895694
            ],
            [
              81.03693,
              26.895018
            ],
            [
              81.036606,
              26.89431
            ],
            [
              81.031606,
              26.893625
            ],
            [
              81.029724,
              26.892577
            ],
            [
              81.028606,
              26.894384
            ],
            [
              81.027606,
              26.893405
            ],
            [
              81.026606,
              26.894213
            ],
            [
              81.024606,
              26.893988
            ],
            [
              81.023606,
              26.894883
            ],
            [
              81.022606,
              26.893859
            ],
            [
              81.021606,
              26.894248
            ],
            [
              81.020633,
              26.893694
            ],
            [
              81.024092,
              26.89318
            ],
            [
              81.024606,
              26.891446
            ],
            [
              81.026023,
              26.892111
            ],
            [
              81.02627,
              26.890358
            ],
            [
              81.028606,
              26.891223
            ],
            [
              81.03188,
              26.887968
            ],
            [
              81.029875,
              26.885426
            ],
            [
              81.028221,
              26.88508
            ],
            [
              81.029009,
              26.883694
            ],
            [
              81.028606,
              26.881461
            ],
            [
              81.028104,
              26.883192
            ],
            [
              81.026441,
              26.884529
            ],
            [
              81.02612,
              26.886208
            ],
            [
              81.024446,
              26.886534
            ],
            [
              81.023297,
              26.887694
            ],
            [
              81.023307,
              26.889694
            ],
            [
              81.022056,
              26.892144
            ],
            [
              81.020606,
              26.891391
            ],
            [
              81.019398,
              26.892486
            ],
            [
              81.020573,
              26.894661
            ],
            [
              81.019558,
              26.894646
            ],
            [
              81.019026,
              26.897114
            ],
            [
              81.017606,
              26.898301
            ],
            [
              81.015606,
              26.897321
            ],
            [
              81.013881,
              26.898969
            ],
            [
              81.012606,
              26.899163
            ],
            [
              81.010199,
              26.898102
            ],
            [
              81.009802,
              26.896499
            ],
            [
              81.008023,
              26.895278
            ],
            [
              81.00874,
              26.892694
            ],
            [
              81.007726,
              26.892575
            ],
            [
              81.007606,
              26.891386
            ],
            [
              81.005208,
              26.893296
            ],
            [
              81.004301,
              26.896389
            ],
            [
              81.000456,
              26.897544
            ],
            [
              80.998579,
              26.899667
            ],
            [
              80.995606,
              26.89877
            ],
            [
              80.991606,
              26.89904
            ],
            [
              80.988483,
              26.897818
            ],
            [
              80.988431,
              26.893694
            ],
            [
              80.989606,
              26.892546
            ],
            [
              80.992606,
              26.893352
            ],
            [
              80.993098,
              26.891694
            ],
            [
              80.990606,
              26.889201
            ],
            [
              80.987324,
              26.889977
            ],
            [
              80.985905,
              26.888396
            ],
            [
              80.986735,
              26.886566
            ],
            [
              80.984887,
              26.886694
            ],
            [
              80.982606,
              26.889861
            ],
            [
              80.97958,
              26.888721
            ],
            [
              80.979436,
              26.887865
            ],
            [
              80.977737,
              26.887825
            ],
            [
              80.977455,
              26.888846
            ],
            [
              80.977198,
              26.886694
            ],
            [
              80.979278,
              26.882694
            ],
            [
              80.98101,
              26.882098
            ],
            [
              80.981858,
              26.880694
            ],
            [
              80.975606,
              26.879993
            ],
            [
              80.973606,
              26.878898
            ],
            [
              80.972099,
              26.880202
            ],
            [
              80.971606,
              26.877951
            ],
            [
              80.967972,
              26.876694
            ],
            [
              80.967915,
              26.874386
            ],
            [
              80.966606,
              26.873935
            ],
            [
              80.966557,
              26.872645
            ],
            [
              80.968295,
              26.872383
            ],
            [
              80.968122,
              26.871179
            ],
            [
              80.963451,
              26.870694
            ],
            [
              80.966322,
              26.86941
            ],
            [
              80.966568,
              26.868694
            ],
            [
              80.967975,
              26.869063
            ],
            [
              80.968606,
              26.86739
            ],
            [
              80.971606,
              26.867427
            ],
            [
              80.973606,
              26.866432
            ],
            [
              80.977061,
              26.861694
            ],
            [
              80.976898,
              26.860403
            ],
            [
              80.975606,
              26.859234
            ],
            [
              80.974606,
              26.860206
            ],
            [
              80.972606,
              26.860155
            ],
            [
              80.971606,
              26.861112
            ],
            [
              80.968122,
              26.862179
            ],
            [
              80.96844,
              26.858528
            ],
            [
              80.970228,
              26.856694
            ],
            [
              80.969606,
              26.856041
            ],
            [
              80.967997,
              26.856085
            ],
            [
              80.967606,
              26.857553
            ],
            [
              80.966795,
              26.855506
            ],
            [
              80.964928,
              26.853694
            ],
            [
              80.965606,
              26.852968
            ],
            [
              80.966967,
              26.854334
            ],
            [
              80.968891,
              26.85441
            ],
            [
              80.969606,
              26.855348
            ],
            [
              80.970192,
              26.854694
            ],
            [
              80.96823,
              26.852318
            ],
            [
              80.969606,
              26.852367
            ],
            [
              80.971657,
              26.853745
            ],
            [
              80.971203,
              26.851098
            ],
            [
              80.969193,
              26.850694
            ],
            [
              80.971955,
              26.850043
            ],
            [
              80.971606,
              26.84714
            ],
            [
              80.972606,
              26.847522
            ],
            [
              80.972829,
              26.849694
            ],
            [
              80.973606,
              26.850358
            ],
            [
              80.975606,
              26.850283
            ],
            [
              80.977949,
              26.849037
            ],
            [
              80.97906,
              26.84424
            ],
            [
              80.975585,
              26.843694
            ],
            [
              80.979606,
              26.843339
            ],
            [
              80.980443,
              26.841694
            ],
            [
              80.979606,
              26.840966
            ],
            [
              80.978179,
              26.841122
            ],
            [
              80.977606,
              26.840315
            ],
            [
              80.976569,
              26.840694
            ],
            [
              80.976047,
              26.839694
            ],
            [
              80.978803,
              26.839498
            ],
            [
              80.979606,
              26.840423
            ],
            [
              80.980235,
              26.839694
            ],
            [
              80.978606,
              26.838015
            ],
            [
              80.976606,
              26.838435
            ],
            [
              80.975373,
              26.836928
            ],
            [
              80.973897,
              26.836694
            ],
            [
              80.974994,
              26.835694
            ],
            [
              80.978606,
              26.835447
            ],
            [
              80.979606,
              26.836375
            ],
            [
              80.982606,
              26.836265
            ],
            [
              80.983606,
              26.837224
            ],
            [
              80.984606,
              26.836206
            ],
            [
              80.986606,
              26.836166
            ],
            [
              80.991606,
              26.839061
            ],
            [
              80.995606,
              26.839016
            ],
            [
              80.996606,
              26.840003
            ],
            [
              80.997807,
              26.839895
            ],
            [
              80.998171,
              26.837259
            ],
            [
              80.999918,
              26.836006
            ],
            [
              81.001138,
              26.833694
            ],
            [
              81.002606,
              26.827116
            ],
            [
              81.00507,
              26.826158
            ],
            [
              81.006532,
              26.82362
            ],
            [
              81.008185,
              26.823273
            ],
            [
              81.008566,
              26.821654
            ],
            [
              81.008879,
              26.822422
            ],
            [
              81.010672,
              26.822628
            ],
            [
              81.010885,
              26.824416
            ],
            [
              81.012135,
              26.824223
            ],
            [
              81.012327,
              26.820974
            ],
            [
              81.011489,
              26.818694
            ],
            [
              81.013415,
              26.818503
            ],
            [
              81.013606,
              26.817065
            ],
            [
              81.013873,
              26.818428
            ],
            [
              81.01554,
              26.818694
            ],
            [
              81.016606,
              26.820154
            ],
            [
              81.016624,
              26.820712
            ],
            [
              81.014606,
              26.82089
            ],
            [
              81.013924,
              26.821694
            ],
            [
              81.015792,
              26.823509
            ],
            [
              81.01615,
              26.825151
            ],
            [
              81.019606,
              26.827297
            ],
            [
              81.020606,
              26.82639
            ],
            [
              81.022606,
              26.82655
            ],
            [
              81.021273,
              26.830028
            ],
            [
              81.023606,
              26.828315
            ],
            [
              81.024606,
              26.829482
            ],
            [
              81.025744,
              26.829556
            ],
            [
              81.027091,
              26.83221
            ],
            [
              81.02963,
              26.832671
            ],
            [
              81.030425,
              26.834694
            ],
            [
              81.029365,
              26.836694
            ],
            [
              81.030177,
              26.837694
            ],
            [
              81.028732,
              26.839694
            ],
            [
              81.031606,
              26.844573
            ],
            [
              81.032695,
              26.844783
            ],
            [
              81.033163,
              26.843251
            ],
            [
              81.035606,
              26.841497
            ],
            [
              81.038313,
              26.841694
            ],
            [
              81.040693,
              26.842608
            ],
            [
              81.042606,
              26.846302
            ],
            [
              81.048606,
              26.847469
            ],
            [
              81.049629,
              26.846717
            ],
            [
              81.051606,
              26.848046
            ],
            [
              81.054606,
              26.848237
            ],
            [
              81.057526,
              26.849694
            ],
            [
              81.0541,
              26.858188
            ],
            [
              81.052606,
              26.858511
            ],
            [
              81.053438,
              26.860694
            ],
            [
              81.052262,
              26.861694
            ],
            [
              81.053488,
              26.862694
            ],
            [
              81.053967,
              26.865334
            ],
            [
              81.056163,
              26.867138
            ],
            [
              81.057606,
              26.867426
            ],
            [
              81.058606,
              26.8665
            ],
            [
              81.060493,
              26.866581
            ],
            [
              81.060606,
              26.865963
            ],
            [
              81.060719,
              26.867694
            ],
            [
              81.058801,
              26.870694
            ],
            [
              81.057799,
              26.870887
            ],
            [
              81.056606,
              26.869994
            ],
            [
              81.054606,
              26.870078
            ],
            [
              81.052606,
              26.869168
            ],
            [
              81.051285,
              26.870373
            ],
            [
              81.050935,
              26.872023
            ],
            [
              81.047334,
              26.872422
            ],
            [
              81.047148,
              26.874694
            ],
            [
              81.048606,
              26.876457
            ],
            [
              81.049744,
              26.875694
            ],
            [
              81.049912,
              26.878
            ],
            [
              81.049217,
              26.879084
            ],
            [
              81.050606,
              26.878359
            ],
            [
              81.052606,
              26.880271
            ],
            [
              81.054606,
              26.879844
            ],
            [
              81.056606,
              26.880945
            ],
            [
              81.056716,
              26.885694
            ],
            [
              81.056601,
              26.8857
            ],
            [
              81.05625,
              26.884051
            ],
            [
              81.055606,
              26.883947
            ],
            [
              81.054885,
              26.884694
            ],
            [
              81.055017,
              26.886284
            ],
            [
              81.056147,
              26.888154
            ],
            [
              81.058606,
              26.88948
            ],
            [
              81.060606,
              26.889594
            ],
            [
              81.060723,
              26.890578
            ],
            [
              81.061609,
              26.890694
            ],
            [
              81.057606,
              26.892359
            ],
            [
              81.056808,
              26.891493
            ],
            [
              81.054548,
              26.891753
            ],
            [
              81.053606,
              26.890994
            ],
            [
              81.053738,
              26.893826
            ],
            [
              81.052606,
              26.894678
            ],
            [
              81.050606,
              26.894208
            ],
            [
              81.049419,
              26.894694
            ],
            [
              81.049781,
              26.896868
            ],
            [
              81.048018,
              26.897106
            ],
            [
              81.047291,
              26.898694
            ],
            [
              81.047606,
              26.900942
            ]
          ]
        ],
        "type": "Polygon"
      },
      "type": "Feature"
    }
  ]
}