{
  "type": "FeatureCollection",
  "metadata": {
    "provider_name": "Tangra Express",
    "center_lat": 28.5802924,
    "center_lon": 77.3782397,
    "mode": "motorcycle",
    "total_zones": 4,
    "distance_zones": [
      3,
      4,
      5,
      6
    ],
    "generated_at": "2025-12-30T10:18:47.492448Z"
  },
  "features": [
    {
      "properties": {
        "fill-opacity": 0.33,
        "fillColor": "#bf4040",
        "opacity": 0.33,
        "fill": "#bf4040",
        "fillOpacity": 0.33,
        "color": "#bf4040",
        "contour": 3.0,
        "metric": "distance",
        "provider_name": "Tangra Express",
        "zone_type": "distance",
        "distance_km": 3,
        "mode": "motorcycle",
        "center_lat": 28.5802924,
        "center_lon": 77.3782397,
        "label": "3km"
      },
      "geometry": {
        "coordinates": [
          [
            [
              77.372239,
              28.599758
            ],
            [
              77.371786,
              28.598745
            ],
            [
              77.370239,
              28.598069
            ],
            [
              77.370915,
              28.594617
            ],
            [
              77.368639,
              28.594292
            ],
            [
              77.367439,
              28.593092
            ],
            [
              77.367177,
              28.591292
            ],
            [
              77.368239,
              28.590616
            ],
            [
              77.36935,
              28.591182
            ],
            [
              77.371239,
              28.590565
            ],
            [
              77.372239,
              28.592345
            ],
            [
              77.372383,
              28.590436
            ],
            [
              77.373363,
              28.590415
            ],
            [
              77.373571,
              28.58896
            ],
            [
              77.369578,
              28.585954
            ],
            [
              77.367876,
              28.585655
            ],
            [
              77.367239,
              28.583813
            ],
            [
              77.364405,
              28.584292
            ],
            [
              77.364622,
              28.582292
            ],
            [
              77.361239,
              28.582061
            ],
            [
              77.360656,
              28.580876
            ],
            [
              77.357944,
              28.581292
            ],
            [
              77.358534,
              28.578292
            ],
            [
              77.357838,
              28.575292
            ],
            [
              77.362093,
              28.575292
            ],
            [
              77.361456,
              28.575508
            ],
            [
              77.361791,
              28.57674
            ],
            [
              77.362846,
              28.577685
            ],
            [
              77.364544,
              28.577597
            ],
            [
              77.364523,
              28.576008
            ],
            [
              77.362513,
              28.574018
            ],
            [
              77.3608,
              28.573731
            ],
            [
              77.35974,
              28.572292
            ],
            [
              77.362239,
              28.569183
            ],
            [
              77.368239,
              28.568693
            ],
            [
              77.370304,
              28.569227
            ],
            [
              77.372239,
              28.571218
            ],
            [
              77.373136,
              28.571395
            ],
            [
              77.374402,
              28.570455
            ],
            [
              77.375341,
              28.569292
            ],
            [
              77.375332,
              28.567385
            ],
            [
              77.376345,
              28.567186
            ],
            [
              77.375004,
              28.566527
            ],
            [
              77.374527,
              28.56258
            ],
            [
              77.375775,
              28.560828
            ],
            [
              77.377651,
              28.560704
            ],
            [
              77.378358,
              28.55941
            ],
            [
              77.377239,
              28.554541
            ],
            [
              77.380239,
              28.557084
            ],
            [
              77.381791,
              28.557292
            ],
            [
              77.380563,
              28.557616
            ],
            [
              77.381239,
              28.560851
            ],
            [
              77.383239,
              28.557564
            ],
            [
              77.384239,
              28.559212
            ],
            [
              77.385239,
              28.558336
            ],
            [
              77.386239,
              28.560446
            ],
            [
              77.385274,
              28.562327
            ],
            [
              77.383239,
              28.562615
            ],
            [
              77.382868,
              28.563663
            ],
            [
              77.391552,
              28.564292
            ],
            [
              77.387768,
              28.56482
            ],
            [
              77.387834,
              28.566698
            ],
            [
              77.391239,
              28.566983
            ],
            [
              77.392239,
              28.568077
            ],
            [
              77.393239,
              28.567965
            ],
            [
              77.393436,
              28.569095
            ],
            [
              77.395185,
              28.569292
            ],
            [
              77.394441,
              28.570292
            ],
            [
              77.395239,
              28.572037
            ],
            [
              77.398711,
              28.572292
            ],
            [
              77.395219,
              28.573271
            ],
            [
              77.397765,
              28.575766
            ],
            [
              77.403013,
              28.576065
            ],
            [
              77.403239,
              28.575604
            ],
            [
              77.403948,
              28.576292
            ],
            [
              77.404185,
              28.577292
            ],
            [
              77.402878,
              28.57993
            ],
            [
              77.400386,
              28.581439
            ],
            [
              77.400778,
              28.583754
            ],
            [
              77.402239,
              28.585081
            ],
            [
              77.40388,
              28.585292
            ],
            [
              77.402685,
              28.588292
            ],
            [
              77.400728,
              28.588781
            ],
            [
              77.401527,
              28.590579
            ],
            [
              77.399838,
              28.590891
            ],
            [
              77.396272,
              28.593325
            ],
            [
              77.394941,
              28.592994
            ],
            [
              77.394157,
              28.594292
            ],
            [
              77.395262,
              28.596292
            ],
            [
              77.389842,
              28.595895
            ],
            [
              77.389239,
              28.598719
            ],
            [
              77.388239,
              28.597385
            ],
            [
              77.385237,
              28.597295
            ],
            [
              77.385063,
              28.595116
            ],
            [
              77.386239,
              28.594877
            ],
            [
              77.386512,
              28.594019
            ],
            [
              77.382563,
              28.593969
            ],
            [
              77.379904,
              28.592957
            ],
            [
              77.379239,
              28.594233
            ],
            [
              77.377058,
              28.594111
            ],
            [
              77.376239,
              28.595773
            ],
            [
              77.373699,
              28.595752
            ],
            [
              77.372239,
              28.599758
            ]
          ]
        ],
        "type": "Polygon"
      },
      "type": "Feature"
    },
    {
      "properties": {
        "fill-opacity": 0.33,
        "fillColor": "#bf4040",
        "opacity": 0.33,
        "fill": "#bf4040",
        "fillOpacity": 0.33,
        "color": "#bf4040",
        "contour": 4.0,
        "metric": "distance",
        "provider_name": "Tangra Express",
        "zone_type": "distance",
        "distance_km": 4,
        "mode": "motorcycle",
        "center_lat": 28.5802924,
        "center_lon": 77.3782397,
        "label": "4km"
      },
      "geometry": {
        "coordinates": [
          [
            [
              77.373239,
              28.608501
            ],
            [
              77.372239,
              28.608671
            ],
            [
              77.369415,
              28.606116
            ],
            [
              77.370687,
              28.602292
            ],
            [
              77.367239,
              28.60126
            ],
            [
              77.36418,
              28.597351
            ],
            [
              77.360344,
              28.595292
            ],
            [
              77.361126,
              28.592292
            ],
            [
              77.362059,
              28.592112
            ],
            [
              77.361941,
              28.59059
            ],
            [
              77.360342,
              28.590394
            ],
            [
              77.357983,
              28.591292
            ],
            [
              77.357585,
              28.589292
            ],
            [
              77.358449,
              28.588082
            ],
            [
              77.355723,
              28.587292
            ],
            [
              77.354564,
              28.584967
            ],
            [
              77.351811,
              28.582292
            ],
            [
              77.353899,
              28.578292
            ],
            [
              77.356122,
              28.576292
            ],
            [
              77.353579,
              28.572953
            ],
            [
              77.351968,
              28.572563
            ],
            [
              77.349634,
              28.570292
            ],
            [
              77.350239,
              28.56931
            ],
            [
              77.353305,
              28.569226
            ],
            [
              77.356239,
              28.571946
            ],
            [
              77.357592,
              28.569645
            ],
            [
              77.358944,
              28.569587
            ],
            [
              77.359239,
              28.570174
            ],
            [
              77.364621,
              28.565674
            ],
            [
              77.364986,
              28.563545
            ],
            [
              77.364198,
              28.563292
            ],
            [
              77.365626,
              28.562679
            ],
            [
              77.365533,
              28.561292
            ],
            [
              77.367239,
              28.562118
            ],
            [
              77.3678,
              28.560292
            ],
            [
              77.370916,
              28.558292
            ],
            [
              77.371116,
              28.556292
            ],
            [
              77.369827,
              28.554292
            ],
            [
              77.372239,
              28.552056
            ],
            [
              77.375642,
              28.552694
            ],
            [
              77.375239,
              28.551355
            ],
            [
              77.371926,
              28.549292
            ],
            [
              77.374923,
              28.545976
            ],
            [
              77.375587,
              28.546292
            ],
            [
              77.375486,
              28.548045
            ],
            [
              77.378239,
              28.548903
            ],
            [
              77.381239,
              28.547298
            ],
            [
              77.381556,
              28.549292
            ],
            [
              77.377639,
              28.552292
            ],
            [
              77.378239,
              28.553813
            ],
            [
              77.380239,
              28.552876
            ],
            [
              77.381499,
              28.554032
            ],
            [
              77.381619,
              28.555292
            ],
            [
              77.380561,
              28.556292
            ],
            [
              77.381239,
              28.556778
            ],
            [
              77.38284,
              28.556292
            ],
            [
              77.382962,
              28.551292
            ],
            [
              77.383395,
              28.552136
            ],
            [
              77.384239,
              28.552125
            ],
            [
              77.385239,
              28.550995
            ],
            [
              77.389239,
              28.550861
            ],
            [
              77.389675,
              28.552292
            ],
            [
              77.387631,
              28.552684
            ],
            [
              77.38581,
              28.554862
            ],
            [
              77.385905,
              28.556626
            ],
            [
              77.387291,
              28.556241
            ],
            [
              77.390949,
              28.557002
            ],
            [
              77.391239,
              28.555346
            ],
            [
              77.391377,
              28.557292
            ],
            [
              77.390827,
              28.558292
            ],
            [
              77.39312,
              28.560292
            ],
            [
              77.393495,
              28.562036
            ],
            [
              77.395239,
              28.56297
            ],
            [
              77.395953,
              28.564579
            ],
            [
              77.401239,
              28.564515
            ],
            [
              77.401899,
              28.565292
            ],
            [
              77.400727,
              28.566292
            ],
            [
              77.401874,
              28.569658
            ],
            [
              77.406239,
              28.570279
            ],
            [
              77.407337,
              28.571194
            ],
            [
              77.406049,
              28.574292
            ],
            [
              77.407979,
              28.575292
            ],
            [
              77.407091,
              28.57644
            ],
            [
              77.409524,
              28.577007
            ],
            [
              77.409986,
              28.579292
            ],
            [
              77.407701,
              28.585292
            ],
            [
              77.407766,
              28.587766
            ],
            [
              77.409323,
              28.589208
            ],
            [
              77.408996,
              28.591292
            ],
            [
              77.408105,
              28.592292
            ],
            [
              77.408456,
              28.593292
            ],
            [
              77.404366,
              28.597292
            ],
            [
              77.405125,
              28.598292
            ],
            [
              77.401239,
              28.598747
            ],
            [
              77.399239,
              28.600247
            ],
            [
              77.397239,
              28.600048
            ],
            [
              77.397799,
              28.601292
            ],
            [
              77.396239,
              28.603222
            ],
            [
              77.394239,
              28.602361
            ],
            [
              77.392239,
              28.603
            ],
            [
              77.392153,
              28.602378
            ],
            [
              77.390547,
              28.602599
            ],
            [
              77.389239,
              28.60566
            ],
            [
              77.388134,
              28.604292
            ],
            [
              77.388978,
              28.60403
            ],
            [
              77.388404,
              28.602127
            ],
            [
              77.38409,
              28.601441
            ],
            [
              77.383239,
              28.599825
            ],
            [
              77.376239,
              28.601631
            ],
            [
              77.373239,
              28.601478
            ],
            [
              77.373239,
              28.608501
            ]
          ]
        ],
        "type": "Polygon"
      },
      "type": "Feature"
    },
    {
      "properties": {
        "fill-opacity": 0.33,
        "fillColor": "#bf4040",
        "opacity": 0.33,
        "fill": "#bf4040",
        "fillOpacity": 0.33,
        "color": "#bf4040",
        "contour": 5.0,
        "metric": "distance",
        "provider_name": "Tangra Express",
        "zone_type": "distance",
        "distance_km": 5,
        "mode": "motorcycle",
        "center_lat": 28.5802924,
        "center_lon": 77.3782397,
        "label": "5km"
      },
      "geometry": {
        "coordinates": [
          [
            [
              77.373239,
              28.617636
            ],
            [
              77.369663,
              28.611868
            ],
            [
              77.368834,
              28.611887
            ],
            [
              77.368239,
              28.614224
            ],
            [
              77.366816,
              28.610715
            ],
            [
              77.365452,
              28.610505
            ],
            [
              77.364759,
              28.611292
            ],
            [
              77.363424,
              28.609107
            ],
            [
              77.362239,
              28.609143
            ],
            [
              77.360424,
              28.607292
            ],
            [
              77.361393,
              28.606139
            ],
            [
              77.359924,
              28.605292
            ],
            [
              77.362027,
              28.60408
            ],
            [
              77.362239,
              28.602958
            ],
            [
              77.364141,
              28.604292
            ],
            [
              77.36342,
              28.604472
            ],
            [
              77.36376,
              28.605771
            ],
            [
              77.365239,
              28.605914
            ],
            [
              77.365833,
              28.605292
            ],
            [
              77.36426,
              28.604292
            ],
            [
              77.364558,
              28.602973
            ],
            [
              77.362809,
              28.602722
            ],
            [
              77.360709,
              28.601292
            ],
            [
              77.362013,
              28.601066
            ],
            [
              77.362146,
              28.600199
            ],
            [
              77.363946,
              28.599292
            ],
            [
              77.362557,
              28.596974
            ],
            [
              77.358019,
              28.597512
            ],
            [
              77.357871,
              28.595292
            ],
            [
              77.358776,
              28.594292
            ],
            [
              77.356239,
              28.59371
            ],
            [
              77.354533,
              28.595292
            ],
            [
              77.354747,
              28.596799
            ],
            [
              77.352983,
              28.597036
            ],
            [
              77.352258,
              28.598311
            ],
            [
              77.351011,
              28.59752
            ],
            [
              77.350974,
              28.594292
            ],
            [
              77.353239,
              28.594425
            ],
            [
              77.355269,
              28.592292
            ],
            [
              77.352146,
              28.592385
            ],
            [
              77.352066,
              28.589292
            ],
            [
              77.34894,
              28.585993
            ],
            [
              77.350476,
              28.585528
            ],
            [
              77.349653,
              28.584292
            ],
            [
              77.350239,
              28.583661
            ],
            [
              77.351676,
              28.583729
            ],
            [
              77.350836,
              28.582292
            ],
            [
              77.352239,
              28.578839
            ],
            [
              77.3557,
              28.576292
            ],
            [
              77.355239,
              28.575366
            ],
            [
              77.353239,
              28.575722
            ],
            [
              77.352239,
              28.573894
            ],
            [
              77.349903,
              28.576292
            ],
            [
              77.349227,
              28.574292
            ],
            [
              77.345882,
              28.573649
            ],
            [
              77.345239,
              28.572363
            ],
            [
              77.343095,
              28.572437
            ],
            [
              77.342842,
              28.569292
            ],
            [
              77.344839,
              28.568891
            ],
            [
              77.345833,
              28.567292
            ],
            [
              77.344083,
              28.566448
            ],
            [
              77.343088,
              28.564443
            ],
            [
              77.342033,
              28.564086
            ],
            [
              77.343297,
              28.564234
            ],
            [
              77.343567,
              28.564965
            ],
            [
              77.345341,
              28.56519
            ],
            [
              77.347239,
              28.566896
            ],
            [
              77.348804,
              28.564857
            ],
            [
              77.349347,
              28.562184
            ],
            [
              77.350359,
              28.562292
            ],
            [
              77.34998,
              28.563551
            ],
            [
              77.353836,
              28.564695
            ],
            [
              77.357906,
              28.562959
            ],
            [
              77.358155,
              28.562292
            ],
            [
              77.355777,
              28.561292
            ],
            [
              77.359239,
              28.557763
            ],
            [
              77.359497,
              28.559034
            ],
            [
              77.360749,
              28.558801
            ],
            [
              77.360934,
              28.557597
            ],
            [
              77.359855,
              28.557292
            ],
            [
              77.361239,
              28.555602
            ],
            [
              77.364424,
              28.555477
            ],
            [
              77.36412,
              28.553412
            ],
            [
              77.3652,
              28.552292
            ],
            [
              77.363915,
              28.547292
            ],
            [
              77.36511,
              28.547163
            ],
            [
              77.366006,
              28.545058
            ],
            [
              77.366538,
              28.545994
            ],
            [
              77.368239,
              28.546025
            ],
            [
              77.36954,
              28.544292
            ],
            [
              77.369612,
              28.543292
            ],
            [
              77.367164,
              28.541367
            ],
            [
              77.367054,
              28.540107
            ],
            [
              77.370239,
              28.539742
            ],
            [
              77.370647,
              28.540884
            ],
            [
              77.373239,
              28.540176
            ],
            [
              77.377239,
              28.541178
            ],
            [
              77.377589,
              28.544292
            ],
            [
              77.380239,
              28.546798
            ],
            [
              77.381549,
              28.546602
            ],
            [
              77.387239,
              28.540588
            ],
            [
              77.387917,
              28.540615
            ],
            [
              77.389055,
              28.543476
            ],
            [
              77.392239,
              28.542306
            ],
            [
              77.392234,
              28.546292
            ],
            [
              77.393239,
              28.546369
            ],
            [
              77.393457,
              28.548075
            ],
            [
              77.396357,
              28.548174
            ],
            [
              77.395942,
              28.550292
            ],
            [
              77.394637,
              28.55069
            ],
            [
              77.39383,
              28.552701
            ],
            [
              77.398985,
              28.552292
            ],
            [
              77.397239,
              28.553583
            ],
            [
              77.394779,
              28.553832
            ],
            [
              77.394756,
              28.555776
            ],
            [
              77.397526,
              28.558005
            ],
            [
              77.400327,
              28.557205
            ],
            [
              77.40348,
              28.558292
            ],
            [
              77.400578,
              28.560292
            ],
            [
              77.401907,
              28.564625
            ],
            [
              77.406689,
              28.564741
            ],
            [
              77.406643,
              28.562889
            ],
            [
              77.405091,
              28.562292
            ],
            [
              77.407239,
              28.560643
            ],
            [
              77.409622,
              28.563292
            ],
            [
              77.409037,
              28.564292
            ],
            [
              77.412158,
              28.565292
            ],
            [
              77.410199,
              28.566251
            ],
            [
              77.408239,
              28.565555
            ],
            [
              77.407517,
              28.566292
            ],
            [
              77.408239,
              28.56713
            ],
            [
              77.410038,
              28.566494
            ],
            [
              77.410145,
              28.567292
            ],
            [
              77.408286,
              28.568338
            ],
            [
              77.408213,
              28.569266
            ],
            [
              77.410239,
              28.569561
            ],
            [
              77.410836,
              28.570292
            ],
            [
              77.410614,
              28.573292
            ],
            [
              77.411469,
              28.574292
            ],
            [
              77.411488,
              28.576292
            ],
            [
              77.410568,
              28.577292
            ],
            [
              77.412473,
              28.578292
            ],
            [
              77.412603,
              28.581292
            ],
            [
              77.411639,
              28.582292
            ],
            [
              77.414252,
              28.585279
            ],
            [
              77.412649,
              28.585702
            ],
            [
              77.412545,
              28.586986
            ],
            [
              77.414355,
              28.588176
            ],
            [
              77.414634,
              28.590897
            ],
            [
              77.415276,
              28.592255
            ],
            [
              77.416239,
              28.592357
            ],
            [
              77.415938,
              28.593292
            ],
            [
              77.414536,
              28.593589
            ],
            [
              77.412239,
              28.598576
            ],
            [
              77.411266,
              28.598292
            ],
            [
              77.412128,
              28.598181
            ],
            [
              77.411846,
              28.596685
            ],
            [
              77.407924,
              28.593976
            ],
            [
              77.407721,
              28.59681
            ],
            [
              77.41122,
              28.598292
            ],
            [
              77.410949,
              28.599292
            ],
            [
              77.412721,
              28.600292
            ],
            [
              77.412361,
              28.601292
            ],
            [
              77.411239,
              28.601823
            ],
            [
              77.409239,
              28.60121
            ],
            [
              77.408239,
              28.599609
            ],
            [
              77.405844,
              28.599897
            ],
            [
              77.404501,
              28.603554
            ],
            [
              77.402293,
              28.605346
            ],
            [
              77.401239,
              28.605035
            ],
            [
              77.399621,
              28.607674
            ],
            [
              77.396307,
              28.608359
            ],
            [
              77.395138,
              28.609393
            ],
            [
              77.393912,
              28.608619
            ],
            [
              77.392749,
              28.608802
            ],
            [
              77.392625,
              28.609906
            ],
            [
              77.394115,
              28.610168
            ],
            [
              77.394239,
              28.609599
            ],
            [
              77.394239,
              28.61119
            ],
            [
              77.393239,
              28.612121
            ],
            [
              77.391239,
              28.611456
            ],
            [
              77.391111,
              28.614292
            ],
            [
              77.389527,
              28.614292
            ],
            [
              77.388239,
              28.613371
            ],
            [
              77.385849,
              28.609683
            ],
            [
              77.383173,
              28.609292
            ],
            [
              77.387239,
              28.609005
            ],
            [
              77.387912,
              28.608292
            ],
            [
              77.38474,
              28.607292
            ],
            [
              77.386628,
              28.606292
            ],
            [
              77.384273,
              28.604292
            ],
            [
              77.3866,
              28.603653
            ],
            [
              77.386538,
              28.601993
            ],
            [
              77.384399,
              28.602292
            ],
            [
              77.384239,
              28.604019
            ],
            [
              77.383239,
              28.602545
            ],
            [
              77.382905,
              28.603626
            ],
            [
              77.384067,
              28.604292
            ],
            [
              77.382299,
              28.606352
            ],
            [
              77.381239,
              28.605453
            ],
            [
              77.380239,
              28.60838
            ],
            [
              77.378204,
              28.607327
            ],
            [
              77.378982,
              28.606292
            ],
            [
              77.378089,
              28.604142
            ],
            [
              77.375762,
              28.606292
            ],
            [
              77.375878,
              28.607654
            ],
            [
              77.377575,
              28.607956
            ],
            [
              77.377602,
              28.608655
            ],
            [
              77.376239,
              28.610265
            ],
            [
              77.374239,
              28.61048
            ],
            [
              77.373708,
              28.611292
            ],
            [
              77.373239,
              28.617636
            ]
          ]
        ],
        "type": "Polygon"
      },
      "type": "Feature"
    },
    {
      "properties": {
        "fill-opacity": 0.33,
        "fillColor": "#bf4040",
        "opacity": 0.33,
        "fill": "#bf4040",
        "fillOpacity": 0.33,
        "color": "#bf4040",
        "contour": 6.0,
        "metric": "distance",
        "provider_name": "Tangra Express",
        "zone_type": "distance",
        "distance_km": 6,
        "mode": "motorcycle",
        "center_lat": 28.5802924,
        "center_lon": 77.3782397,
        "label": "6km"
      },
      "geometry": {
        "coordinates": [
          [
            [
              77.374239,
              28.626483
            ],
            [
              77.372764,
              28.624767
            ],
            [
              77.370952,
              28.624292
            ],
            [
              77.371095,
              28.623292
            ],
            [
              77.368565,
              28.622292
            ],
            [
              77.368824,
              28.620876
            ],
            [
              77.371239,
              28.619915
            ],
            [
              77.371292,
              28.619239
            ],
            [
              77.368663,
              28.619292
            ],
            [
              77.368239,
              28.620084
            ],
            [
              77.365239,
              28.618551
            ],
            [
              77.364239,
              28.618802
            ],
            [
              77.363702,
              28.618292
            ],
            [
              77.365753,
              28.617806
            ],
            [
              77.365664,
              28.616867
            ],
            [
              77.36294,
              28.616591
            ],
            [
              77.361987,
              28.615544
            ],
            [
              77.359286,
              28.616246
            ],
            [
              77.357239,
              28.61411
            ],
            [
              77.356811,
              28.61172
            ],
            [
              77.355239,
              28.61157
            ],
            [
              77.354008,
              28.610292
            ],
            [
              77.355713,
              28.609292
            ],
            [
              77.354689,
              28.608292
            ],
            [
              77.355239,
              28.605289
            ],
            [
              77.352239,
              28.601598
            ],
            [
              77.351872,
              28.604292
            ],
            [
              77.352501,
              28.605292
            ],
            [
              77.350239,
              28.607307
            ],
            [
              77.347858,
              28.603673
            ],
            [
              77.346239,
              28.602908
            ],
            [
              77.345608,
              28.599923
            ],
            [
              77.34327,
              28.599292
            ],
            [
              77.344674,
              28.596292
            ],
            [
              77.342853,
              28.593292
            ],
            [
              77.343794,
              28.591847
            ],
            [
              77.344028,
              28.589081
            ],
            [
              77.346146,
              28.588199
            ],
            [
              77.346598,
              28.585292
            ],
            [
              77.345701,
              28.58383
            ],
            [
              77.343232,
              28.583292
            ],
            [
              77.342239,
              28.579198
            ],
            [
              77.339239,
              28.578918
            ],
            [
              77.336203,
              28.577328
            ],
            [
              77.337239,
              28.574641
            ],
            [
              77.339364,
              28.574167
            ],
            [
              77.339239,
              28.573587
            ],
            [
              77.335996,
              28.573292
            ],
            [
              77.335513,
              28.572292
            ],
            [
              77.336675,
              28.568292
            ],
            [
              77.335263,
              28.567292
            ],
            [
              77.33485,
              28.565292
            ],
            [
              77.335239,
              28.564194
            ],
            [
              77.337151,
              28.563292
            ],
            [
              77.336488,
              28.562292
            ],
            [
              77.33709,
              28.562142
            ],
            [
              77.336931,
              28.5606
            ],
            [
              77.334239,
              28.560317
            ],
            [
              77.334214,
              28.559317
            ],
            [
              77.333151,
              28.559292
            ],
            [
              77.336239,
              28.558238
            ],
            [
              77.33813,
              28.560401
            ],
            [
              77.340627,
              28.560905
            ],
            [
              77.340873,
              28.562658
            ],
            [
              77.342561,
              28.562971
            ],
            [
              77.343935,
              28.564596
            ],
            [
              77.3456,
              28.564931
            ],
            [
              77.347495,
              28.566548
            ],
            [
              77.348654,
              28.565292
            ],
            [
              77.348675,
              28.561856
            ],
            [
              77.344239,
              28.56137
            ],
            [
              77.344019,
              28.560512
            ],
            [
              77.340873,
              28.560658
            ],
            [
              77.340934,
              28.559986
            ],
            [
              77.344239,
              28.560001
            ],
            [
              77.346061,
              28.561114
            ],
            [
              77.350239,
              28.557287
            ],
            [
              77.353735,
              28.556788
            ],
            [
              77.353881,
              28.553933
            ],
            [
              77.356239,
              28.550837
            ],
            [
              77.358486,
              28.552045
            ],
            [
              77.359239,
              28.553817
            ],
            [
              77.361151,
              28.553292
            ],
            [
              77.35948,
              28.551292
            ],
            [
              77.359635,
              28.550292
            ],
            [
              77.361239,
              28.550945
            ],
            [
              77.362545,
              28.550598
            ],
            [
              77.362312,
              28.547292
            ],
            [
              77.364486,
              28.546538
            ],
            [
              77.364627,
              28.545292
            ],
            [
              77.364239,
              28.544438
            ],
            [
              77.36305,
              28.544481
            ],
            [
              77.361239,
              28.542414
            ],
            [
              77.359239,
              28.542158
            ],
            [
              77.358775,
              28.541292
            ],
            [
              77.359428,
              28.540292
            ],
            [
              77.363649,
              28.538701
            ],
            [
              77.363239,
              28.532962
            ],
            [
              77.364239,
              28.532346
            ],
            [
              77.364408,
              28.534292
            ],
            [
              77.365239,
              28.535075
            ],
            [
              77.366239,
              28.534183
            ],
            [
              77.367252,
              28.534279
            ],
            [
              77.369239,
              28.537837
            ],
            [
              77.370239,
              28.53701
            ],
            [
              77.377239,
              28.536981
            ],
            [
              77.378239,
              28.537947
            ],
            [
              77.380239,
              28.535955
            ],
            [
              77.38385,
              28.535902
            ],
            [
              77.384044,
              28.534488
            ],
            [
              77.383413,
              28.534292
            ],
            [
              77.384901,
              28.533953
            ],
            [
              77.385239,
              28.531904
            ],
            [
              77.390217,
              28.534314
            ],
            [
              77.391982,
              28.533035
            ],
            [
              77.393239,
              28.532959
            ],
            [
              77.394239,
              28.533924
            ],
            [
              77.394619,
              28.541292
            ],
            [
              77.392641,
              28.543292
            ],
            [
              77.392604,
              28.545292
            ],
            [
              77.393837,
              28.547694
            ],
            [
              77.396239,
              28.547928
            ],
            [
              77.397612,
              28.546665
            ],
            [
              77.397991,
              28.545292
            ],
            [
              77.397021,
              28.544292
            ],
            [
              77.397239,
              28.543069
            ],
            [
              77.400982,
              28.543292
            ],
            [
              77.401239,
              28.544572
            ],
            [
              77.40427,
              28.544292
            ],
            [
              77.402037,
              28.547292
            ],
            [
              77.404239,
              28.549035
            ],
            [
              77.405239,
              28.548931
            ],
            [
              77.406491,
              28.55204
            ],
            [
              77.408239,
              28.55244
            ],
            [
              77.408212,
              28.554319
            ],
            [
              77.411441,
              28.554292
            ],
            [
              77.410689,
              28.555292
            ],
            [
              77.410998,
              28.556292
            ],
            [
              77.412635,
              28.556292
            ],
            [
              77.412596,
              28.557935
            ],
            [
              77.414014,
              28.558067
            ],
            [
              77.414239,
              28.557138
            ],
            [
              77.414835,
              28.557696
            ],
            [
              77.416069,
              28.559292
            ],
            [
              77.41366,
              28.559713
            ],
            [
              77.413768,
              28.560763
            ],
            [
              77.415826,
              28.560879
            ],
            [
              77.416239,
              28.559392
            ],
            [
              77.418239,
              28.560222
            ],
            [
              77.417794,
              28.561292
            ],
            [
              77.418585,
              28.562292
            ],
            [
              77.417488,
              28.562541
            ],
            [
              77.41734,
              28.563392
            ],
            [
              77.416072,
              28.563459
            ],
            [
              77.415239,
              28.562603
            ],
            [
              77.413829,
              28.562882
            ],
            [
              77.414239,
              28.56406
            ],
            [
              77.415382,
              28.56415
            ],
            [
              77.415391,
              28.565292
            ],
            [
              77.414586,
              28.565638
            ],
            [
              77.414239,
              28.567185
            ],
            [
              77.41402,
              28.566511
            ],
            [
              77.412835,
              28.566888
            ],
            [
              77.412497,
              28.569292
            ],
            [
              77.414268,
              28.571292
            ],
            [
              77.413632,
              28.572685
            ],
            [
              77.41202,
              28.573292
            ],
            [
              77.412084,
              28.575292
            ],
            [
              77.411049,
              28.577292
            ],
            [
              77.412723,
              28.577808
            ],
            [
              77.41285,
              28.581292
            ],
            [
              77.411864,
              28.582292
            ],
            [
              77.41441,
              28.585121
            ],
            [
              77.412933,
              28.586598
            ],
            [
              77.414604,
              28.587927
            ],
            [
              77.41494,
              28.590591
            ],
            [
              77.417337,
              28.593195
            ],
            [
              77.417421,
              28.595111
            ],
            [
              77.420242,
              28.595289
            ],
            [
              77.420939,
              28.597292
            ],
            [
              77.418863,
              28.600916
            ],
            [
              77.422486,
              28.603292
            ],
            [
              77.418589,
              28.603641
            ],
            [
              77.417239,
              28.606078
            ],
            [
              77.417059,
              28.605472
            ],
            [
              77.412784,
              28.605837
            ],
            [
              77.412581,
              28.606951
            ],
            [
              77.413303,
              28.607228
            ],
            [
              77.413851,
              28.608292
            ],
            [
              77.413227,
              28.608304
            ],
            [
              77.413164,
              28.607367
            ],
            [
              77.412198,
              28.607333
            ],
            [
              77.412032,
              28.606499
            ],
            [
              77.406367,
              28.606419
            ],
            [
              77.406272,
              28.607324
            ],
            [
              77.404429,
              28.607482
            ],
            [
              77.404239,
              28.609816
            ],
            [
              77.401239,
              28.609432
            ],
            [
              77.40099,
              28.610043
            ],
            [
              77.399084,
              28.610137
            ],
            [
              77.396316,
              28.612292
            ],
            [
              77.396144,
              28.617292
            ],
            [
              77.395239,
              28.618558
            ],
            [
              77.394166,
              28.617292
            ],
            [
              77.394728,
              28.615292
            ],
            [
              77.392863,
              28.614916
            ],
            [
              77.392521,
              28.618292
            ],
            [
              77.393863,
              28.619292
            ],
            [
              77.392684,
              28.619737
            ],
            [
              77.392239,
              28.621341
            ],
            [
              77.392068,
              28.620463
            ],
            [
              77.389214,
              28.620292
            ],
            [
              77.390037,
              28.618292
            ],
            [
              77.388843,
              28.616292
            ],
            [
              77.389573,
              28.614958
            ],
            [
              77.385605,
              28.614292
            ],
            [
              77.387659,
              28.613292
            ],
            [
              77.385428,
              28.612292
            ],
            [
              77.386543,
              28.611292
            ],
            [
              77.385539,
              28.609992
            ],
            [
              77.381814,
              28.609867
            ],
            [
              77.381654,
              28.610877
            ],
            [
              77.384337,
              28.61139
            ],
            [
              77.38229,
              28.612343
            ],
            [
              77.382239,
              28.613598
            ],
            [
              77.380239,
              28.61514
            ],
            [
              77.379383,
              28.614149
            ],
            [
              77.376604,
              28.613292
            ],
            [
              77.37671,
              28.611821
            ],
            [
              77.374823,
              28.611875
            ],
            [
              77.374166,
              28.613292
            ],
            [
              77.374536,
              28.614996
            ],
            [
              77.376561,
              28.616292
            ],
            [
              77.374641,
              28.616694
            ],
            [
              77.374776,
              28.617756
            ],
            [
              77.376877,
              28.61793
            ],
            [
              77.37763,
              28.616901
            ],
            [
              77.379691,
              28.618292
            ],
            [
              77.377052,
              28.621292
            ],
            [
              77.374902,
              28.621954
            ],
            [
              77.374239,
              28.626483
            ]
          ]
        ],
        "type": "Polygon"
      },
      "type": "Feature"
    }
  ]
}