{
  "type": "FeatureCollection",
  "metadata": {
    "provider_name": "Mumma's Food Corner",
    "center_lat": 18.480129,
    "center_lon": 73.8068601,
    "mode": "motorcycle",
    "total_zones": 4,
    "distance_zones": [
      3,
      4,
      5,
      6
    ],
    "generated_at": "2025-12-25T21:48:50.315065Z"
  },
  "features": [
    {
      "properties": {
        "fill-opacity": 0.33,
        "fillColor": "#bf4040",
        "opacity": 0.33,
        "fill": "#bf4040",
        "fillOpacity": 0.33,
        "color": "#bf4040",
        "contour": 3.0,
        "metric": "distance",
        "provider_name": "Mumma's Food Corner",
        "zone_type": "distance",
        "distance_km": 3,
        "mode": "motorcycle",
        "center_lat": 18.480129,
        "center_lon": 73.8068601,
        "label": "3km"
      },
      "geometry": {
        "coordinates": [
          [
            [
              73.81586,
              18.50216
            ],
            [
              73.813006,
              18.502129
            ],
            [
              73.80986,
              18.499812
            ],
            [
              73.80886,
              18.497638
            ],
            [
              73.80786,
              18.498498
            ],
            [
              73.806996,
              18.498129
            ],
            [
              73.807707,
              18.497976
            ],
            [
              73.807727,
              18.495129
            ],
            [
              73.80766,
              18.494329
            ],
            [
              73.80679,
              18.494129
            ],
            [
              73.808559,
              18.493129
            ],
            [
              73.807225,
              18.489763
            ],
            [
              73.80286,
              18.489691
            ],
            [
              73.80186,
              18.488754
            ],
            [
              73.79986,
              18.488684
            ],
            [
              73.79586,
              18.491579
            ],
            [
              73.793706,
              18.489975
            ],
            [
              73.792695,
              18.491964
            ],
            [
              73.79086,
              18.49155
            ],
            [
              73.788324,
              18.493593
            ],
            [
              73.78786,
              18.496727
            ],
            [
              73.786788,
              18.4952
            ],
            [
              73.785972,
              18.495129
            ],
            [
              73.786654,
              18.494923
            ],
            [
              73.786648,
              18.492129
            ],
            [
              73.78757,
              18.491129
            ],
            [
              73.786292,
              18.488561
            ],
            [
              73.787443,
              18.487129
            ],
            [
              73.787101,
              18.486129
            ],
            [
              73.788542,
              18.485811
            ],
            [
              73.78854,
              18.484129
            ],
            [
              73.787436,
              18.482552
            ],
            [
              73.78586,
              18.482459
            ],
            [
              73.784716,
              18.481129
            ],
            [
              73.786538,
              18.480807
            ],
            [
              73.787344,
              18.478645
            ],
            [
              73.786121,
              18.47839
            ],
            [
              73.785961,
              18.47923
            ],
            [
              73.78486,
              18.479649
            ],
            [
              73.784614,
              18.479129
            ],
            [
              73.785671,
              18.47894
            ],
            [
              73.785779,
              18.478048
            ],
            [
              73.786669,
              18.477938
            ],
            [
              73.78886,
              18.478728
            ],
            [
              73.79186,
              18.478618
            ],
            [
              73.794274,
              18.476129
            ],
            [
              73.790234,
              18.471755
            ],
            [
              73.788608,
              18.471381
            ],
            [
              73.786533,
              18.469455
            ],
            [
              73.784664,
              18.469129
            ],
            [
              73.78486,
              18.46724
            ],
            [
              73.787927,
              18.467129
            ],
            [
              73.787461,
              18.468129
            ],
            [
              73.788584,
              18.468404
            ],
            [
              73.789795,
              18.470193
            ],
            [
              73.791357,
              18.470631
            ],
            [
              73.79386,
              18.473568
            ],
            [
              73.794245,
              18.471743
            ],
            [
              73.792409,
              18.47158
            ],
            [
              73.791447,
              18.469129
            ],
            [
              73.793293,
              18.468562
            ],
            [
              73.793775,
              18.466129
            ],
            [
              73.79486,
              18.465342
            ],
            [
              73.796331,
              18.466658
            ],
            [
              73.800156,
              18.467832
            ],
            [
              73.801563,
              18.470425
            ],
            [
              73.80325,
              18.470738
            ],
            [
              73.80786,
              18.474483
            ],
            [
              73.808393,
              18.474129
            ],
            [
              73.808215,
              18.470774
            ],
            [
              73.8066,
              18.470388
            ],
            [
              73.804711,
              18.468278
            ],
            [
              73.803818,
              18.465086
            ],
            [
              73.805228,
              18.465496
            ],
            [
              73.805917,
              18.464071
            ],
            [
              73.80986,
              18.465015
            ],
            [
              73.81186,
              18.461472
            ],
            [
              73.813941,
              18.463047
            ],
            [
              73.815411,
              18.465577
            ],
            [
              73.81686,
              18.465793
            ],
            [
              73.818374,
              18.464643
            ],
            [
              73.818759,
              18.463028
            ],
            [
              73.821153,
              18.461835
            ],
            [
              73.821011,
              18.46328
            ],
            [
              73.819107,
              18.463376
            ],
            [
              73.819045,
              18.465314
            ],
            [
              73.817466,
              18.467129
            ],
            [
              73.820228,
              18.468129
            ],
            [
              73.81986,
              18.470041
            ],
            [
              73.819571,
              18.468418
            ],
            [
              73.81886,
              18.468351
            ],
            [
              73.81786,
              18.469536
            ],
            [
              73.81486,
              18.469637
            ],
            [
              73.813432,
              18.471129
            ],
            [
              73.815147,
              18.471841
            ],
            [
              73.81586,
              18.47365
            ],
            [
              73.817299,
              18.472568
            ],
            [
              73.81786,
              18.470713
            ],
            [
              73.820467,
              18.470522
            ],
            [
              73.82086,
              18.471388
            ],
            [
              73.818475,
              18.471744
            ],
            [
              73.818595,
              18.473393
            ],
            [
              73.81986,
              18.474242
            ],
            [
              73.820913,
              18.474076
            ],
            [
              73.82135,
              18.477638
            ],
            [
              73.82386,
              18.477939
            ],
            [
              73.823851,
              18.479129
            ],
            [
              73.820922,
              18.481191
            ],
            [
              73.819792,
              18.480196
            ],
            [
              73.81686,
              18.480369
            ],
            [
              73.81486,
              18.478525
            ],
            [
              73.81286,
              18.478621
            ],
            [
              73.812521,
              18.480468
            ],
            [
              73.81486,
              18.480502
            ],
            [
              73.82086,
              18.483643
            ],
            [
              73.82186,
              18.482285
            ],
            [
              73.82286,
              18.482406
            ],
            [
              73.825661,
              18.485129
            ],
            [
              73.826201,
              18.487787
            ],
            [
              73.827401,
              18.488129
            ],
            [
              73.82686,
              18.489774
            ],
            [
              73.823844,
              18.490113
            ],
            [
              73.823187,
              18.493129
            ],
            [
              73.824953,
              18.494129
            ],
            [
              73.82287,
              18.498139
            ],
            [
              73.822704,
              18.497284
            ],
            [
              73.819222,
              18.49749
            ],
            [
              73.816356,
              18.500129
            ],
            [
              73.81586,
              18.50216
            ]
          ]
        ],
        "type": "Polygon"
      },
      "type": "Feature"
    },
    {
      "properties": {
        "fill-opacity": 0.33,
        "fillColor": "#bf4040",
        "opacity": 0.33,
        "fill": "#bf4040",
        "fillOpacity": 0.33,
        "color": "#bf4040",
        "contour": 4.0,
        "metric": "distance",
        "provider_name": "Mumma's Food Corner",
        "zone_type": "distance",
        "distance_km": 4,
        "mode": "motorcycle",
        "center_lat": 18.480129,
        "center_lon": 73.8068601,
        "label": "4km"
      },
      "geometry": {
        "coordinates": [
          [
            [
              73.81786,
              18.508419
            ],
            [
              73.81686,
              18.507778
            ],
            [
              73.815785,
              18.508204
            ],
            [
              73.813986,
              18.505129
            ],
            [
              73.814121,
              18.504129
            ],
            [
              73.813318,
              18.50367
            ],
            [
              73.80986,
              18.505787
            ],
            [
              73.807968,
              18.50302
            ],
            [
              73.80528,
              18.502129
            ],
            [
              73.806404,
              18.501129
            ],
            [
              73.80599,
              18.499998
            ],
            [
              73.80186,
              18.498374
            ],
            [
              73.801514,
              18.496474
            ],
            [
              73.79991,
              18.496179
            ],
            [
              73.79986,
              18.496922
            ],
            [
              73.79986,
              18.495927
            ],
            [
              73.801525,
              18.494129
            ],
            [
              73.80386,
              18.495821
            ],
            [
              73.805545,
              18.493814
            ],
            [
              73.808153,
              18.493422
            ],
            [
              73.808263,
              18.492129
            ],
            [
              73.807096,
              18.489892
            ],
            [
              73.80186,
              18.489814
            ],
            [
              73.79986,
              18.488821
            ],
            [
              73.797646,
              18.489915
            ],
            [
              73.79629,
              18.491559
            ],
            [
              73.79486,
              18.491504
            ],
            [
              73.79186,
              18.493533
            ],
            [
              73.79115,
              18.491838
            ],
            [
              73.789595,
              18.492864
            ],
            [
              73.788376,
              18.496129
            ],
            [
              73.792031,
              18.497129
            ],
            [
              73.791401,
              18.499129
            ],
            [
              73.793896,
              18.502129
            ],
            [
              73.793084,
              18.502353
            ],
            [
              73.79286,
              18.504272
            ],
            [
              73.79186,
              18.5041
            ],
            [
              73.791513,
              18.502475
            ],
            [
              73.790371,
              18.501617
            ],
            [
              73.78786,
              18.501261
            ],
            [
              73.78675,
              18.500238
            ],
            [
              73.785637,
              18.498129
            ],
            [
              73.786418,
              18.497687
            ],
            [
              73.786572,
              18.496129
            ],
            [
              73.785364,
              18.495129
            ],
            [
              73.786339,
              18.494129
            ],
            [
              73.786301,
              18.492129
            ],
            [
              73.787146,
              18.490842
            ],
            [
              73.786419,
              18.489569
            ],
            [
              73.784746,
              18.489242
            ],
            [
              73.78386,
              18.487536
            ],
            [
              73.78241,
              18.487678
            ],
            [
              73.782913,
              18.489129
            ],
            [
              73.781803,
              18.489185
            ],
            [
              73.781764,
              18.487033
            ],
            [
              73.78347,
              18.486129
            ],
            [
              73.78239,
              18.483598
            ],
            [
              73.780843,
              18.483129
            ],
            [
              73.781137,
              18.481129
            ],
            [
              73.77683,
              18.480158
            ],
            [
              73.776034,
              18.479129
            ],
            [
              73.77786,
              18.479004
            ],
            [
              73.77886,
              18.479862
            ],
            [
              73.78286,
              18.479691
            ],
            [
              73.78586,
              18.477596
            ],
            [
              73.78786,
              18.477563
            ],
            [
              73.78886,
              18.478503
            ],
            [
              73.79186,
              18.478457
            ],
            [
              73.794152,
              18.476129
            ],
            [
              73.790099,
              18.471889
            ],
            [
              73.788449,
              18.47154
            ],
            [
              73.786178,
              18.469811
            ],
            [
              73.78275,
              18.471238
            ],
            [
              73.783396,
              18.469129
            ],
            [
              73.78286,
              18.46705
            ],
            [
              73.77986,
              18.467437
            ],
            [
              73.777238,
              18.469129
            ],
            [
              73.77639,
              18.465659
            ],
            [
              73.779649,
              18.463918
            ],
            [
              73.779821,
              18.46209
            ],
            [
              73.78186,
              18.461941
            ],
            [
              73.78286,
              18.462879
            ],
            [
              73.784803,
              18.463072
            ],
            [
              73.78486,
              18.462429
            ],
            [
              73.78586,
              18.463742
            ],
            [
              73.78886,
              18.462952
            ],
            [
              73.791027,
              18.463961
            ],
            [
              73.79286,
              18.465888
            ],
            [
              73.79486,
              18.464639
            ],
            [
              73.796571,
              18.466417
            ],
            [
              73.800288,
              18.4677
            ],
            [
              73.801654,
              18.470334
            ],
            [
              73.803331,
              18.470657
            ],
            [
              73.80786,
              18.47439
            ],
            [
              73.808091,
              18.470898
            ],
            [
              73.806446,
              18.470543
            ],
            [
              73.803336,
              18.466129
            ],
            [
              73.804385,
              18.464129
            ],
            [
              73.803466,
              18.462129
            ],
            [
              73.805265,
              18.461534
            ],
            [
              73.80586,
              18.458689
            ],
            [
              73.807179,
              18.458809
            ],
            [
              73.80623,
              18.460129
            ],
            [
              73.80686,
              18.460786
            ],
            [
              73.807464,
              18.459732
            ],
            [
              73.81186,
              18.457329
            ],
            [
              73.813848,
              18.458129
            ],
            [
              73.814907,
              18.459129
            ],
            [
              73.814079,
              18.461129
            ],
            [
              73.815005,
              18.462129
            ],
            [
              73.814839,
              18.464129
            ],
            [
              73.81686,
              18.465274
            ],
            [
              73.81803,
              18.464129
            ],
            [
              73.818249,
              18.462517
            ],
            [
              73.819827,
              18.461129
            ],
            [
              73.819827,
              18.458096
            ],
            [
              73.821747,
              18.458016
            ],
            [
              73.82486,
              18.454821
            ],
            [
              73.827333,
              18.455655
            ],
            [
              73.827514,
              18.456129
            ],
            [
              73.826148,
              18.456417
            ],
            [
              73.826304,
              18.457684
            ],
            [
              73.827595,
              18.457864
            ],
            [
              73.82786,
              18.456668
            ],
            [
              73.829039,
              18.457129
            ],
            [
              73.82758,
              18.461129
            ],
            [
              73.82286,
              18.464688
            ],
            [
              73.82086,
              18.464625
            ],
            [
              73.81986,
              18.463759
            ],
            [
              73.819526,
              18.465462
            ],
            [
              73.82086,
              18.466763
            ],
            [
              73.824148,
              18.466841
            ],
            [
              73.824133,
              18.467402
            ],
            [
              73.822438,
              18.467706
            ],
            [
              73.822445,
              18.468543
            ],
            [
              73.825644,
              18.469913
            ],
            [
              73.82686,
              18.468633
            ],
            [
              73.829388,
              18.471129
            ],
            [
              73.828062,
              18.471331
            ],
            [
              73.825825,
              18.474129
            ],
            [
              73.826718,
              18.47527
            ],
            [
              73.829135,
              18.475853
            ],
            [
              73.830025,
              18.477963
            ],
            [
              73.831241,
              18.478747
            ],
            [
              73.831137,
              18.480129
            ],
            [
              73.827713,
              18.481129
            ],
            [
              73.827838,
              18.48215
            ],
            [
              73.829672,
              18.483129
            ],
            [
              73.828568,
              18.485129
            ],
            [
              73.830534,
              18.488454
            ],
            [
              73.832951,
              18.489129
            ],
            [
              73.834611,
              18.492129
            ],
            [
              73.831968,
              18.493237
            ],
            [
              73.831656,
              18.492333
            ],
            [
              73.830133,
              18.492402
            ],
            [
              73.82986,
              18.494942
            ],
            [
              73.828771,
              18.49404
            ],
            [
              73.828284,
              18.497129
            ],
            [
              73.830082,
              18.499129
            ],
            [
              73.829092,
              18.499361
            ],
            [
              73.82886,
              18.500646
            ],
            [
              73.82786,
              18.500281
            ],
            [
              73.82686,
              18.501332
            ],
            [
              73.82586,
              18.501295
            ],
            [
              73.825426,
              18.499129
            ],
            [
              73.824092,
              18.497896
            ],
            [
              73.82286,
              18.498966
            ],
            [
              73.82186,
              18.497875
            ],
            [
              73.819647,
              18.497916
            ],
            [
              73.819801,
              18.501188
            ],
            [
              73.82265,
              18.501338
            ],
            [
              73.824472,
              18.505129
            ],
            [
              73.823133,
              18.506402
            ],
            [
              73.821834,
              18.506103
            ],
            [
              73.821217,
              18.507129
            ],
            [
              73.818936,
              18.507204
            ],
            [
              73.81786,
              18.508419
            ]
          ]
        ],
        "type": "Polygon"
      },
      "type": "Feature"
    },
    {
      "properties": {
        "fill-opacity": 0.33,
        "fillColor": "#bf4040",
        "opacity": 0.33,
        "fill": "#bf4040",
        "fillOpacity": 0.33,
        "color": "#bf4040",
        "contour": 5.0,
        "metric": "distance",
        "provider_name": "Mumma's Food Corner",
        "zone_type": "distance",
        "distance_km": 5,
        "mode": "motorcycle",
        "center_lat": 18.480129,
        "center_lon": 73.8068601,
        "label": "5km"
      },
      "geometry": {
        "coordinates": [
          [
            [
              73.81486,
              18.515156
            ],
            [
              73.814148,
              18.512129
            ],
            [
              73.81186,
              18.511475
            ],
            [
              73.8122,
              18.510129
            ],
            [
              73.8107,
              18.509288
            ],
            [
              73.810958,
              18.50703
            ],
            [
              73.809756,
              18.507025
            ],
            [
              73.809136,
              18.509405
            ],
            [
              73.806918,
              18.509187
            ],
            [
              73.807645,
              18.508914
            ],
            [
              73.807418,
              18.50757
            ],
            [
              73.80386,
              18.50717
            ],
            [
              73.803725,
              18.506263
            ],
            [
              73.801141,
              18.507129
            ],
            [
              73.80065,
              18.505339
            ],
            [
              73.79886,
              18.505392
            ],
            [
              73.79486,
              18.502186
            ],
            [
              73.793387,
              18.503129
            ],
            [
              73.795227,
              18.504761
            ],
            [
              73.79486,
              18.50757
            ],
            [
              73.790838,
              18.508106
            ],
            [
              73.78986,
              18.50914
            ],
            [
              73.784689,
              18.507129
            ],
            [
              73.78586,
              18.505481
            ],
            [
              73.79086,
              18.504924
            ],
            [
              73.791361,
              18.504129
            ],
            [
              73.790147,
              18.501841
            ],
            [
              73.787425,
              18.501564
            ],
            [
              73.785281,
              18.498129
            ],
            [
              73.78632,
              18.497129
            ],
            [
              73.785195,
              18.495129
            ],
            [
              73.787153,
              18.491129
            ],
            [
              73.786249,
              18.48974
            ],
            [
              73.784598,
              18.489391
            ],
            [
              73.78386,
              18.487756
            ],
            [
              73.782444,
              18.488129
            ],
            [
              73.783069,
              18.489338
            ],
            [
              73.781611,
              18.489377
            ],
            [
              73.781556,
              18.486825
            ],
            [
              73.783239,
              18.486129
            ],
            [
              73.782149,
              18.48384
            ],
            [
              73.780583,
              18.483405
            ],
            [
              73.77986,
              18.481572
            ],
            [
              73.777688,
              18.483301
            ],
            [
              73.777463,
              18.481129
            ],
            [
              73.775212,
              18.478776
            ],
            [
              73.773585,
              18.478403
            ],
            [
              73.77334,
              18.476648
            ],
            [
              73.770444,
              18.472713
            ],
            [
              73.770814,
              18.472083
            ],
            [
              73.77286,
              18.472557
            ],
            [
              73.774476,
              18.477513
            ],
            [
              73.77886,
              18.479552
            ],
            [
              73.78286,
              18.479488
            ],
            [
              73.78586,
              18.477447
            ],
            [
              73.78786,
              18.477431
            ],
            [
              73.78886,
              18.478401
            ],
            [
              73.79186,
              18.478376
            ],
            [
              73.794086,
              18.476129
            ],
            [
              73.790036,
              18.471952
            ],
            [
              73.78586,
              18.469819
            ],
            [
              73.782496,
              18.471492
            ],
            [
              73.782308,
              18.470129
            ],
            [
              73.783209,
              18.469129
            ],
            [
              73.78286,
              18.467611
            ],
            [
              73.77986,
              18.46772
            ],
            [
              73.778207,
              18.469476
            ],
            [
              73.77586,
              18.470117
            ],
            [
              73.774961,
              18.470027
            ],
            [
              73.7748,
              18.469188
            ],
            [
              73.77286,
              18.469466
            ],
            [
              73.769548,
              18.46844
            ],
            [
              73.769262,
              18.467129
            ],
            [
              73.767689,
              18.466129
            ],
            [
              73.767672,
              18.463129
            ],
            [
              73.770396,
              18.463665
            ],
            [
              73.771095,
              18.459364
            ],
            [
              73.773078,
              18.459129
            ],
            [
              73.77381,
              18.460178
            ],
            [
              73.776745,
              18.461244
            ],
            [
              73.77886,
              18.463618
            ],
            [
              73.77986,
              18.461614
            ],
            [
              73.782342,
              18.461646
            ],
            [
              73.782572,
              18.462416
            ],
            [
              73.78386,
              18.462558
            ],
            [
              73.784209,
              18.461779
            ],
            [
              73.782395,
              18.461593
            ],
            [
              73.781471,
              18.458517
            ],
            [
              73.779764,
              18.457129
            ],
            [
              73.781644,
              18.456913
            ],
            [
              73.78186,
              18.456022
            ],
            [
              73.78286,
              18.456213
            ],
            [
              73.784555,
              18.458433
            ],
            [
              73.78586,
              18.458624
            ],
            [
              73.786768,
              18.456037
            ],
            [
              73.78786,
              18.455788
            ],
            [
              73.787556,
              18.458432
            ],
            [
              73.791022,
              18.460129
            ],
            [
              73.786438,
              18.461707
            ],
            [
              73.785583,
              18.463405
            ],
            [
              73.78886,
              18.46258
            ],
            [
              73.791241,
              18.463747
            ],
            [
              73.79286,
              18.46556
            ],
            [
              73.79486,
              18.464467
            ],
            [
              73.796658,
              18.46633
            ],
            [
              73.800351,
              18.467637
            ],
            [
              73.801703,
              18.470286
            ],
            [
              73.803406,
              18.470582
            ],
            [
              73.804716,
              18.472272
            ],
            [
              73.806437,
              18.472551
            ],
            [
              73.80786,
              18.474336
            ],
            [
              73.808031,
              18.470957
            ],
            [
              73.806376,
              18.470612
            ],
            [
              73.803182,
              18.466129
            ],
            [
              73.804204,
              18.464129
            ],
            [
              73.803237,
              18.462129
            ],
            [
              73.805177,
              18.460811
            ],
            [
              73.804039,
              18.458949
            ],
            [
              73.80186,
              18.458488
            ],
            [
              73.800708,
              18.457129
            ],
            [
              73.800903,
              18.456172
            ],
            [
              73.803604,
              18.455873
            ],
            [
              73.803937,
              18.454051
            ],
            [
              73.808308,
              18.454577
            ],
            [
              73.807627,
              18.451129
            ],
            [
              73.810315,
              18.449584
            ],
            [
              73.81086,
              18.448424
            ],
            [
              73.815999,
              18.452989
            ],
            [
              73.817129,
              18.453129
            ],
            [
              73.816137,
              18.454129
            ],
            [
              73.81686,
              18.455548
            ],
            [
              73.818622,
              18.455129
            ],
            [
              73.818329,
              18.454129
            ],
            [
              73.819604,
              18.452873
            ],
            [
              73.819778,
              18.451047
            ],
            [
              73.82186,
              18.451443
            ],
            [
              73.82286,
              18.449395
            ],
            [
              73.82486,
              18.449909
            ],
            [
              73.82586,
              18.448965
            ],
            [
              73.829131,
              18.448857
            ],
            [
              73.83086,
              18.449631
            ],
            [
              73.832202,
              18.44947
            ],
            [
              73.83286,
              18.44862
            ],
            [
              73.83386,
              18.448861
            ],
            [
              73.832163,
              18.451129
            ],
            [
              73.833264,
              18.452724
            ],
            [
              73.835158,
              18.453129
            ],
            [
              73.834734,
              18.454255
            ],
            [
              73.83686,
              18.453569
            ],
            [
              73.837936,
              18.454129
            ],
            [
              73.837897,
              18.455129
            ],
            [
              73.835286,
              18.457555
            ],
            [
              73.83386,
              18.457489
            ],
            [
              73.83286,
              18.459813
            ],
            [
              73.830597,
              18.460865
            ],
            [
              73.831261,
              18.46353
            ],
            [
              73.829084,
              18.465353
            ],
            [
              73.829019,
              18.467288
            ],
            [
              73.82784,
              18.468108
            ],
            [
              73.83186,
              18.468463
            ],
            [
              73.83286,
              18.467635
            ],
            [
              73.834364,
              18.467633
            ],
            [
              73.834913,
              18.465129
            ],
            [
              73.835211,
              18.467777
            ],
            [
              73.835938,
              18.468129
            ],
            [
              73.835883,
              18.469152
            ],
            [
              73.835632,
              18.468356
            ],
            [
              73.834147,
              18.469129
            ],
            [
              73.834939,
              18.471208
            ],
            [
              73.83086,
              18.471092
            ],
            [
              73.830558,
              18.471827
            ],
            [
              73.828725,
              18.471994
            ],
            [
              73.828549,
              18.473129
            ],
            [
              73.83086,
              18.473872
            ],
            [
              73.831791,
              18.47306
            ],
            [
              73.833054,
              18.473129
            ],
            [
              73.834438,
              18.47955
            ],
            [
              73.836119,
              18.480129
            ],
            [
              73.835999,
              18.482129
            ],
            [
              73.83386,
              18.483362
            ],
            [
              73.83086,
              18.483588
            ],
            [
              73.829308,
              18.485129
            ],
            [
              73.831315,
              18.487674
            ],
            [
              73.836368,
              18.490129
            ],
            [
              73.837004,
              18.490985
            ],
            [
              73.836256,
              18.492129
            ],
            [
              73.836481,
              18.493507
            ],
            [
              73.83986,
              18.493775
            ],
            [
              73.839912,
              18.496129
            ],
            [
              73.841694,
              18.498129
            ],
            [
              73.83886,
              18.49994
            ],
            [
              73.83486,
              18.49711
            ],
            [
              73.834269,
              18.498129
            ],
            [
              73.8352,
              18.501129
            ],
            [
              73.83486,
              18.502346
            ],
            [
              73.834618,
              18.50137
            ],
            [
              73.83286,
              18.500815
            ],
            [
              73.83186,
              18.502151
            ],
            [
              73.82986,
              18.50193
            ],
            [
              73.82986,
              18.503227
            ],
            [
              73.82786,
              18.503971
            ],
            [
              73.828586,
              18.504402
            ],
            [
              73.828731,
              18.506257
            ],
            [
              73.831779,
              18.507209
            ],
            [
              73.83286,
              18.508852
            ],
            [
              73.832452,
              18.509721
            ],
            [
              73.83063,
              18.510129
            ],
            [
              73.82986,
              18.511864
            ],
            [
              73.82786,
              18.511025
            ],
            [
              73.827185,
              18.507803
            ],
            [
              73.82586,
              18.507695
            ],
            [
              73.824407,
              18.508676
            ],
            [
              73.824341,
              18.511129
            ],
            [
              73.823074,
              18.512129
            ],
            [
              73.82286,
              18.513457
            ],
            [
              73.81986,
              18.512134
            ],
            [
              73.81486,
              18.515156
            ]
          ]
        ],
        "type": "Polygon"
      },
      "type": "Feature"
    },
    {
      "properties": {
        "fill-opacity": 0.33,
        "fillColor": "#bf4040",
        "opacity": 0.33,
        "fill": "#bf4040",
        "fillOpacity": 0.33,
        "color": "#bf4040",
        "contour": 6.0,
        "metric": "distance",
        "provider_name": "Mumma's Food Corner",
        "zone_type": "distance",
        "distance_km": 6,
        "mode": "motorcycle",
        "center_lat": 18.480129,
        "center_lon": 73.8068601,
        "label": "6km"
      },
      "geometry": {
        "coordinates": [
          [
            [
              73.82186,
              18.521182
            ],
            [
              73.820744,
              18.521129
            ],
            [
              73.821716,
              18.520985
            ],
            [
              73.82151,
              18.517129
            ],
            [
              73.822452,
              18.516129
            ],
            [
              73.82186,
              18.515557
            ],
            [
              73.81986,
              18.515157
            ],
            [
              73.818432,
              18.515701
            ],
            [
              73.818218,
              18.517129
            ],
            [
              73.819113,
              18.518129
            ],
            [
              73.817331,
              18.5196
            ],
            [
              73.81694,
              18.521209
            ],
            [
              73.815844,
              18.521144
            ],
            [
              73.812795,
              18.517129
            ],
            [
              73.813529,
              18.516797
            ],
            [
              73.813291,
              18.514697
            ],
            [
              73.80786,
              18.514633
            ],
            [
              73.80692,
              18.514068
            ],
            [
              73.806659,
              18.512329
            ],
            [
              73.805931,
              18.512129
            ],
            [
              73.807577,
              18.511129
            ],
            [
              73.807532,
              18.510129
            ],
            [
              73.806295,
              18.509129
            ],
            [
              73.807118,
              18.508387
            ],
            [
              73.80686,
              18.50777
            ],
            [
              73.80386,
              18.507812
            ],
            [
              73.80286,
              18.506936
            ],
            [
              73.80186,
              18.507945
            ],
            [
              73.79986,
              18.507555
            ],
            [
              73.797154,
              18.511129
            ],
            [
              73.795145,
              18.511414
            ],
            [
              73.79486,
              18.512151
            ],
            [
              73.79186,
              18.512304
            ],
            [
              73.79086,
              18.513472
            ],
            [
              73.788673,
              18.513315
            ],
            [
              73.788408,
              18.511129
            ],
            [
              73.78586,
              18.507899
            ],
            [
              73.783257,
              18.508526
            ],
            [
              73.782632,
              18.509356
            ],
            [
              73.77786,
              18.508359
            ],
            [
              73.77686,
              18.509249
            ],
            [
              73.775386,
              18.509129
            ],
            [
              73.776014,
              18.507129
            ],
            [
              73.77986,
              18.506831
            ],
            [
              73.78086,
              18.50577
            ],
            [
              73.78386,
              18.50581
            ],
            [
              73.78486,
              18.504743
            ],
            [
              73.787464,
              18.504129
            ],
            [
              73.787325,
              18.502663
            ],
            [
              73.785733,
              18.502255
            ],
            [
              73.784452,
              18.500129
            ],
            [
              73.78486,
              18.499732
            ],
            [
              73.78586,
              18.500347
            ],
            [
              73.785897,
              18.499091
            ],
            [
              73.784914,
              18.499075
            ],
            [
              73.785069,
              18.497338
            ],
            [
              73.78599,
              18.497129
            ],
            [
              73.785111,
              18.495129
            ],
            [
              73.787087,
              18.491129
            ],
            [
              73.786116,
              18.489873
            ],
            [
              73.784449,
              18.489539
            ],
            [
              73.78386,
              18.487857
            ],
            [
              73.782566,
              18.488129
            ],
            [
              73.783243,
              18.489512
            ],
            [
              73.781419,
              18.489569
            ],
            [
              73.781325,
              18.486594
            ],
            [
              73.783135,
              18.486129
            ],
            [
              73.782061,
              18.483927
            ],
            [
              73.780377,
              18.483611
            ],
            [
              73.780187,
              18.481801
            ],
            [
              73.77786,
              18.483992
            ],
            [
              73.777027,
              18.483961
            ],
            [
              73.776078,
              18.47991
            ],
            [
              73.77344,
              18.478548
            ],
            [
              73.77312,
              18.476868
            ],
            [
              73.772024,
              18.477129
            ],
            [
              73.77186,
              18.478274
            ],
            [
              73.771488,
              18.4775
            ],
            [
              73.76586,
              18.477244
            ],
            [
              73.765723,
              18.476265
            ],
            [
              73.764191,
              18.475129
            ],
            [
              73.76486,
              18.474574
            ],
            [
              73.76686,
              18.474921
            ],
            [
              73.767504,
              18.474129
            ],
            [
              73.76586,
              18.472373
            ],
            [
              73.764583,
              18.473405
            ],
            [
              73.763735,
              18.471253
            ],
            [
              73.764566,
              18.470835
            ],
            [
              73.764353,
              18.469635
            ],
            [
              73.762177,
              18.469446
            ],
            [
              73.76186,
              18.470712
            ],
            [
              73.761145,
              18.469129
            ],
            [
              73.761581,
              18.466407
            ],
            [
              73.760415,
              18.466129
            ],
            [
              73.76086,
              18.46501
            ],
            [
              73.76186,
              18.465712
            ],
            [
              73.762416,
              18.465129
            ],
            [
              73.760041,
              18.461129
            ],
            [
              73.76086,
              18.459557
            ],
            [
              73.76286,
              18.460585
            ],
            [
              73.763376,
              18.461612
            ],
            [
              73.764299,
              18.461568
            ],
            [
              73.76386,
              18.458307
            ],
            [
              73.765545,
              18.458129
            ],
            [
              73.764123,
              18.456129
            ],
            [
              73.765805,
              18.455074
            ],
            [
              73.76586,
              18.452851
            ],
            [
              73.76686,
              18.452243
            ],
            [
              73.767017,
              18.452971
            ],
            [
              73.769993,
              18.453995
            ],
            [
              73.771496,
              18.457492
            ],
            [
              73.77486,
              18.459641
            ],
            [
              73.776293,
              18.459696
            ],
            [
              73.77886,
              18.463457
            ],
            [
              73.779411,
              18.46168
            ],
            [
              73.782203,
              18.461472
            ],
            [
              73.781158,
              18.458831
            ],
            [
              73.776462,
              18.459526
            ],
            [
              73.777249,
              18.456739
            ],
            [
              73.77386,
              18.456383
            ],
            [
              73.772695,
              18.454293
            ],
            [
              73.771856,
              18.454129
            ],
            [
              73.77286,
              18.453592
            ],
            [
              73.77586,
              18.454355
            ],
            [
              73.77486,
              18.452928
            ],
            [
              73.778345,
              18.453614
            ],
            [
              73.778641,
              18.451347
            ],
            [
              73.777849,
              18.451139
            ],
            [
              73.77786,
              18.450524
            ],
            [
              73.777881,
              18.451107
            ],
            [
              73.779946,
              18.451043
            ],
            [
              73.780198,
              18.451791
            ],
            [
              73.783089,
              18.451899
            ],
            [
              73.783466,
              18.453523
            ],
            [
              73.78486,
              18.454741
            ],
            [
              73.78586,
              18.453731
            ],
            [
              73.789114,
              18.453383
            ],
            [
              73.78986,
              18.452471
            ],
            [
              73.79686,
              18.451962
            ],
            [
              73.799686,
              18.453302
            ],
            [
              73.80086,
              18.452444
            ],
            [
              73.802244,
              18.453744
            ],
            [
              73.80286,
              18.455588
            ],
            [
              73.803464,
              18.453733
            ],
            [
              73.80732,
              18.453589
            ],
            [
              73.807349,
              18.452129
            ],
            [
              73.806435,
              18.451129
            ],
            [
              73.806311,
              18.447677
            ],
            [
              73.80286,
              18.448265
            ],
            [
              73.802302,
              18.447129
            ],
            [
              73.80386,
              18.445582
            ],
            [
              73.807322,
              18.445591
            ],
            [
              73.807357,
              18.444631
            ],
            [
              73.80656,
              18.444129
            ],
            [
              73.808309,
              18.443578
            ],
            [
              73.808672,
              18.441316
            ],
            [
              73.807847,
              18.441129
            ],
            [
              73.8087,
              18.440969
            ],
            [
              73.80886,
              18.440087
            ],
            [
              73.813246,
              18.441129
            ],
            [
              73.812921,
              18.443067
            ],
            [
              73.81386,
              18.443675
            ],
            [
              73.813893,
              18.445095
            ],
            [
              73.816823,
              18.445129
            ],
            [
              73.817189,
              18.446129
            ],
            [
              73.81886,
              18.446534
            ],
            [
              73.819467,
              18.447521
            ],
            [
              73.822208,
              18.44778
            ],
            [
              73.82386,
              18.449307
            ],
            [
              73.824946,
              18.449214
            ],
            [
              73.825759,
              18.448129
            ],
            [
              73.82457,
              18.445839
            ],
            [
              73.82786,
              18.443563
            ],
            [
              73.829615,
              18.444373
            ],
            [
              73.83186,
              18.443375
            ],
            [
              73.833611,
              18.444129
            ],
            [
              73.83486,
              18.445723
            ],
            [
              73.835361,
              18.444627
            ],
            [
              73.833996,
              18.444129
            ],
            [
              73.836526,
              18.441795
            ],
            [
              73.83886,
              18.441268
            ],
            [
              73.839804,
              18.442129
            ],
            [
              73.838402,
              18.447586
            ],
            [
              73.842314,
              18.448129
            ],
            [
              73.844428,
              18.45156
            ],
            [
              73.846635,
              18.451353
            ],
            [
              73.84686,
              18.452862
            ],
            [
              73.845372,
              18.454641
            ],
            [
              73.845461,
              18.456129
            ],
            [
              73.84386,
              18.458593
            ],
            [
              73.84186,
              18.460716
            ],
            [
              73.83986,
              18.459813
            ],
            [
              73.83967,
              18.463129
            ],
            [
              73.83794,
              18.464209
            ],
            [
              73.83686,
              18.465995
            ],
            [
              73.83586,
              18.465948
            ],
            [
              73.836572,
              18.469129
            ],
            [
              73.835464,
              18.469733
            ],
            [
              73.835214,
              18.471483
            ],
            [
              73.83186,
              18.471651
            ],
            [
              73.831345,
              18.472614
            ],
            [
              73.829234,
              18.473129
            ],
            [
              73.83086,
              18.473555
            ],
            [
              73.831371,
              18.47264
            ],
            [
              73.83786,
              18.472816
            ],
            [
              73.840113,
              18.475129
            ],
            [
              73.83986,
              18.476347
            ],
            [
              73.835495,
              18.475764
            ],
            [
              73.834483,
              18.479129
            ],
            [
              73.836243,
              18.479746
            ],
            [
              73.836218,
              18.482487
            ],
            [
              73.83386,
              18.483695
            ],
            [
              73.83086,
              18.483778
            ],
            [
              73.829504,
              18.485129
            ],
            [
              73.831567,
              18.487421
            ],
            [
              73.83386,
              18.488617
            ],
            [
              73.83486,
              18.488163
            ],
            [
              73.83586,
              18.488938
            ],
            [
              73.83786,
              18.488832
            ],
            [
              73.83886,
              18.48788
            ],
            [
              73.84002,
              18.487968
            ],
            [
              73.840305,
              18.492129
            ],
            [
              73.842104,
              18.493884
            ],
            [
              73.842455,
              18.495533
            ],
            [
              73.84586,
              18.499029
            ],
            [
              73.84989,
              18.500099
            ],
            [
              73.849778,
              18.501129
            ],
            [
              73.84786,
              18.502715
            ],
            [
              73.847448,
              18.50154
            ],
            [
              73.846382,
              18.501651
            ],
            [
              73.846205,
              18.502783
            ],
            [
              73.847198,
              18.503129
            ],
            [
              73.847171,
              18.504129
            ],
            [
              73.84518,
              18.504449
            ],
            [
              73.84486,
              18.505207
            ],
            [
              73.844273,
              18.503715
            ],
            [
              73.84186,
              18.502743
            ],
            [
              73.838903,
              18.503129
            ],
            [
              73.840167,
              18.505129
            ],
            [
              73.838773,
              18.506215
            ],
            [
              73.83786,
              18.506469
            ],
            [
              73.837524,
              18.505465
            ],
            [
              73.835438,
              18.504707
            ],
            [
              73.835257,
              18.506732
            ],
            [
              73.837014,
              18.507975
            ],
            [
              73.838079,
              18.509909
            ],
            [
              73.839663,
              18.510129
            ],
            [
              73.839761,
              18.512228
            ],
            [
              73.84086,
              18.512328
            ],
            [
              73.84086,
              18.513795
            ],
            [
              73.839496,
              18.513765
            ],
            [
              73.83386,
              18.517801
            ],
            [
              73.831804,
              18.516073
            ],
            [
              73.831634,
              18.517129
            ],
            [
              73.830331,
              18.518129
            ],
            [
              73.830982,
              18.520129
            ],
            [
              73.830084,
              18.520352
            ],
            [
              73.82779,
              18.518198
            ],
            [
              73.828283,
              18.515705
            ],
            [
              73.82686,
              18.515457
            ],
            [
              73.82586,
              18.516347
            ],
            [
              73.824737,
              18.516251
            ],
            [
              73.824611,
              18.514129
            ],
            [
              73.82386,
              18.513442
            ],
            [
              73.823231,
              18.517129
            ],
            [
              73.822185,
              18.518129
            ],
            [
              73.822267,
              18.519721
            ],
            [
              73.822977,
              18.520129
            ],
            [
              73.82186,
              18.521182
            ]
          ]
        ],
        "type": "Polygon"
      },
      "type": "Feature"
    }
  ]
}