{
  "type": "FeatureCollection",
  "metadata": {
    "provider_name": "Night Kitchen",
    "center_lat": 17.44182303,
    "center_lon": 78.36551405,
    "mode": "motorcycle",
    "total_zones": 4,
    "distance_zones": [
      3,
      4,
      5,
      6
    ],
    "generated_at": "2025-12-29T07:04:58.050505Z"
  },
  "features": [
    {
      "properties": {
        "fill-opacity": 0.33,
        "fillColor": "#bf4040",
        "opacity": 0.33,
        "fill": "#bf4040",
        "fillOpacity": 0.33,
        "color": "#bf4040",
        "contour": 3.0,
        "metric": "distance",
        "provider_name": "Night Kitchen",
        "zone_type": "distance",
        "distance_km": 3,
        "mode": "motorcycle",
        "center_lat": 17.44182303,
        "center_lon": 78.36551405,
        "label": "3km"
      },
      "geometry": {
        "coordinates": [
          [
            [
              78.367514,
              17.46209
            ],
            [
              78.365514,
              17.461695
            ],
            [
              78.365162,
              17.460175
            ],
            [
              78.363571,
              17.45988
            ],
            [
              78.363514,
              17.460738
            ],
            [
              78.361514,
              17.457176
            ],
            [
              78.360076,
              17.457385
            ],
            [
              78.358514,
              17.458945
            ],
            [
              78.356691,
              17.458823
            ],
            [
              78.359046,
              17.457355
            ],
            [
              78.359346,
              17.45499
            ],
            [
              78.358514,
              17.454762
            ],
            [
              78.361193,
              17.454502
            ],
            [
              78.36166,
              17.453676
            ],
            [
              78.361797,
              17.454539
            ],
            [
              78.362907,
              17.454216
            ],
            [
              78.361854,
              17.452482
            ],
            [
              78.359514,
              17.451212
            ],
            [
              78.353514,
              17.450962
            ],
            [
              78.352514,
              17.451907
            ],
            [
              78.351464,
              17.451872
            ],
            [
              78.350403,
              17.449933
            ],
            [
              78.348829,
              17.450138
            ],
            [
              78.347514,
              17.451431
            ],
            [
              78.345167,
              17.450823
            ],
            [
              78.346007,
              17.449316
            ],
            [
              78.345548,
              17.445823
            ],
            [
              78.346475,
              17.444784
            ],
            [
              78.347514,
              17.445588
            ],
            [
              78.34821,
              17.444823
            ],
            [
              78.34722,
              17.443823
            ],
            [
              78.347171,
              17.44248
            ],
            [
              78.348514,
              17.442036
            ],
            [
              78.349514,
              17.44347
            ],
            [
              78.350083,
              17.442823
            ],
            [
              78.347148,
              17.440823
            ],
            [
              78.348221,
              17.44053
            ],
            [
              78.348346,
              17.43799
            ],
            [
              78.347363,
              17.437823
            ],
            [
              78.347441,
              17.43675
            ],
            [
              78.350042,
              17.436351
            ],
            [
              78.353514,
              17.434354
            ],
            [
              78.355514,
              17.43635
            ],
            [
              78.356514,
              17.435253
            ],
            [
              78.358514,
              17.435243
            ],
            [
              78.359761,
              17.43407
            ],
            [
              78.358894,
              17.432823
            ],
            [
              78.359078,
              17.429823
            ],
            [
              78.35796,
              17.428823
            ],
            [
              78.358148,
              17.426823
            ],
            [
              78.357177,
              17.425823
            ],
            [
              78.357153,
              17.421823
            ],
            [
              78.356208,
              17.420823
            ],
            [
              78.356255,
              17.419564
            ],
            [
              78.357514,
              17.418507
            ],
            [
              78.358731,
              17.418823
            ],
            [
              78.357625,
              17.418934
            ],
            [
              78.357772,
              17.424823
            ],
            [
              78.358909,
              17.425823
            ],
            [
              78.359017,
              17.427823
            ],
            [
              78.360076,
              17.428823
            ],
            [
              78.360129,
              17.431823
            ],
            [
              78.361228,
              17.432823
            ],
            [
              78.361325,
              17.434011
            ],
            [
              78.363137,
              17.435199
            ],
            [
              78.363514,
              17.436846
            ],
            [
              78.364546,
              17.436855
            ],
            [
              78.364633,
              17.435942
            ],
            [
              78.365532,
              17.435804
            ],
            [
              78.365616,
              17.431823
            ],
            [
              78.366627,
              17.429823
            ],
            [
              78.365748,
              17.427823
            ],
            [
              78.366553,
              17.427784
            ],
            [
              78.368514,
              17.429547
            ],
            [
              78.369514,
              17.428528
            ],
            [
              78.371857,
              17.428166
            ],
            [
              78.371133,
              17.426823
            ],
            [
              78.371514,
              17.421006
            ],
            [
              78.371865,
              17.425823
            ],
            [
              78.373519,
              17.426817
            ],
            [
              78.375021,
              17.42633
            ],
            [
              78.375473,
              17.424823
            ],
            [
              78.37654,
              17.424797
            ],
            [
              78.376678,
              17.425658
            ],
            [
              78.378228,
              17.425537
            ],
            [
              78.379457,
              17.423766
            ],
            [
              78.381418,
              17.423727
            ],
            [
              78.381493,
              17.422802
            ],
            [
              78.382479,
              17.422823
            ],
            [
              78.38166,
              17.422969
            ],
            [
              78.381589,
              17.423898
            ],
            [
              78.378969,
              17.426823
            ],
            [
              78.378514,
              17.430079
            ],
            [
              78.377976,
              17.427361
            ],
            [
              78.376165,
              17.428474
            ],
            [
              78.376261,
              17.430823
            ],
            [
              78.375164,
              17.432823
            ],
            [
              78.377864,
              17.433823
            ],
            [
              78.377137,
              17.438199
            ],
            [
              78.377921,
              17.43823
            ],
            [
              78.378403,
              17.436712
            ],
            [
              78.381289,
              17.436598
            ],
            [
              78.382514,
              17.435002
            ],
            [
              78.382901,
              17.437823
            ],
            [
              78.381514,
              17.440344
            ],
            [
              78.37843,
              17.441739
            ],
            [
              78.377514,
              17.447039
            ],
            [
              78.374514,
              17.445122
            ],
            [
              78.372189,
              17.445498
            ],
            [
              78.36947,
              17.447779
            ],
            [
              78.369514,
              17.448681
            ],
            [
              78.371349,
              17.449823
            ],
            [
              78.369514,
              17.452267
            ],
            [
              78.36824,
              17.451549
            ],
            [
              78.368093,
              17.452823
            ],
            [
              78.369279,
              17.454823
            ],
            [
              78.367675,
              17.455984
            ],
            [
              78.366514,
              17.455375
            ],
            [
              78.365393,
              17.455823
            ],
            [
              78.367076,
              17.45826
            ],
            [
              78.36929,
              17.458598
            ],
            [
              78.369514,
              17.457914
            ],
            [
              78.369822,
              17.458515
            ],
            [
              78.368514,
              17.459604
            ],
            [
              78.367112,
              17.459421
            ],
            [
              78.366763,
              17.461573
            ],
            [
              78.367514,
              17.46209
            ]
          ]
        ],
        "type": "Polygon"
      },
      "type": "Feature"
    },
    {
      "properties": {
        "fill-opacity": 0.33,
        "fillColor": "#bf4040",
        "opacity": 0.33,
        "fill": "#bf4040",
        "fillOpacity": 0.33,
        "color": "#bf4040",
        "contour": 4.0,
        "metric": "distance",
        "provider_name": "Night Kitchen",
        "zone_type": "distance",
        "distance_km": 4,
        "mode": "motorcycle",
        "center_lat": 17.44182303,
        "center_lon": 78.36551405,
        "label": "4km"
      },
      "geometry": {
        "coordinates": [
          [
            [
              78.365514,
              17.470833
            ],
            [
              78.363872,
              17.467464
            ],
            [
              78.362514,
              17.467839
            ],
            [
              78.359628,
              17.465823
            ],
            [
              78.360837,
              17.463823
            ],
            [
              78.359972,
              17.462823
            ],
            [
              78.360229,
              17.461107
            ],
            [
              78.35901,
              17.461319
            ],
            [
              78.358514,
              17.46326
            ],
            [
              78.356514,
              17.460385
            ],
            [
              78.353272,
              17.461581
            ],
            [
              78.350514,
              17.463744
            ],
            [
              78.349514,
              17.463875
            ],
            [
              78.348237,
              17.462823
            ],
            [
              78.350081,
              17.457823
            ],
            [
              78.352146,
              17.456455
            ],
            [
              78.352344,
              17.454992
            ],
            [
              78.351477,
              17.454786
            ],
            [
              78.352514,
              17.454198
            ],
            [
              78.352846,
              17.45549
            ],
            [
              78.353514,
              17.455574
            ],
            [
              78.355514,
              17.45343
            ],
            [
              78.358514,
              17.453336
            ],
            [
              78.359182,
              17.454154
            ],
            [
              78.360514,
              17.454266
            ],
            [
              78.361844,
              17.452823
            ],
            [
              78.359514,
              17.451443
            ],
            [
              78.353514,
              17.451458
            ],
            [
              78.349514,
              17.454169
            ],
            [
              78.346514,
              17.454204
            ],
            [
              78.345898,
              17.452438
            ],
            [
              78.344514,
              17.452296
            ],
            [
              78.34307,
              17.453379
            ],
            [
              78.342689,
              17.454998
            ],
            [
              78.33913,
              17.457823
            ],
            [
              78.339129,
              17.455823
            ],
            [
              78.341756,
              17.454065
            ],
            [
              78.342158,
              17.452467
            ],
            [
              78.345023,
              17.449823
            ],
            [
              78.342078,
              17.446259
            ],
            [
              78.340443,
              17.445894
            ],
            [
              78.340367,
              17.443969
            ],
            [
              78.339291,
              17.443823
            ],
            [
              78.342949,
              17.442258
            ],
            [
              78.342873,
              17.440823
            ],
            [
              78.344799,
              17.440108
            ],
            [
              78.345064,
              17.439373
            ],
            [
              78.346514,
              17.439297
            ],
            [
              78.347514,
              17.440312
            ],
            [
              78.347916,
              17.439823
            ],
            [
              78.347791,
              17.438545
            ],
            [
              78.346514,
              17.438194
            ],
            [
              78.34503,
              17.438339
            ],
            [
              78.344877,
              17.439186
            ],
            [
              78.342291,
              17.438823
            ],
            [
              78.344175,
              17.438484
            ],
            [
              78.343941,
              17.436396
            ],
            [
              78.342514,
              17.435077
            ],
            [
              78.340416,
              17.43492
            ],
            [
              78.342478,
              17.433787
            ],
            [
              78.342487,
              17.431796
            ],
            [
              78.342652,
              17.432684
            ],
            [
              78.344218,
              17.432527
            ],
            [
              78.34431,
              17.431026
            ],
            [
              78.34251,
              17.429826
            ],
            [
              78.342754,
              17.429063
            ],
            [
              78.345514,
              17.430582
            ],
            [
              78.346025,
              17.432311
            ],
            [
              78.348514,
              17.434057
            ],
            [
              78.349991,
              17.4333
            ],
            [
              78.350514,
              17.431745
            ],
            [
              78.351514,
              17.43263
            ],
            [
              78.352703,
              17.431633
            ],
            [
              78.354032,
              17.432305
            ],
            [
              78.354379,
              17.434823
            ],
            [
              78.355383,
              17.435953
            ],
            [
              78.356514,
              17.435123
            ],
            [
              78.358714,
              17.435023
            ],
            [
              78.359473,
              17.433823
            ],
            [
              78.356376,
              17.421823
            ],
            [
              78.354957,
              17.421266
            ],
            [
              78.354514,
              17.422492
            ],
            [
              78.349472,
              17.420823
            ],
            [
              78.351282,
              17.417823
            ],
            [
              78.35312,
              17.417429
            ],
            [
              78.352887,
              17.414823
            ],
            [
              78.353514,
              17.41393
            ],
            [
              78.354514,
              17.414555
            ],
            [
              78.35533,
              17.413639
            ],
            [
              78.355514,
              17.410855
            ],
            [
              78.356031,
              17.414306
            ],
            [
              78.357008,
              17.414317
            ],
            [
              78.357514,
              17.412578
            ],
            [
              78.359304,
              17.412823
            ],
            [
              78.360127,
              17.417209
            ],
            [
              78.363514,
              17.41658
            ],
            [
              78.364514,
              17.417454
            ],
            [
              78.367983,
              17.417823
            ],
            [
              78.367472,
              17.418823
            ],
            [
              78.364696,
              17.420005
            ],
            [
              78.364514,
              17.420816
            ],
            [
              78.36429,
              17.418823
            ],
            [
              78.36312,
              17.418429
            ],
            [
              78.362921,
              17.42123
            ],
            [
              78.360514,
              17.421111
            ],
            [
              78.359514,
              17.419295
            ],
            [
              78.358052,
              17.419823
            ],
            [
              78.358096,
              17.424823
            ],
            [
              78.359343,
              17.425823
            ],
            [
              78.359451,
              17.427823
            ],
            [
              78.361514,
              17.427341
            ],
            [
              78.363514,
              17.428117
            ],
            [
              78.362754,
              17.429823
            ],
            [
              78.363514,
              17.430511
            ],
            [
              78.364913,
              17.429222
            ],
            [
              78.365514,
              17.427175
            ],
            [
              78.367026,
              17.42731
            ],
            [
              78.368561,
              17.42887
            ],
            [
              78.370925,
              17.424823
            ],
            [
              78.370514,
              17.421288
            ],
            [
              78.369514,
              17.422262
            ],
            [
              78.367047,
              17.422356
            ],
            [
              78.366514,
              17.423187
            ],
            [
              78.364514,
              17.423129
            ],
            [
              78.364176,
              17.422485
            ],
            [
              78.365514,
              17.422587
            ],
            [
              78.369514,
              17.420151
            ],
            [
              78.371766,
              17.420075
            ],
            [
              78.371112,
              17.418421
            ],
            [
              78.372966,
              17.419823
            ],
            [
              78.372032,
              17.421823
            ],
            [
              78.37212,
              17.425823
            ],
            [
              78.372819,
              17.426128
            ],
            [
              78.373514,
              17.425349
            ],
            [
              78.374514,
              17.426271
            ],
            [
              78.375288,
              17.424597
            ],
            [
              78.376514,
              17.424499
            ],
            [
              78.377514,
              17.425399
            ],
            [
              78.379232,
              17.423541
            ],
            [
              78.383899,
              17.421208
            ],
            [
              78.386347,
              17.418656
            ],
            [
              78.388688,
              17.417648
            ],
            [
              78.390173,
              17.417823
            ],
            [
              78.388514,
              17.420134
            ],
            [
              78.386514,
              17.420145
            ],
            [
              78.384795,
              17.422104
            ],
            [
              78.382191,
              17.4235
            ],
            [
              78.380338,
              17.425998
            ],
            [
              78.380659,
              17.427677
            ],
            [
              78.382514,
              17.427649
            ],
            [
              78.384121,
              17.429823
            ],
            [
              78.383128,
              17.430823
            ],
            [
              78.382514,
              17.433481
            ],
            [
              78.381025,
              17.433334
            ],
            [
              78.379184,
              17.436152
            ],
            [
              78.380782,
              17.436091
            ],
            [
              78.382514,
              17.433877
            ],
            [
              78.383572,
              17.433881
            ],
            [
              78.387514,
              17.430615
            ],
            [
              78.390679,
              17.431823
            ],
            [
              78.388904,
              17.432213
            ],
            [
              78.388156,
              17.435823
            ],
            [
              78.387081,
              17.436823
            ],
            [
              78.386916,
              17.439225
            ],
            [
              78.385755,
              17.439823
            ],
            [
              78.386666,
              17.442823
            ],
            [
              78.385514,
              17.44602
            ],
            [
              78.383514,
              17.44714
            ],
            [
              78.382311,
              17.446823
            ],
            [
              78.381731,
              17.445605
            ],
            [
              78.378333,
              17.445642
            ],
            [
              78.379349,
              17.447987
            ],
            [
              78.382965,
              17.449371
            ],
            [
              78.382376,
              17.451823
            ],
            [
              78.383738,
              17.452823
            ],
            [
              78.383391,
              17.4537
            ],
            [
              78.382514,
              17.454065
            ],
            [
              78.380514,
              17.453242
            ],
            [
              78.378538,
              17.453823
            ],
            [
              78.378179,
              17.449823
            ],
            [
              78.377514,
              17.448994
            ],
            [
              78.375066,
              17.449375
            ],
            [
              78.373514,
              17.45284
            ],
            [
              78.372514,
              17.451139
            ],
            [
              78.370514,
              17.452133
            ],
            [
              78.371315,
              17.454022
            ],
            [
              78.372929,
              17.454407
            ],
            [
              78.373514,
              17.45691
            ],
            [
              78.374732,
              17.457041
            ],
            [
              78.375407,
              17.455716
            ],
            [
              78.377514,
              17.45494
            ],
            [
              78.377514,
              17.458502
            ],
            [
              78.377229,
              17.457107
            ],
            [
              78.376514,
              17.457045
            ],
            [
              78.375753,
              17.458062
            ],
            [
              78.374081,
              17.45839
            ],
            [
              78.373684,
              17.459993
            ],
            [
              78.371855,
              17.461823
            ],
            [
              78.371855,
              17.464481
            ],
            [
              78.372838,
              17.464823
            ],
            [
              78.37295,
              17.466259
            ],
            [
              78.371514,
              17.466988
            ],
            [
              78.369022,
              17.466331
            ],
            [
              78.365869,
              17.469178
            ],
            [
              78.365514,
              17.470833
            ]
          ]
        ],
        "type": "Polygon"
      },
      "type": "Feature"
    },
    {
      "properties": {
        "fill-opacity": 0.33,
        "fillColor": "#bf4040",
        "opacity": 0.33,
        "fill": "#bf4040",
        "fillOpacity": 0.33,
        "color": "#bf4040",
        "contour": 5.0,
        "metric": "distance",
        "provider_name": "Night Kitchen",
        "zone_type": "distance",
        "distance_km": 5,
        "mode": "motorcycle",
        "center_lat": 17.44182303,
        "center_lon": 78.36551405,
        "label": "5km"
      },
      "geometry": {
        "coordinates": [
          [
            [
              78.361514,
              17.479121
            ],
            [
              78.358269,
              17.473823
            ],
            [
              78.358514,
              17.472205
            ],
            [
              78.35563,
              17.469823
            ],
            [
              78.356833,
              17.467504
            ],
            [
              78.353514,
              17.47016
            ],
            [
              78.35084,
              17.467496
            ],
            [
              78.349197,
              17.467506
            ],
            [
              78.349514,
              17.47108
            ],
            [
              78.348165,
              17.470171
            ],
            [
              78.347676,
              17.46866
            ],
            [
              78.346316,
              17.46902
            ],
            [
              78.345023,
              17.468313
            ],
            [
              78.340555,
              17.463781
            ],
            [
              78.339514,
              17.46429
            ],
            [
              78.338231,
              17.463105
            ],
            [
              78.336748,
              17.463057
            ],
            [
              78.336514,
              17.463779
            ],
            [
              78.335117,
              17.463426
            ],
            [
              78.334807,
              17.464823
            ],
            [
              78.333514,
              17.465035
            ],
            [
              78.333397,
              17.464823
            ],
            [
              78.334162,
              17.464471
            ],
            [
              78.334198,
              17.463823
            ],
            [
              78.333076,
              17.462823
            ],
            [
              78.33338,
              17.459956
            ],
            [
              78.332085,
              17.459823
            ],
            [
              78.334514,
              17.45972
            ],
            [
              78.335514,
              17.461519
            ],
            [
              78.33884,
              17.457149
            ],
            [
              78.336172,
              17.452823
            ],
            [
              78.336514,
              17.450548
            ],
            [
              78.337083,
              17.452253
            ],
            [
              78.339514,
              17.451577
            ],
            [
              78.340514,
              17.452462
            ],
            [
              78.341369,
              17.450678
            ],
            [
              78.343514,
              17.450653
            ],
            [
              78.344547,
              17.449823
            ],
            [
              78.341703,
              17.446633
            ],
            [
              78.340125,
              17.446211
            ],
            [
              78.339819,
              17.444518
            ],
            [
              78.336239,
              17.444097
            ],
            [
              78.334963,
              17.440373
            ],
            [
              78.332914,
              17.438823
            ],
            [
              78.338456,
              17.437765
            ],
            [
              78.338044,
              17.436293
            ],
            [
              78.335428,
              17.435823
            ],
            [
              78.335863,
              17.434823
            ],
            [
              78.337514,
              17.435599
            ],
            [
              78.33816,
              17.434823
            ],
            [
              78.33728,
              17.432823
            ],
            [
              78.337392,
              17.430944
            ],
            [
              78.336514,
              17.430533
            ],
            [
              78.337935,
              17.430823
            ],
            [
              78.339514,
              17.431613
            ],
            [
              78.338751,
              17.43206
            ],
            [
              78.339514,
              17.433419
            ],
            [
              78.340514,
              17.432423
            ],
            [
              78.341842,
              17.433151
            ],
            [
              78.342514,
              17.431336
            ],
            [
              78.34383,
              17.432139
            ],
            [
              78.34195,
              17.429823
            ],
            [
              78.340071,
              17.42538
            ],
            [
              78.340944,
              17.425392
            ],
            [
              78.342514,
              17.427362
            ],
            [
              78.343514,
              17.426194
            ],
            [
              78.345971,
              17.426366
            ],
            [
              78.346279,
              17.426823
            ],
            [
              78.344864,
              17.427823
            ],
            [
              78.345514,
              17.42942
            ],
            [
              78.346514,
              17.428513
            ],
            [
              78.34806,
              17.428369
            ],
            [
              78.349517,
              17.426819
            ],
            [
              78.349514,
              17.429274
            ],
            [
              78.350514,
              17.429196
            ],
            [
              78.351514,
              17.430413
            ],
            [
              78.354514,
              17.430031
            ],
            [
              78.355788,
              17.431548
            ],
            [
              78.354989,
              17.432823
            ],
            [
              78.355514,
              17.435469
            ],
            [
              78.358754,
              17.434823
            ],
            [
              78.357726,
              17.42761
            ],
            [
              78.356975,
              17.426361
            ],
            [
              78.355333,
              17.426003
            ],
            [
              78.354881,
              17.423456
            ],
            [
              78.353514,
              17.423272
            ],
            [
              78.352101,
              17.42441
            ],
            [
              78.352776,
              17.426085
            ],
            [
              78.349514,
              17.425014
            ],
            [
              78.348661,
              17.42597
            ],
            [
              78.346514,
              17.426305
            ],
            [
              78.345514,
              17.424259
            ],
            [
              78.342514,
              17.425471
            ],
            [
              78.342395,
              17.424941
            ],
            [
              78.345213,
              17.421823
            ],
            [
              78.34523,
              17.420539
            ],
            [
              78.348907,
              17.420216
            ],
            [
              78.349126,
              17.416823
            ],
            [
              78.348514,
              17.416159
            ],
            [
              78.347514,
              17.41752
            ],
            [
              78.344377,
              17.417823
            ],
            [
              78.345435,
              17.414823
            ],
            [
              78.347145,
              17.414454
            ],
            [
              78.347514,
              17.412295
            ],
            [
              78.349244,
              17.411553
            ],
            [
              78.349514,
              17.410147
            ],
            [
              78.350891,
              17.410823
            ],
            [
              78.350584,
              17.412823
            ],
            [
              78.352148,
              17.414188
            ],
            [
              78.353016,
              17.413823
            ],
            [
              78.353233,
              17.410823
            ],
            [
              78.354139,
              17.409823
            ],
            [
              78.353514,
              17.402082
            ],
            [
              78.355185,
              17.406151
            ],
            [
              78.358514,
              17.405745
            ],
            [
              78.358731,
              17.407823
            ],
            [
              78.359514,
              17.408544
            ],
            [
              78.361514,
              17.406946
            ],
            [
              78.361971,
              17.407365
            ],
            [
              78.362547,
              17.408856
            ],
            [
              78.359514,
              17.410039
            ],
            [
              78.357836,
              17.411823
            ],
            [
              78.360061,
              17.412823
            ],
            [
              78.360269,
              17.417067
            ],
            [
              78.363499,
              17.415823
            ],
            [
              78.363587,
              17.414896
            ],
            [
              78.364402,
              17.414711
            ],
            [
              78.364452,
              17.412761
            ],
            [
              78.3666,
              17.411736
            ],
            [
              78.367514,
              17.412155
            ],
            [
              78.369514,
              17.416481
            ],
            [
              78.371514,
              17.416664
            ],
            [
              78.371777,
              17.417559
            ],
            [
              78.373514,
              17.418556
            ],
            [
              78.377128,
              17.418823
            ],
            [
              78.375514,
              17.420057
            ],
            [
              78.373165,
              17.419474
            ],
            [
              78.37317,
              17.420823
            ],
            [
              78.372188,
              17.421823
            ],
            [
              78.372514,
              17.426097
            ],
            [
              78.373514,
              17.425167
            ],
            [
              78.374714,
              17.426023
            ],
            [
              78.375514,
              17.424249
            ],
            [
              78.377728,
              17.425037
            ],
            [
              78.378992,
              17.423301
            ],
            [
              78.380657,
              17.422966
            ],
            [
              78.382037,
              17.421346
            ],
            [
              78.383528,
              17.420837
            ],
            [
              78.384514,
              17.418728
            ],
            [
              78.388848,
              17.417157
            ],
            [
              78.387514,
              17.414998
            ],
            [
              78.385213,
              17.414823
            ],
            [
              78.38621,
              17.414519
            ],
            [
              78.387514,
              17.411964
            ],
            [
              78.388514,
              17.411672
            ],
            [
              78.392514,
              17.413554
            ],
            [
              78.395514,
              17.411593
            ],
            [
              78.396797,
              17.41154
            ],
            [
              78.396559,
              17.413868
            ],
            [
              78.39505,
              17.414823
            ],
            [
              78.395388,
              17.417697
            ],
            [
              78.393514,
              17.41713
            ],
            [
              78.390985,
              17.418823
            ],
            [
              78.392065,
              17.422271
            ],
            [
              78.394028,
              17.424309
            ],
            [
              78.395514,
              17.424739
            ],
            [
              78.395117,
              17.425426
            ],
            [
              78.394514,
              17.425667
            ],
            [
              78.393998,
              17.424338
            ],
            [
              78.391408,
              17.424928
            ],
            [
              78.390514,
              17.422183
            ],
            [
              78.389376,
              17.42396
            ],
            [
              78.386514,
              17.420419
            ],
            [
              78.38389,
              17.423199
            ],
            [
              78.382296,
              17.423605
            ],
            [
              78.381207,
              17.424823
            ],
            [
              78.3848,
              17.427536
            ],
            [
              78.384042,
              17.428823
            ],
            [
              78.386179,
              17.431158
            ],
            [
              78.388514,
              17.43027
            ],
            [
              78.389514,
              17.431287
            ],
            [
              78.392011,
              17.431823
            ],
            [
              78.389069,
              17.432823
            ],
            [
              78.389063,
              17.435273
            ],
            [
              78.390489,
              17.437847
            ],
            [
              78.389696,
              17.442005
            ],
            [
              78.388687,
              17.442996
            ],
            [
              78.388769,
              17.444567
            ],
            [
              78.389405,
              17.444823
            ],
            [
              78.389248,
              17.448823
            ],
            [
              78.388284,
              17.450823
            ],
            [
              78.393071,
              17.451823
            ],
            [
              78.391514,
              17.453573
            ],
            [
              78.391591,
              17.454823
            ],
            [
              78.389539,
              17.455848
            ],
            [
              78.387514,
              17.458185
            ],
            [
              78.385223,
              17.457532
            ],
            [
              78.384661,
              17.460675
            ],
            [
              78.385635,
              17.460823
            ],
            [
              78.385514,
              17.462653
            ],
            [
              78.383514,
              17.461532
            ],
            [
              78.383238,
              17.460098
            ],
            [
              78.38206,
              17.459823
            ],
            [
              78.380198,
              17.454823
            ],
            [
              78.379182,
              17.454491
            ],
            [
              78.378109,
              17.455823
            ],
            [
              78.378187,
              17.459823
            ],
            [
              78.376938,
              17.460823
            ],
            [
              78.377487,
              17.462823
            ],
            [
              78.375857,
              17.464823
            ],
            [
              78.375916,
              17.469225
            ],
            [
              78.371514,
              17.469154
            ],
            [
              78.370514,
              17.467449
            ],
            [
              78.368399,
              17.467708
            ],
            [
              78.367097,
              17.469823
            ],
            [
              78.367828,
              17.472508
            ],
            [
              78.369514,
              17.472845
            ],
            [
              78.366514,
              17.474027
            ],
            [
              78.365514,
              17.473481
            ],
            [
              78.364412,
              17.474823
            ],
            [
              78.365054,
              17.476823
            ],
            [
              78.361514,
              17.479121
            ]
          ]
        ],
        "type": "Polygon"
      },
      "type": "Feature"
    },
    {
      "properties": {
        "fill-opacity": 0.33,
        "fillColor": "#bf4040",
        "opacity": 0.33,
        "fill": "#bf4040",
        "fillOpacity": 0.33,
        "color": "#bf4040",
        "contour": 6.0,
        "metric": "distance",
        "provider_name": "Night Kitchen",
        "zone_type": "distance",
        "distance_km": 6,
        "mode": "motorcycle",
        "center_lat": 17.44182303,
        "center_lon": 78.36551405,
        "label": "6km"
      },
      "geometry": {
        "coordinates": [
          [
            [
              78.359514,
              17.486044
            ],
            [
              78.357525,
              17.485823
            ],
            [
              78.357784,
              17.485093
            ],
            [
              78.359929,
              17.484238
            ],
            [
              78.359963,
              17.482373
            ],
            [
              78.357514,
              17.483165
            ],
            [
              78.355282,
              17.482823
            ],
            [
              78.352939,
              17.479823
            ],
            [
              78.353347,
              17.478823
            ],
            [
              78.354514,
              17.478743
            ],
            [
              78.355279,
              17.477823
            ],
            [
              78.355323,
              17.476823
            ],
            [
              78.354205,
              17.475823
            ],
            [
              78.354961,
              17.474823
            ],
            [
              78.354514,
              17.474316
            ],
            [
              78.353909,
              17.475218
            ],
            [
              78.350514,
              17.474736
            ],
            [
              78.349514,
              17.479947
            ],
            [
              78.344514,
              17.475768
            ],
            [
              78.344211,
              17.474125
            ],
            [
              78.343435,
              17.473744
            ],
            [
              78.343514,
              17.471031
            ],
            [
              78.340514,
              17.472523
            ],
            [
              78.338748,
              17.470823
            ],
            [
              78.340007,
              17.470316
            ],
            [
              78.33991,
              17.469426
            ],
            [
              78.336801,
              17.468823
            ],
            [
              78.338202,
              17.468511
            ],
            [
              78.337514,
              17.46711
            ],
            [
              78.33507,
              17.468379
            ],
            [
              78.333514,
              17.471108
            ],
            [
              78.331719,
              17.472028
            ],
            [
              78.328514,
              17.472339
            ],
            [
              78.32846,
              17.471769
            ],
            [
              78.329262,
              17.471571
            ],
            [
              78.329124,
              17.470212
            ],
            [
              78.327514,
              17.470286
            ],
            [
              78.327208,
              17.468823
            ],
            [
              78.328251,
              17.466823
            ],
            [
              78.326411,
              17.464823
            ],
            [
              78.326857,
              17.462823
            ],
            [
              78.328183,
              17.462492
            ],
            [
              78.328264,
              17.460823
            ],
            [
              78.329156,
              17.459823
            ],
            [
              78.328514,
              17.459094
            ],
            [
              78.326901,
              17.45921
            ],
            [
              78.32604,
              17.460823
            ],
            [
              78.324081,
              17.458823
            ],
            [
              78.327232,
              17.456823
            ],
            [
              78.326514,
              17.456014
            ],
            [
              78.325514,
              17.456797
            ],
            [
              78.325326,
              17.45601
            ],
            [
              78.324241,
              17.455823
            ],
            [
              78.324514,
              17.455254
            ],
            [
              78.325514,
              17.45571
            ],
            [
              78.326514,
              17.454683
            ],
            [
              78.329185,
              17.454494
            ],
            [
              78.330514,
              17.452295
            ],
            [
              78.331482,
              17.453823
            ],
            [
              78.330823,
              17.455823
            ],
            [
              78.331514,
              17.45647
            ],
            [
              78.333167,
              17.454476
            ],
            [
              78.334979,
              17.454288
            ],
            [
              78.336123,
              17.450432
            ],
            [
              78.3369,
              17.450436
            ],
            [
              78.337514,
              17.452204
            ],
            [
              78.339514,
              17.451253
            ],
            [
              78.340514,
              17.452213
            ],
            [
              78.34114,
              17.450449
            ],
            [
              78.344762,
              17.449823
            ],
            [
              78.342699,
              17.447637
            ],
            [
              78.340353,
              17.446983
            ],
            [
              78.3388,
              17.444536
            ],
            [
              78.335514,
              17.44395
            ],
            [
              78.334514,
              17.444933
            ],
            [
              78.331686,
              17.445651
            ],
            [
              78.325769,
              17.443567
            ],
            [
              78.324786,
              17.441823
            ],
            [
              78.326076,
              17.439823
            ],
            [
              78.325633,
              17.438823
            ],
            [
              78.327166,
              17.438475
            ],
            [
              78.32934,
              17.436649
            ],
            [
              78.331514,
              17.435573
            ],
            [
              78.332694,
              17.435642
            ],
            [
              78.333514,
              17.43655
            ],
            [
              78.335514,
              17.434056
            ],
            [
              78.337789,
              17.435098
            ],
            [
              78.336833,
              17.431503
            ],
            [
              78.335514,
              17.431614
            ],
            [
              78.335419,
              17.430823
            ],
            [
              78.334115,
              17.430221
            ],
            [
              78.333058,
              17.426823
            ],
            [
              78.334215,
              17.426524
            ],
            [
              78.334514,
              17.42446
            ],
            [
              78.3362,
              17.425136
            ],
            [
              78.338613,
              17.424922
            ],
            [
              78.338514,
              17.42402
            ],
            [
              78.335549,
              17.422823
            ],
            [
              78.336713,
              17.420823
            ],
            [
              78.336514,
              17.419374
            ],
            [
              78.338725,
              17.419034
            ],
            [
              78.338093,
              17.417823
            ],
            [
              78.338447,
              17.416756
            ],
            [
              78.340514,
              17.416604
            ],
            [
              78.341316,
              17.415823
            ],
            [
              78.340514,
              17.412721
            ],
            [
              78.341697,
              17.41264
            ],
            [
              78.341762,
              17.414823
            ],
            [
              78.342514,
              17.415516
            ],
            [
              78.343514,
              17.41383
            ],
            [
              78.345514,
              17.413186
            ],
            [
              78.346515,
              17.413824
            ],
            [
              78.347207,
              17.411516
            ],
            [
              78.348989,
              17.410823
            ],
            [
              78.34797,
              17.409823
            ],
            [
              78.348514,
              17.408367
            ],
            [
              78.350186,
              17.41015
            ],
            [
              78.351885,
              17.410452
            ],
            [
              78.351958,
              17.411823
            ],
            [
              78.351032,
              17.412823
            ],
            [
              78.352735,
              17.414044
            ],
            [
              78.352797,
              17.410823
            ],
            [
              78.353682,
              17.409823
            ],
            [
              78.353514,
              17.406518
            ],
            [
              78.351355,
              17.404823
            ],
            [
              78.352013,
              17.403823
            ],
            [
              78.351563,
              17.401823
            ],
            [
              78.345723,
              17.400823
            ],
            [
              78.347266,
              17.400575
            ],
            [
              78.348514,
              17.398737
            ],
            [
              78.350514,
              17.399516
            ],
            [
              78.351922,
              17.399231
            ],
            [
              78.352514,
              17.393219
            ],
            [
              78.354591,
              17.395746
            ],
            [
              78.352962,
              17.396271
            ],
            [
              78.353093,
              17.398244
            ],
            [
              78.354514,
              17.398477
            ],
            [
              78.355514,
              17.397167
            ],
            [
              78.357197,
              17.396823
            ],
            [
              78.358889,
              17.397823
            ],
            [
              78.358882,
              17.400454
            ],
            [
              78.360881,
              17.402823
            ],
            [
              78.359938,
              17.403823
            ],
            [
              78.360772,
              17.405081
            ],
            [
              78.359015,
              17.405823
            ],
            [
              78.359232,
              17.408104
            ],
            [
              78.361859,
              17.406168
            ],
            [
              78.362232,
              17.404541
            ],
            [
              78.363957,
              17.403266
            ],
            [
              78.365335,
              17.400644
            ],
            [
              78.367766,
              17.40257
            ],
            [
              78.367348,
              17.403823
            ],
            [
              78.365126,
              17.405435
            ],
            [
              78.364916,
              17.406823
            ],
            [
              78.365514,
              17.407417
            ],
            [
              78.368514,
              17.407382
            ],
            [
              78.369514,
              17.406428
            ],
            [
              78.370514,
              17.40672
            ],
            [
              78.37039,
              17.407823
            ],
            [
              78.363514,
              17.408287
            ],
            [
              78.363134,
              17.409202
            ],
            [
              78.366514,
              17.40942
            ],
            [
              78.366934,
              17.410243
            ],
            [
              78.366124,
              17.410433
            ],
            [
              78.366178,
              17.411158
            ],
            [
              78.367514,
              17.410374
            ],
            [
              78.368514,
              17.411548
            ],
            [
              78.371352,
              17.410661
            ],
            [
              78.371514,
              17.410063
            ],
            [
              78.373176,
              17.415823
            ],
            [
              78.372183,
              17.416823
            ],
            [
              78.373514,
              17.417879
            ],
            [
              78.375514,
              17.417102
            ],
            [
              78.376514,
              17.418215
            ],
            [
              78.377514,
              17.417318
            ],
            [
              78.380514,
              17.417242
            ],
            [
              78.382514,
              17.418012
            ],
            [
              78.381955,
              17.415382
            ],
            [
              78.379342,
              17.413994
            ],
            [
              78.379414,
              17.412823
            ],
            [
              78.380851,
              17.41316
            ],
            [
              78.381474,
              17.409783
            ],
            [
              78.382312,
              17.409621
            ],
            [
              78.382451,
              17.40876
            ],
            [
              78.384225,
              17.407534
            ],
            [
              78.384514,
              17.406123
            ],
            [
              78.386514,
              17.404811
            ],
            [
              78.389824,
              17.406512
            ],
            [
              78.392514,
              17.409412
            ],
            [
              78.394054,
              17.408823
            ],
            [
              78.39232,
              17.408016
            ],
            [
              78.392445,
              17.406823
            ],
            [
              78.394514,
              17.405976
            ],
            [
              78.395902,
              17.407823
            ],
            [
              78.394838,
              17.408147
            ],
            [
              78.394814,
              17.409823
            ],
            [
              78.395514,
              17.410449
            ],
            [
              78.396641,
              17.40995
            ],
            [
              78.397567,
              17.407823
            ],
            [
              78.4009,
              17.407209
            ],
            [
              78.403514,
              17.405665
            ],
            [
              78.404337,
              17.406823
            ],
            [
              78.402911,
              17.40922
            ],
            [
              78.403214,
              17.410823
            ],
            [
              78.401577,
              17.412886
            ],
            [
              78.399647,
              17.413823
            ],
            [
              78.399948,
              17.416388
            ],
            [
              78.401414,
              17.416723
            ],
            [
              78.401514,
              17.415983
            ],
            [
              78.40328,
              17.418823
            ],
            [
              78.401514,
              17.420018
            ],
            [
              78.399793,
              17.419823
            ],
            [
              78.398838,
              17.422498
            ],
            [
              78.399887,
              17.42345
            ],
            [
              78.402251,
              17.423823
            ],
            [
              78.40209,
              17.426246
            ],
            [
              78.405602,
              17.427823
            ],
            [
              78.404534,
              17.430823
            ],
            [
              78.404576,
              17.43176
            ],
            [
              78.405578,
              17.431823
            ],
            [
              78.405057,
              17.432823
            ],
            [
              78.403838,
              17.433147
            ],
            [
              78.399598,
              17.438907
            ],
            [
              78.39891,
              17.437427
            ],
            [
              78.397275,
              17.437584
            ],
            [
              78.397223,
              17.440532
            ],
            [
              78.392307,
              17.447616
            ],
            [
              78.394514,
              17.448776
            ],
            [
              78.395168,
              17.447823
            ],
            [
              78.394274,
              17.446583
            ],
            [
              78.39607,
              17.446823
            ],
            [
              78.395751,
              17.448823
            ],
            [
              78.397203,
              17.451133
            ],
            [
              78.398514,
              17.450351
            ],
            [
              78.401514,
              17.450431
            ],
            [
              78.402293,
              17.450823
            ],
            [
              78.401965,
              17.451823
            ],
            [
              78.399614,
              17.454923
            ],
            [
              78.398514,
              17.454501
            ],
            [
              78.397514,
              17.456578
            ],
            [
              78.396514,
              17.455727
            ],
            [
              78.392514,
              17.458195
            ],
            [
              78.388514,
              17.458299
            ],
            [
              78.387514,
              17.460253
            ],
            [
              78.386514,
              17.45924
            ],
            [
              78.385129,
              17.459438
            ],
            [
              78.386514,
              17.462671
            ],
            [
              78.388077,
              17.462823
            ],
            [
              78.385908,
              17.465823
            ],
            [
              78.386826,
              17.466823
            ],
            [
              78.3866,
              17.470737
            ],
            [
              78.387514,
              17.470974
            ],
            [
              78.386453,
              17.470883
            ],
            [
              78.386356,
              17.46898
            ],
            [
              78.385514,
              17.468119
            ],
            [
              78.384654,
              17.468963
            ],
            [
              78.384514,
              17.470847
            ],
            [
              78.383514,
              17.47118
            ],
            [
              78.383333,
              17.469003
            ],
            [
              78.381928,
              17.468823
            ],
            [
              78.381613,
              17.465922
            ],
            [
              78.384514,
              17.465483
            ],
            [
              78.385081,
              17.464823
            ],
            [
              78.383911,
              17.463425
            ],
            [
              78.382099,
              17.463408
            ],
            [
              78.381514,
              17.464668
            ],
            [
              78.38002,
              17.464329
            ],
            [
              78.379514,
              17.466668
            ],
            [
              78.378533,
              17.465823
            ],
            [
              78.378807,
              17.463529
            ],
            [
              78.377514,
              17.463583
            ],
            [
              78.376364,
              17.464972
            ],
            [
              78.378169,
              17.465167
            ],
            [
              78.378648,
              17.469823
            ],
            [
              78.379862,
              17.470823
            ],
            [
              78.37761,
              17.472823
            ],
            [
              78.377514,
              17.474836
            ],
            [
              78.377317,
              17.474019
            ],
            [
              78.375938,
              17.474247
            ],
            [
              78.37585,
              17.475823
            ],
            [
              78.373603,
              17.477912
            ],
            [
              78.373158,
              17.477178
            ],
            [
              78.37107,
              17.477379
            ],
            [
              78.370826,
              17.481823
            ],
            [
              78.370153,
              17.480183
            ],
            [
              78.368576,
              17.479885
            ],
            [
              78.367514,
              17.481945
            ],
            [
              78.361514,
              17.482162
            ],
            [
              78.360801,
              17.484823
            ],
            [
              78.359514,
              17.486044
            ]
          ]
        ],
        "type": "Polygon"
      },
      "type": "Feature"
    }
  ]
}