{
  "type": "FeatureCollection",
  "metadata": {
    "provider_name": "Gurgaon Dabbawalas",
    "center_lat": 28.42518967,
    "center_lon": 77.06755288,
    "mode": "motorcycle",
    "total_zones": 4,
    "distance_zones": [
      3,
      4,
      5,
      6
    ],
    "generated_at": "2025-12-29T11:23:06.111330Z"
  },
  "features": [
    {
      "properties": {
        "fill-opacity": 0.33,
        "fillColor": "#bf4040",
        "opacity": 0.33,
        "fill": "#bf4040",
        "fillOpacity": 0.33,
        "color": "#bf4040",
        "contour": 3.0,
        "metric": "distance",
        "provider_name": "Gurgaon Dabbawalas",
        "zone_type": "distance",
        "distance_km": 3,
        "mode": "motorcycle",
        "center_lat": 28.42518967,
        "center_lon": 77.06755288,
        "label": "3km"
      },
      "geometry": {
        "coordinates": [
          [
            [
              77.057552,
              28.444504
            ],
            [
              77.055552,
              28.444411
            ],
            [
              77.051346,
              28.442396
            ],
            [
              77.05095,
              28.440189
            ],
            [
              77.051583,
              28.438158
            ],
            [
              77.049521,
              28.43722
            ],
            [
              77.049559,
              28.436182
            ],
            [
              77.04544,
              28.437189
            ],
            [
              77.045783,
              28.43442
            ],
            [
              77.046894,
              28.433531
            ],
            [
              77.046357,
              28.431189
            ],
            [
              77.049293,
              28.428189
            ],
            [
              77.047552,
              28.425041
            ],
            [
              77.048379,
              28.421363
            ],
            [
              77.046857,
              28.421189
            ],
            [
              77.045595,
              28.419189
            ],
            [
              77.047179,
              28.418816
            ],
            [
              77.049015,
              28.417189
            ],
            [
              77.04682,
              28.416189
            ],
            [
              77.047871,
              28.415508
            ],
            [
              77.050291,
              28.415928
            ],
            [
              77.05049,
              28.414251
            ],
            [
              77.049752,
              28.414189
            ],
            [
              77.051552,
              28.413124
            ],
            [
              77.052213,
              28.414529
            ],
            [
              77.053552,
              28.414819
            ],
            [
              77.05525,
              28.412189
            ],
            [
              77.056552,
              28.412092
            ],
            [
              77.056549,
              28.413189
            ],
            [
              77.058552,
              28.413487
            ],
            [
              77.059937,
              28.412189
            ],
            [
              77.05822,
              28.411522
            ],
            [
              77.058552,
              28.410843
            ],
            [
              77.060552,
              28.410929
            ],
            [
              77.061552,
              28.411893
            ],
            [
              77.062552,
              28.409836
            ],
            [
              77.063552,
              28.410858
            ],
            [
              77.065027,
              28.410664
            ],
            [
              77.065206,
              28.409536
            ],
            [
              77.064302,
              28.40844
            ],
            [
              77.062747,
              28.408189
            ],
            [
              77.063673,
              28.40731
            ],
            [
              77.064552,
              28.4072
            ],
            [
              77.064904,
              28.408837
            ],
            [
              77.065552,
              28.408963
            ],
            [
              77.066365,
              28.408189
            ],
            [
              77.065972,
              28.407189
            ],
            [
              77.067552,
              28.406651
            ],
            [
              77.067684,
              28.407189
            ],
            [
              77.067012,
              28.408189
            ],
            [
              77.06727,
              28.408471
            ],
            [
              77.070552,
              28.409838
            ],
            [
              77.072189,
              28.408826
            ],
            [
              77.074552,
              28.4094
            ],
            [
              77.077552,
              28.405921
            ],
            [
              77.07795,
              28.407189
            ],
            [
              77.076792,
              28.408189
            ],
            [
              77.078684,
              28.409058
            ],
            [
              77.079165,
              28.413576
            ],
            [
              77.082029,
              28.413666
            ],
            [
              77.083552,
              28.412143
            ],
            [
              77.08372,
              28.413189
            ],
            [
              77.082834,
              28.414189
            ],
            [
              77.083112,
              28.41463
            ],
            [
              77.088166,
              28.416576
            ],
            [
              77.087907,
              28.418189
            ],
            [
              77.088552,
              28.418895
            ],
            [
              77.089552,
              28.417772
            ],
            [
              77.090729,
              28.418013
            ],
            [
              77.093054,
              28.421189
            ],
            [
              77.092046,
              28.421683
            ],
            [
              77.091718,
              28.423189
            ],
            [
              77.093419,
              28.424189
            ],
            [
              77.093233,
              28.425189
            ],
            [
              77.091552,
              28.427116
            ],
            [
              77.090551,
              28.427189
            ],
            [
              77.090534,
              28.428171
            ],
            [
              77.090557,
              28.427193
            ],
            [
              77.091552,
              28.427258
            ],
            [
              77.092144,
              28.429598
            ],
            [
              77.093891,
              28.430189
            ],
            [
              77.093906,
              28.431189
            ],
            [
              77.093529,
              28.431166
            ],
            [
              77.093429,
              28.430313
            ],
            [
              77.091936,
              28.430573
            ],
            [
              77.091552,
              28.432202
            ],
            [
              77.087176,
              28.434813
            ],
            [
              77.08711,
              28.435631
            ],
            [
              77.088561,
              28.436181
            ],
            [
              77.088936,
              28.437189
            ],
            [
              77.088582,
              28.439189
            ],
            [
              77.086552,
              28.438771
            ],
            [
              77.084552,
              28.439301
            ],
            [
              77.082552,
              28.442482
            ],
            [
              77.082332,
              28.44141
            ],
            [
              77.081552,
              28.441394
            ],
            [
              77.076552,
              28.443267
            ],
            [
              77.074552,
              28.440946
            ],
            [
              77.072552,
              28.442982
            ],
            [
              77.069235,
              28.442507
            ],
            [
              77.068697,
              28.440189
            ],
            [
              77.066552,
              28.438587
            ],
            [
              77.064539,
              28.440189
            ],
            [
              77.063552,
              28.442343
            ],
            [
              77.060594,
              28.44123
            ],
            [
              77.060532,
              28.442189
            ],
            [
              77.060535,
              28.440207
            ],
            [
              77.059552,
              28.440657
            ],
            [
              77.058552,
              28.439729
            ],
            [
              77.056205,
              28.439842
            ],
            [
              77.056196,
              28.441545
            ],
            [
              77.05817,
              28.443189
            ],
            [
              77.057552,
              28.444504
            ]
          ]
        ],
        "type": "Polygon"
      },
      "type": "Feature"
    },
    {
      "properties": {
        "fill-opacity": 0.33,
        "fillColor": "#bf4040",
        "opacity": 0.33,
        "fill": "#bf4040",
        "fillOpacity": 0.33,
        "color": "#bf4040",
        "contour": 4.0,
        "metric": "distance",
        "provider_name": "Gurgaon Dabbawalas",
        "zone_type": "distance",
        "distance_km": 4,
        "mode": "motorcycle",
        "center_lat": 28.42518967,
        "center_lon": 77.06755288,
        "label": "4km"
      },
      "geometry": {
        "coordinates": [
          [
            [
              77.076552,
              28.449487
            ],
            [
              77.074552,
              28.449265
            ],
            [
              77.073552,
              28.448381
            ],
            [
              77.072774,
              28.448411
            ],
            [
              77.072227,
              28.449514
            ],
            [
              77.071508,
              28.449189
            ],
            [
              77.071362,
              28.447189
            ],
            [
              77.070552,
              28.446983
            ],
            [
              77.068552,
              28.44905
            ],
            [
              77.064262,
              28.44848
            ],
            [
              77.063552,
              28.446989
            ],
            [
              77.061968,
              28.448605
            ],
            [
              77.059552,
              28.448795
            ],
            [
              77.057552,
              28.447497
            ],
            [
              77.055552,
              28.448461
            ],
            [
              77.053219,
              28.447189
            ],
            [
              77.051552,
              28.444076
            ],
            [
              77.049552,
              28.443605
            ],
            [
              77.048552,
              28.444781
            ],
            [
              77.047552,
              28.444635
            ],
            [
              77.043552,
              28.443204
            ],
            [
              77.041552,
              28.441525
            ],
            [
              77.03798,
              28.443189
            ],
            [
              77.039371,
              28.440189
            ],
            [
              77.038121,
              28.438189
            ],
            [
              77.038445,
              28.434296
            ],
            [
              77.039552,
              28.431077
            ],
            [
              77.040805,
              28.430189
            ],
            [
              77.037229,
              28.429512
            ],
            [
              77.036539,
              28.428189
            ],
            [
              77.041126,
              28.426763
            ],
            [
              77.042318,
              28.424955
            ],
            [
              77.041552,
              28.423546
            ],
            [
              77.03953,
              28.425189
            ],
            [
              77.03934,
              28.423189
            ],
            [
              77.040216,
              28.422189
            ],
            [
              77.03937,
              28.421189
            ],
            [
              77.041238,
              28.420189
            ],
            [
              77.039221,
              28.419189
            ],
            [
              77.041218,
              28.418189
            ],
            [
              77.040039,
              28.417189
            ],
            [
              77.04014,
              28.414777
            ],
            [
              77.041355,
              28.413992
            ],
            [
              77.041552,
              28.412918
            ],
            [
              77.043854,
              28.413491
            ],
            [
              77.042744,
              28.41138
            ],
            [
              77.044552,
              28.409624
            ],
            [
              77.046552,
              28.409226
            ],
            [
              77.048802,
              28.407439
            ],
            [
              77.051026,
              28.407663
            ],
            [
              77.051552,
              28.404118
            ],
            [
              77.052719,
              28.405023
            ],
            [
              77.051787,
              28.405424
            ],
            [
              77.052007,
              28.406735
            ],
            [
              77.053343,
              28.40698
            ],
            [
              77.05373,
              28.406011
            ],
            [
              77.055552,
              28.406638
            ],
            [
              77.055842,
              28.4059
            ],
            [
              77.054552,
              28.405985
            ],
            [
              77.054351,
              28.404391
            ],
            [
              77.053366,
              28.404189
            ],
            [
              77.056326,
              28.403963
            ],
            [
              77.056552,
              28.403146
            ],
            [
              77.059552,
              28.404554
            ],
            [
              77.06157,
              28.401172
            ],
            [
              77.062106,
              28.404636
            ],
            [
              77.064991,
              28.404751
            ],
            [
              77.065184,
              28.405558
            ],
            [
              77.066552,
              28.405757
            ],
            [
              77.066937,
              28.404804
            ],
            [
              77.065089,
              28.404189
            ],
            [
              77.065119,
              28.403189
            ],
            [
              77.066552,
              28.401812
            ],
            [
              77.072552,
              28.402009
            ],
            [
              77.073056,
              28.404686
            ],
            [
              77.075552,
              28.406251
            ],
            [
              77.075867,
              28.404189
            ],
            [
              77.077207,
              28.403189
            ],
            [
              77.076959,
              28.401783
            ],
            [
              77.075902,
              28.401189
            ],
            [
              77.07631,
              28.400189
            ],
            [
              77.080419,
              28.399056
            ],
            [
              77.080552,
              28.398344
            ],
            [
              77.081411,
              28.399189
            ],
            [
              77.079805,
              28.399441
            ],
            [
              77.080022,
              28.400719
            ],
            [
              77.083175,
              28.402189
            ],
            [
              77.082253,
              28.403189
            ],
            [
              77.083307,
              28.404435
            ],
            [
              77.084552,
              28.404846
            ],
            [
              77.08493,
              28.405812
            ],
            [
              77.086645,
              28.406189
            ],
            [
              77.083807,
              28.407443
            ],
            [
              77.082552,
              28.406512
            ],
            [
              77.080552,
              28.406591
            ],
            [
              77.079096,
              28.408646
            ],
            [
              77.078552,
              28.407627
            ],
            [
              77.077251,
              28.407888
            ],
            [
              77.077552,
              28.408628
            ],
            [
              77.079031,
              28.408711
            ],
            [
              77.079308,
              28.413434
            ],
            [
              77.08183,
              28.413467
            ],
            [
              77.083552,
              28.411678
            ],
            [
              77.086552,
              28.412609
            ],
            [
              77.087552,
              28.411579
            ],
            [
              77.089552,
              28.413305
            ],
            [
              77.091552,
              28.411602
            ],
            [
              77.092847,
              28.416189
            ],
            [
              77.094552,
              28.416972
            ],
            [
              77.096552,
              28.416039
            ],
            [
              77.096732,
              28.417009
            ],
            [
              77.097658,
              28.417189
            ],
            [
              77.095546,
              28.419189
            ],
            [
              77.101552,
              28.419369
            ],
            [
              77.103273,
              28.421189
            ],
            [
              77.10261,
              28.423131
            ],
            [
              77.103722,
              28.424189
            ],
            [
              77.103563,
              28.425189
            ],
            [
              77.101187,
              28.426824
            ],
            [
              77.100859,
              28.428189
            ],
            [
              77.104266,
              28.431189
            ],
            [
              77.103552,
              28.432018
            ],
            [
              77.100281,
              28.431918
            ],
            [
              77.101007,
              28.433734
            ],
            [
              77.102219,
              28.434189
            ],
            [
              77.101552,
              28.435216
            ],
            [
              77.101358,
              28.434384
            ],
            [
              77.097552,
              28.43159
            ],
            [
              77.096768,
              28.432405
            ],
            [
              77.094981,
              28.432617
            ],
            [
              77.09437,
              28.434372
            ],
            [
              77.094225,
              28.432189
            ],
            [
              77.092251,
              28.430888
            ],
            [
              77.090942,
              28.436189
            ],
            [
              77.092508,
              28.438189
            ],
            [
              77.090018,
              28.438655
            ],
            [
              77.090013,
              28.44065
            ],
            [
              77.088552,
              28.440968
            ],
            [
              77.086526,
              28.440163
            ],
            [
              77.086425,
              28.441062
            ],
            [
              77.085392,
              28.441189
            ],
            [
              77.084825,
              28.443461
            ],
            [
              77.083552,
              28.444888
            ],
            [
              77.082388,
              28.445025
            ],
            [
              77.081552,
              28.446914
            ],
            [
              77.080552,
              28.447845
            ],
            [
              77.080448,
              28.447294
            ],
            [
              77.078957,
              28.447593
            ],
            [
              77.078552,
              28.448816
            ],
            [
              77.076552,
              28.449487
            ]
          ]
        ],
        "type": "Polygon"
      },
      "type": "Feature"
    },
    {
      "properties": {
        "fill-opacity": 0.33,
        "fillColor": "#bf4040",
        "opacity": 0.33,
        "fill": "#bf4040",
        "fillOpacity": 0.33,
        "color": "#bf4040",
        "contour": 5.0,
        "metric": "distance",
        "provider_name": "Gurgaon Dabbawalas",
        "zone_type": "distance",
        "distance_km": 5,
        "mode": "motorcycle",
        "center_lat": 28.42518967,
        "center_lon": 77.06755288,
        "label": "5km"
      },
      "geometry": {
        "coordinates": [
          [
            [
              77.074552,
              28.45674
            ],
            [
              77.07287,
              28.455871
            ],
            [
              77.072552,
              28.454126
            ],
            [
              77.070552,
              28.454595
            ],
            [
              77.069393,
              28.45403
            ],
            [
              77.068667,
              28.455304
            ],
            [
              77.065552,
              28.455189
            ],
            [
              77.065582,
              28.453189
            ],
            [
              77.064318,
              28.451955
            ],
            [
              77.063552,
              28.454916
            ],
            [
              77.061552,
              28.455197
            ],
            [
              77.055552,
              28.454243
            ],
            [
              77.050726,
              28.450015
            ],
            [
              77.049552,
              28.450708
            ],
            [
              77.048127,
              28.449764
            ],
            [
              77.045855,
              28.450492
            ],
            [
              77.045552,
              28.45125
            ],
            [
              77.045225,
              28.450517
            ],
            [
              77.04386,
              28.450496
            ],
            [
              77.043552,
              28.451823
            ],
            [
              77.04194,
              28.451189
            ],
            [
              77.042095,
              28.448189
            ],
            [
              77.040905,
              28.447836
            ],
            [
              77.040552,
              28.445794
            ],
            [
              77.040233,
              28.448189
            ],
            [
              77.039071,
              28.449189
            ],
            [
              77.035552,
              28.446466
            ],
            [
              77.032974,
              28.446611
            ],
            [
              77.032552,
              28.448624
            ],
            [
              77.032188,
              28.446553
            ],
            [
              77.029323,
              28.446189
            ],
            [
              77.031248,
              28.445885
            ],
            [
              77.031426,
              28.445063
            ],
            [
              77.033985,
              28.443622
            ],
            [
              77.034673,
              28.440189
            ],
            [
              77.033837,
              28.439189
            ],
            [
              77.034041,
              28.435701
            ],
            [
              77.031081,
              28.434189
            ],
            [
              77.03328,
              28.432189
            ],
            [
              77.031474,
              28.430189
            ],
            [
              77.031527,
              28.429164
            ],
            [
              77.032763,
              28.428978
            ],
            [
              77.034552,
              28.430847
            ],
            [
              77.035134,
              28.430189
            ],
            [
              77.032552,
              28.4277
            ],
            [
              77.029552,
              28.427642
            ],
            [
              77.026794,
              28.426189
            ],
            [
              77.029552,
              28.424591
            ],
            [
              77.030038,
              28.425703
            ],
            [
              77.032552,
              28.426409
            ],
            [
              77.032307,
              28.424944
            ],
            [
              77.033552,
              28.423343
            ],
            [
              77.034552,
              28.424113
            ],
            [
              77.036552,
              28.423399
            ],
            [
              77.036887,
              28.424189
            ],
            [
              77.03505,
              28.427189
            ],
            [
              77.036791,
              28.427427
            ],
            [
              77.037832,
              28.425189
            ],
            [
              77.037847,
              28.421189
            ],
            [
              77.036698,
              28.419044
            ],
            [
              77.03488,
              28.418189
            ],
            [
              77.034762,
              28.416189
            ],
            [
              77.037552,
              28.413569
            ],
            [
              77.040564,
              28.413201
            ],
            [
              77.038949,
              28.411793
            ],
            [
              77.038839,
              28.410189
            ],
            [
              77.042992,
              28.407629
            ],
            [
              77.043552,
              28.404964
            ],
            [
              77.044389,
              28.405026
            ],
            [
              77.044552,
              28.404189
            ],
            [
              77.044246,
              28.406189
            ],
            [
              77.045552,
              28.406427
            ],
            [
              77.048917,
              28.404553
            ],
            [
              77.048938,
              28.402804
            ],
            [
              77.046552,
              28.402618
            ],
            [
              77.045552,
              28.401516
            ],
            [
              77.044552,
              28.401872
            ],
            [
              77.043974,
              28.401189
            ],
            [
              77.045552,
              28.399999
            ],
            [
              77.050036,
              28.400673
            ],
            [
              77.050295,
              28.399189
            ],
            [
              77.051552,
              28.398198
            ],
            [
              77.052552,
              28.399315
            ],
            [
              77.053552,
              28.399158
            ],
            [
              77.054552,
              28.397762
            ],
            [
              77.056552,
              28.399583
            ],
            [
              77.056981,
              28.40176
            ],
            [
              77.060552,
              28.401697
            ],
            [
              77.060552,
              28.400394
            ],
            [
              77.058552,
              28.400277
            ],
            [
              77.057563,
              28.399189
            ],
            [
              77.058552,
              28.397405
            ],
            [
              77.059552,
              28.398079
            ],
            [
              77.06039,
              28.397027
            ],
            [
              77.061552,
              28.396913
            ],
            [
              77.062552,
              28.397981
            ],
            [
              77.064166,
              28.395576
            ],
            [
              77.061785,
              28.395189
            ],
            [
              77.064269,
              28.394905
            ],
            [
              77.0664,
              28.393342
            ],
            [
              77.067115,
              28.394189
            ],
            [
              77.065775,
              28.394412
            ],
            [
              77.065755,
              28.395189
            ],
            [
              77.067552,
              28.397146
            ],
            [
              77.069194,
              28.396831
            ],
            [
              77.070552,
              28.395
            ],
            [
              77.070779,
              28.395963
            ],
            [
              77.073091,
              28.395728
            ],
            [
              77.073326,
              28.394415
            ],
            [
              77.071971,
              28.394189
            ],
            [
              77.07468,
              28.394061
            ],
            [
              77.07917,
              28.396189
            ],
            [
              77.078656,
              28.397189
            ],
            [
              77.079552,
              28.398657
            ],
            [
              77.081133,
              28.396189
            ],
            [
              77.080264,
              28.394901
            ],
            [
              77.082219,
              28.394189
            ],
            [
              77.081552,
              28.393384
            ],
            [
              77.079647,
              28.393284
            ],
            [
              77.079493,
              28.394189
            ],
            [
              77.079046,
              28.393189
            ],
            [
              77.082552,
              28.392923
            ],
            [
              77.084552,
              28.391783
            ],
            [
              77.087129,
              28.393189
            ],
            [
              77.08579,
              28.395427
            ],
            [
              77.083128,
              28.395765
            ],
            [
              77.082015,
              28.397189
            ],
            [
              77.082194,
              28.398548
            ],
            [
              77.084552,
              28.399786
            ],
            [
              77.085525,
              28.398161
            ],
            [
              77.086552,
              28.398399
            ],
            [
              77.088024,
              28.400717
            ],
            [
              77.090774,
              28.401189
            ],
            [
              77.091127,
              28.403615
            ],
            [
              77.092043,
              28.40368
            ],
            [
              77.092552,
              28.402737
            ],
            [
              77.095278,
              28.405189
            ],
            [
              77.095445,
              28.406189
            ],
            [
              77.0975,
              28.407242
            ],
            [
              77.097552,
              28.409031
            ],
            [
              77.094292,
              28.408929
            ],
            [
              77.093974,
              28.411189
            ],
            [
              77.095135,
              28.413607
            ],
            [
              77.09816,
              28.414582
            ],
            [
              77.099552,
              28.416913
            ],
            [
              77.101552,
              28.412628
            ],
            [
              77.101811,
              28.41393
            ],
            [
              77.103043,
              28.414189
            ],
            [
              77.103168,
              28.416573
            ],
            [
              77.105099,
              28.416735
            ],
            [
              77.105582,
              28.416159
            ],
            [
              77.106499,
              28.417189
            ],
            [
              77.103552,
              28.417419
            ],
            [
              77.102881,
              28.418189
            ],
            [
              77.107204,
              28.420189
            ],
            [
              77.1056,
              28.421189
            ],
            [
              77.105724,
              28.424189
            ],
            [
              77.110815,
              28.427926
            ],
            [
              77.110884,
              28.429858
            ],
            [
              77.112552,
              28.429691
            ],
            [
              77.113575,
              28.432189
            ],
            [
              77.109552,
              28.4323
            ],
            [
              77.108552,
              28.433302
            ],
            [
              77.1059,
              28.433537
            ],
            [
              77.103886,
              28.435523
            ],
            [
              77.103635,
              28.438189
            ],
            [
              77.102695,
              28.438332
            ],
            [
              77.102552,
              28.439966
            ],
            [
              77.100279,
              28.437189
            ],
            [
              77.102552,
              28.437007
            ],
            [
              77.103011,
              28.43573
            ],
            [
              77.101215,
              28.435527
            ],
            [
              77.097552,
              28.431814
            ],
            [
              77.096552,
              28.432875
            ],
            [
              77.095167,
              28.432803
            ],
            [
              77.095018,
              28.434655
            ],
            [
              77.094118,
              28.434755
            ],
            [
              77.094127,
              28.438615
            ],
            [
              77.095668,
              28.439074
            ],
            [
              77.097408,
              28.441189
            ],
            [
              77.097075,
              28.441667
            ],
            [
              77.097552,
              28.441407
            ],
            [
              77.097802,
              28.443189
            ],
            [
              77.096848,
              28.443485
            ],
            [
              77.096787,
              28.444954
            ],
            [
              77.098552,
              28.445167
            ],
            [
              77.098556,
              28.446193
            ],
            [
              77.095552,
              28.446199
            ],
            [
              77.094552,
              28.444396
            ],
            [
              77.091938,
              28.444575
            ],
            [
              77.091552,
              28.446219
            ],
            [
              77.086743,
              28.445998
            ],
            [
              77.087259,
              28.443189
            ],
            [
              77.085552,
              28.442628
            ],
            [
              77.084219,
              28.444522
            ],
            [
              77.085103,
              28.445639
            ],
            [
              77.087971,
              28.44677
            ],
            [
              77.087064,
              28.449678
            ],
            [
              77.090711,
              28.450189
            ],
            [
              77.087952,
              28.450589
            ],
            [
              77.087552,
              28.45356
            ],
            [
              77.084552,
              28.452595
            ],
            [
              77.081673,
              28.450068
            ],
            [
              77.080744,
              28.450189
            ],
            [
              77.080795,
              28.451189
            ],
            [
              77.078552,
              28.453695
            ],
            [
              77.076552,
              28.454296
            ],
            [
              77.075227,
              28.453864
            ],
            [
              77.074552,
              28.45674
            ]
          ]
        ],
        "type": "Polygon"
      },
      "type": "Feature"
    },
    {
      "properties": {
        "fill-opacity": 0.33,
        "fillColor": "#bf4040",
        "opacity": 0.33,
        "fill": "#bf4040",
        "fillOpacity": 0.33,
        "color": "#bf4040",
        "contour": 6.0,
        "metric": "distance",
        "provider_name": "Gurgaon Dabbawalas",
        "zone_type": "distance",
        "distance_km": 6,
        "mode": "motorcycle",
        "center_lat": 28.42518967,
        "center_lon": 77.06755288,
        "label": "6km"
      },
      "geometry": {
        "coordinates": [
          [
            [
              77.073552,
              28.465571
            ],
            [
              77.073313,
              28.464429
            ],
            [
              77.072055,
              28.464189
            ],
            [
              77.07285,
              28.463487
            ],
            [
              77.07313,
              28.461189
            ],
            [
              77.072209,
              28.459532
            ],
            [
              77.070081,
              28.459717
            ],
            [
              77.067552,
              28.462147
            ],
            [
              77.065997,
              28.460744
            ],
            [
              77.062552,
              28.460464
            ],
            [
              77.061001,
              28.461638
            ],
            [
              77.060547,
              28.463195
            ],
            [
              77.059336,
              28.462189
            ],
            [
              77.060326,
              28.461963
            ],
            [
              77.060116,
              28.460626
            ],
            [
              77.058669,
              28.460073
            ],
            [
              77.05273,
              28.460367
            ],
            [
              77.051552,
              28.459552
            ],
            [
              77.049552,
              28.460158
            ],
            [
              77.049325,
              28.456189
            ],
            [
              77.048753,
              28.455989
            ],
            [
              77.045509,
              28.456233
            ],
            [
              77.043552,
              28.45536
            ],
            [
              77.041552,
              28.455409
            ],
            [
              77.040552,
              28.454309
            ],
            [
              77.03982,
              28.456456
            ],
            [
              77.0374,
              28.456341
            ],
            [
              77.037339,
              28.449189
            ],
            [
              77.035552,
              28.447038
            ],
            [
              77.033552,
              28.447464
            ],
            [
              77.032225,
              28.451862
            ],
            [
              77.03152,
              28.452189
            ],
            [
              77.032102,
              28.453189
            ],
            [
              77.030076,
              28.453713
            ],
            [
              77.029868,
              28.454874
            ],
            [
              77.030564,
              28.455189
            ],
            [
              77.028834,
              28.455471
            ],
            [
              77.028552,
              28.456898
            ],
            [
              77.025756,
              28.453189
            ],
            [
              77.028338,
              28.451189
            ],
            [
              77.026893,
              28.447849
            ],
            [
              77.025552,
              28.447699
            ],
            [
              77.024552,
              28.448746
            ],
            [
              77.020552,
              28.448315
            ],
            [
              77.019689,
              28.447189
            ],
            [
              77.022552,
              28.443981
            ],
            [
              77.028552,
              28.443537
            ],
            [
              77.030552,
              28.44566
            ],
            [
              77.032833,
              28.44447
            ],
            [
              77.033242,
              28.442189
            ],
            [
              77.032552,
              28.441472
            ],
            [
              77.029379,
              28.441362
            ],
            [
              77.026552,
              28.439624
            ],
            [
              77.026344,
              28.437981
            ],
            [
              77.027552,
              28.437079
            ],
            [
              77.030161,
              28.436798
            ],
            [
              77.030472,
              28.435189
            ],
            [
              77.029552,
              28.434066
            ],
            [
              77.027347,
              28.433394
            ],
            [
              77.025633,
              28.428109
            ],
            [
              77.019935,
              28.429572
            ],
            [
              77.019552,
              28.43034
            ],
            [
              77.018147,
              28.430189
            ],
            [
              77.018957,
              28.427593
            ],
            [
              77.020552,
              28.427968
            ],
            [
              77.02125,
              28.427189
            ],
            [
              77.020552,
              28.426377
            ],
            [
              77.019552,
              28.427018
            ],
            [
              77.019388,
              28.426354
            ],
            [
              77.019552,
              28.425563
            ],
            [
              77.02085,
              28.425189
            ],
            [
              77.020055,
              28.423189
            ],
            [
              77.021247,
              28.422189
            ],
            [
              77.022552,
              28.422522
            ],
            [
              77.023552,
              28.424035
            ],
            [
              77.024351,
              28.423189
            ],
            [
              77.024552,
              28.420855
            ],
            [
              77.028333,
              28.42297
            ],
            [
              77.033347,
              28.421189
            ],
            [
              77.031773,
              28.419189
            ],
            [
              77.032803,
              28.417189
            ],
            [
              77.032014,
              28.414728
            ],
            [
              77.030983,
              28.41462
            ],
            [
              77.030552,
              28.416239
            ],
            [
              77.028576,
              28.416213
            ],
            [
              77.028419,
              28.414323
            ],
            [
              77.027338,
              28.414189
            ],
            [
              77.029018,
              28.413655
            ],
            [
              77.029552,
              28.412368
            ],
            [
              77.029901,
              28.41384
            ],
            [
              77.031344,
              28.413189
            ],
            [
              77.031507,
              28.412235
            ],
            [
              77.029552,
              28.411767
            ],
            [
              77.029406,
              28.409336
            ],
            [
              77.028582,
              28.409189
            ],
            [
              77.029552,
              28.408374
            ],
            [
              77.029712,
              28.40903
            ],
            [
              77.031386,
              28.409023
            ],
            [
              77.031552,
              28.40805
            ],
            [
              77.034552,
              28.407882
            ],
            [
              77.036552,
              28.406182
            ],
            [
              77.037552,
              28.406543
            ],
            [
              77.038552,
              28.40556
            ],
            [
              77.03959,
              28.406227
            ],
            [
              77.041928,
              28.405565
            ],
            [
              77.041629,
              28.404189
            ],
            [
              77.042997,
              28.403634
            ],
            [
              77.043887,
              28.401855
            ],
            [
              77.035552,
              28.401367
            ],
            [
              77.03519,
              28.400551
            ],
            [
              77.033735,
              28.400189
            ],
            [
              77.03564,
              28.400102
            ],
            [
              77.036552,
              28.40098
            ],
            [
              77.038025,
              28.400662
            ],
            [
              77.038193,
              28.397189
            ],
            [
              77.040332,
              28.395189
            ],
            [
              77.042054,
              28.396189
            ],
            [
              77.042516,
              28.398189
            ],
            [
              77.040873,
              28.399189
            ],
            [
              77.042552,
              28.399829
            ],
            [
              77.043266,
              28.399189
            ],
            [
              77.042585,
              28.398189
            ],
            [
              77.04296,
              28.396597
            ],
            [
              77.045691,
              28.395328
            ],
            [
              77.045617,
              28.393189
            ],
            [
              77.051552,
              28.390703
            ],
            [
              77.055335,
              28.392189
            ],
            [
              77.053769,
              28.392406
            ],
            [
              77.053681,
              28.394189
            ],
            [
              77.054552,
              28.396029
            ],
            [
              77.055552,
              28.395818
            ],
            [
              77.056939,
              28.394189
            ],
            [
              77.056818,
              28.392923
            ],
            [
              77.055655,
              28.392189
            ],
            [
              77.057078,
              28.391189
            ],
            [
              77.056269,
              28.389906
            ],
            [
              77.057552,
              28.388958
            ],
            [
              77.058552,
              28.38984
            ],
            [
              77.062552,
              28.389207
            ],
            [
              77.063552,
              28.390781
            ],
            [
              77.067697,
              28.388334
            ],
            [
              77.069552,
              28.385155
            ],
            [
              77.069741,
              28.386001
            ],
            [
              77.072092,
              28.386189
            ],
            [
              77.070717,
              28.386354
            ],
            [
              77.068887,
              28.389189
            ],
            [
              77.070332,
              28.389969
            ],
            [
              77.070527,
              28.389164
            ],
            [
              77.072577,
              28.389165
            ],
            [
              77.071765,
              28.390189
            ],
            [
              77.073869,
              28.391189
            ],
            [
              77.072007,
              28.393189
            ],
            [
              77.073552,
              28.39366
            ],
            [
              77.076216,
              28.391189
            ],
            [
              77.076225,
              28.388517
            ],
            [
              77.074948,
              28.388189
            ],
            [
              77.078068,
              28.387704
            ],
            [
              77.078291,
              28.38645
            ],
            [
              77.077606,
              28.386189
            ],
            [
              77.078552,
              28.384818
            ],
            [
              77.078972,
              28.391189
            ],
            [
              77.081552,
              28.392635
            ],
            [
              77.082847,
              28.392484
            ],
            [
              77.08412,
              28.391189
            ],
            [
              77.082107,
              28.388634
            ],
            [
              77.080781,
              28.388418
            ],
            [
              77.080509,
              28.389233
            ],
            [
              77.080444,
              28.388189
            ],
            [
              77.081552,
              28.386594
            ],
            [
              77.081907,
              28.387834
            ],
            [
              77.084747,
              28.387995
            ],
            [
              77.085552,
              28.390742
            ],
            [
              77.086351,
              28.390189
            ],
            [
              77.086552,
              28.388114
            ],
            [
              77.088552,
              28.389888
            ],
            [
              77.090115,
              28.389752
            ],
            [
              77.090552,
              28.388757
            ],
            [
              77.090909,
              28.389832
            ],
            [
              77.09231,
              28.389946
            ],
            [
              77.092552,
              28.388733
            ],
            [
              77.093492,
              28.390189
            ],
            [
              77.092759,
              28.391189
            ],
            [
              77.095263,
              28.395189
            ],
            [
              77.093793,
              28.39543
            ],
            [
              77.093748,
              28.396189
            ],
            [
              77.094552,
              28.396979
            ],
            [
              77.09645,
              28.397189
            ],
            [
              77.094049,
              28.397686
            ],
            [
              77.093148,
              28.399593
            ],
            [
              77.09438,
              28.399017
            ],
            [
              77.097698,
              28.399189
            ],
            [
              77.097273,
              28.400469
            ],
            [
              77.099976,
              28.401189
            ],
            [
              77.098321,
              28.402189
            ],
            [
              77.102341,
              28.403189
            ],
            [
              77.098552,
              28.403465
            ],
            [
              77.098168,
              28.404574
            ],
            [
              77.102137,
              28.404774
            ],
            [
              77.102552,
              28.403443
            ],
            [
              77.103667,
              28.405189
            ],
            [
              77.102957,
              28.406189
            ],
            [
              77.104552,
              28.406693
            ],
            [
              77.104982,
              28.408759
            ],
            [
              77.107587,
              28.409189
            ],
            [
              77.107813,
              28.410189
            ],
            [
              77.106552,
              28.411066
            ],
            [
              77.106319,
              28.410422
            ],
            [
              77.103129,
              28.409766
            ],
            [
              77.10201,
              28.411189
            ],
            [
              77.102236,
              28.413505
            ],
            [
              77.103552,
              28.412763
            ],
            [
              77.106552,
              28.414831
            ],
            [
              77.107552,
              28.413735
            ],
            [
              77.10891,
              28.413547
            ],
            [
              77.110729,
              28.411189
            ],
            [
              77.110876,
              28.413189
            ],
            [
              77.110055,
              28.413691
            ],
            [
              77.109939,
              28.416189
            ],
            [
              77.108998,
              28.417189
            ],
            [
              77.111552,
              28.419009
            ],
            [
              77.113737,
              28.419189
            ],
            [
              77.113552,
              28.420392
            ],
            [
              77.114912,
              28.420189
            ],
            [
              77.113514,
              28.424151
            ],
            [
              77.114564,
              28.426201
            ],
            [
              77.113038,
              28.429189
            ],
            [
              77.11389,
              28.432526
            ],
            [
              77.109552,
              28.43257
            ],
            [
              77.108552,
              28.43359
            ],
            [
              77.10619,
              28.433827
            ],
            [
              77.104217,
              28.435854
            ],
            [
              77.100857,
              28.447189
            ],
            [
              77.099672,
              28.448189
            ],
            [
              77.100161,
              28.450189
            ],
            [
              77.098693,
              28.45033
            ],
            [
              77.098552,
              28.451228
            ],
            [
              77.097356,
              28.450993
            ],
            [
              77.097477,
              28.453189
            ],
            [
              77.096552,
              28.45349
            ],
            [
              77.095036,
              28.451706
            ],
            [
              77.093587,
              28.452189
            ],
            [
              77.095426,
              28.453189
            ],
            [
              77.094564,
              28.456201
            ],
            [
              77.091552,
              28.458324
            ],
            [
              77.085552,
              28.458371
            ],
            [
              77.083552,
              28.459411
            ],
            [
              77.080552,
              28.456942
            ],
            [
              77.079552,
              28.45817
            ],
            [
              77.078322,
              28.458189
            ],
            [
              77.078552,
              28.458821
            ],
            [
              77.079552,
              28.458248
            ],
            [
              77.080135,
              28.459607
            ],
            [
              77.081417,
              28.460189
            ],
            [
              77.080574,
              28.461211
            ],
            [
              77.078552,
              28.46171
            ],
            [
              77.074305,
              28.459942
            ],
            [
              77.073552,
              28.465571
            ]
          ]
        ],
        "type": "Polygon"
      },
      "type": "Feature"
    }
  ]
}