{
  "type": "FeatureCollection",
  "metadata": {
    "provider_name": "Khai Khai Rannaghar",
    "center_lat": 22.48296,
    "center_lon": 88.33665,
    "mode": "motorcycle",
    "total_zones": 4,
    "distance_zones": [
      3,
      4,
      5,
      6
    ],
    "generated_at": "2025-12-28T10:16:12.369271Z"
  },
  "features": [
    {
      "properties": {
        "fill-opacity": 0.33,
        "fillColor": "#bf4040",
        "opacity": 0.33,
        "fill": "#bf4040",
        "fillOpacity": 0.33,
        "color": "#bf4040",
        "contour": 3.0,
        "metric": "distance",
        "provider_name": "Khai Khai Rannaghar",
        "zone_type": "distance",
        "distance_km": 3,
        "mode": "motorcycle",
        "center_lat": 22.48296,
        "center_lon": 88.33665,
        "label": "3km"
      },
      "geometry": {
        "coordinates": [
          [
            [
              88.34565,
              22.505555
            ],
            [
              88.341971,
              22.503638
            ],
            [
              88.34065,
              22.504316
            ],
            [
              88.33865,
              22.50134
            ],
            [
              88.337677,
              22.502987
            ],
            [
              88.33665,
              22.500998
            ],
            [
              88.335926,
              22.501236
            ],
            [
              88.335665,
              22.502975
            ],
            [
              88.33265,
              22.503842
            ],
            [
              88.328171,
              22.500438
            ],
            [
              88.32565,
              22.500222
            ],
            [
              88.32265,
              22.496954
            ],
            [
              88.319441,
              22.49496
            ],
            [
              88.3193,
              22.49261
            ],
            [
              88.321706,
              22.491903
            ],
            [
              88.317246,
              22.491363
            ],
            [
              88.312545,
              22.48696
            ],
            [
              88.313899,
              22.486209
            ],
            [
              88.315289,
              22.48396
            ],
            [
              88.31285,
              22.48096
            ],
            [
              88.31565,
              22.478298
            ],
            [
              88.31609,
              22.47496
            ],
            [
              88.31765,
              22.473702
            ],
            [
              88.32465,
              22.472634
            ],
            [
              88.325219,
              22.47096
            ],
            [
              88.324265,
              22.46996
            ],
            [
              88.32465,
              22.469545
            ],
            [
              88.329701,
              22.469011
            ],
            [
              88.327587,
              22.46696
            ],
            [
              88.327807,
              22.466117
            ],
            [
              88.329448,
              22.465758
            ],
            [
              88.33065,
              22.46419
            ],
            [
              88.331059,
              22.46555
            ],
            [
              88.332135,
              22.465445
            ],
            [
              88.332262,
              22.464347
            ],
            [
              88.330938,
              22.463671
            ],
            [
              88.32997,
              22.46196
            ],
            [
              88.330513,
              22.46096
            ],
            [
              88.331679,
              22.460989
            ],
            [
              88.33365,
              22.459198
            ],
            [
              88.336514,
              22.461095
            ],
            [
              88.33965,
              22.461746
            ],
            [
              88.34265,
              22.459387
            ],
            [
              88.346544,
              22.46296
            ],
            [
              88.350368,
              22.46496
            ],
            [
              88.350754,
              22.466855
            ],
            [
              88.35465,
              22.468751
            ],
            [
              88.354117,
              22.471427
            ],
            [
              88.35257,
              22.47188
            ],
            [
              88.352028,
              22.473581
            ],
            [
              88.353289,
              22.473599
            ],
            [
              88.35365,
              22.472051
            ],
            [
              88.358296,
              22.47396
            ],
            [
              88.358489,
              22.47496
            ],
            [
              88.357742,
              22.475052
            ],
            [
              88.357559,
              22.47696
            ],
            [
              88.355912,
              22.478222
            ],
            [
              88.355754,
              22.480064
            ],
            [
              88.35165,
              22.483137
            ],
            [
              88.350466,
              22.487776
            ],
            [
              88.349609,
              22.48796
            ],
            [
              88.350661,
              22.491948
            ],
            [
              88.349915,
              22.492225
            ],
            [
              88.349605,
              22.49696
            ],
            [
              88.35165,
              22.497453
            ],
            [
              88.352399,
              22.49896
            ],
            [
              88.349551,
              22.50096
            ],
            [
              88.34765,
              22.50364
            ],
            [
              88.345528,
              22.503838
            ],
            [
              88.34565,
              22.505555
            ]
          ]
        ],
        "type": "Polygon"
      },
      "type": "Feature"
    },
    {
      "properties": {
        "fill-opacity": 0.33,
        "fillColor": "#bf4040",
        "opacity": 0.33,
        "fill": "#bf4040",
        "fillOpacity": 0.33,
        "color": "#bf4040",
        "contour": 4.0,
        "metric": "distance",
        "provider_name": "Khai Khai Rannaghar",
        "zone_type": "distance",
        "distance_km": 4,
        "mode": "motorcycle",
        "center_lat": 22.48296,
        "center_lon": 88.33665,
        "label": "4km"
      },
      "geometry": {
        "coordinates": [
          [
            [
              88.34665,
              22.514
            ],
            [
              88.34565,
              22.514654
            ],
            [
              88.34445,
              22.51396
            ],
            [
              88.343933,
              22.511676
            ],
            [
              88.34265,
              22.511146
            ],
            [
              88.34165,
              22.512378
            ],
            [
              88.34065,
              22.512007
            ],
            [
              88.340296,
              22.510313
            ],
            [
              88.33765,
              22.508414
            ],
            [
              88.33465,
              22.507703
            ],
            [
              88.334071,
              22.50696
            ],
            [
              88.335013,
              22.505323
            ],
            [
              88.334836,
              22.504773
            ],
            [
              88.334579,
              22.505889
            ],
            [
              88.33265,
              22.505762
            ],
            [
              88.33165,
              22.506674
            ],
            [
              88.32965,
              22.50547
            ],
            [
              88.32765,
              22.506257
            ],
            [
              88.32665,
              22.505184
            ],
            [
              88.323579,
              22.50603
            ],
            [
              88.322337,
              22.50396
            ],
            [
              88.323267,
              22.50296
            ],
            [
              88.321197,
              22.501412
            ],
            [
              88.320736,
              22.499873
            ],
            [
              88.317952,
              22.498657
            ],
            [
              88.317986,
              22.496623
            ],
            [
              88.31165,
              22.493861
            ],
            [
              88.311159,
              22.49145
            ],
            [
              88.30751,
              22.491099
            ],
            [
              88.305238,
              22.489371
            ],
            [
              88.305571,
              22.48696
            ],
            [
              88.303476,
              22.48396
            ],
            [
              88.307224,
              22.481534
            ],
            [
              88.31065,
              22.477854
            ],
            [
              88.31165,
              22.479126
            ],
            [
              88.31212,
              22.47696
            ],
            [
              88.311051,
              22.47596
            ],
            [
              88.311586,
              22.47096
            ],
            [
              88.313309,
              22.470619
            ],
            [
              88.31365,
              22.467553
            ],
            [
              88.315931,
              22.468241
            ],
            [
              88.31865,
              22.468004
            ],
            [
              88.320565,
              22.46696
            ],
            [
              88.319658,
              22.46596
            ],
            [
              88.320943,
              22.465253
            ],
            [
              88.321191,
              22.463501
            ],
            [
              88.323213,
              22.461523
            ],
            [
              88.323026,
              22.460583
            ],
            [
              88.320997,
              22.45896
            ],
            [
              88.32265,
              22.456608
            ],
            [
              88.324913,
              22.456223
            ],
            [
              88.325067,
              22.45396
            ],
            [
              88.32765,
              22.454078
            ],
            [
              88.328488,
              22.45296
            ],
            [
              88.32965,
              22.4531
            ],
            [
              88.33065,
              22.451132
            ],
            [
              88.33165,
              22.452478
            ],
            [
              88.33265,
              22.451591
            ],
            [
              88.33437,
              22.451681
            ],
            [
              88.33465,
              22.450248
            ],
            [
              88.33529,
              22.452319
            ],
            [
              88.33711,
              22.45296
            ],
            [
              88.337596,
              22.45396
            ],
            [
              88.334215,
              22.455525
            ],
            [
              88.334254,
              22.456355
            ],
            [
              88.33684,
              22.456769
            ],
            [
              88.33865,
              22.458621
            ],
            [
              88.34365,
              22.452461
            ],
            [
              88.346482,
              22.453127
            ],
            [
              88.35046,
              22.458149
            ],
            [
              88.354855,
              22.45996
            ],
            [
              88.355694,
              22.46196
            ],
            [
              88.35501,
              22.46296
            ],
            [
              88.355543,
              22.465066
            ],
            [
              88.35865,
              22.466748
            ],
            [
              88.36265,
              22.46742
            ],
            [
              88.363312,
              22.46796
            ],
            [
              88.362782,
              22.468092
            ],
            [
              88.363067,
              22.469542
            ],
            [
              88.36639,
              22.46996
            ],
            [
              88.365698,
              22.470008
            ],
            [
              88.365696,
              22.471006
            ],
            [
              88.362179,
              22.472489
            ],
            [
              88.356498,
              22.478808
            ],
            [
              88.356353,
              22.480663
            ],
            [
              88.35551,
              22.481099
            ],
            [
              88.355226,
              22.482383
            ],
            [
              88.356729,
              22.48696
            ],
            [
              88.358577,
              22.48896
            ],
            [
              88.35565,
              22.489213
            ],
            [
              88.351307,
              22.491617
            ],
            [
              88.350244,
              22.49296
            ],
            [
              88.35065,
              22.493506
            ],
            [
              88.351193,
              22.492503
            ],
            [
              88.35265,
              22.492583
            ],
            [
              88.35465,
              22.493698
            ],
            [
              88.35565,
              22.4928
            ],
            [
              88.357692,
              22.493002
            ],
            [
              88.355969,
              22.493279
            ],
            [
              88.35565,
              22.494156
            ],
            [
              88.35129,
              22.4946
            ],
            [
              88.35165,
              22.496465
            ],
            [
              88.35365,
              22.49556
            ],
            [
              88.35465,
              22.496585
            ],
            [
              88.35665,
              22.496724
            ],
            [
              88.35865,
              22.494224
            ],
            [
              88.359101,
              22.494508
            ],
            [
              88.361136,
              22.49696
            ],
            [
              88.360272,
              22.49796
            ],
            [
              88.35732,
              22.49896
            ],
            [
              88.359036,
              22.50196
            ],
            [
              88.358766,
              22.50296
            ],
            [
              88.357305,
              22.50496
            ],
            [
              88.354681,
              22.505991
            ],
            [
              88.35265,
              22.508097
            ],
            [
              88.35165,
              22.507444
            ],
            [
              88.349046,
              22.508356
            ],
            [
              88.349047,
              22.509562
            ],
            [
              88.350679,
              22.509931
            ],
            [
              88.350712,
              22.51096
            ],
            [
              88.34665,
              22.514
            ]
          ]
        ],
        "type": "Polygon"
      },
      "type": "Feature"
    },
    {
      "properties": {
        "fill-opacity": 0.33,
        "fillColor": "#bf4040",
        "opacity": 0.33,
        "fill": "#bf4040",
        "fillOpacity": 0.33,
        "color": "#bf4040",
        "contour": 5.0,
        "metric": "distance",
        "provider_name": "Khai Khai Rannaghar",
        "zone_type": "distance",
        "distance_km": 5,
        "mode": "motorcycle",
        "center_lat": 22.48296,
        "center_lon": 88.33665,
        "label": "5km"
      },
      "geometry": {
        "coordinates": [
          [
            [
              88.34765,
              22.522987
            ],
            [
              88.34665,
              22.52355
            ],
            [
              88.34565,
              22.523057
            ],
            [
              88.338534,
              22.517075
            ],
            [
              88.338725,
              22.51596
            ],
            [
              88.335492,
              22.51396
            ],
            [
              88.334443,
              22.512166
            ],
            [
              88.335241,
              22.511551
            ],
            [
              88.335091,
              22.510518
            ],
            [
              88.334199,
              22.510509
            ],
            [
              88.332952,
              22.51196
            ],
            [
              88.333371,
              22.513681
            ],
            [
              88.33265,
              22.515854
            ],
            [
              88.33165,
              22.512012
            ],
            [
              88.329697,
              22.514007
            ],
            [
              88.327897,
              22.513713
            ],
            [
              88.327156,
              22.51196
            ],
            [
              88.328532,
              22.50996
            ],
            [
              88.327113,
              22.508496
            ],
            [
              88.32439,
              22.50696
            ],
            [
              88.323219,
              22.50696
            ],
            [
              88.32265,
              22.507884
            ],
            [
              88.32246,
              22.507149
            ],
            [
              88.321415,
              22.50696
            ],
            [
              88.321034,
              22.504575
            ],
            [
              88.318862,
              22.504747
            ],
            [
              88.316092,
              22.502517
            ],
            [
              88.312384,
              22.50096
            ],
            [
              88.311649,
              22.49996
            ],
            [
              88.312354,
              22.49896
            ],
            [
              88.311512,
              22.498097
            ],
            [
              88.310135,
              22.498445
            ],
            [
              88.30965,
              22.499416
            ],
            [
              88.30765,
              22.499084
            ],
            [
              88.303887,
              22.495722
            ],
            [
              88.2995,
              22.494109
            ],
            [
              88.298302,
              22.49296
            ],
            [
              88.299891,
              22.491201
            ],
            [
              88.30006,
              22.48996
            ],
            [
              88.294012,
              22.48496
            ],
            [
              88.295287,
              22.483597
            ],
            [
              88.295932,
              22.484677
            ],
            [
              88.297167,
              22.484477
            ],
            [
              88.297315,
              22.483294
            ],
            [
              88.296169,
              22.48296
            ],
            [
              88.29665,
              22.481352
            ],
            [
              88.296871,
              22.482739
            ],
            [
              88.298403,
              22.48196
            ],
            [
              88.296983,
              22.48096
            ],
            [
              88.29665,
              22.479385
            ],
            [
              88.297794,
              22.479104
            ],
            [
              88.29865,
              22.477624
            ],
            [
              88.30065,
              22.478708
            ],
            [
              88.302731,
              22.47796
            ],
            [
              88.30365,
              22.475539
            ],
            [
              88.306284,
              22.474594
            ],
            [
              88.30965,
              22.468983
            ],
            [
              88.311116,
              22.46996
            ],
            [
              88.312702,
              22.470012
            ],
            [
              88.31276,
              22.468849
            ],
            [
              88.311885,
              22.46796
            ],
            [
              88.314297,
              22.46596
            ],
            [
              88.313447,
              22.46496
            ],
            [
              88.31465,
              22.463086
            ],
            [
              88.315468,
              22.46296
            ],
            [
              88.311452,
              22.458762
            ],
            [
              88.31265,
              22.457308
            ],
            [
              88.312927,
              22.458682
            ],
            [
              88.31365,
              22.458761
            ],
            [
              88.315212,
              22.457522
            ],
            [
              88.31465,
              22.453882
            ],
            [
              88.316566,
              22.453876
            ],
            [
              88.31761,
              22.45292
            ],
            [
              88.31981,
              22.45012
            ],
            [
              88.31936,
              22.44867
            ],
            [
              88.32065,
              22.446801
            ],
            [
              88.320834,
              22.447775
            ],
            [
              88.321729,
              22.44788
            ],
            [
              88.324192,
              22.450417
            ],
            [
              88.325072,
              22.450382
            ],
            [
              88.325481,
              22.448791
            ],
            [
              88.32665,
              22.448738
            ],
            [
              88.325983,
              22.44996
            ],
            [
              88.327859,
              22.45075
            ],
            [
              88.32829,
              22.452319
            ],
            [
              88.32998,
              22.45129
            ],
            [
              88.330186,
              22.44996
            ],
            [
              88.328332,
              22.44696
            ],
            [
              88.328346,
              22.444263
            ],
            [
              88.32757,
              22.444039
            ],
            [
              88.327534,
              22.442844
            ],
            [
              88.32765,
              22.44286
            ],
            [
              88.327872,
              22.443737
            ],
            [
              88.33065,
              22.443731
            ],
            [
              88.33265,
              22.444772
            ],
            [
              88.33565,
              22.441703
            ],
            [
              88.336534,
              22.44296
            ],
            [
              88.335891,
              22.443201
            ],
            [
              88.336073,
              22.444537
            ],
            [
              88.338506,
              22.44496
            ],
            [
              88.337723,
              22.446033
            ],
            [
              88.338121,
              22.447488
            ],
            [
              88.34135,
              22.44796
            ],
            [
              88.341452,
              22.44896
            ],
            [
              88.33865,
              22.449008
            ],
            [
              88.338039,
              22.44996
            ],
            [
              88.338136,
              22.45296
            ],
            [
              88.33865,
              22.453489
            ],
            [
              88.339938,
              22.452671
            ],
            [
              88.339919,
              22.455229
            ],
            [
              88.33665,
              22.454489
            ],
            [
              88.334273,
              22.45596
            ],
            [
              88.337038,
              22.456571
            ],
            [
              88.33865,
              22.458358
            ],
            [
              88.342946,
              22.453256
            ],
            [
              88.34365,
              22.450253
            ],
            [
              88.345019,
              22.45059
            ],
            [
              88.34565,
              22.452362
            ],
            [
              88.347376,
              22.449686
            ],
            [
              88.34865,
              22.450569
            ],
            [
              88.35065,
              22.44975
            ],
            [
              88.351145,
              22.451464
            ],
            [
              88.3534,
              22.45196
            ],
            [
              88.353171,
              22.454438
            ],
            [
              88.3538,
              22.45496
            ],
            [
              88.353263,
              22.455573
            ],
            [
              88.354523,
              22.458086
            ],
            [
              88.355206,
              22.456516
            ],
            [
              88.35865,
              22.456656
            ],
            [
              88.35865,
              22.458933
            ],
            [
              88.362541,
              22.460068
            ],
            [
              88.362567,
              22.461042
            ],
            [
              88.362686,
              22.45996
            ],
            [
              88.36465,
              22.458624
            ],
            [
              88.366051,
              22.45996
            ],
            [
              88.366163,
              22.461446
            ],
            [
              88.367948,
              22.46296
            ],
            [
              88.36965,
              22.46325
            ],
            [
              88.369613,
              22.46496
            ],
            [
              88.367976,
              22.465286
            ],
            [
              88.367858,
              22.46596
            ],
            [
              88.369902,
              22.469212
            ],
            [
              88.36865,
              22.470434
            ],
            [
              88.36665,
              22.470531
            ],
            [
              88.36419,
              22.4725
            ],
            [
              88.362553,
              22.472863
            ],
            [
              88.36113,
              22.47496
            ],
            [
              88.360355,
              22.47996
            ],
            [
              88.36465,
              22.484723
            ],
            [
              88.366481,
              22.48796
            ],
            [
              88.365421,
              22.48996
            ],
            [
              88.365914,
              22.49196
            ],
            [
              88.365297,
              22.49396
            ],
            [
              88.36765,
              22.494235
            ],
            [
              88.369806,
              22.49596
            ],
            [
              88.369672,
              22.496982
            ],
            [
              88.367085,
              22.499395
            ],
            [
              88.366325,
              22.50196
            ],
            [
              88.368773,
              22.50296
            ],
            [
              88.36665,
              22.504596
            ],
            [
              88.366505,
              22.504104
            ],
            [
              88.365021,
              22.504331
            ],
            [
              88.36465,
              22.506898
            ],
            [
              88.36065,
              22.510103
            ],
            [
              88.35865,
              22.509102
            ],
            [
              88.35665,
              22.50927
            ],
            [
              88.35565,
              22.50836
            ],
            [
              88.354283,
              22.508593
            ],
            [
              88.354074,
              22.50996
            ],
            [
              88.355121,
              22.511488
            ],
            [
              88.358247,
              22.51196
            ],
            [
              88.357886,
              22.51296
            ],
            [
              88.358708,
              22.51396
            ],
            [
              88.356148,
              22.51596
            ],
            [
              88.354211,
              22.515521
            ],
            [
              88.34765,
              22.522987
            ]
          ]
        ],
        "type": "Polygon"
      },
      "type": "Feature"
    },
    {
      "properties": {
        "fill-opacity": 0.33,
        "fillColor": "#bf4040",
        "opacity": 0.33,
        "fill": "#bf4040",
        "fillOpacity": 0.33,
        "color": "#bf4040",
        "contour": 6.0,
        "metric": "distance",
        "provider_name": "Khai Khai Rannaghar",
        "zone_type": "distance",
        "distance_km": 6,
        "mode": "motorcycle",
        "center_lat": 22.48296,
        "center_lon": 88.33665,
        "label": "6km"
      },
      "geometry": {
        "coordinates": [
          [
            [
              88.34565,
              22.532408
            ],
            [
              88.341823,
              22.52896
            ],
            [
              88.341294,
              22.525315
            ],
            [
              88.336059,
              22.52355
            ],
            [
              88.33565,
              22.52133
            ],
            [
              88.33327,
              22.52158
            ],
            [
              88.33365,
              22.523153
            ],
            [
              88.332748,
              22.524058
            ],
            [
              88.331495,
              22.522115
            ],
            [
              88.329575,
              22.52196
            ],
            [
              88.327975,
              22.519634
            ],
            [
              88.325908,
              22.518701
            ],
            [
              88.324996,
              22.516613
            ],
            [
              88.322348,
              22.516261
            ],
            [
              88.32118,
              22.510429
            ],
            [
              88.318606,
              22.511003
            ],
            [
              88.317834,
              22.509775
            ],
            [
              88.31565,
              22.50974
            ],
            [
              88.314376,
              22.508233
            ],
            [
              88.31265,
              22.507698
            ],
            [
              88.31165,
              22.508269
            ],
            [
              88.309574,
              22.50696
            ],
            [
              88.310413,
              22.50496
            ],
            [
              88.30865,
              22.505709
            ],
            [
              88.305399,
              22.50521
            ],
            [
              88.30465,
              22.50377
            ],
            [
              88.303107,
              22.50296
            ],
            [
              88.304472,
              22.49996
            ],
            [
              88.30065,
              22.499474
            ],
            [
              88.29765,
              22.497199
            ],
            [
              88.296538,
              22.498071
            ],
            [
              88.296141,
              22.496468
            ],
            [
              88.294298,
              22.49596
            ],
            [
              88.295035,
              22.49496
            ],
            [
              88.29465,
              22.493291
            ],
            [
              88.284555,
              22.48596
            ],
            [
              88.284583,
              22.48496
            ],
            [
              88.285442,
              22.484752
            ],
            [
              88.289377,
              22.47896
            ],
            [
              88.29065,
              22.479452
            ],
            [
              88.29146,
              22.47896
            ],
            [
              88.291019,
              22.47696
            ],
            [
              88.293202,
              22.47496
            ],
            [
              88.293777,
              22.472087
            ],
            [
              88.29465,
              22.471622
            ],
            [
              88.297785,
              22.473095
            ],
            [
              88.29965,
              22.47196
            ],
            [
              88.300318,
              22.46996
            ],
            [
              88.30265,
              22.468654
            ],
            [
              88.30465,
              22.469328
            ],
            [
              88.306688,
              22.467998
            ],
            [
              88.305758,
              22.466851
            ],
            [
              88.306758,
              22.463851
            ],
            [
              88.30565,
              22.464374
            ],
            [
              88.304643,
              22.463966
            ],
            [
              88.304468,
              22.46296
            ],
            [
              88.30599,
              22.4623
            ],
            [
              88.30665,
              22.460502
            ],
            [
              88.31265,
              22.464033
            ],
            [
              88.312787,
              22.461822
            ],
            [
              88.309693,
              22.461917
            ],
            [
              88.30889,
              22.45896
            ],
            [
              88.30641,
              22.45496
            ],
            [
              88.308129,
              22.454439
            ],
            [
              88.309436,
              22.45196
            ],
            [
              88.309279,
              22.45133
            ],
            [
              88.30713,
              22.45096
            ],
            [
              88.307487,
              22.44896
            ],
            [
              88.308662,
              22.447972
            ],
            [
              88.311128,
              22.447438
            ],
            [
              88.31165,
              22.446188
            ],
            [
              88.314389,
              22.44396
            ],
            [
              88.316201,
              22.444511
            ],
            [
              88.31765,
              22.442692
            ],
            [
              88.31865,
              22.442574
            ],
            [
              88.31965,
              22.443945
            ],
            [
              88.32065,
              22.442784
            ],
            [
              88.32365,
              22.442632
            ],
            [
              88.325022,
              22.443332
            ],
            [
              88.325077,
              22.439532
            ],
            [
              88.324176,
              22.439486
            ],
            [
              88.32365,
              22.440666
            ],
            [
              88.322532,
              22.439842
            ],
            [
              88.32165,
              22.44092
            ],
            [
              88.321462,
              22.440147
            ],
            [
              88.32009,
              22.43996
            ],
            [
              88.320351,
              22.43896
            ],
            [
              88.324117,
              22.438427
            ],
            [
              88.324179,
              22.43743
            ],
            [
              88.322686,
              22.43696
            ],
            [
              88.324375,
              22.435685
            ],
            [
              88.32465,
              22.434394
            ],
            [
              88.325811,
              22.43496
            ],
            [
              88.325166,
              22.437443
            ],
            [
              88.32765,
              22.438682
            ],
            [
              88.32865,
              22.438312
            ],
            [
              88.32965,
              22.439805
            ],
            [
              88.33065,
              22.438769
            ],
            [
              88.334155,
              22.438465
            ],
            [
              88.334461,
              22.435149
            ],
            [
              88.333405,
              22.434715
            ],
            [
              88.3354,
              22.43471
            ],
            [
              88.33565,
              22.433451
            ],
            [
              88.33665,
              22.435171
            ],
            [
              88.337324,
              22.43396
            ],
            [
              88.33865,
              22.433938
            ],
            [
              88.339571,
              22.43596
            ],
            [
              88.338849,
              22.43796
            ],
            [
              88.337196,
              22.438506
            ],
            [
              88.336084,
              22.43996
            ],
            [
              88.337287,
              22.441322
            ],
            [
              88.33965,
              22.439704
            ],
            [
              88.344939,
              22.43996
            ],
            [
              88.343012,
              22.440322
            ],
            [
              88.34365,
              22.442045
            ],
            [
              88.341201,
              22.441511
            ],
            [
              88.340061,
              22.44296
            ],
            [
              88.340284,
              22.444325
            ],
            [
              88.34265,
              22.445629
            ],
            [
              88.34865,
              22.445746
            ],
            [
              88.350762,
              22.44796
            ],
            [
              88.350346,
              22.44896
            ],
            [
              88.351419,
              22.44919
            ],
            [
              88.351531,
              22.451078
            ],
            [
              88.352867,
              22.451177
            ],
            [
              88.35365,
              22.450331
            ],
            [
              88.35565,
              22.452547
            ],
            [
              88.36165,
              22.452959
            ],
            [
              88.362357,
              22.454252
            ],
            [
              88.363558,
              22.452868
            ],
            [
              88.365393,
              22.452703
            ],
            [
              88.36565,
              22.451903
            ],
            [
              88.3658,
              22.452809
            ],
            [
              88.366688,
              22.45296
            ],
            [
              88.366865,
              22.455744
            ],
            [
              88.36871,
              22.45696
            ],
            [
              88.367912,
              22.457222
            ],
            [
              88.368057,
              22.458552
            ],
            [
              88.369827,
              22.459782
            ],
            [
              88.370016,
              22.46196
            ],
            [
              88.371059,
              22.46296
            ],
            [
              88.370038,
              22.465348
            ],
            [
              88.368303,
              22.46596
            ],
            [
              88.370275,
              22.468334
            ],
            [
              88.370545,
              22.469855
            ],
            [
              88.369622,
              22.469987
            ],
            [
              88.369414,
              22.47296
            ],
            [
              88.367337,
              22.475647
            ],
            [
              88.366626,
              22.47896
            ],
            [
              88.37499,
              22.48396
            ],
            [
              88.371968,
              22.488278
            ],
            [
              88.371036,
              22.492346
            ],
            [
              88.369613,
              22.49396
            ],
            [
              88.37065,
              22.494577
            ],
            [
              88.371822,
              22.49396
            ],
            [
              88.372854,
              22.49596
            ],
            [
              88.373325,
              22.500284
            ],
            [
              88.377983,
              22.50296
            ],
            [
              88.377374,
              22.504684
            ],
            [
              88.37465,
              22.50707
            ],
            [
              88.37265,
              22.506427
            ],
            [
              88.371503,
              22.506813
            ],
            [
              88.37065,
              22.509471
            ],
            [
              88.368171,
              22.511481
            ],
            [
              88.36765,
              22.512819
            ],
            [
              88.36665,
              22.510366
            ],
            [
              88.36365,
              22.510382
            ],
            [
              88.36265,
              22.509457
            ],
            [
              88.35965,
              22.510492
            ],
            [
              88.35865,
              22.509498
            ],
            [
              88.354413,
              22.508723
            ],
            [
              88.354284,
              22.50996
            ],
            [
              88.35536,
              22.511249
            ],
            [
              88.359955,
              22.511654
            ],
            [
              88.359093,
              22.51296
            ],
            [
              88.35965,
              22.513481
            ],
            [
              88.36494,
              22.51367
            ],
            [
              88.366035,
              22.514574
            ],
            [
              88.36597,
              22.51596
            ],
            [
              88.36465,
              22.517277
            ],
            [
              88.361527,
              22.51796
            ],
            [
              88.362316,
              22.51896
            ],
            [
              88.361538,
              22.51996
            ],
            [
              88.359192,
              22.520502
            ],
            [
              88.358761,
              22.522071
            ],
            [
              88.356442,
              22.521752
            ],
            [
              88.352991,
              22.527301
            ],
            [
              88.35065,
              22.52918
            ],
            [
              88.349472,
              22.528782
            ],
            [
              88.34565,
              22.532408
            ]
          ]
        ],
        "type": "Polygon"
      },
      "type": "Feature"
    }
  ]
}