{
  "type": "FeatureCollection",
  "metadata": {
    "provider_name": "Kanpur Mithai House",
    "center_lat": 23.02028612,
    "center_lon": 72.60604084,
    "mode": "motorcycle",
    "total_zones": 4,
    "distance_zones": [
      3,
      4,
      5,
      6
    ],
    "generated_at": "2025-12-26T06:02:52.889885Z"
  },
  "features": [
    {
      "properties": {
        "fill-opacity": 0.33,
        "fillColor": "#bf4040",
        "opacity": 0.33,
        "fill": "#bf4040",
        "fillOpacity": 0.33,
        "color": "#bf4040",
        "contour": 3.0,
        "metric": "distance",
        "provider_name": "Kanpur Mithai House",
        "zone_type": "distance",
        "distance_km": 3,
        "mode": "motorcycle",
        "center_lat": 23.02028612,
        "center_lon": 72.60604084,
        "label": "3km"
      },
      "geometry": {
        "coordinates": [
          [
            [
              72.60504,
              23.042759
            ],
            [
              72.603433,
              23.042286
            ],
            [
              72.603525,
              23.039801
            ],
            [
              72.601515,
              23.03976
            ],
            [
              72.60004,
              23.040833
            ],
            [
              72.59947,
              23.037856
            ],
            [
              72.59704,
              23.037978
            ],
            [
              72.59604,
              23.036461
            ],
            [
              72.59504,
              23.036686
            ],
            [
              72.594156,
              23.03517
            ],
            [
              72.59525,
              23.033076
            ],
            [
              72.592866,
              23.032286
            ],
            [
              72.593246,
              23.03008
            ],
            [
              72.592037,
              23.028286
            ],
            [
              72.592605,
              23.026851
            ],
            [
              72.59504,
              23.027363
            ],
            [
              72.597019,
              23.025264
            ],
            [
              72.59904,
              23.028046
            ],
            [
              72.599816,
              23.027286
            ],
            [
              72.60004,
              23.024791
            ],
            [
              72.601229,
              23.027097
            ],
            [
              72.600326,
              23.028286
            ],
            [
              72.600427,
              23.030286
            ],
            [
              72.601371,
              23.032286
            ],
            [
              72.602325,
              23.032571
            ],
            [
              72.602368,
              23.023286
            ],
            [
              72.601382,
              23.022286
            ],
            [
              72.604578,
              23.015823
            ],
            [
              72.606333,
              23.015286
            ],
            [
              72.605347,
              23.014286
            ],
            [
              72.606353,
              23.013286
            ],
            [
              72.606402,
              23.010286
            ],
            [
              72.607471,
              23.008855
            ],
            [
              72.60604,
              23.008749
            ],
            [
              72.603604,
              23.00985
            ],
            [
              72.60304,
              23.010889
            ],
            [
              72.601723,
              23.010968
            ],
            [
              72.60104,
              23.012913
            ],
            [
              72.600305,
              23.012286
            ],
            [
              72.600918,
              23.012163
            ],
            [
              72.600671,
              23.010655
            ],
            [
              72.599253,
              23.010286
            ],
            [
              72.598746,
              23.009286
            ],
            [
              72.60204,
              23.010006
            ],
            [
              72.604437,
              23.008682
            ],
            [
              72.60404,
              23.001965
            ],
            [
              72.60704,
              23.001468
            ],
            [
              72.60904,
              23.002286
            ],
            [
              72.607375,
              23.006286
            ],
            [
              72.609318,
              23.006563
            ],
            [
              72.610776,
              23.004286
            ],
            [
              72.610385,
              23.000286
            ],
            [
              72.61404,
              22.997952
            ],
            [
              72.61604,
              22.999132
            ],
            [
              72.61704,
              23.001137
            ],
            [
              72.61904,
              22.999342
            ],
            [
              72.619568,
              23.000758
            ],
            [
              72.62147,
              23.001286
            ],
            [
              72.622069,
              23.002286
            ],
            [
              72.620066,
              23.004286
            ],
            [
              72.620343,
              23.005286
            ],
            [
              72.623085,
              23.007286
            ],
            [
              72.622942,
              23.008384
            ],
            [
              72.625435,
              23.008891
            ],
            [
              72.62704,
              23.010445
            ],
            [
              72.62804,
              23.012867
            ],
            [
              72.629942,
              23.014286
            ],
            [
              72.630175,
              23.01642
            ],
            [
              72.62904,
              23.016122
            ],
            [
              72.627815,
              23.01706
            ],
            [
              72.627652,
              23.019674
            ],
            [
              72.632729,
              23.019974
            ],
            [
              72.63304,
              23.018301
            ],
            [
              72.634668,
              23.020286
            ],
            [
              72.632752,
              23.020997
            ],
            [
              72.632567,
              23.022286
            ],
            [
              72.634376,
              23.023286
            ],
            [
              72.63404,
              23.024539
            ],
            [
              72.630501,
              23.024746
            ],
            [
              72.62803,
              23.028276
            ],
            [
              72.625207,
              23.030452
            ],
            [
              72.625465,
              23.031861
            ],
            [
              72.626277,
              23.032286
            ],
            [
              72.624178,
              23.034286
            ],
            [
              72.625087,
              23.035286
            ],
            [
              72.623193,
              23.037286
            ],
            [
              72.62369,
              23.038286
            ],
            [
              72.62304,
              23.039779
            ],
            [
              72.62104,
              23.040253
            ],
            [
              72.620873,
              23.039453
            ],
            [
              72.617261,
              23.039286
            ],
            [
              72.61404,
              23.037585
            ],
            [
              72.613179,
              23.039425
            ],
            [
              72.611847,
              23.040286
            ],
            [
              72.61204,
              23.041541
            ],
            [
              72.61104,
              23.041986
            ],
            [
              72.610746,
              23.04058
            ],
            [
              72.609425,
              23.04067
            ],
            [
              72.60904,
              23.041379
            ],
            [
              72.608661,
              23.040665
            ],
            [
              72.60625,
              23.040496
            ],
            [
              72.60504,
              23.042759
            ]
          ]
        ],
        "type": "Polygon"
      },
      "type": "Feature"
    },
    {
      "properties": {
        "fill-opacity": 0.33,
        "fillColor": "#bf4040",
        "opacity": 0.33,
        "fill": "#bf4040",
        "fillOpacity": 0.33,
        "color": "#bf4040",
        "contour": 4.0,
        "metric": "distance",
        "provider_name": "Kanpur Mithai House",
        "zone_type": "distance",
        "distance_km": 4,
        "mode": "motorcycle",
        "center_lat": 23.02028612,
        "center_lon": 72.60604084,
        "label": "4km"
      },
      "geometry": {
        "coordinates": [
          [
            [
              72.61104,
              23.049905
            ],
            [
              72.607528,
              23.049286
            ],
            [
              72.606482,
              23.046844
            ],
            [
              72.605076,
              23.046321
            ],
            [
              72.604786,
              23.047031
            ],
            [
              72.602752,
              23.046997
            ],
            [
              72.60104,
              23.049394
            ],
            [
              72.598806,
              23.047286
            ],
            [
              72.598409,
              23.043917
            ],
            [
              72.597616,
              23.043861
            ],
            [
              72.59704,
              23.045881
            ],
            [
              72.596627,
              23.043699
            ],
            [
              72.59404,
              23.0438
            ],
            [
              72.593726,
              23.0426
            ],
            [
              72.590764,
              23.042286
            ],
            [
              72.590517,
              23.03981
            ],
            [
              72.588469,
              23.039857
            ],
            [
              72.586524,
              23.038803
            ],
            [
              72.584972,
              23.036217
            ],
            [
              72.585873,
              23.034118
            ],
            [
              72.586211,
              23.035115
            ],
            [
              72.58759,
              23.034835
            ],
            [
              72.588248,
              23.032493
            ],
            [
              72.587471,
              23.031286
            ],
            [
              72.588671,
              23.030286
            ],
            [
              72.58604,
              23.029189
            ],
            [
              72.58504,
              23.029655
            ],
            [
              72.584695,
              23.027631
            ],
            [
              72.58304,
              23.027433
            ],
            [
              72.582664,
              23.026286
            ],
            [
              72.586074,
              23.023319
            ],
            [
              72.586972,
              23.021286
            ],
            [
              72.590004,
              23.019249
            ],
            [
              72.59204,
              23.020084
            ],
            [
              72.591499,
              23.021286
            ],
            [
              72.592649,
              23.021894
            ],
            [
              72.596628,
              23.018286
            ],
            [
              72.59604,
              23.017036
            ],
            [
              72.59504,
              23.017418
            ],
            [
              72.592476,
              23.015286
            ],
            [
              72.593786,
              23.015031
            ],
            [
              72.593786,
              23.012286
            ],
            [
              72.592267,
              23.011512
            ],
            [
              72.59204,
              23.012525
            ],
            [
              72.590767,
              23.010286
            ],
            [
              72.592903,
              23.007286
            ],
            [
              72.592691,
              23.006635
            ],
            [
              72.590453,
              23.006286
            ],
            [
              72.5938,
              23.003046
            ],
            [
              72.59604,
              23.003057
            ],
            [
              72.599279,
              23.000524
            ],
            [
              72.598575,
              22.999286
            ],
            [
              72.59904,
              22.99563
            ],
            [
              72.60004,
              22.994926
            ],
            [
              72.602619,
              22.996707
            ],
            [
              72.60404,
              22.996023
            ],
            [
              72.605658,
              22.996668
            ],
            [
              72.607698,
              22.996286
            ],
            [
              72.607978,
              22.994223
            ],
            [
              72.609258,
              22.992286
            ],
            [
              72.61204,
              22.991773
            ],
            [
              72.61404,
              22.989967
            ],
            [
              72.615395,
              22.989931
            ],
            [
              72.616194,
              22.990132
            ],
            [
              72.61704,
              22.991851
            ],
            [
              72.61804,
              22.990986
            ],
            [
              72.619683,
              22.991286
            ],
            [
              72.625838,
              22.996488
            ],
            [
              72.627963,
              22.995208
            ],
            [
              72.628767,
              22.995559
            ],
            [
              72.628437,
              22.997286
            ],
            [
              72.630024,
              22.998286
            ],
            [
              72.628916,
              22.999161
            ],
            [
              72.6296,
              23.000286
            ],
            [
              72.628086,
              23.002286
            ],
            [
              72.63104,
              23.00382
            ],
            [
              72.632705,
              23.005621
            ],
            [
              72.635006,
              23.006286
            ],
            [
              72.632819,
              23.009507
            ],
            [
              72.633949,
              23.011286
            ],
            [
              72.637205,
              23.013286
            ],
            [
              72.636329,
              23.014574
            ],
            [
              72.63659,
              23.016736
            ],
            [
              72.63904,
              23.016921
            ],
            [
              72.640994,
              23.020332
            ],
            [
              72.64304,
              23.019592
            ],
            [
              72.644394,
              23.021286
            ],
            [
              72.641472,
              23.021718
            ],
            [
              72.64104,
              23.023877
            ],
            [
              72.640301,
              23.024286
            ],
            [
              72.640947,
              23.025286
            ],
            [
              72.639447,
              23.025693
            ],
            [
              72.639558,
              23.026769
            ],
            [
              72.641427,
              23.026899
            ],
            [
              72.642901,
              23.028286
            ],
            [
              72.642678,
              23.028923
            ],
            [
              72.64004,
              23.029499
            ],
            [
              72.63904,
              23.031355
            ],
            [
              72.637821,
              23.031066
            ],
            [
              72.63604,
              23.033256
            ],
            [
              72.635741,
              23.031585
            ],
            [
              72.632552,
              23.031774
            ],
            [
              72.632238,
              23.031286
            ],
            [
              72.632499,
              23.030286
            ],
            [
              72.633663,
              23.029909
            ],
            [
              72.63547,
              23.027715
            ],
            [
              72.635429,
              23.026897
            ],
            [
              72.63304,
              23.024814
            ],
            [
              72.63104,
              23.024854
            ],
            [
              72.629737,
              23.025982
            ],
            [
              72.629521,
              23.027286
            ],
            [
              72.630447,
              23.028286
            ],
            [
              72.63004,
              23.03041
            ],
            [
              72.632531,
              23.031795
            ],
            [
              72.630722,
              23.034286
            ],
            [
              72.63455,
              23.035286
            ],
            [
              72.634653,
              23.036286
            ],
            [
              72.631861,
              23.038107
            ],
            [
              72.629694,
              23.040939
            ],
            [
              72.630175,
              23.044286
            ],
            [
              72.62904,
              23.04674
            ],
            [
              72.62804,
              23.047002
            ],
            [
              72.627705,
              23.045621
            ],
            [
              72.62597,
              23.045356
            ],
            [
              72.625833,
              23.044493
            ],
            [
              72.622954,
              23.044372
            ],
            [
              72.62104,
              23.041751
            ],
            [
              72.619344,
              23.043286
            ],
            [
              72.62004,
              23.047277
            ],
            [
              72.61804,
              23.047892
            ],
            [
              72.617746,
              23.04658
            ],
            [
              72.614536,
              23.044782
            ],
            [
              72.613504,
              23.045286
            ],
            [
              72.61475,
              23.047286
            ],
            [
              72.61304,
              23.048253
            ],
            [
              72.612714,
              23.046612
            ],
            [
              72.611523,
              23.046768
            ],
            [
              72.611191,
              23.049135
            ],
            [
              72.611908,
              23.049286
            ],
            [
              72.61104,
              23.049905
            ]
          ]
        ],
        "type": "Polygon"
      },
      "type": "Feature"
    },
    {
      "properties": {
        "fill-opacity": 0.33,
        "fillColor": "#bf4040",
        "opacity": 0.33,
        "fill": "#bf4040",
        "fillOpacity": 0.33,
        "color": "#bf4040",
        "contour": 5.0,
        "metric": "distance",
        "provider_name": "Kanpur Mithai House",
        "zone_type": "distance",
        "distance_km": 5,
        "mode": "motorcycle",
        "center_lat": 23.02028612,
        "center_lon": 72.60604084,
        "label": "5km"
      },
      "geometry": {
        "coordinates": [
          [
            [
              72.61304,
              23.055467
            ],
            [
              72.60989,
              23.055437
            ],
            [
              72.60904,
              23.05454
            ],
            [
              72.60804,
              23.055597
            ],
            [
              72.606007,
              23.055319
            ],
            [
              72.602478,
              23.053286
            ],
            [
              72.604627,
              23.052872
            ],
            [
              72.604516,
              23.05181
            ],
            [
              72.60304,
              23.051082
            ],
            [
              72.60004,
              23.052818
            ],
            [
              72.59804,
              23.051935
            ],
            [
              72.59504,
              23.053469
            ],
            [
              72.594842,
              23.052484
            ],
            [
              72.592217,
              23.052462
            ],
            [
              72.59204,
              23.053243
            ],
            [
              72.59191,
              23.052286
            ],
            [
              72.592724,
              23.051286
            ],
            [
              72.592637,
              23.048882
            ],
            [
              72.594636,
              23.047286
            ],
            [
              72.593624,
              23.046286
            ],
            [
              72.59304,
              23.042825
            ],
            [
              72.590367,
              23.043286
            ],
            [
              72.591285,
              23.044286
            ],
            [
              72.591325,
              23.046001
            ],
            [
              72.592115,
              23.046286
            ],
            [
              72.59204,
              23.047487
            ],
            [
              72.59104,
              23.046525
            ],
            [
              72.59004,
              23.048259
            ],
            [
              72.589386,
              23.04694
            ],
            [
              72.586149,
              23.045177
            ],
            [
              72.585721,
              23.043605
            ],
            [
              72.584296,
              23.044286
            ],
            [
              72.58441,
              23.044916
            ],
            [
              72.585909,
              23.045286
            ],
            [
              72.585418,
              23.046663
            ],
            [
              72.58404,
              23.045807
            ],
            [
              72.58304,
              23.047103
            ],
            [
              72.581719,
              23.045286
            ],
            [
              72.582752,
              23.044997
            ],
            [
              72.582616,
              23.04371
            ],
            [
              72.579609,
              23.043286
            ],
            [
              72.576575,
              23.039286
            ],
            [
              72.579152,
              23.036286
            ],
            [
              72.57704,
              23.035601
            ],
            [
              72.577634,
              23.032286
            ],
            [
              72.576739,
              23.029587
            ],
            [
              72.575969,
              23.029286
            ],
            [
              72.576143,
              23.028184
            ],
            [
              72.573547,
              23.027286
            ],
            [
              72.577372,
              23.026618
            ],
            [
              72.577717,
              23.024286
            ],
            [
              72.577022,
              23.022286
            ],
            [
              72.577716,
              23.020961
            ],
            [
              72.578326,
              23.022
            ],
            [
              72.580593,
              23.021838
            ],
            [
              72.583376,
              23.017286
            ],
            [
              72.585414,
              23.016659
            ],
            [
              72.58604,
              23.015764
            ],
            [
              72.587238,
              23.016484
            ],
            [
              72.588287,
              23.014286
            ],
            [
              72.590281,
              23.014526
            ],
            [
              72.590062,
              23.013264
            ],
            [
              72.58804,
              23.011983
            ],
            [
              72.586713,
              23.012613
            ],
            [
              72.586467,
              23.009859
            ],
            [
              72.581226,
              23.009286
            ],
            [
              72.583646,
              23.008892
            ],
            [
              72.583891,
              23.008286
            ],
            [
              72.58304,
              23.007442
            ],
            [
              72.581043,
              23.007286
            ],
            [
              72.582578,
              23.006286
            ],
            [
              72.58166,
              23.004286
            ],
            [
              72.583708,
              23.003953
            ],
            [
              72.583696,
              23.002286
            ],
            [
              72.58604,
              22.99931
            ],
            [
              72.587713,
              23.000613
            ],
            [
              72.58915,
              23.000396
            ],
            [
              72.588406,
              22.998286
            ],
            [
              72.58904,
              22.99707
            ],
            [
              72.59104,
              22.997438
            ],
            [
              72.59304,
              22.995845
            ],
            [
              72.59404,
              22.996041
            ],
            [
              72.595703,
              22.994948
            ],
            [
              72.59604,
              22.992997
            ],
            [
              72.59804,
              22.993318
            ],
            [
              72.600224,
              22.99247
            ],
            [
              72.60104,
              22.990674
            ],
            [
              72.602135,
              22.99038
            ],
            [
              72.60186,
              22.989286
            ],
            [
              72.60304,
              22.98712
            ],
            [
              72.608244,
              22.990286
            ],
            [
              72.608216,
              22.989286
            ],
            [
              72.610627,
              22.987286
            ],
            [
              72.610559,
              22.983286
            ],
            [
              72.61204,
              22.982052
            ],
            [
              72.615055,
              22.982271
            ],
            [
              72.61604,
              22.984383
            ],
            [
              72.616141,
              22.983386
            ],
            [
              72.616898,
              22.983143
            ],
            [
              72.61904,
              22.983895
            ],
            [
              72.62204,
              22.983633
            ],
            [
              72.623958,
              22.986286
            ],
            [
              72.62404,
              22.987572
            ],
            [
              72.626069,
              22.987257
            ],
            [
              72.630554,
              22.989772
            ],
            [
              72.63604,
              22.989592
            ],
            [
              72.63658,
              22.990286
            ],
            [
              72.635676,
              22.990921
            ],
            [
              72.635547,
              22.992286
            ],
            [
              72.636181,
              22.994145
            ],
            [
              72.635179,
              22.994424
            ],
            [
              72.635247,
              22.996286
            ],
            [
              72.634027,
              22.997299
            ],
            [
              72.64004,
              23.001132
            ],
            [
              72.641201,
              23.001125
            ],
            [
              72.642114,
              23.003212
            ],
            [
              72.643661,
              23.003286
            ],
            [
              72.644145,
              23.004286
            ],
            [
              72.642689,
              23.004935
            ],
            [
              72.64204,
              23.006763
            ],
            [
              72.639713,
              23.006959
            ],
            [
              72.639642,
              23.008684
            ],
            [
              72.646817,
              23.015509
            ],
            [
              72.649416,
              23.016286
            ],
            [
              72.650783,
              23.021286
            ],
            [
              72.65304,
              23.021745
            ],
            [
              72.653068,
              23.023258
            ],
            [
              72.653621,
              23.023286
            ],
            [
              72.65204,
              23.024185
            ],
            [
              72.650947,
              23.023193
            ],
            [
              72.649833,
              23.026286
            ],
            [
              72.647798,
              23.028043
            ],
            [
              72.649317,
              23.029009
            ],
            [
              72.649719,
              23.030607
            ],
            [
              72.652081,
              23.031286
            ],
            [
              72.65183,
              23.032075
            ],
            [
              72.64904,
              23.034397
            ],
            [
              72.646915,
              23.033286
            ],
            [
              72.64404,
              23.037006
            ],
            [
              72.643939,
              23.036387
            ],
            [
              72.642558,
              23.036803
            ],
            [
              72.642318,
              23.038563
            ],
            [
              72.64104,
              23.039736
            ],
            [
              72.63658,
              23.041826
            ],
            [
              72.637335,
              23.043286
            ],
            [
              72.637125,
              23.04537
            ],
            [
              72.632592,
              23.045838
            ],
            [
              72.63234,
              23.047286
            ],
            [
              72.633251,
              23.048286
            ],
            [
              72.632416,
              23.049286
            ],
            [
              72.6323,
              23.052286
            ],
            [
              72.63104,
              23.053556
            ],
            [
              72.629864,
              23.053286
            ],
            [
              72.630858,
              23.052286
            ],
            [
              72.630832,
              23.051494
            ],
            [
              72.629951,
              23.051197
            ],
            [
              72.631544,
              23.05079
            ],
            [
              72.631461,
              23.049866
            ],
            [
              72.628435,
              23.049891
            ],
            [
              72.627143,
              23.049184
            ],
            [
              72.627158,
              23.048168
            ],
            [
              72.62504,
              23.047763
            ],
            [
              72.624934,
              23.049392
            ],
            [
              72.62704,
              23.049565
            ],
            [
              72.627154,
              23.052172
            ],
            [
              72.627701,
              23.052286
            ],
            [
              72.62304,
              23.053518
            ],
            [
              72.620533,
              23.050793
            ],
            [
              72.619051,
              23.050296
            ],
            [
              72.619374,
              23.052952
            ],
            [
              72.620347,
              23.053286
            ],
            [
              72.61804,
              23.054503
            ],
            [
              72.616062,
              23.053264
            ],
            [
              72.614288,
              23.053533
            ],
            [
              72.613946,
              23.05438
            ],
            [
              72.613254,
              23.053073
            ],
            [
              72.61204,
              23.052915
            ],
            [
              72.61304,
              23.055467
            ]
          ]
        ],
        "type": "Polygon"
      },
      "type": "Feature"
    },
    {
      "properties": {
        "fill-opacity": 0.33,
        "fillColor": "#bf4040",
        "opacity": 0.33,
        "fill": "#bf4040",
        "fillOpacity": 0.33,
        "color": "#bf4040",
        "contour": 6.0,
        "metric": "distance",
        "provider_name": "Kanpur Mithai House",
        "zone_type": "distance",
        "distance_km": 6,
        "mode": "motorcycle",
        "center_lat": 23.02028612,
        "center_lon": 72.60604084,
        "label": "6km"
      },
      "geometry": {
        "coordinates": [
          [
            [
              72.61904,
              23.062436
            ],
            [
              72.61604,
              23.061915
            ],
            [
              72.614742,
              23.058584
            ],
            [
              72.61204,
              23.0557
            ],
            [
              72.609724,
              23.055969
            ],
            [
              72.608347,
              23.057592
            ],
            [
              72.60604,
              23.057701
            ],
            [
              72.60504,
              23.058914
            ],
            [
              72.598226,
              23.059471
            ],
            [
              72.59804,
              23.061135
            ],
            [
              72.597751,
              23.059575
            ],
            [
              72.596307,
              23.059552
            ],
            [
              72.59504,
              23.062241
            ],
            [
              72.592176,
              23.059286
            ],
            [
              72.592662,
              23.054907
            ],
            [
              72.594358,
              23.052968
            ],
            [
              72.592719,
              23.052965
            ],
            [
              72.592401,
              23.054646
            ],
            [
              72.591182,
              23.055286
            ],
            [
              72.59104,
              23.056827
            ],
            [
              72.59004,
              23.055668
            ],
            [
              72.588388,
              23.056286
            ],
            [
              72.587358,
              23.052968
            ],
            [
              72.58504,
              23.053672
            ],
            [
              72.58492,
              23.052286
            ],
            [
              72.58404,
              23.05161
            ],
            [
              72.57922,
              23.053465
            ],
            [
              72.577242,
              23.053286
            ],
            [
              72.578755,
              23.053
            ],
            [
              72.578859,
              23.051467
            ],
            [
              72.577958,
              23.051204
            ],
            [
              72.578814,
              23.049286
            ],
            [
              72.57804,
              23.048535
            ],
            [
              72.57704,
              23.048705
            ],
            [
              72.576989,
              23.048235
            ],
            [
              72.577441,
              23.047687
            ],
            [
              72.577339,
              23.046987
            ],
            [
              72.575942,
              23.047384
            ],
            [
              72.57479,
              23.041286
            ],
            [
              72.57404,
              23.040714
            ],
            [
              72.569784,
              23.041029
            ],
            [
              72.56904,
              23.042474
            ],
            [
              72.568449,
              23.040877
            ],
            [
              72.566858,
              23.040286
            ],
            [
              72.569803,
              23.037049
            ],
            [
              72.57104,
              23.03778
            ],
            [
              72.570538,
              23.039286
            ],
            [
              72.57155,
              23.039776
            ],
            [
              72.57404,
              23.039857
            ],
            [
              72.57504,
              23.038481
            ],
            [
              72.576535,
              23.038286
            ],
            [
              72.575356,
              23.02797
            ],
            [
              72.573221,
              23.028286
            ],
            [
              72.57218,
              23.029425
            ],
            [
              72.57204,
              23.032048
            ],
            [
              72.570747,
              23.031992
            ],
            [
              72.57004,
              23.033255
            ],
            [
              72.569878,
              23.032448
            ],
            [
              72.567773,
              23.031286
            ],
            [
              72.568499,
              23.030286
            ],
            [
              72.568242,
              23.022487
            ],
            [
              72.57004,
              23.020001
            ],
            [
              72.57146,
              23.020286
            ],
            [
              72.572035,
              23.021291
            ],
            [
              72.576381,
              23.021627
            ],
            [
              72.577605,
              23.019286
            ],
            [
              72.577912,
              23.013414
            ],
            [
              72.57704,
              23.013186
            ],
            [
              72.579918,
              23.012286
            ],
            [
              72.577309,
              23.011286
            ],
            [
              72.57774,
              23.009985
            ],
            [
              72.580546,
              23.009286
            ],
            [
              72.578772,
              23.007554
            ],
            [
              72.578471,
              23.005855
            ],
            [
              72.57604,
              23.004439
            ],
            [
              72.574307,
              23.004286
            ],
            [
              72.57504,
              23.00341
            ],
            [
              72.575181,
              23.004145
            ],
            [
              72.576646,
              23.003892
            ],
            [
              72.576809,
              23.002517
            ],
            [
              72.575902,
              23.002286
            ],
            [
              72.57604,
              23.001581
            ],
            [
              72.576084,
              23.002243
            ],
            [
              72.577151,
              23.002175
            ],
            [
              72.577385,
              23.002941
            ],
            [
              72.578561,
              23.002807
            ],
            [
              72.578776,
              23.00155
            ],
            [
              72.578188,
              23.001286
            ],
            [
              72.579304,
              23.00055
            ],
            [
              72.578673,
              22.997653
            ],
            [
              72.577775,
              22.996551
            ],
            [
              72.576459,
              22.996286
            ],
            [
              72.580824,
              22.99407
            ],
            [
              72.58404,
              22.993662
            ],
            [
              72.584871,
              22.991116
            ],
            [
              72.58804,
              22.991968
            ],
            [
              72.589962,
              22.990207
            ],
            [
              72.591,
              22.990245
            ],
            [
              72.59104,
              22.989619
            ],
            [
              72.592137,
              22.990189
            ],
            [
              72.59504,
              22.990009
            ],
            [
              72.595535,
              22.987791
            ],
            [
              72.59483,
              22.986496
            ],
            [
              72.59329,
              22.986286
            ],
            [
              72.59504,
              22.985214
            ],
            [
              72.596214,
              22.985459
            ],
            [
              72.59704,
              22.984126
            ],
            [
              72.60004,
              22.987457
            ],
            [
              72.60104,
              22.988062
            ],
            [
              72.601102,
              22.987224
            ],
            [
              72.600107,
              22.987219
            ],
            [
              72.600623,
              22.982286
            ],
            [
              72.603007,
              22.979253
            ],
            [
              72.603874,
              22.979286
            ],
            [
              72.60404,
              22.980448
            ],
            [
              72.605942,
              22.980384
            ],
            [
              72.60704,
              22.984131
            ],
            [
              72.607909,
              22.979154
            ],
            [
              72.61104,
              22.977543
            ],
            [
              72.61504,
              22.978048
            ],
            [
              72.617077,
              22.975322
            ],
            [
              72.61904,
              22.975118
            ],
            [
              72.619103,
              22.975348
            ],
            [
              72.61868,
              22.975925
            ],
            [
              72.61904,
              22.976614
            ],
            [
              72.621146,
              22.97618
            ],
            [
              72.62138,
              22.978286
            ],
            [
              72.619758,
              22.980004
            ],
            [
              72.62004,
              22.981511
            ],
            [
              72.62404,
              22.980689
            ],
            [
              72.624586,
              22.98174
            ],
            [
              72.626492,
              22.981737
            ],
            [
              72.626597,
              22.980729
            ],
            [
              72.624446,
              22.980286
            ],
            [
              72.62704,
              22.977728
            ],
            [
              72.631172,
              22.981286
            ],
            [
              72.631387,
              22.982286
            ],
            [
              72.629848,
              22.984286
            ],
            [
              72.630023,
              22.986303
            ],
            [
              72.63334,
              22.985585
            ],
            [
              72.634928,
              22.984173
            ],
            [
              72.636175,
              22.984151
            ],
            [
              72.636826,
              22.984286
            ],
            [
              72.635229,
              22.984474
            ],
            [
              72.635397,
              22.985929
            ],
            [
              72.63704,
              22.986887
            ],
            [
              72.63904,
              22.986066
            ],
            [
              72.64204,
              22.988822
            ],
            [
              72.643751,
              22.987996
            ],
            [
              72.64404,
              22.986897
            ],
            [
              72.645841,
              22.988286
            ],
            [
              72.644311,
              22.988556
            ],
            [
              72.644462,
              22.990286
            ],
            [
              72.643059,
              22.992305
            ],
            [
              72.643198,
              22.995128
            ],
            [
              72.644149,
              22.996177
            ],
            [
              72.64604,
              22.996279
            ],
            [
              72.646206,
              22.99712
            ],
            [
              72.648158,
              22.997286
            ],
            [
              72.64904,
              23.000086
            ],
            [
              72.653196,
              23.002286
            ],
            [
              72.65016,
              23.006406
            ],
            [
              72.648674,
              23.006919
            ],
            [
              72.648724,
              23.009286
            ],
            [
              72.649386,
              23.009632
            ],
            [
              72.65104,
              23.008677
            ],
            [
              72.653663,
              23.010286
            ],
            [
              72.653516,
              23.011286
            ],
            [
              72.655659,
              23.013286
            ],
            [
              72.655138,
              23.013384
            ],
            [
              72.655337,
              23.014989
            ],
            [
              72.65704,
              23.015763
            ],
            [
              72.657304,
              23.017022
            ],
            [
              72.658057,
              23.01727
            ],
            [
              72.657251,
              23.017496
            ],
            [
              72.657456,
              23.01887
            ],
            [
              72.659253,
              23.019073
            ],
            [
              72.658869,
              23.020457
            ],
            [
              72.660594,
              23.021286
            ],
            [
              72.660694,
              23.023632
            ],
            [
              72.663637,
              23.024286
            ],
            [
              72.66204,
              23.025456
            ],
            [
              72.66067,
              23.024915
            ],
            [
              72.66004,
              23.02732
            ],
            [
              72.659844,
              23.026482
            ],
            [
              72.65904,
              23.026442
            ],
            [
              72.65804,
              23.027651
            ],
            [
              72.656631,
              23.027876
            ],
            [
              72.656367,
              23.028959
            ],
            [
              72.657341,
              23.030286
            ],
            [
              72.656767,
              23.031559
            ],
            [
              72.658493,
              23.031738
            ],
            [
              72.66004,
              23.030036
            ],
            [
              72.661741,
              23.032286
            ],
            [
              72.66004,
              23.033909
            ],
            [
              72.658482,
              23.033728
            ],
            [
              72.65804,
              23.037051
            ],
            [
              72.655667,
              23.036913
            ],
            [
              72.654299,
              23.038286
            ],
            [
              72.65404,
              23.039959
            ],
            [
              72.650772,
              23.041017
            ],
            [
              72.649745,
              23.043286
            ],
            [
              72.643736,
              23.045982
            ],
            [
              72.64324,
              23.047286
            ],
            [
              72.64104,
              23.049104
            ],
            [
              72.638345,
              23.047286
            ],
            [
              72.63804,
              23.045201
            ],
            [
              72.63799,
              23.046236
            ],
            [
              72.63294,
              23.046185
            ],
            [
              72.634217,
              23.049286
            ],
            [
              72.634033,
              23.052286
            ],
            [
              72.631738,
              23.052983
            ],
            [
              72.631586,
              23.054286
            ],
            [
              72.635527,
              23.056286
            ],
            [
              72.635881,
              23.057286
            ],
            [
              72.63104,
              23.0589
            ],
            [
              72.629511,
              23.058286
            ],
            [
              72.62917,
              23.056156
            ],
            [
              72.628182,
              23.057427
            ],
            [
              72.624679,
              23.057647
            ],
            [
              72.62304,
              23.056849
            ],
            [
              72.622464,
              23.05771
            ],
            [
              72.62071,
              23.057955
            ],
            [
              72.621104,
              23.059286
            ],
            [
              72.619357,
              23.059603
            ],
            [
              72.618467,
              23.060712
            ],
            [
              72.618154,
              23.062172
            ],
            [
              72.61904,
              23.062436
            ]
          ]
        ],
        "type": "Polygon"
      },
      "type": "Feature"
    }
  ]
}