{
  "type": "FeatureCollection",
  "metadata": {
    "provider_name": "Bachelor Bhukkad",
    "center_lat": 28.5888786,
    "center_lon": 77.4036614,
    "mode": "motorcycle",
    "total_zones": 4,
    "distance_zones": [
      3,
      4,
      5,
      6
    ],
    "generated_at": "2025-12-28T14:35:17.979803Z"
  },
  "features": [
    {
      "properties": {
        "fill-opacity": 0.33,
        "fillColor": "#bf4040",
        "opacity": 0.33,
        "fill": "#bf4040",
        "fillOpacity": 0.33,
        "color": "#bf4040",
        "contour": 3.0,
        "metric": "distance",
        "provider_name": "Bachelor Bhukkad",
        "zone_type": "distance",
        "distance_km": 3,
        "mode": "motorcycle",
        "center_lat": 28.5888786,
        "center_lon": 77.4036614,
        "label": "3km"
      },
      "geometry": {
        "coordinates": [
          [
            [
              77.398661,
              28.609945
            ],
            [
              77.398491,
              28.608048
            ],
            [
              77.397526,
              28.607878
            ],
            [
              77.398429,
              28.606878
            ],
            [
              77.398096,
              28.605443
            ],
            [
              77.395481,
              28.603878
            ],
            [
              77.396317,
              28.597878
            ],
            [
              77.394845,
              28.596694
            ],
            [
              77.392661,
              28.596628
            ],
            [
              77.389661,
              28.59539
            ],
            [
              77.388994,
              28.595878
            ],
            [
              77.388661,
              28.599499
            ],
            [
              77.387661,
              28.598152
            ],
            [
              77.383506,
              28.596878
            ],
            [
              77.382773,
              28.593878
            ],
            [
              77.380717,
              28.591878
            ],
            [
              77.381989,
              28.58855
            ],
            [
              77.380567,
              28.587972
            ],
            [
              77.380767,
              28.585772
            ],
            [
              77.378762,
              28.585777
            ],
            [
              77.378565,
              28.584975
            ],
            [
              77.380732,
              28.581949
            ],
            [
              77.381824,
              28.581878
            ],
            [
              77.380661,
              28.581817
            ],
            [
              77.379152,
              28.579878
            ],
            [
              77.38104,
              28.579258
            ],
            [
              77.381174,
              28.577878
            ],
            [
              77.383661,
              28.578606
            ],
            [
              77.384661,
              28.576813
            ],
            [
              77.38503,
              28.577509
            ],
            [
              77.386131,
              28.577348
            ],
            [
              77.386661,
              28.572693
            ],
            [
              77.387661,
              28.574742
            ],
            [
              77.388661,
              28.573599
            ],
            [
              77.391661,
              28.57391
            ],
            [
              77.392528,
              28.572878
            ],
            [
              77.390163,
              28.571878
            ],
            [
              77.393661,
              28.568691
            ],
            [
              77.396661,
              28.5686
            ],
            [
              77.397661,
              28.569569
            ],
            [
              77.399661,
              28.569512
            ],
            [
              77.401264,
              28.568481
            ],
            [
              77.401661,
              28.565906
            ],
            [
              77.402944,
              28.569595
            ],
            [
              77.404661,
              28.569383
            ],
            [
              77.408661,
              28.570904
            ],
            [
              77.411661,
              28.5679
            ],
            [
              77.41247,
              28.568069
            ],
            [
              77.413757,
              28.570782
            ],
            [
              77.414684,
              28.570878
            ],
            [
              77.414693,
              28.57191
            ],
            [
              77.413805,
              28.573022
            ],
            [
              77.412661,
              28.572074
            ],
            [
              77.41223,
              28.573309
            ],
            [
              77.413661,
              28.574555
            ],
            [
              77.414661,
              28.573983
            ],
            [
              77.416661,
              28.575052
            ],
            [
              77.417867,
              28.574672
            ],
            [
              77.417896,
              28.575878
            ],
            [
              77.414251,
              28.578469
            ],
            [
              77.412166,
              28.581878
            ],
            [
              77.414173,
              28.585878
            ],
            [
              77.412356,
              28.586573
            ],
            [
              77.412204,
              28.587878
            ],
            [
              77.412661,
              28.588314
            ],
            [
              77.413661,
              28.587349
            ],
            [
              77.415018,
              28.588521
            ],
            [
              77.415063,
              28.591476
            ],
            [
              77.417719,
              28.59382
            ],
            [
              77.41783,
              28.594709
            ],
            [
              77.419987,
              28.594878
            ],
            [
              77.420249,
              28.597466
            ],
            [
              77.417912,
              28.602129
            ],
            [
              77.416661,
              28.601617
            ],
            [
              77.413661,
              28.602121
            ],
            [
              77.412717,
              28.603934
            ],
            [
              77.410661,
              28.603697
            ],
            [
              77.409661,
              28.604333
            ],
            [
              77.407661,
              28.603411
            ],
            [
              77.406013,
              28.603878
            ],
            [
              77.408374,
              28.600878
            ],
            [
              77.405661,
              28.600347
            ],
            [
              77.405332,
              28.602878
            ],
            [
              77.404124,
              28.603878
            ],
            [
              77.40534,
              28.605878
            ],
            [
              77.404661,
              28.607127
            ],
            [
              77.402661,
              28.607049
            ],
            [
              77.398661,
              28.609945
            ]
          ]
        ],
        "type": "Polygon"
      },
      "type": "Feature"
    },
    {
      "properties": {
        "fill-opacity": 0.33,
        "fillColor": "#bf4040",
        "opacity": 0.33,
        "fill": "#bf4040",
        "fillOpacity": 0.33,
        "color": "#bf4040",
        "contour": 4.0,
        "metric": "distance",
        "provider_name": "Bachelor Bhukkad",
        "zone_type": "distance",
        "distance_km": 4,
        "mode": "motorcycle",
        "center_lat": 28.5888786,
        "center_lon": 77.4036614,
        "label": "4km"
      },
      "geometry": {
        "coordinates": [
          [
            [
              77.394661,
              28.617812
            ],
            [
              77.39372,
              28.614819
            ],
            [
              77.392661,
              28.615372
            ],
            [
              77.39049,
              28.613878
            ],
            [
              77.390661,
              28.613184
            ],
            [
              77.392571,
              28.612878
            ],
            [
              77.387447,
              28.608878
            ],
            [
              77.389334,
              28.608551
            ],
            [
              77.389661,
              28.60638
            ],
            [
              77.390632,
              28.606878
            ],
            [
              77.389768,
              28.606985
            ],
            [
              77.390661,
              28.608629
            ],
            [
              77.392661,
              28.608535
            ],
            [
              77.394162,
              28.606878
            ],
            [
              77.39168,
              28.604859
            ],
            [
              77.392083,
              28.600456
            ],
            [
              77.390213,
              28.60043
            ],
            [
              77.389661,
              28.603467
            ],
            [
              77.388962,
              28.601577
            ],
            [
              77.386661,
              28.601261
            ],
            [
              77.385181,
              28.601398
            ],
            [
              77.384741,
              28.602958
            ],
            [
              77.383661,
              28.602925
            ],
            [
              77.383504,
              28.602035
            ],
            [
              77.381737,
              28.601802
            ],
            [
              77.380008,
              28.600532
            ],
            [
              77.379128,
              28.597411
            ],
            [
              77.377256,
              28.594878
            ],
            [
              77.37756,
              28.593878
            ],
            [
              77.376285,
              28.593502
            ],
            [
              77.375661,
              28.594197
            ],
            [
              77.375907,
              28.591878
            ],
            [
              77.374976,
              28.589563
            ],
            [
              77.374276,
              28.588263
            ],
            [
              77.372641,
              28.587898
            ],
            [
              77.372361,
              28.586878
            ],
            [
              77.372661,
              28.586653
            ],
            [
              77.372758,
              28.587781
            ],
            [
              77.374251,
              28.587468
            ],
            [
              77.375829,
              28.585046
            ],
            [
              77.376788,
              28.584878
            ],
            [
              77.375876,
              28.582878
            ],
            [
              77.375898,
              28.579641
            ],
            [
              77.374778,
              28.578878
            ],
            [
              77.376612,
              28.57783
            ],
            [
              77.378661,
              28.572047
            ],
            [
              77.38005,
              28.570878
            ],
            [
              77.383338,
              28.570555
            ],
            [
              77.383661,
              28.568275
            ],
            [
              77.386193,
              28.568411
            ],
            [
              77.386661,
              28.565721
            ],
            [
              77.386992,
              28.567547
            ],
            [
              77.389661,
              28.567867
            ],
            [
              77.392871,
              28.567088
            ],
            [
              77.393119,
              28.56542
            ],
            [
              77.391463,
              28.564878
            ],
            [
              77.393198,
              28.564415
            ],
            [
              77.393661,
              28.562916
            ],
            [
              77.394443,
              28.564096
            ],
            [
              77.396661,
              28.564571
            ],
            [
              77.397661,
              28.563289
            ],
            [
              77.399726,
              28.562943
            ],
            [
              77.397661,
              28.557898
            ],
            [
              77.402084,
              28.558878
            ],
            [
              77.400844,
              28.559061
            ],
            [
              77.399951,
              28.560878
            ],
            [
              77.402661,
              28.564449
            ],
            [
              77.405661,
              28.564474
            ],
            [
              77.406661,
              28.56359
            ],
            [
              77.407661,
              28.564275
            ],
            [
              77.410661,
              28.564133
            ],
            [
              77.410131,
              28.560878
            ],
            [
              77.413661,
              28.559039
            ],
            [
              77.414081,
              28.561458
            ],
            [
              77.415449,
              28.561667
            ],
            [
              77.415612,
              28.560829
            ],
            [
              77.41636,
              28.560878
            ],
            [
              77.415874,
              28.562665
            ],
            [
              77.416682,
              28.562878
            ],
            [
              77.414745,
              28.563878
            ],
            [
              77.413231,
              28.567448
            ],
            [
              77.413344,
              28.569195
            ],
            [
              77.414661,
              28.57025
            ],
            [
              77.419936,
              28.570603
            ],
            [
              77.420661,
              28.571603
            ],
            [
              77.421661,
              28.570327
            ],
            [
              77.422916,
              28.572623
            ],
            [
              77.424409,
              28.572878
            ],
            [
              77.423661,
              28.57321
            ],
            [
              77.422599,
              28.572941
            ],
            [
              77.422346,
              28.572193
            ],
            [
              77.421139,
              28.572356
            ],
            [
              77.418901,
              28.576118
            ],
            [
              77.414406,
              28.578623
            ],
            [
              77.412316,
              28.582878
            ],
            [
              77.414333,
              28.585878
            ],
            [
              77.412452,
              28.586669
            ],
            [
              77.412347,
              28.587878
            ],
            [
              77.414114,
              28.587425
            ],
            [
              77.415344,
              28.588878
            ],
            [
              77.41527,
              28.591269
            ],
            [
              77.418178,
              28.594361
            ],
            [
              77.420661,
              28.594409
            ],
            [
              77.421311,
              28.596228
            ],
            [
              77.42279,
              28.596749
            ],
            [
              77.422104,
              28.597878
            ],
            [
              77.423751,
              28.598788
            ],
            [
              77.423034,
              28.599878
            ],
            [
              77.42377,
              28.602769
            ],
            [
              77.424682,
              28.602857
            ],
            [
              77.425192,
              28.603878
            ],
            [
              77.422975,
              28.604192
            ],
            [
              77.422657,
              28.605874
            ],
            [
              77.420604,
              28.604935
            ],
            [
              77.420712,
              28.603827
            ],
            [
              77.419115,
              28.604333
            ],
            [
              77.418666,
              28.606878
            ],
            [
              77.415704,
              28.606922
            ],
            [
              77.415551,
              28.607988
            ],
            [
              77.412661,
              28.60804
            ],
            [
              77.410661,
              28.6061
            ],
            [
              77.408661,
              28.606054
            ],
            [
              77.407661,
              28.607065
            ],
            [
              77.405108,
              28.607325
            ],
            [
              77.403855,
              28.608878
            ],
            [
              77.403661,
              28.611201
            ],
            [
              77.401863,
              28.611878
            ],
            [
              77.402889,
              28.612878
            ],
            [
              77.401661,
              28.614822
            ],
            [
              77.395572,
              28.61379
            ],
            [
              77.394661,
              28.617812
            ]
          ]
        ],
        "type": "Polygon"
      },
      "type": "Feature"
    },
    {
      "properties": {
        "fill-opacity": 0.33,
        "fillColor": "#bf4040",
        "opacity": 0.33,
        "fill": "#bf4040",
        "fillOpacity": 0.33,
        "color": "#bf4040",
        "contour": 5.0,
        "metric": "distance",
        "provider_name": "Bachelor Bhukkad",
        "zone_type": "distance",
        "distance_km": 5,
        "mode": "motorcycle",
        "center_lat": 28.5888786,
        "center_lon": 77.4036614,
        "label": "5km"
      },
      "geometry": {
        "coordinates": [
          [
            [
              77.393661,
              28.626721
            ],
            [
              77.393092,
              28.620447
            ],
            [
              77.388634,
              28.619905
            ],
            [
              77.388661,
              28.618058
            ],
            [
              77.38977,
              28.617878
            ],
            [
              77.386959,
              28.61558
            ],
            [
              77.384661,
              28.615494
            ],
            [
              77.384225,
              28.614314
            ],
            [
              77.381424,
              28.612878
            ],
            [
              77.38328,
              28.612497
            ],
            [
              77.383147,
              28.611392
            ],
            [
              77.380661,
              28.611261
            ],
            [
              77.379097,
              28.609878
            ],
            [
              77.379661,
              28.606738
            ],
            [
              77.382701,
              28.602838
            ],
            [
              77.380661,
              28.602645
            ],
            [
              77.379661,
              28.603547
            ],
            [
              77.378661,
              28.602308
            ],
            [
              77.376661,
              28.602227
            ],
            [
              77.375346,
              28.604878
            ],
            [
              77.372783,
              28.603878
            ],
            [
              77.372484,
              28.602055
            ],
            [
              77.370002,
              28.600878
            ],
            [
              77.37202,
              28.600238
            ],
            [
              77.372493,
              28.598878
            ],
            [
              77.371314,
              28.596225
            ],
            [
              77.371857,
              28.594682
            ],
            [
              77.369656,
              28.593878
            ],
            [
              77.369522,
              28.59274
            ],
            [
              77.370661,
              28.592399
            ],
            [
              77.37124,
              28.593299
            ],
            [
              77.371948,
              28.593165
            ],
            [
              77.373703,
              28.588878
            ],
            [
              77.369661,
              28.585329
            ],
            [
              77.368377,
              28.586162
            ],
            [
              77.366661,
              28.58329
            ],
            [
              77.365612,
              28.583927
            ],
            [
              77.364996,
              28.583543
            ],
            [
              77.364769,
              28.580987
            ],
            [
              77.367661,
              28.581086
            ],
            [
              77.369557,
              28.579982
            ],
            [
              77.370264,
              28.580878
            ],
            [
              77.371431,
              28.580648
            ],
            [
              77.37136,
              28.579878
            ],
            [
              77.369724,
              28.579815
            ],
            [
              77.36981,
              28.578729
            ],
            [
              77.368661,
              28.578624
            ],
            [
              77.365462,
              28.575878
            ],
            [
              77.3698,
              28.574739
            ],
            [
              77.370155,
              28.575878
            ],
            [
              77.373661,
              28.577434
            ],
            [
              77.375265,
              28.574483
            ],
            [
              77.376661,
              28.575048
            ],
            [
              77.37681,
              28.574027
            ],
            [
              77.377663,
              28.573878
            ],
            [
              77.377661,
              28.569803
            ],
            [
              77.375984,
              28.570201
            ],
            [
              77.375688,
              28.571878
            ],
            [
              77.37502,
              28.571878
            ],
            [
              77.375637,
              28.571854
            ],
            [
              77.375551,
              28.569878
            ],
            [
              77.376323,
              28.56954
            ],
            [
              77.376527,
              28.567745
            ],
            [
              77.379661,
              28.563628
            ],
            [
              77.382661,
              28.563352
            ],
            [
              77.383585,
              28.561878
            ],
            [
              77.386518,
              28.560735
            ],
            [
              77.387388,
              28.558878
            ],
            [
              77.386204,
              28.556878
            ],
            [
              77.387661,
              28.556366
            ],
            [
              77.38795,
              28.557589
            ],
            [
              77.390371,
              28.557588
            ],
            [
              77.391379,
              28.555878
            ],
            [
              77.39127,
              28.553878
            ],
            [
              77.389583,
              28.552956
            ],
            [
              77.389661,
              28.552203
            ],
            [
              77.391661,
              28.552322
            ],
            [
              77.392661,
              28.553613
            ],
            [
              77.394661,
              28.5528
            ],
            [
              77.396661,
              28.553004
            ],
            [
              77.398661,
              28.555481
            ],
            [
              77.399222,
              28.553317
            ],
            [
              77.397172,
              28.552878
            ],
            [
              77.398415,
              28.552632
            ],
            [
              77.398661,
              28.550616
            ],
            [
              77.401419,
              28.551878
            ],
            [
              77.399939,
              28.552157
            ],
            [
              77.400151,
              28.553388
            ],
            [
              77.401341,
              28.553558
            ],
            [
              77.401661,
              28.551999
            ],
            [
              77.403499,
              28.552878
            ],
            [
              77.401912,
              28.553129
            ],
            [
              77.402134,
              28.554405
            ],
            [
              77.403981,
              28.554558
            ],
            [
              77.404755,
              28.555784
            ],
            [
              77.406661,
              28.556147
            ],
            [
              77.407435,
              28.554652
            ],
            [
              77.410119,
              28.553878
            ],
            [
              77.414661,
              28.550156
            ],
            [
              77.4179,
              28.551878
            ],
            [
              77.419183,
              28.554878
            ],
            [
              77.418217,
              28.555878
            ],
            [
              77.419958,
              28.556878
            ],
            [
              77.419976,
              28.559193
            ],
            [
              77.419091,
              28.559878
            ],
            [
              77.419661,
              28.56052
            ],
            [
              77.420354,
              28.559571
            ],
            [
              77.420941,
              28.559878
            ],
            [
              77.419921,
              28.562139
            ],
            [
              77.416129,
              28.563878
            ],
            [
              77.415125,
              28.565878
            ],
            [
              77.416158,
              28.568381
            ],
            [
              77.417424,
              28.568641
            ],
            [
              77.417493,
              28.56671
            ],
            [
              77.418661,
              28.566579
            ],
            [
              77.419249,
              28.56829
            ],
            [
              77.420661,
              28.568426
            ],
            [
              77.422442,
              28.569878
            ],
            [
              77.422355,
              28.571184
            ],
            [
              77.424661,
              28.571701
            ],
            [
              77.425465,
              28.570878
            ],
            [
              77.424657,
              28.569878
            ],
            [
              77.425461,
              28.569679
            ],
            [
              77.425661,
              28.568654
            ],
            [
              77.426661,
              28.569542
            ],
            [
              77.427661,
              28.568048
            ],
            [
              77.430511,
              28.570878
            ],
            [
              77.429804,
              28.571022
            ],
            [
              77.429493,
              28.572878
            ],
            [
              77.427842,
              28.573878
            ],
            [
              77.431019,
              28.57652
            ],
            [
              77.432862,
              28.577079
            ],
            [
              77.432712,
              28.577878
            ],
            [
              77.429661,
              28.578912
            ],
            [
              77.42821,
              28.577329
            ],
            [
              77.427181,
              28.577398
            ],
            [
              77.427049,
              28.57849
            ],
            [
              77.4284,
              28.579878
            ],
            [
              77.427661,
              28.580944
            ],
            [
              77.427389,
              28.57915
            ],
            [
              77.426045,
              28.579262
            ],
            [
              77.425661,
              28.581397
            ],
            [
              77.425177,
              28.578362
            ],
            [
              77.423989,
              28.578206
            ],
            [
              77.423661,
              28.579009
            ],
            [
              77.421837,
              28.578878
            ],
            [
              77.423405,
              28.578623
            ],
            [
              77.424496,
              28.576878
            ],
            [
              77.424097,
              28.575442
            ],
            [
              77.421488,
              28.575052
            ],
            [
              77.421326,
              28.574543
            ],
            [
              77.422661,
              28.574591
            ],
            [
              77.423203,
              28.573878
            ],
            [
              77.421372,
              28.57259
            ],
            [
              77.421104,
              28.574321
            ],
            [
              77.418661,
              28.576636
            ],
            [
              77.417451,
              28.576668
            ],
            [
              77.41613,
              28.578347
            ],
            [
              77.414477,
              28.578694
            ],
            [
              77.414123,
              28.58034
            ],
            [
              77.412493,
              28.58171
            ],
            [
              77.412405,
              28.582878
            ],
            [
              77.414134,
              28.584406
            ],
            [
              77.414414,
              28.585878
            ],
            [
              77.412502,
              28.586719
            ],
            [
              77.412422,
              28.587878
            ],
            [
              77.414176,
              28.587363
            ],
            [
              77.41542,
              28.588878
            ],
            [
              77.415414,
              28.591125
            ],
            [
              77.418317,
              28.594222
            ],
            [
              77.420661,
              28.594225
            ],
            [
              77.421431,
              28.596108
            ],
            [
              77.42297,
              28.596569
            ],
            [
              77.422303,
              28.597878
            ],
            [
              77.424056,
              28.598878
            ],
            [
              77.423275,
              28.599878
            ],
            [
              77.424182,
              28.602357
            ],
            [
              77.427661,
              28.604041
            ],
            [
              77.431888,
              28.604651
            ],
            [
              77.432661,
              28.605509
            ],
            [
              77.434675,
              28.605864
            ],
            [
              77.434716,
              28.606878
            ],
            [
              77.432661,
              28.607767
            ],
            [
              77.432339,
              28.6072
            ],
            [
              77.431109,
              28.607326
            ],
            [
              77.430651,
              28.608868
            ],
            [
              77.429661,
              28.60898
            ],
            [
              77.42913,
              28.607409
            ],
            [
              77.426661,
              28.607231
            ],
            [
              77.422483,
              28.611057
            ],
            [
              77.421776,
              28.610763
            ],
            [
              77.421405,
              28.608878
            ],
            [
              77.422534,
              28.606878
            ],
            [
              77.419661,
              28.604458
            ],
            [
              77.419163,
              28.604878
            ],
            [
              77.420134,
              28.605878
            ],
            [
              77.419066,
              28.607283
            ],
            [
              77.416661,
              28.607407
            ],
            [
              77.415661,
              28.608397
            ],
            [
              77.412661,
              28.608392
            ],
            [
              77.410661,
              28.606387
            ],
            [
              77.405661,
              28.607326
            ],
            [
              77.404083,
              28.608878
            ],
            [
              77.403661,
              28.611474
            ],
            [
              77.402217,
              28.611878
            ],
            [
              77.404858,
              28.613681
            ],
            [
              77.404674,
              28.617865
            ],
            [
              77.405661,
              28.618679
            ],
            [
              77.405438,
              28.619878
            ],
            [
              77.403348,
              28.620878
            ],
            [
              77.403661,
              28.622293
            ],
            [
              77.399858,
              28.620681
            ],
            [
              77.398887,
              28.621104
            ],
            [
              77.398661,
              28.622393
            ],
            [
              77.395661,
              28.6206
            ],
            [
              77.394205,
              28.621878
            ],
            [
              77.393661,
              28.626721
            ]
          ]
        ],
        "type": "Polygon"
      },
      "type": "Feature"
    },
    {
      "properties": {
        "fill-opacity": 0.33,
        "fillColor": "#bf4040",
        "opacity": 0.33,
        "fill": "#bf4040",
        "fillOpacity": 0.33,
        "color": "#bf4040",
        "contour": 6.0,
        "metric": "distance",
        "provider_name": "Bachelor Bhukkad",
        "zone_type": "distance",
        "distance_km": 6,
        "mode": "motorcycle",
        "center_lat": 28.5888786,
        "center_lon": 77.4036614,
        "label": "6km"
      },
      "geometry": {
        "coordinates": [
          [
            [
              77.394661,
              28.634358
            ],
            [
              77.392661,
              28.63418
            ],
            [
              77.391661,
              28.633223
            ],
            [
              77.390661,
              28.634165
            ],
            [
              77.389198,
              28.633878
            ],
            [
              77.388118,
              28.631421
            ],
            [
              77.38443,
              28.628109
            ],
            [
              77.384839,
              28.626878
            ],
            [
              77.386714,
              28.625878
            ],
            [
              77.386486,
              28.624878
            ],
            [
              77.388661,
              28.623128
            ],
            [
              77.388797,
              28.623742
            ],
            [
              77.390325,
              28.623542
            ],
            [
              77.390482,
              28.622057
            ],
            [
              77.38958,
              28.621878
            ],
            [
              77.390633,
              28.620878
            ],
            [
              77.388661,
              28.620708
            ],
            [
              77.387661,
              28.619324
            ],
            [
              77.386974,
              28.622191
            ],
            [
              77.385974,
              28.623191
            ],
            [
              77.383661,
              28.62294
            ],
            [
              77.383365,
              28.621174
            ],
            [
              77.380661,
              28.621009
            ],
            [
              77.376661,
              28.61789
            ],
            [
              77.376228,
              28.615311
            ],
            [
              77.373661,
              28.615471
            ],
            [
              77.373661,
              28.614355
            ],
            [
              77.374661,
              28.61475
            ],
            [
              77.375544,
              28.613878
            ],
            [
              77.374661,
              28.612299
            ],
            [
              77.373661,
              28.612749
            ],
            [
              77.372215,
              28.609878
            ],
            [
              77.373038,
              28.606501
            ],
            [
              77.371661,
              28.605429
            ],
            [
              77.370203,
              28.605336
            ],
            [
              77.369661,
              28.602488
            ],
            [
              77.368661,
              28.604254
            ],
            [
              77.367661,
              28.604013
            ],
            [
              77.366315,
              28.601224
            ],
            [
              77.365408,
              28.600878
            ],
            [
              77.365905,
              28.599634
            ],
            [
              77.36195,
              28.595878
            ],
            [
              77.362661,
              28.593598
            ],
            [
              77.364862,
              28.592079
            ],
            [
              77.364946,
              28.590878
            ],
            [
              77.36148,
              28.59006
            ],
            [
              77.358661,
              28.590799
            ],
            [
              77.358375,
              28.590165
            ],
            [
              77.358876,
              28.588878
            ],
            [
              77.357767,
              28.585878
            ],
            [
              77.358328,
              28.584878
            ],
            [
              77.357661,
              28.584186
            ],
            [
              77.35825,
              28.577878
            ],
            [
              77.357661,
              28.574927
            ],
            [
              77.361958,
              28.574581
            ],
            [
              77.362257,
              28.577282
            ],
            [
              77.364661,
              28.577493
            ],
            [
              77.365386,
              28.576878
            ],
            [
              77.361913,
              28.573626
            ],
            [
              77.360074,
              28.572878
            ],
            [
              77.360183,
              28.571878
            ],
            [
              77.362661,
              28.569739
            ],
            [
              77.369661,
              28.569005
            ],
            [
              77.370959,
              28.57058
            ],
            [
              77.372236,
              28.570878
            ],
            [
              77.372308,
              28.571878
            ],
            [
              77.374897,
              28.571115
            ],
            [
              77.375919,
              28.567136
            ],
            [
              77.376748,
              28.566878
            ],
            [
              77.376722,
              28.563878
            ],
            [
              77.377925,
              28.562878
            ],
            [
              77.377232,
              28.561878
            ],
            [
              77.37919,
              28.560878
            ],
            [
              77.379072,
              28.557878
            ],
            [
              77.377542,
              28.555997
            ],
            [
              77.377569,
              28.554878
            ],
            [
              77.378661,
              28.555511
            ],
            [
              77.380442,
              28.554659
            ],
            [
              77.381195,
              28.556344
            ],
            [
              77.383067,
              28.556284
            ],
            [
              77.382439,
              28.554878
            ],
            [
              77.382925,
              28.551878
            ],
            [
              77.386661,
              28.551483
            ],
            [
              77.388004,
              28.549878
            ],
            [
              77.386661,
              28.548681
            ],
            [
              77.386607,
              28.546932
            ],
            [
              77.385873,
              28.546878
            ],
            [
              77.386661,
              28.546697
            ],
            [
              77.386865,
              28.547674
            ],
            [
              77.38825,
              28.547468
            ],
            [
              77.388484,
              28.546055
            ],
            [
              77.387661,
              28.545497
            ],
            [
              77.391661,
              28.544136
            ],
            [
              77.392796,
              28.547743
            ],
            [
              77.396661,
              28.548175
            ],
            [
              77.39735,
              28.549189
            ],
            [
              77.399355,
              28.549184
            ],
            [
              77.399661,
              28.54996
            ],
            [
              77.401661,
              28.54918
            ],
            [
              77.402852,
              28.549878
            ],
            [
              77.404661,
              28.546923
            ],
            [
              77.406661,
              28.54894
            ],
            [
              77.408482,
              28.547699
            ],
            [
              77.410284,
              28.547501
            ],
            [
              77.410361,
              28.546178
            ],
            [
              77.408389,
              28.545878
            ],
            [
              77.409661,
              28.544833
            ],
            [
              77.409873,
              28.545666
            ],
            [
              77.412156,
              28.545374
            ],
            [
              77.413661,
              28.542257
            ],
            [
              77.413883,
              28.543656
            ],
            [
              77.414878,
              28.543878
            ],
            [
              77.414661,
              28.545412
            ],
            [
              77.415846,
              28.545063
            ],
            [
              77.416264,
              28.543481
            ],
            [
              77.418617,
              28.542834
            ],
            [
              77.418661,
              28.542077
            ],
            [
              77.418804,
              28.544735
            ],
            [
              77.420716,
              28.545878
            ],
            [
              77.420807,
              28.548878
            ],
            [
              77.419081,
              28.549878
            ],
            [
              77.419318,
              28.553221
            ],
            [
              77.421661,
              28.554481
            ],
            [
              77.425661,
              28.55227
            ],
            [
              77.426262,
              28.552878
            ],
            [
              77.425806,
              28.554733
            ],
            [
              77.426637,
              28.554878
            ],
            [
              77.424111,
              28.555329
            ],
            [
              77.424066,
              28.556473
            ],
            [
              77.424827,
              28.556878
            ],
            [
              77.423661,
              28.558982
            ],
            [
              77.423192,
              28.557347
            ],
            [
              77.421661,
              28.558139
            ],
            [
              77.420661,
              28.557173
            ],
            [
              77.420321,
              28.557538
            ],
            [
              77.421112,
              28.56133
            ],
            [
              77.41644,
              28.563657
            ],
            [
              77.415312,
              28.565878
            ],
            [
              77.416266,
              28.566878
            ],
            [
              77.416245,
              28.568294
            ],
            [
              77.416962,
              28.568179
            ],
            [
              77.417279,
              28.566497
            ],
            [
              77.418661,
              28.56629
            ],
            [
              77.419406,
              28.568133
            ],
            [
              77.421661,
              28.569219
            ],
            [
              77.424661,
              28.569378
            ],
            [
              77.425055,
              28.566484
            ],
            [
              77.4232,
              28.566417
            ],
            [
              77.422661,
              28.568083
            ],
            [
              77.422155,
              28.566384
            ],
            [
              77.419482,
              28.566057
            ],
            [
              77.42061,
              28.564827
            ],
            [
              77.420947,
              28.565592
            ],
            [
              77.422216,
              28.565433
            ],
            [
              77.422336,
              28.564203
            ],
            [
              77.421381,
              28.563878
            ],
            [
              77.421661,
              28.562747
            ],
            [
              77.422773,
              28.562878
            ],
            [
              77.422652,
              28.561878
            ],
            [
              77.424387,
              28.561604
            ],
            [
              77.424661,
              28.560803
            ],
            [
              77.424961,
              28.561578
            ],
            [
              77.426385,
              28.561602
            ],
            [
              77.426661,
              28.560397
            ],
            [
              77.42746,
              28.560878
            ],
            [
              77.426807,
              28.561024
            ],
            [
              77.426967,
              28.562572
            ],
            [
              77.427661,
              28.56273
            ],
            [
              77.434095,
              28.561444
            ],
            [
              77.434242,
              28.565297
            ],
            [
              77.435661,
              28.565624
            ],
            [
              77.436661,
              28.56486
            ],
            [
              77.436855,
              28.565684
            ],
            [
              77.43864,
              28.565878
            ],
            [
              77.438392,
              28.573878
            ],
            [
              77.436932,
              28.574878
            ],
            [
              77.439811,
              28.576878
            ],
            [
              77.438577,
              28.578962
            ],
            [
              77.439661,
              28.579447
            ],
            [
              77.439944,
              28.580596
            ],
            [
              77.441237,
              28.580878
            ],
            [
              77.441172,
              28.582878
            ],
            [
              77.439661,
              28.582712
            ],
            [
              77.437661,
              28.581177
            ],
            [
              77.436184,
              28.581401
            ],
            [
              77.434747,
              28.582965
            ],
            [
              77.433808,
              28.583025
            ],
            [
              77.433661,
              28.583878
            ],
            [
              77.431054,
              28.584272
            ],
            [
              77.430818,
              28.585035
            ],
            [
              77.429209,
              28.585426
            ],
            [
              77.428902,
              28.587637
            ],
            [
              77.429605,
              28.588878
            ],
            [
              77.428661,
              28.589775
            ],
            [
              77.427576,
              28.588878
            ],
            [
              77.428433,
              28.58865
            ],
            [
              77.428219,
              28.58732
            ],
            [
              77.426134,
              28.587352
            ],
            [
              77.425661,
              28.590489
            ],
            [
              77.425016,
              28.589878
            ],
            [
              77.42531,
              28.588229
            ],
            [
              77.423976,
              28.587878
            ],
            [
              77.424557,
              28.587774
            ],
            [
              77.424179,
              28.58636
            ],
            [
              77.423169,
              28.586386
            ],
            [
              77.423247,
              28.587878
            ],
            [
              77.421661,
              28.58928
            ],
            [
              77.421449,
              28.58809
            ],
            [
              77.42059,
              28.587878
            ],
            [
              77.42224,
              28.586457
            ],
            [
              77.422278,
              28.585261
            ],
            [
              77.421661,
              28.584621
            ],
            [
              77.419661,
              28.585399
            ],
            [
              77.418843,
              28.584878
            ],
            [
              77.419535,
              28.584753
            ],
            [
              77.419433,
              28.583106
            ],
            [
              77.417595,
              28.582878
            ],
            [
              77.417153,
              28.580386
            ],
            [
              77.414661,
              28.579922
            ],
            [
              77.412462,
              28.581878
            ],
            [
              77.412524,
              28.583015
            ],
            [
              77.414486,
              28.584053
            ],
            [
              77.414567,
              28.584878
            ],
            [
              77.414265,
              28.586482
            ],
            [
              77.412532,
              28.58675
            ],
            [
              77.412468,
              28.587878
            ],
            [
              77.414271,
              28.587269
            ],
            [
              77.415273,
              28.588266
            ],
            [
              77.415557,
              28.590982
            ],
            [
              77.418456,
              28.594083
            ],
            [
              77.420661,
              28.594136
            ],
            [
              77.42149,
              28.596049
            ],
            [
              77.42315,
              28.596389
            ],
            [
              77.422398,
              28.597878
            ],
            [
              77.424319,
              28.598878
            ],
            [
              77.423383,
              28.599878
            ],
            [
              77.42434,
              28.602199
            ],
            [
              77.427064,
              28.603281
            ],
            [
              77.430315,
              28.599532
            ],
            [
              77.43061,
              28.597828
            ],
            [
              77.432419,
              28.59712
            ],
            [
              77.432665,
              28.599874
            ],
            [
              77.435926,
              28.600613
            ],
            [
              77.435439,
              28.601878
            ],
            [
              77.436661,
              28.604841
            ],
            [
              77.440661,
              28.606582
            ],
            [
              77.443339,
              28.606556
            ],
            [
              77.444495,
              28.605878
            ],
            [
              77.444626,
              28.606878
            ],
            [
              77.442979,
              28.607878
            ],
            [
              77.441661,
              28.61102
            ],
            [
              77.440661,
              28.611386
            ],
            [
              77.439526,
              28.610014
            ],
            [
              77.438118,
              28.610336
            ],
            [
              77.438655,
              28.612878
            ],
            [
              77.437661,
              28.614035
            ],
            [
              77.437317,
              28.611878
            ],
            [
              77.436285,
              28.611502
            ],
            [
              77.436044,
              28.614878
            ],
            [
              77.433661,
              28.614125
            ],
            [
              77.432661,
              28.616811
            ],
            [
              77.431661,
              28.615494
            ],
            [
              77.429661,
              28.615765
            ],
            [
              77.427661,
              28.613771
            ],
            [
              77.424688,
              28.614906
            ],
            [
              77.424316,
              28.614223
            ],
            [
              77.421661,
              28.613823
            ],
            [
              77.417605,
              28.618935
            ],
            [
              77.416631,
              28.618878
            ],
            [
              77.416328,
              28.616546
            ],
            [
              77.416973,
              28.615878
            ],
            [
              77.414661,
              28.615238
            ],
            [
              77.413863,
              28.613878
            ],
            [
              77.415302,
              28.613519
            ],
            [
              77.415451,
              28.612088
            ],
            [
              77.414411,
              28.611878
            ],
            [
              77.417423,
              28.607878
            ],
            [
              77.416447,
              28.607664
            ],
            [
              77.416576,
              28.608794
            ],
            [
              77.412661,
              28.608743
            ],
            [
              77.410803,
              28.606736
            ],
            [
              77.408661,
              28.606608
            ],
            [
              77.407661,
              28.607598
            ],
            [
              77.405454,
              28.607671
            ],
            [
              77.404318,
              28.608878
            ],
            [
              77.404053,
              28.61127
            ],
            [
              77.402354,
              28.611878
            ],
            [
              77.40504,
              28.6135
            ],
            [
              77.405248,
              28.617291
            ],
            [
              77.406231,
              28.619308
            ],
            [
              77.408923,
              28.621878
            ],
            [
              77.408811,
              28.624878
            ],
            [
              77.406781,
              28.626998
            ],
            [
              77.404532,
              28.627007
            ],
            [
              77.403947,
              28.624592
            ],
            [
              77.401661,
              28.622651
            ],
            [
              77.40046,
              28.622678
            ],
            [
              77.400417,
              28.624634
            ],
            [
              77.399446,
              28.624878
            ],
            [
              77.399129,
              28.625878
            ],
            [
              77.398662,
              28.631878
            ],
            [
              77.397698,
              28.631915
            ],
            [
              77.396661,
              28.633682
            ],
            [
              77.394661,
              28.634358
            ]
          ]
        ],
        "type": "Polygon"
      },
      "type": "Feature"
    }
  ]
}