{
  "type": "FeatureCollection",
  "metadata": {
    "provider_name": "Surbhi Sweets And Snacks",
    "center_lat": 19.22842841,
    "center_lon": 72.85758074,
    "mode": "motorcycle",
    "total_zones": 4,
    "distance_zones": [
      3,
      4,
      5,
      6
    ],
    "generated_at": "2025-12-24T09:00:38.481545Z"
  },
  "features": [
    {
      "properties": {
        "fill-opacity": 0.33,
        "fillColor": "#bf4040",
        "opacity": 0.33,
        "fill": "#bf4040",
        "fillOpacity": 0.33,
        "color": "#bf4040",
        "contour": 3.0,
        "metric": "distance",
        "provider_name": "Surbhi Sweets And Snacks",
        "zone_type": "distance",
        "distance_km": 3,
        "mode": "motorcycle",
        "center_lat": 19.22842841,
        "center_lon": 72.85758074,
        "label": "3km"
      },
      "geometry": {
        "coordinates": [
          [
            [
              72.86558,
              19.253659
            ],
            [
              72.86358,
              19.252605
            ],
            [
              72.862853,
              19.2527
            ],
            [
              72.86258,
              19.25371
            ],
            [
              72.86158,
              19.252072
            ],
            [
              72.860267,
              19.252741
            ],
            [
              72.860366,
              19.250428
            ],
            [
              72.858946,
              19.249428
            ],
            [
              72.85758,
              19.245609
            ],
            [
              72.85658,
              19.246708
            ],
            [
              72.856223,
              19.244785
            ],
            [
              72.855025,
              19.244873
            ],
            [
              72.854308,
              19.2477
            ],
            [
              72.853092,
              19.246916
            ],
            [
              72.85258,
              19.245486
            ],
            [
              72.85058,
              19.245259
            ],
            [
              72.849499,
              19.242428
            ],
            [
              72.844762,
              19.241246
            ],
            [
              72.844539,
              19.239387
            ],
            [
              72.84658,
              19.235585
            ],
            [
              72.84758,
              19.234284
            ],
            [
              72.8488,
              19.234647
            ],
            [
              72.848537,
              19.232428
            ],
            [
              72.850964,
              19.231812
            ],
            [
              72.851006,
              19.230428
            ],
            [
              72.854878,
              19.227428
            ],
            [
              72.85158,
              19.227533
            ],
            [
              72.85058,
              19.225636
            ],
            [
              72.849875,
              19.225723
            ],
            [
              72.84958,
              19.227172
            ],
            [
              72.84595,
              19.224059
            ],
            [
              72.845915,
              19.221093
            ],
            [
              72.84358,
              19.220132
            ],
            [
              72.84258,
              19.220495
            ],
            [
              72.841967,
              19.219428
            ],
            [
              72.844376,
              19.218224
            ],
            [
              72.84458,
              19.217076
            ],
            [
              72.846266,
              19.217114
            ],
            [
              72.846421,
              19.215588
            ],
            [
              72.845616,
              19.215428
            ],
            [
              72.84758,
              19.21403
            ],
            [
              72.848036,
              19.215973
            ],
            [
              72.84906,
              19.215908
            ],
            [
              72.848975,
              19.213033
            ],
            [
              72.848234,
              19.212428
            ],
            [
              72.851158,
              19.213005
            ],
            [
              72.85158,
              19.210978
            ],
            [
              72.85359,
              19.212418
            ],
            [
              72.85388,
              19.216428
            ],
            [
              72.85458,
              19.21692
            ],
            [
              72.85658,
              19.213039
            ],
            [
              72.85958,
              19.213019
            ],
            [
              72.861162,
              19.214846
            ],
            [
              72.862859,
              19.215149
            ],
            [
              72.862969,
              19.217428
            ],
            [
              72.86358,
              19.217865
            ],
            [
              72.86458,
              19.215912
            ],
            [
              72.866798,
              19.215646
            ],
            [
              72.867498,
              19.213428
            ],
            [
              72.868484,
              19.213524
            ],
            [
              72.869703,
              19.215428
            ],
            [
              72.868892,
              19.21574
            ],
            [
              72.868434,
              19.217574
            ],
            [
              72.87058,
              19.216784
            ],
            [
              72.871791,
              19.217217
            ],
            [
              72.872179,
              19.22283
            ],
            [
              72.87358,
              19.222148
            ],
            [
              72.878119,
              19.222428
            ],
            [
              72.87458,
              19.222694
            ],
            [
              72.87258,
              19.223796
            ],
            [
              72.871901,
              19.226749
            ],
            [
              72.869144,
              19.227428
            ],
            [
              72.87158,
              19.22795
            ],
            [
              72.872192,
              19.22704
            ],
            [
              72.87358,
              19.227015
            ],
            [
              72.87558,
              19.228122
            ],
            [
              72.87758,
              19.226348
            ],
            [
              72.877846,
              19.228162
            ],
            [
              72.87946,
              19.228428
            ],
            [
              72.876087,
              19.228934
            ],
            [
              72.875962,
              19.230046
            ],
            [
              72.876967,
              19.230428
            ],
            [
              72.87658,
              19.231928
            ],
            [
              72.876302,
              19.230706
            ],
            [
              72.874997,
              19.230844
            ],
            [
              72.87458,
              19.233132
            ],
            [
              72.874264,
              19.231745
            ],
            [
              72.872234,
              19.230774
            ],
            [
              72.872055,
              19.229953
            ],
            [
              72.871146,
              19.229994
            ],
            [
              72.872006,
              19.231003
            ],
            [
              72.87202,
              19.233428
            ],
            [
              72.873866,
              19.236428
            ],
            [
              72.872837,
              19.237428
            ],
            [
              72.872582,
              19.239429
            ],
            [
              72.868489,
              19.239337
            ],
            [
              72.869382,
              19.241428
            ],
            [
              72.867875,
              19.244428
            ],
            [
              72.868763,
              19.245428
            ],
            [
              72.865046,
              19.246428
            ],
            [
              72.865842,
              19.247428
            ],
            [
              72.865781,
              19.249227
            ],
            [
              72.866554,
              19.249428
            ],
            [
              72.864188,
              19.250428
            ],
            [
              72.864246,
              19.251762
            ],
            [
              72.865315,
              19.252428
            ],
            [
              72.86558,
              19.253659
            ]
          ]
        ],
        "type": "Polygon"
      },
      "type": "Feature"
    },
    {
      "properties": {
        "fill-opacity": 0.33,
        "fillColor": "#bf4040",
        "opacity": 0.33,
        "fill": "#bf4040",
        "fillOpacity": 0.33,
        "color": "#bf4040",
        "contour": 4.0,
        "metric": "distance",
        "provider_name": "Surbhi Sweets And Snacks",
        "zone_type": "distance",
        "distance_km": 4,
        "mode": "motorcycle",
        "center_lat": 19.22842841,
        "center_lon": 72.85758074,
        "label": "4km"
      },
      "geometry": {
        "coordinates": [
          [
            [
              72.86058,
              19.259986
            ],
            [
              72.85958,
              19.259967
            ],
            [
              72.859328,
              19.257428
            ],
            [
              72.85858,
              19.25675
            ],
            [
              72.857631,
              19.258479
            ],
            [
              72.855878,
              19.258428
            ],
            [
              72.85529,
              19.254718
            ],
            [
              72.854117,
              19.254965
            ],
            [
              72.85358,
              19.256267
            ],
            [
              72.85211,
              19.254428
            ],
            [
              72.85258,
              19.253318
            ],
            [
              72.849004,
              19.253428
            ],
            [
              72.849094,
              19.249428
            ],
            [
              72.84758,
              19.248075
            ],
            [
              72.84581,
              19.248658
            ],
            [
              72.84558,
              19.249809
            ],
            [
              72.843576,
              19.248433
            ],
            [
              72.845294,
              19.246428
            ],
            [
              72.842372,
              19.244428
            ],
            [
              72.845145,
              19.243428
            ],
            [
              72.842974,
              19.241035
            ],
            [
              72.83958,
              19.242728
            ],
            [
              72.839242,
              19.240766
            ],
            [
              72.837551,
              19.240458
            ],
            [
              72.841044,
              19.239892
            ],
            [
              72.841049,
              19.237959
            ],
            [
              72.840171,
              19.235838
            ],
            [
              72.839249,
              19.235428
            ],
            [
              72.840235,
              19.235083
            ],
            [
              72.840724,
              19.233572
            ],
            [
              72.843821,
              19.233669
            ],
            [
              72.84358,
              19.232498
            ],
            [
              72.841528,
              19.230428
            ],
            [
              72.844057,
              19.229905
            ],
            [
              72.844272,
              19.228428
            ],
            [
              72.842599,
              19.227446
            ],
            [
              72.84058,
              19.227527
            ],
            [
              72.83954,
              19.226469
            ],
            [
              72.839716,
              19.225293
            ],
            [
              72.837098,
              19.224428
            ],
            [
              72.837296,
              19.221428
            ],
            [
              72.836068,
              19.21994
            ],
            [
              72.833812,
              19.219659
            ],
            [
              72.83358,
              19.221233
            ],
            [
              72.832838,
              19.219428
            ],
            [
              72.83358,
              19.218274
            ],
            [
              72.834898,
              19.21911
            ],
            [
              72.837035,
              19.218882
            ],
            [
              72.837124,
              19.217884
            ],
            [
              72.835289,
              19.217428
            ],
            [
              72.836802,
              19.216428
            ],
            [
              72.835624,
              19.215428
            ],
            [
              72.83714,
              19.214428
            ],
            [
              72.83658,
              19.21303
            ],
            [
              72.839308,
              19.213155
            ],
            [
              72.840103,
              19.210428
            ],
            [
              72.84258,
              19.210232
            ],
            [
              72.84358,
              19.209212
            ],
            [
              72.844773,
              19.210235
            ],
            [
              72.845167,
              19.211842
            ],
            [
              72.84958,
              19.211901
            ],
            [
              72.850876,
              19.212723
            ],
            [
              72.850928,
              19.211081
            ],
            [
              72.847888,
              19.210428
            ],
            [
              72.848244,
              19.206428
            ],
            [
              72.84914,
              19.205428
            ],
            [
              72.847819,
              19.204428
            ],
            [
              72.849078,
              19.203926
            ],
            [
              72.84958,
              19.202329
            ],
            [
              72.85058,
              19.203568
            ],
            [
              72.85158,
              19.203391
            ],
            [
              72.851998,
              19.209428
            ],
            [
              72.854222,
              19.212428
            ],
            [
              72.854333,
              19.216675
            ],
            [
              72.855919,
              19.214428
            ],
            [
              72.855886,
              19.212734
            ],
            [
              72.859222,
              19.212069
            ],
            [
              72.86203,
              19.208428
            ],
            [
              72.862704,
              19.208304
            ],
            [
              72.86358,
              19.210257
            ],
            [
              72.865373,
              19.209428
            ],
            [
              72.864915,
              19.206763
            ],
            [
              72.86558,
              19.205255
            ],
            [
              72.865758,
              19.206251
            ],
            [
              72.86958,
              19.207181
            ],
            [
              72.86995,
              19.208059
            ],
            [
              72.87258,
              19.207462
            ],
            [
              72.873707,
              19.209428
            ],
            [
              72.876564,
              19.211428
            ],
            [
              72.874878,
              19.211725
            ],
            [
              72.87498,
              19.213028
            ],
            [
              72.876364,
              19.213212
            ],
            [
              72.87658,
              19.212574
            ],
            [
              72.878398,
              19.214428
            ],
            [
              72.876882,
              19.21473
            ],
            [
              72.87573,
              19.216578
            ],
            [
              72.87358,
              19.215755
            ],
            [
              72.872186,
              19.216034
            ],
            [
              72.87233,
              19.222679
            ],
            [
              72.87358,
              19.221846
            ],
            [
              72.87558,
              19.221867
            ],
            [
              72.87858,
              19.221959
            ],
            [
              72.879981,
              19.222829
            ],
            [
              72.88058,
              19.218694
            ],
            [
              72.880782,
              19.220226
            ],
            [
              72.881753,
              19.220428
            ],
            [
              72.880881,
              19.222428
            ],
            [
              72.881177,
              19.223831
            ],
            [
              72.884212,
              19.22406
            ],
            [
              72.884524,
              19.223372
            ],
            [
              72.88558,
              19.222855
            ],
            [
              72.885621,
              19.223469
            ],
            [
              72.884767,
              19.223615
            ],
            [
              72.88405,
              19.226958
            ],
            [
              72.886341,
              19.227189
            ],
            [
              72.886563,
              19.226411
            ],
            [
              72.887825,
              19.226428
            ],
            [
              72.886639,
              19.226486
            ],
            [
              72.88666,
              19.227508
            ],
            [
              72.88458,
              19.22769
            ],
            [
              72.88358,
              19.228745
            ],
            [
              72.880234,
              19.229082
            ],
            [
              72.88012,
              19.232888
            ],
            [
              72.881715,
              19.233294
            ],
            [
              72.88258,
              19.234512
            ],
            [
              72.879269,
              19.233739
            ],
            [
              72.878966,
              19.231042
            ],
            [
              72.877245,
              19.231092
            ],
            [
              72.878187,
              19.233821
            ],
            [
              72.88058,
              19.236376
            ],
            [
              72.881908,
              19.236428
            ],
            [
              72.880693,
              19.236541
            ],
            [
              72.880775,
              19.238234
            ],
            [
              72.881813,
              19.238428
            ],
            [
              72.880514,
              19.238494
            ],
            [
              72.880289,
              19.237719
            ],
            [
              72.87658,
              19.235784
            ],
            [
              72.87458,
              19.235836
            ],
            [
              72.873154,
              19.237428
            ],
            [
              72.872914,
              19.239762
            ],
            [
              72.871225,
              19.240073
            ],
            [
              72.871009,
              19.241857
            ],
            [
              72.870051,
              19.242428
            ],
            [
              72.87058,
              19.243002
            ],
            [
              72.871179,
              19.242026
            ],
            [
              72.873116,
              19.242428
            ],
            [
              72.871389,
              19.244428
            ],
            [
              72.87358,
              19.245766
            ],
            [
              72.873618,
              19.248428
            ],
            [
              72.87058,
              19.250783
            ],
            [
              72.86958,
              19.250252
            ],
            [
              72.868271,
              19.251428
            ],
            [
              72.870773,
              19.254235
            ],
            [
              72.870863,
              19.256711
            ],
            [
              72.86758,
              19.256348
            ],
            [
              72.86658,
              19.254901
            ],
            [
              72.86458,
              19.256983
            ],
            [
              72.86358,
              19.254919
            ],
            [
              72.862813,
              19.25666
            ],
            [
              72.86158,
              19.255829
            ],
            [
              72.860902,
              19.256428
            ],
            [
              72.860949,
              19.258059
            ],
            [
              72.861608,
              19.258428
            ],
            [
              72.86058,
              19.259986
            ]
          ]
        ],
        "type": "Polygon"
      },
      "type": "Feature"
    },
    {
      "properties": {
        "fill-opacity": 0.33,
        "fillColor": "#bf4040",
        "opacity": 0.33,
        "fill": "#bf4040",
        "fillOpacity": 0.33,
        "color": "#bf4040",
        "contour": 5.0,
        "metric": "distance",
        "provider_name": "Surbhi Sweets And Snacks",
        "zone_type": "distance",
        "distance_km": 5,
        "mode": "motorcycle",
        "center_lat": 19.22842841,
        "center_lon": 72.85758074,
        "label": "5km"
      },
      "geometry": {
        "coordinates": [
          [
            [
              72.87558,
              19.265764
            ],
            [
              72.868445,
              19.263563
            ],
            [
              72.870402,
              19.261428
            ],
            [
              72.868994,
              19.260428
            ],
            [
              72.870296,
              19.259428
            ],
            [
              72.86958,
              19.256909
            ],
            [
              72.866734,
              19.259428
            ],
            [
              72.86658,
              19.261679
            ],
            [
              72.864688,
              19.261535
            ],
            [
              72.864734,
              19.262581
            ],
            [
              72.862153,
              19.263001
            ],
            [
              72.85958,
              19.265547
            ],
            [
              72.858526,
              19.265428
            ],
            [
              72.859354,
              19.264428
            ],
            [
              72.858494,
              19.263342
            ],
            [
              72.860266,
              19.262428
            ],
            [
              72.859123,
              19.261428
            ],
            [
              72.858854,
              19.257155
            ],
            [
              72.858131,
              19.257428
            ],
            [
              72.858542,
              19.258428
            ],
            [
              72.856064,
              19.259428
            ],
            [
              72.855997,
              19.261428
            ],
            [
              72.856793,
              19.26264
            ],
            [
              72.85358,
              19.262769
            ],
            [
              72.852451,
              19.260299
            ],
            [
              72.85458,
              19.260124
            ],
            [
              72.85509,
              19.259428
            ],
            [
              72.853871,
              19.257138
            ],
            [
              72.850611,
              19.257397
            ],
            [
              72.84758,
              19.255643
            ],
            [
              72.84458,
              19.256069
            ],
            [
              72.843048,
              19.25296
            ],
            [
              72.841367,
              19.251641
            ],
            [
              72.841248,
              19.250428
            ],
            [
              72.843941,
              19.249788
            ],
            [
              72.843079,
              19.248428
            ],
            [
              72.844854,
              19.246154
            ],
            [
              72.838268,
              19.24374
            ],
            [
              72.83907,
              19.242428
            ],
            [
              72.838888,
              19.24112
            ],
            [
              72.835576,
              19.241428
            ],
            [
              72.836343,
              19.240191
            ],
            [
              72.836227,
              19.236428
            ],
            [
              72.835206,
              19.235428
            ],
            [
              72.836962,
              19.23481
            ],
            [
              72.837202,
              19.233428
            ],
            [
              72.836497,
              19.231511
            ],
            [
              72.83557,
              19.231428
            ],
            [
              72.836472,
              19.231319
            ],
            [
              72.83647,
              19.229317
            ],
            [
              72.836791,
              19.230218
            ],
            [
              72.838155,
              19.230003
            ],
            [
              72.837897,
              19.227111
            ],
            [
              72.83658,
              19.226838
            ],
            [
              72.83558,
              19.227983
            ],
            [
              72.83358,
              19.226679
            ],
            [
              72.830543,
              19.227465
            ],
            [
              72.83045,
              19.226558
            ],
            [
              72.829568,
              19.226428
            ],
            [
              72.830315,
              19.224428
            ],
            [
              72.82987,
              19.223138
            ],
            [
              72.827739,
              19.222586
            ],
            [
              72.82758,
              19.223787
            ],
            [
              72.827359,
              19.220428
            ],
            [
              72.825466,
              19.218428
            ],
            [
              72.825556,
              19.217404
            ],
            [
              72.826786,
              19.216428
            ],
            [
              72.825968,
              19.215428
            ],
            [
              72.82658,
              19.214341
            ],
            [
              72.82858,
              19.212859
            ],
            [
              72.829011,
              19.214997
            ],
            [
              72.830555,
              19.214428
            ],
            [
              72.831064,
              19.212428
            ],
            [
              72.829405,
              19.210428
            ],
            [
              72.830545,
              19.209393
            ],
            [
              72.832599,
              19.210446
            ],
            [
              72.832715,
              19.208294
            ],
            [
              72.831761,
              19.207428
            ],
            [
              72.832535,
              19.206382
            ],
            [
              72.833948,
              19.206796
            ],
            [
              72.83458,
              19.204096
            ],
            [
              72.835903,
              19.205428
            ],
            [
              72.835312,
              19.206697
            ],
            [
              72.83758,
              19.206424
            ],
            [
              72.838133,
              19.204981
            ],
            [
              72.84058,
              19.203332
            ],
            [
              72.843127,
              19.199975
            ],
            [
              72.843492,
              19.197428
            ],
            [
              72.844707,
              19.196555
            ],
            [
              72.846597,
              19.196445
            ],
            [
              72.845536,
              19.195428
            ],
            [
              72.846933,
              19.194781
            ],
            [
              72.84758,
              19.193489
            ],
            [
              72.850643,
              19.196366
            ],
            [
              72.850975,
              19.198033
            ],
            [
              72.853224,
              19.198428
            ],
            [
              72.85158,
              19.198566
            ],
            [
              72.850915,
              19.199428
            ],
            [
              72.850998,
              19.201428
            ],
            [
              72.851996,
              19.202428
            ],
            [
              72.852212,
              19.209428
            ],
            [
              72.853066,
              19.209942
            ],
            [
              72.85358,
              19.211759
            ],
            [
              72.854533,
              19.21038
            ],
            [
              72.857988,
              19.209835
            ],
            [
              72.85958,
              19.20727
            ],
            [
              72.864047,
              19.206894
            ],
            [
              72.864044,
              19.204964
            ],
            [
              72.861306,
              19.202428
            ],
            [
              72.861381,
              19.199627
            ],
            [
              72.860428,
              19.199428
            ],
            [
              72.86058,
              19.197719
            ],
            [
              72.860707,
              19.198301
            ],
            [
              72.86258,
              19.198306
            ],
            [
              72.862772,
              19.199236
            ],
            [
              72.864514,
              19.200428
            ],
            [
              72.865089,
              19.201428
            ],
            [
              72.863541,
              19.202389
            ],
            [
              72.864402,
              19.203606
            ],
            [
              72.8658,
              19.202428
            ],
            [
              72.866103,
              19.20095
            ],
            [
              72.86958,
              19.201119
            ],
            [
              72.870079,
              19.202929
            ],
            [
              72.872382,
              19.20323
            ],
            [
              72.87358,
              19.202527
            ],
            [
              72.87558,
              19.204693
            ],
            [
              72.877884,
              19.205125
            ],
            [
              72.879693,
              19.206428
            ],
            [
              72.879736,
              19.208428
            ],
            [
              72.878901,
              19.209428
            ],
            [
              72.879905,
              19.210428
            ],
            [
              72.878971,
              19.211428
            ],
            [
              72.880924,
              19.213428
            ],
            [
              72.880194,
              19.214814
            ],
            [
              72.883006,
              19.217428
            ],
            [
              72.881104,
              19.219428
            ],
            [
              72.882128,
              19.220428
            ],
            [
              72.88121,
              19.223428
            ],
            [
              72.882977,
              19.224032
            ],
            [
              72.883164,
              19.224844
            ],
            [
              72.883874,
              19.224722
            ],
            [
              72.886331,
              19.219179
            ],
            [
              72.888059,
              19.217907
            ],
            [
              72.888465,
              19.216313
            ],
            [
              72.889346,
              19.216194
            ],
            [
              72.88958,
              19.214544
            ],
            [
              72.889692,
              19.216428
            ],
            [
              72.888942,
              19.216789
            ],
            [
              72.888853,
              19.218428
            ],
            [
              72.88717,
              19.220017
            ],
            [
              72.886096,
              19.223428
            ],
            [
              72.884119,
              19.226428
            ],
            [
              72.88558,
              19.226873
            ],
            [
              72.88658,
              19.225921
            ],
            [
              72.889046,
              19.225963
            ],
            [
              72.89158,
              19.226068
            ],
            [
              72.89182,
              19.226668
            ],
            [
              72.88758,
              19.226928
            ],
            [
              72.886935,
              19.227783
            ],
            [
              72.88458,
              19.228003
            ],
            [
              72.88358,
              19.229022
            ],
            [
              72.880353,
              19.2292
            ],
            [
              72.880308,
              19.2327
            ],
            [
              72.881951,
              19.233057
            ],
            [
              72.883102,
              19.234428
            ],
            [
              72.88158,
              19.234979
            ],
            [
              72.88058,
              19.234009
            ],
            [
              72.87918,
              19.234028
            ],
            [
              72.88058,
              19.235915
            ],
            [
              72.882904,
              19.236104
            ],
            [
              72.88558,
              19.239058
            ],
            [
              72.888714,
              19.239295
            ],
            [
              72.884928,
              19.240428
            ],
            [
              72.885864,
              19.241428
            ],
            [
              72.885886,
              19.243122
            ],
            [
              72.886637,
              19.243371
            ],
            [
              72.88676,
              19.244428
            ],
            [
              72.88658,
              19.244438
            ],
            [
              72.886554,
              19.244402
            ],
            [
              72.886411,
              19.243598
            ],
            [
              72.885481,
              19.243527
            ],
            [
              72.884382,
              19.241626
            ],
            [
              72.883967,
              19.239041
            ],
            [
              72.88058,
              19.238954
            ],
            [
              72.87658,
              19.236036
            ],
            [
              72.874252,
              19.2361
            ],
            [
              72.873281,
              19.237428
            ],
            [
              72.873025,
              19.239873
            ],
            [
              72.871227,
              19.240428
            ],
            [
              72.871212,
              19.241796
            ],
            [
              72.873822,
              19.242186
            ],
            [
              72.875017,
              19.244428
            ],
            [
              72.875053,
              19.248428
            ],
            [
              72.874056,
              19.249428
            ],
            [
              72.874966,
              19.250428
            ],
            [
              72.873888,
              19.251428
            ],
            [
              72.876719,
              19.252289
            ],
            [
              72.87758,
              19.25503
            ],
            [
              72.875986,
              19.255834
            ],
            [
              72.87494,
              19.257428
            ],
            [
              72.877713,
              19.260561
            ],
            [
              72.87558,
              19.26089
            ],
            [
              72.87358,
              19.259801
            ],
            [
              72.872986,
              19.260428
            ],
            [
              72.87579,
              19.264218
            ],
            [
              72.87558,
              19.265764
            ]
          ]
        ],
        "type": "Polygon"
      },
      "type": "Feature"
    },
    {
      "properties": {
        "fill-opacity": 0.33,
        "fillColor": "#bf4040",
        "opacity": 0.33,
        "fill": "#bf4040",
        "fillOpacity": 0.33,
        "color": "#bf4040",
        "contour": 6.0,
        "metric": "distance",
        "provider_name": "Surbhi Sweets And Snacks",
        "zone_type": "distance",
        "distance_km": 6,
        "mode": "motorcycle",
        "center_lat": 19.22842841,
        "center_lon": 72.85758074,
        "label": "6km"
      },
      "geometry": {
        "coordinates": [
          [
            [
              72.87658,
              19.273939
            ],
            [
              72.875345,
              19.273428
            ],
            [
              72.875732,
              19.272276
            ],
            [
              72.870873,
              19.270135
            ],
            [
              72.86858,
              19.27204
            ],
            [
              72.866644,
              19.271428
            ],
            [
              72.867425,
              19.271273
            ],
            [
              72.867498,
              19.270345
            ],
            [
              72.86912,
              19.269968
            ],
            [
              72.869202,
              19.267428
            ],
            [
              72.866326,
              19.266682
            ],
            [
              72.867146,
              19.265428
            ],
            [
              72.866158,
              19.264428
            ],
            [
              72.865908,
              19.2621
            ],
            [
              72.86458,
              19.262993
            ],
            [
              72.86232,
              19.263168
            ],
            [
              72.859935,
              19.265782
            ],
            [
              72.85858,
              19.265942
            ],
            [
              72.858066,
              19.265428
            ],
            [
              72.859017,
              19.264428
            ],
            [
              72.858046,
              19.263428
            ],
            [
              72.859987,
              19.262428
            ],
            [
              72.858932,
              19.261428
            ],
            [
              72.85858,
              19.258917
            ],
            [
              72.85624,
              19.259428
            ],
            [
              72.856977,
              19.262824
            ],
            [
              72.85358,
              19.263031
            ],
            [
              72.85258,
              19.261467
            ],
            [
              72.851684,
              19.261324
            ],
            [
              72.85158,
              19.259701
            ],
            [
              72.849329,
              19.260679
            ],
            [
              72.849107,
              19.257428
            ],
            [
              72.847878,
              19.25613
            ],
            [
              72.844264,
              19.256744
            ],
            [
              72.840981,
              19.250428
            ],
            [
              72.843814,
              19.249662
            ],
            [
              72.842913,
              19.248428
            ],
            [
              72.844774,
              19.246234
            ],
            [
              72.838145,
              19.243863
            ],
            [
              72.838909,
              19.242428
            ],
            [
              72.83858,
              19.241111
            ],
            [
              72.83658,
              19.241936
            ],
            [
              72.835079,
              19.241428
            ],
            [
              72.836024,
              19.239428
            ],
            [
              72.835973,
              19.236428
            ],
            [
              72.834965,
              19.235428
            ],
            [
              72.836823,
              19.234671
            ],
            [
              72.83687,
              19.233138
            ],
            [
              72.83558,
              19.231928
            ],
            [
              72.83258,
              19.231835
            ],
            [
              72.83158,
              19.234084
            ],
            [
              72.828788,
              19.233636
            ],
            [
              72.82858,
              19.234458
            ],
            [
              72.828252,
              19.232756
            ],
            [
              72.826285,
              19.232428
            ],
            [
              72.82858,
              19.229408
            ],
            [
              72.83158,
              19.231067
            ],
            [
              72.83258,
              19.230203
            ],
            [
              72.83358,
              19.230992
            ],
            [
              72.83558,
              19.230928
            ],
            [
              72.836053,
              19.230428
            ],
            [
              72.83514,
              19.228428
            ],
            [
              72.83358,
              19.227
            ],
            [
              72.829855,
              19.228153
            ],
            [
              72.828828,
              19.226428
            ],
            [
              72.828861,
              19.223147
            ],
            [
              72.828156,
              19.223428
            ],
            [
              72.828026,
              19.225874
            ],
            [
              72.827172,
              19.225837
            ],
            [
              72.827018,
              19.220428
            ],
            [
              72.824926,
              19.218082
            ],
            [
              72.82158,
              19.218904
            ],
            [
              72.819735,
              19.218583
            ],
            [
              72.81958,
              19.219674
            ],
            [
              72.819242,
              19.216767
            ],
            [
              72.817321,
              19.216428
            ],
            [
              72.81647,
              19.215428
            ],
            [
              72.818275,
              19.215123
            ],
            [
              72.81858,
              19.212603
            ],
            [
              72.82058,
              19.211366
            ],
            [
              72.821925,
              19.211773
            ],
            [
              72.822559,
              19.208428
            ],
            [
              72.82428,
              19.206128
            ],
            [
              72.825853,
              19.205701
            ],
            [
              72.826818,
              19.202428
            ],
            [
              72.82858,
              19.20113
            ],
            [
              72.830297,
              19.198428
            ],
            [
              72.833061,
              19.198909
            ],
            [
              72.83358,
              19.195302
            ],
            [
              72.834888,
              19.19612
            ],
            [
              72.834214,
              19.197795
            ],
            [
              72.83758,
              19.197513
            ],
            [
              72.838379,
              19.194226
            ],
            [
              72.841206,
              19.193054
            ],
            [
              72.841514,
              19.190362
            ],
            [
              72.843762,
              19.191609
            ],
            [
              72.842506,
              19.187428
            ],
            [
              72.844776,
              19.186624
            ],
            [
              72.8451,
              19.185428
            ],
            [
              72.84658,
              19.184604
            ],
            [
              72.849817,
              19.189428
            ],
            [
              72.848974,
              19.191428
            ],
            [
              72.849934,
              19.192428
            ],
            [
              72.850078,
              19.195428
            ],
            [
              72.85158,
              19.197891
            ],
            [
              72.854066,
              19.197914
            ],
            [
              72.85458,
              19.195234
            ],
            [
              72.856607,
              19.195454
            ],
            [
              72.85853,
              19.194377
            ],
            [
              72.858218,
              19.19279
            ],
            [
              72.856315,
              19.192428
            ],
            [
              72.85858,
              19.189127
            ],
            [
              72.859801,
              19.190207
            ],
            [
              72.86058,
              19.193672
            ],
            [
              72.86158,
              19.191926
            ],
            [
              72.862123,
              19.193886
            ],
            [
              72.86358,
              19.194179
            ],
            [
              72.864508,
              19.192356
            ],
            [
              72.86658,
              19.191824
            ],
            [
              72.866878,
              19.193428
            ],
            [
              72.865896,
              19.193743
            ],
            [
              72.865873,
              19.195428
            ],
            [
              72.867151,
              19.195999
            ],
            [
              72.867767,
              19.194241
            ],
            [
              72.869135,
              19.199873
            ],
            [
              72.870099,
              19.199946
            ],
            [
              72.87158,
              19.198714
            ],
            [
              72.87258,
              19.200195
            ],
            [
              72.874289,
              19.19972
            ],
            [
              72.87758,
              19.203981
            ],
            [
              72.878142,
              19.203428
            ],
            [
              72.877985,
              19.197428
            ],
            [
              72.87858,
              19.196692
            ],
            [
              72.878872,
              19.198136
            ],
            [
              72.880473,
              19.19832
            ],
            [
              72.88058,
              19.197496
            ],
            [
              72.880675,
              19.198333
            ],
            [
              72.881716,
              19.198428
            ],
            [
              72.880692,
              19.198539
            ],
            [
              72.879829,
              19.200428
            ],
            [
              72.879935,
              19.202428
            ],
            [
              72.880948,
              19.203428
            ],
            [
              72.88003,
              19.204428
            ],
            [
              72.88105,
              19.206428
            ],
            [
              72.879176,
              19.209428
            ],
            [
              72.880177,
              19.210428
            ],
            [
              72.879202,
              19.211428
            ],
            [
              72.881184,
              19.213428
            ],
            [
              72.880336,
              19.214672
            ],
            [
              72.883215,
              19.217428
            ],
            [
              72.88223,
              19.218428
            ],
            [
              72.882276,
              19.221428
            ],
            [
              72.881289,
              19.222428
            ],
            [
              72.882392,
              19.223616
            ],
            [
              72.883787,
              19.223635
            ],
            [
              72.885148,
              19.220996
            ],
            [
              72.886958,
              19.219805
            ],
            [
              72.886987,
              19.218428
            ],
            [
              72.889057,
              19.215428
            ],
            [
              72.889156,
              19.212428
            ],
            [
              72.889992,
              19.212016
            ],
            [
              72.89011,
              19.216428
            ],
            [
              72.888966,
              19.218814
            ],
            [
              72.887203,
              19.220051
            ],
            [
              72.887225,
              19.221428
            ],
            [
              72.884264,
              19.226428
            ],
            [
              72.886905,
              19.226752
            ],
            [
              72.88758,
              19.225758
            ],
            [
              72.89158,
              19.225818
            ],
            [
              72.89219,
              19.226428
            ],
            [
              72.89158,
              19.227038
            ],
            [
              72.887256,
              19.227103
            ],
            [
              72.887034,
              19.227882
            ],
            [
              72.88458,
              19.22813
            ],
            [
              72.88358,
              19.229139
            ],
            [
              72.880411,
              19.229258
            ],
            [
              72.880392,
              19.231616
            ],
            [
              72.883257,
              19.234428
            ],
            [
              72.88158,
              19.235118
            ],
            [
              72.88058,
              19.234133
            ],
            [
              72.879301,
              19.234428
            ],
            [
              72.88058,
              19.236744
            ],
            [
              72.88258,
              19.235768
            ],
            [
              72.88558,
              19.238815
            ],
            [
              72.88958,
              19.238895
            ],
            [
              72.89058,
              19.239921
            ],
            [
              72.89558,
              19.241104
            ],
            [
              72.897706,
              19.242302
            ],
            [
              72.898659,
              19.244349
            ],
            [
              72.899308,
              19.244428
            ],
            [
              72.898555,
              19.244454
            ],
            [
              72.897166,
              19.242842
            ],
            [
              72.89558,
              19.242739
            ],
            [
              72.89458,
              19.241799
            ],
            [
              72.89258,
              19.241867
            ],
            [
              72.88858,
              19.239984
            ],
            [
              72.88558,
              19.240041
            ],
            [
              72.885186,
              19.240428
            ],
            [
              72.886275,
              19.242733
            ],
            [
              72.88958,
              19.245014
            ],
            [
              72.891026,
              19.244874
            ],
            [
              72.89258,
              19.243236
            ],
            [
              72.893696,
              19.243312
            ],
            [
              72.89383,
              19.244178
            ],
            [
              72.89478,
              19.244428
            ],
            [
              72.89258,
              19.244686
            ],
            [
              72.89158,
              19.245755
            ],
            [
              72.88858,
              19.245869
            ],
            [
              72.88522,
              19.243788
            ],
            [
              72.883993,
              19.241428
            ],
            [
              72.883825,
              19.239183
            ],
            [
              72.88058,
              19.239106
            ],
            [
              72.87658,
              19.236147
            ],
            [
              72.874333,
              19.236181
            ],
            [
              72.873429,
              19.237277
            ],
            [
              72.873081,
              19.239928
            ],
            [
              72.871408,
              19.240256
            ],
            [
              72.871321,
              19.241428
            ],
            [
              72.873988,
              19.242021
            ],
            [
              72.87522,
              19.244428
            ],
            [
              72.875235,
              19.248428
            ],
            [
              72.874236,
              19.249428
            ],
            [
              72.8752,
              19.250428
            ],
            [
              72.874171,
              19.251428
            ],
            [
              72.876952,
              19.252056
            ],
            [
              72.878096,
              19.255428
            ],
            [
              72.876283,
              19.256131
            ],
            [
              72.876165,
              19.258428
            ],
            [
              72.879916,
              19.262764
            ],
            [
              72.878855,
              19.265703
            ],
            [
              72.87758,
              19.265155
            ],
            [
              72.877523,
              19.266428
            ],
            [
              72.878393,
              19.266616
            ],
            [
              72.879126,
              19.268882
            ],
            [
              72.882466,
              19.271428
            ],
            [
              72.88058,
              19.272561
            ],
            [
              72.87858,
              19.272041
            ],
            [
              72.87682,
              19.272667
            ],
            [
              72.87658,
              19.273939
            ]
          ]
        ],
        "type": "Polygon"
      },
      "type": "Feature"
    }
  ]
}