{
  "type": "FeatureCollection",
  "metadata": {
    "provider_name": "Bhole Da Dhaba",
    "center_lat": 19.16082764,
    "center_lon": 72.83739645,
    "mode": "motorcycle",
    "total_zones": 4,
    "distance_zones": [
      3,
      4,
      5,
      6
    ],
    "generated_at": "2025-12-31T06:45:51.981050Z"
  },
  "features": [
    {
      "properties": {
        "fill-opacity": 0.33,
        "fillColor": "#bf4040",
        "opacity": 0.33,
        "fill": "#bf4040",
        "fillOpacity": 0.33,
        "color": "#bf4040",
        "contour": 3.0,
        "metric": "distance",
        "provider_name": "Bhole Da Dhaba",
        "zone_type": "distance",
        "distance_km": 3,
        "mode": "motorcycle",
        "center_lat": 19.16082764,
        "center_lon": 72.83739645,
        "label": "3km"
      },
      "geometry": {
        "coordinates": [
          [
            [
              72.835396,
              19.185151
            ],
            [
              72.834584,
              19.183827
            ],
            [
              72.83514,
              19.183571
            ],
            [
              72.834953,
              19.18227
            ],
            [
              72.833314,
              19.181909
            ],
            [
              72.8332,
              19.181023
            ],
            [
              72.831424,
              19.180856
            ],
            [
              72.830396,
              19.18151
            ],
            [
              72.830288,
              19.180935
            ],
            [
              72.830218,
              19.178827
            ],
            [
              72.831101,
              19.177827
            ],
            [
              72.830995,
              19.173827
            ],
            [
              72.828887,
              19.170827
            ],
            [
              72.830814,
              19.169827
            ],
            [
              72.829795,
              19.167827
            ],
            [
              72.830763,
              19.166827
            ],
            [
              72.829758,
              19.165827
            ],
            [
              72.829727,
              19.163827
            ],
            [
              72.830721,
              19.162827
            ],
            [
              72.830616,
              19.154607
            ],
            [
              72.827396,
              19.154457
            ],
            [
              72.826816,
              19.152408
            ],
            [
              72.823358,
              19.148789
            ],
            [
              72.827251,
              19.148682
            ],
            [
              72.827089,
              19.14652
            ],
            [
              72.829075,
              19.144506
            ],
            [
              72.829396,
              19.142293
            ],
            [
              72.830396,
              19.142941
            ],
            [
              72.830085,
              19.142138
            ],
            [
              72.831396,
              19.14054
            ],
            [
              72.833396,
              19.142261
            ],
            [
              72.834725,
              19.141156
            ],
            [
              72.835396,
              19.139125
            ],
            [
              72.837396,
              19.138611
            ],
            [
              72.841396,
              19.141221
            ],
            [
              72.842191,
              19.143032
            ],
            [
              72.84325,
              19.142973
            ],
            [
              72.843267,
              19.144827
            ],
            [
              72.845964,
              19.145827
            ],
            [
              72.845929,
              19.146827
            ],
            [
              72.847396,
              19.147197
            ],
            [
              72.848396,
              19.146418
            ],
            [
              72.848798,
              19.147425
            ],
            [
              72.850465,
              19.147759
            ],
            [
              72.849656,
              19.149827
            ],
            [
              72.849965,
              19.152258
            ],
            [
              72.855116,
              19.152827
            ],
            [
              72.854396,
              19.15361
            ],
            [
              72.853396,
              19.153009
            ],
            [
              72.850396,
              19.153186
            ],
            [
              72.849747,
              19.153827
            ],
            [
              72.849905,
              19.166827
            ],
            [
              72.848909,
              19.167827
            ],
            [
              72.84894,
              19.171827
            ],
            [
              72.847744,
              19.172827
            ],
            [
              72.848396,
              19.173592
            ],
            [
              72.851264,
              19.173827
            ],
            [
              72.84906,
              19.174491
            ],
            [
              72.846396,
              19.179332
            ],
            [
              72.843078,
              19.177509
            ],
            [
              72.842816,
              19.179247
            ],
            [
              72.839484,
              19.181827
            ],
            [
              72.839408,
              19.18284
            ],
            [
              72.838396,
              19.183692
            ],
            [
              72.836959,
              19.18339
            ],
            [
              72.835644,
              19.184075
            ],
            [
              72.835396,
              19.185151
            ]
          ]
        ],
        "type": "Polygon"
      },
      "type": "Feature"
    },
    {
      "properties": {
        "fill-opacity": 0.33,
        "fillColor": "#bf4040",
        "opacity": 0.33,
        "fill": "#bf4040",
        "fillOpacity": 0.33,
        "color": "#bf4040",
        "contour": 4.0,
        "metric": "distance",
        "provider_name": "Bhole Da Dhaba",
        "zone_type": "distance",
        "distance_km": 4,
        "mode": "motorcycle",
        "center_lat": 19.16082764,
        "center_lon": 72.83739645,
        "label": "4km"
      },
      "geometry": {
        "coordinates": [
          [
            [
              72.834396,
              19.193906
            ],
            [
              72.832773,
              19.19145
            ],
            [
              72.830396,
              19.189678
            ],
            [
              72.830366,
              19.188797
            ],
            [
              72.832056,
              19.188487
            ],
            [
              72.832277,
              19.187827
            ],
            [
              72.829343,
              19.18688
            ],
            [
              72.82803,
              19.184827
            ],
            [
              72.827986,
              19.182827
            ],
            [
              72.829734,
              19.181165
            ],
            [
              72.829847,
              19.178827
            ],
            [
              72.83081,
              19.177827
            ],
            [
              72.83077,
              19.173827
            ],
            [
              72.828725,
              19.170827
            ],
            [
              72.830691,
              19.169827
            ],
            [
              72.829681,
              19.167827
            ],
            [
              72.830665,
              19.166827
            ],
            [
              72.829662,
              19.165827
            ],
            [
              72.829645,
              19.163827
            ],
            [
              72.830642,
              19.162827
            ],
            [
              72.830623,
              19.1556
            ],
            [
              72.830396,
              19.155115
            ],
            [
              72.829691,
              19.155827
            ],
            [
              72.829396,
              19.158406
            ],
            [
              72.828889,
              19.156334
            ],
            [
              72.827396,
              19.156153
            ],
            [
              72.826396,
              19.155162
            ],
            [
              72.825396,
              19.156061
            ],
            [
              72.8219,
              19.155827
            ],
            [
              72.824396,
              19.15561
            ],
            [
              72.826396,
              19.154492
            ],
            [
              72.826771,
              19.152827
            ],
            [
              72.822089,
              19.148134
            ],
            [
              72.820819,
              19.145404
            ],
            [
              72.818641,
              19.145072
            ],
            [
              72.818406,
              19.145837
            ],
            [
              72.817872,
              19.145827
            ],
            [
              72.818363,
              19.145795
            ],
            [
              72.81811,
              19.144113
            ],
            [
              72.816585,
              19.143827
            ],
            [
              72.818974,
              19.143405
            ],
            [
              72.819396,
              19.140644
            ],
            [
              72.822146,
              19.141077
            ],
            [
              72.822396,
              19.141917
            ],
            [
              72.823396,
              19.141845
            ],
            [
              72.823368,
              19.141799
            ],
            [
              72.822646,
              19.141577
            ],
            [
              72.822323,
              19.1399
            ],
            [
              72.825396,
              19.13572
            ],
            [
              72.826704,
              19.136135
            ],
            [
              72.83107,
              19.134502
            ],
            [
              72.831396,
              19.131693
            ],
            [
              72.833625,
              19.133598
            ],
            [
              72.8349,
              19.133827
            ],
            [
              72.834868,
              19.134827
            ],
            [
              72.83653,
              19.134961
            ],
            [
              72.835477,
              19.133827
            ],
            [
              72.83688,
              19.133311
            ],
            [
              72.837034,
              19.132189
            ],
            [
              72.835684,
              19.131827
            ],
            [
              72.837396,
              19.129646
            ],
            [
              72.838847,
              19.130827
            ],
            [
              72.838727,
              19.134827
            ],
            [
              72.839696,
              19.135827
            ],
            [
              72.839004,
              19.137219
            ],
            [
              72.840987,
              19.137419
            ],
            [
              72.841396,
              19.135939
            ],
            [
              72.843616,
              19.137048
            ],
            [
              72.846789,
              19.136221
            ],
            [
              72.847396,
              19.135446
            ],
            [
              72.848542,
              19.138681
            ],
            [
              72.84975,
              19.138827
            ],
            [
              72.849623,
              19.143827
            ],
            [
              72.848811,
              19.145827
            ],
            [
              72.849097,
              19.147126
            ],
            [
              72.851253,
              19.147827
            ],
            [
              72.851026,
              19.149197
            ],
            [
              72.854041,
              19.149472
            ],
            [
              72.855396,
              19.145895
            ],
            [
              72.856396,
              19.146106
            ],
            [
              72.85758,
              19.147643
            ],
            [
              72.859396,
              19.147795
            ],
            [
              72.859749,
              19.150474
            ],
            [
              72.860481,
              19.150742
            ],
            [
              72.860514,
              19.15171
            ],
            [
              72.861143,
              19.151827
            ],
            [
              72.860337,
              19.151827
            ],
            [
              72.860134,
              19.151089
            ],
            [
              72.858396,
              19.151099
            ],
            [
              72.857786,
              19.151827
            ],
            [
              72.858506,
              19.152938
            ],
            [
              72.856748,
              19.153827
            ],
            [
              72.857763,
              19.155827
            ],
            [
              72.857396,
              19.161217
            ],
            [
              72.856771,
              19.159452
            ],
            [
              72.854396,
              19.159245
            ],
            [
              72.8541,
              19.158123
            ],
            [
              72.85219,
              19.157827
            ],
            [
              72.852147,
              19.156827
            ],
            [
              72.850396,
              19.155178
            ],
            [
              72.850096,
              19.156827
            ],
            [
              72.850338,
              19.167769
            ],
            [
              72.84956,
              19.167827
            ],
            [
              72.849732,
              19.168827
            ],
            [
              72.851782,
              19.170213
            ],
            [
              72.851882,
              19.168827
            ],
            [
              72.852438,
              19.168785
            ],
            [
              72.852874,
              19.169349
            ],
            [
              72.853765,
              19.169196
            ],
            [
              72.853342,
              19.167773
            ],
            [
              72.854482,
              19.166827
            ],
            [
              72.854827,
              19.169396
            ],
            [
              72.856209,
              19.16964
            ],
            [
              72.856709,
              19.168827
            ],
            [
              72.858467,
              19.170827
            ],
            [
              72.857442,
              19.172827
            ],
            [
              72.859396,
              19.173479
            ],
            [
              72.859797,
              19.174827
            ],
            [
              72.858396,
              19.175871
            ],
            [
              72.856822,
              19.175827
            ],
            [
              72.856396,
              19.178487
            ],
            [
              72.853396,
              19.178514
            ],
            [
              72.850396,
              19.181326
            ],
            [
              72.849396,
              19.180701
            ],
            [
              72.848396,
              19.186741
            ],
            [
              72.847345,
              19.187776
            ],
            [
              72.846396,
              19.18831
            ],
            [
              72.845396,
              19.186563
            ],
            [
              72.843396,
              19.187179
            ],
            [
              72.842396,
              19.18834
            ],
            [
              72.840396,
              19.18715
            ],
            [
              72.839585,
              19.188638
            ],
            [
              72.840818,
              19.189827
            ],
            [
              72.838863,
              19.190294
            ],
            [
              72.837396,
              19.192149
            ],
            [
              72.835196,
              19.191627
            ],
            [
              72.834396,
              19.193906
            ]
          ]
        ],
        "type": "Polygon"
      },
      "type": "Feature"
    },
    {
      "properties": {
        "fill-opacity": 0.33,
        "fillColor": "#bf4040",
        "opacity": 0.33,
        "fill": "#bf4040",
        "fillOpacity": 0.33,
        "color": "#bf4040",
        "contour": 5.0,
        "metric": "distance",
        "provider_name": "Bhole Da Dhaba",
        "zone_type": "distance",
        "distance_km": 5,
        "mode": "motorcycle",
        "center_lat": 19.16082764,
        "center_lon": 72.83739645,
        "label": "5km"
      },
      "geometry": {
        "coordinates": [
          [
            [
              72.834396,
              19.203002
            ],
            [
              72.833396,
              19.202793
            ],
            [
              72.832331,
              19.200827
            ],
            [
              72.832635,
              19.199588
            ],
            [
              72.83065,
              19.198827
            ],
            [
              72.832003,
              19.198434
            ],
            [
              72.832665,
              19.196558
            ],
            [
              72.827683,
              19.196115
            ],
            [
              72.827396,
              19.197641
            ],
            [
              72.825892,
              19.195827
            ],
            [
              72.829857,
              19.195288
            ],
            [
              72.829027,
              19.193827
            ],
            [
              72.828761,
              19.190462
            ],
            [
              72.827396,
              19.191191
            ],
            [
              72.825031,
              19.190827
            ],
            [
              72.831864,
              19.187827
            ],
            [
              72.829049,
              19.187174
            ],
            [
              72.827784,
              19.184827
            ],
            [
              72.827767,
              19.182827
            ],
            [
              72.82962,
              19.181051
            ],
            [
              72.829707,
              19.178827
            ],
            [
              72.830689,
              19.177827
            ],
            [
              72.830668,
              19.173827
            ],
            [
              72.828644,
              19.170827
            ],
            [
              72.830624,
              19.169827
            ],
            [
              72.829618,
              19.167827
            ],
            [
              72.830608,
              19.166827
            ],
            [
              72.829606,
              19.165827
            ],
            [
              72.829595,
              19.163827
            ],
            [
              72.830593,
              19.162827
            ],
            [
              72.830566,
              19.155658
            ],
            [
              72.829983,
              19.155827
            ],
            [
              72.829396,
              19.159313
            ],
            [
              72.82868,
              19.156544
            ],
            [
              72.826396,
              19.155428
            ],
            [
              72.825396,
              19.156394
            ],
            [
              72.822055,
              19.156486
            ],
            [
              72.821682,
              19.158113
            ],
            [
              72.818396,
              19.16106
            ],
            [
              72.818103,
              19.159827
            ],
            [
              72.820771,
              19.157202
            ],
            [
              72.821072,
              19.155503
            ],
            [
              72.824396,
              19.155266
            ],
            [
              72.826624,
              19.154055
            ],
            [
              72.826582,
              19.152641
            ],
            [
              72.821963,
              19.14826
            ],
            [
              72.82164,
              19.146583
            ],
            [
              72.820396,
              19.145427
            ],
            [
              72.819081,
              19.145512
            ],
            [
              72.812396,
              19.151957
            ],
            [
              72.811362,
              19.151827
            ],
            [
              72.810536,
              19.147827
            ],
            [
              72.813396,
              19.144518
            ],
            [
              72.815766,
              19.145197
            ],
            [
              72.815902,
              19.143827
            ],
            [
              72.814941,
              19.142827
            ],
            [
              72.815396,
              19.142373
            ],
            [
              72.817396,
              19.143303
            ],
            [
              72.818692,
              19.143124
            ],
            [
              72.818123,
              19.139827
            ],
            [
              72.820034,
              19.137827
            ],
            [
              72.819303,
              19.13692
            ],
            [
              72.819341,
              19.133773
            ],
            [
              72.821009,
              19.13344
            ],
            [
              72.82224,
              19.131827
            ],
            [
              72.822091,
              19.130522
            ],
            [
              72.824396,
              19.130184
            ],
            [
              72.825396,
              19.128247
            ],
            [
              72.827396,
              19.127502
            ],
            [
              72.828511,
              19.127942
            ],
            [
              72.828396,
              19.125131
            ],
            [
              72.830396,
              19.122862
            ],
            [
              72.833396,
              19.124671
            ],
            [
              72.833763,
              19.126461
            ],
            [
              72.836396,
              19.126796
            ],
            [
              72.837396,
              19.126095
            ],
            [
              72.839812,
              19.127412
            ],
            [
              72.841093,
              19.128827
            ],
            [
              72.841133,
              19.129827
            ],
            [
              72.839876,
              19.130827
            ],
            [
              72.840396,
              19.131399
            ],
            [
              72.842396,
              19.130652
            ],
            [
              72.845674,
              19.131106
            ],
            [
              72.846732,
              19.129827
            ],
            [
              72.846106,
              19.127827
            ],
            [
              72.84709,
              19.127521
            ],
            [
              72.847396,
              19.126452
            ],
            [
              72.847818,
              19.132827
            ],
            [
              72.848967,
              19.134827
            ],
            [
              72.847906,
              19.135827
            ],
            [
              72.849071,
              19.138152
            ],
            [
              72.851396,
              19.13799
            ],
            [
              72.854396,
              19.139308
            ],
            [
              72.855396,
              19.136955
            ],
            [
              72.856486,
              19.137827
            ],
            [
              72.856396,
              19.139264
            ],
            [
              72.858396,
              19.140343
            ],
            [
              72.858396,
              19.141537
            ],
            [
              72.856396,
              19.141927
            ],
            [
              72.85578,
              19.142827
            ],
            [
              72.857653,
              19.144571
            ],
            [
              72.858396,
              19.1473
            ],
            [
              72.859113,
              19.145544
            ],
            [
              72.860669,
              19.144554
            ],
            [
              72.860794,
              19.147827
            ],
            [
              72.859934,
              19.149827
            ],
            [
              72.861726,
              19.151497
            ],
            [
              72.861852,
              19.153827
            ],
            [
              72.862798,
              19.154827
            ],
            [
              72.861193,
              19.15503
            ],
            [
              72.860847,
              19.152376
            ],
            [
              72.859396,
              19.151385
            ],
            [
              72.858129,
              19.151561
            ],
            [
              72.858832,
              19.152827
            ],
            [
              72.857154,
              19.153827
            ],
            [
              72.858008,
              19.155827
            ],
            [
              72.857768,
              19.158827
            ],
            [
              72.85848,
              19.159827
            ],
            [
              72.858767,
              19.164827
            ],
            [
              72.860034,
              19.165466
            ],
            [
              72.860485,
              19.163827
            ],
            [
              72.862429,
              19.165827
            ],
            [
              72.861396,
              19.166654
            ],
            [
              72.861201,
              19.166022
            ],
            [
              72.859842,
              19.166273
            ],
            [
              72.860772,
              19.169451
            ],
            [
              72.862106,
              19.169537
            ],
            [
              72.862396,
              19.168528
            ],
            [
              72.86404,
              19.168827
            ],
            [
              72.861746,
              19.170827
            ],
            [
              72.861282,
              19.173713
            ],
            [
              72.862553,
              19.173984
            ],
            [
              72.864396,
              19.170703
            ],
            [
              72.865311,
              19.170912
            ],
            [
              72.865483,
              19.17274
            ],
            [
              72.866726,
              19.172827
            ],
            [
              72.869447,
              19.175827
            ],
            [
              72.864396,
              19.18015
            ],
            [
              72.862396,
              19.178507
            ],
            [
              72.861396,
              19.180633
            ],
            [
              72.858833,
              19.181265
            ],
            [
              72.858396,
              19.184071
            ],
            [
              72.857396,
              19.18312
            ],
            [
              72.856396,
              19.183186
            ],
            [
              72.854839,
              19.184271
            ],
            [
              72.853396,
              19.18418
            ],
            [
              72.852396,
              19.18537
            ],
            [
              72.85093,
              19.185361
            ],
            [
              72.850525,
              19.185827
            ],
            [
              72.852258,
              19.187827
            ],
            [
              72.851798,
              19.188827
            ],
            [
              72.852797,
              19.189827
            ],
            [
              72.850745,
              19.191176
            ],
            [
              72.85072,
              19.192827
            ],
            [
              72.849553,
              19.194827
            ],
            [
              72.84841,
              19.194842
            ],
            [
              72.847396,
              19.197174
            ],
            [
              72.844396,
              19.195033
            ],
            [
              72.842989,
              19.19542
            ],
            [
              72.842396,
              19.196387
            ],
            [
              72.841101,
              19.195533
            ],
            [
              72.836396,
              19.198798
            ],
            [
              72.835892,
              19.197331
            ],
            [
              72.834905,
              19.197337
            ],
            [
              72.834735,
              19.198488
            ],
            [
              72.836359,
              19.198827
            ],
            [
              72.83516,
              19.199591
            ],
            [
              72.834396,
              19.203002
            ]
          ]
        ],
        "type": "Polygon"
      },
      "type": "Feature"
    },
    {
      "properties": {
        "fill-opacity": 0.33,
        "fillColor": "#bf4040",
        "opacity": 0.33,
        "fill": "#bf4040",
        "fillOpacity": 0.33,
        "color": "#bf4040",
        "contour": 6.0,
        "metric": "distance",
        "provider_name": "Bhole Da Dhaba",
        "zone_type": "distance",
        "distance_km": 6,
        "mode": "motorcycle",
        "center_lat": 19.16082764,
        "center_lon": 72.83739645,
        "label": "6km"
      },
      "geometry": {
        "coordinates": [
          [
            [
              72.835396,
              19.211778
            ],
            [
              72.833564,
              19.210659
            ],
            [
              72.832378,
              19.210846
            ],
            [
              72.83188,
              19.207827
            ],
            [
              72.830396,
              19.207569
            ],
            [
              72.829944,
              19.205279
            ],
            [
              72.828736,
              19.205167
            ],
            [
              72.828396,
              19.206596
            ],
            [
              72.825361,
              19.204863
            ],
            [
              72.823536,
              19.202687
            ],
            [
              72.821938,
              19.202827
            ],
            [
              72.821289,
              19.200827
            ],
            [
              72.819129,
              19.199094
            ],
            [
              72.818815,
              19.197409
            ],
            [
              72.816731,
              19.196827
            ],
            [
              72.81815,
              19.195581
            ],
            [
              72.818365,
              19.193797
            ],
            [
              72.819396,
              19.192877
            ],
            [
              72.819705,
              19.194519
            ],
            [
              72.821078,
              19.19451
            ],
            [
              72.820471,
              19.191827
            ],
            [
              72.821073,
              19.190827
            ],
            [
              72.824508,
              19.188939
            ],
            [
              72.824396,
              19.187755
            ],
            [
              72.825396,
              19.187308
            ],
            [
              72.825631,
              19.189827
            ],
            [
              72.826396,
              19.19022
            ],
            [
              72.827396,
              19.189204
            ],
            [
              72.829396,
              19.189174
            ],
            [
              72.831715,
              19.187827
            ],
            [
              72.828945,
              19.187278
            ],
            [
              72.827692,
              19.185532
            ],
            [
              72.827667,
              19.182827
            ],
            [
              72.829564,
              19.180995
            ],
            [
              72.829633,
              19.178827
            ],
            [
              72.830622,
              19.177827
            ],
            [
              72.83061,
              19.173827
            ],
            [
              72.828595,
              19.170827
            ],
            [
              72.830581,
              19.169827
            ],
            [
              72.829578,
              19.167827
            ],
            [
              72.830571,
              19.166827
            ],
            [
              72.829743,
              19.16648
            ],
            [
              72.829562,
              19.163827
            ],
            [
              72.830561,
              19.162827
            ],
            [
              72.830533,
              19.15569
            ],
            [
              72.829396,
              19.159487
            ],
            [
              72.828596,
              19.156627
            ],
            [
              72.826396,
              19.155542
            ],
            [
              72.825396,
              19.156525
            ],
            [
              72.82217,
              19.156601
            ],
            [
              72.82182,
              19.158251
            ],
            [
              72.818396,
              19.161393
            ],
            [
              72.81781,
              19.159827
            ],
            [
              72.820636,
              19.157067
            ],
            [
              72.820956,
              19.155387
            ],
            [
              72.824396,
              19.155132
            ],
            [
              72.826566,
              19.153997
            ],
            [
              72.826541,
              19.152682
            ],
            [
              72.821902,
              19.148321
            ],
            [
              72.821575,
              19.146649
            ],
            [
              72.820396,
              19.145541
            ],
            [
              72.819182,
              19.145613
            ],
            [
              72.812396,
              19.152362
            ],
            [
              72.811057,
              19.152166
            ],
            [
              72.808971,
              19.149827
            ],
            [
              72.809126,
              19.148557
            ],
            [
              72.813396,
              19.144236
            ],
            [
              72.815634,
              19.145065
            ],
            [
              72.814983,
              19.142414
            ],
            [
              72.816396,
              19.142164
            ],
            [
              72.817396,
              19.143149
            ],
            [
              72.818601,
              19.143032
            ],
            [
              72.817812,
              19.139827
            ],
            [
              72.819785,
              19.137827
            ],
            [
              72.818793,
              19.136827
            ],
            [
              72.818706,
              19.133138
            ],
            [
              72.820396,
              19.133284
            ],
            [
              72.821854,
              19.131827
            ],
            [
              72.817609,
              19.130615
            ],
            [
              72.816882,
              19.129313
            ],
            [
              72.818396,
              19.128472
            ],
            [
              72.819396,
              19.126475
            ],
            [
              72.821284,
              19.125716
            ],
            [
              72.821385,
              19.122816
            ],
            [
              72.823131,
              19.122562
            ],
            [
              72.824065,
              19.121497
            ],
            [
              72.825396,
              19.121641
            ],
            [
              72.828058,
              19.117827
            ],
            [
              72.82778,
              19.115827
            ],
            [
              72.829649,
              19.11508
            ],
            [
              72.830396,
              19.113876
            ],
            [
              72.832551,
              19.115827
            ],
            [
              72.832723,
              19.116827
            ],
            [
              72.829904,
              19.117335
            ],
            [
              72.829791,
              19.119827
            ],
            [
              72.830396,
              19.1204
            ],
            [
              72.834559,
              19.120664
            ],
            [
              72.833679,
              19.121827
            ],
            [
              72.834396,
              19.122452
            ],
            [
              72.836317,
              19.121749
            ],
            [
              72.837396,
              19.120458
            ],
            [
              72.840396,
              19.121671
            ],
            [
              72.84091,
              19.123313
            ],
            [
              72.842396,
              19.123606
            ],
            [
              72.843207,
              19.122827
            ],
            [
              72.843349,
              19.119827
            ],
            [
              72.844961,
              19.119393
            ],
            [
              72.845396,
              19.117884
            ],
            [
              72.845644,
              19.119827
            ],
            [
              72.846804,
              19.120827
            ],
            [
              72.84699,
              19.123233
            ],
            [
              72.84928,
              19.122827
            ],
            [
              72.850396,
              19.121409
            ],
            [
              72.853312,
              19.122911
            ],
            [
              72.853641,
              19.123827
            ],
            [
              72.852396,
              19.125685
            ],
            [
              72.850893,
              19.126324
            ],
            [
              72.849396,
              19.129827
            ],
            [
              72.848396,
              19.129568
            ],
            [
              72.848396,
              19.132538
            ],
            [
              72.85069,
              19.131827
            ],
            [
              72.850496,
              19.132927
            ],
            [
              72.849656,
              19.133087
            ],
            [
              72.849881,
              19.134342
            ],
            [
              72.851027,
              19.134458
            ],
            [
              72.852396,
              19.133128
            ],
            [
              72.853976,
              19.136247
            ],
            [
              72.854795,
              19.136226
            ],
            [
              72.855396,
              19.128466
            ],
            [
              72.855688,
              19.129536
            ],
            [
              72.857396,
              19.129809
            ],
            [
              72.857525,
              19.130698
            ],
            [
              72.859398,
              19.130827
            ],
            [
              72.858786,
              19.132827
            ],
            [
              72.860281,
              19.134942
            ],
            [
              72.86364,
              19.135827
            ],
            [
              72.863575,
              19.137648
            ],
            [
              72.865396,
              19.137634
            ],
            [
              72.866685,
              19.139538
            ],
            [
              72.86786,
              19.139827
            ],
            [
              72.867262,
              19.140693
            ],
            [
              72.86375,
              19.141182
            ],
            [
              72.863785,
              19.142438
            ],
            [
              72.865396,
              19.143996
            ],
            [
              72.863396,
              19.146447
            ],
            [
              72.863233,
              19.144664
            ],
            [
              72.864298,
              19.144729
            ],
            [
              72.864052,
              19.143172
            ],
            [
              72.861709,
              19.14414
            ],
            [
              72.861252,
              19.147827
            ],
            [
              72.860069,
              19.148827
            ],
            [
              72.860187,
              19.150036
            ],
            [
              72.86206,
              19.151827
            ],
            [
              72.86284,
              19.155272
            ],
            [
              72.860913,
              19.15531
            ],
            [
              72.860631,
              19.152593
            ],
            [
              72.859396,
              19.15152
            ],
            [
              72.858121,
              19.151827
            ],
            [
              72.859107,
              19.152827
            ],
            [
              72.85769,
              19.153827
            ],
            [
              72.858729,
              19.154827
            ],
            [
              72.858109,
              19.15554
            ],
            [
              72.85806,
              19.158827
            ],
            [
              72.858918,
              19.159827
            ],
            [
              72.85901,
              19.164827
            ],
            [
              72.859696,
              19.165127
            ],
            [
              72.860061,
              19.163492
            ],
            [
              72.860988,
              19.162827
            ],
            [
              72.860264,
              19.159695
            ],
            [
              72.861872,
              19.160303
            ],
            [
              72.862294,
              19.158725
            ],
            [
              72.864438,
              19.157785
            ],
            [
              72.864479,
              19.15891
            ],
            [
              72.862738,
              19.159169
            ],
            [
              72.862907,
              19.160316
            ],
            [
              72.866412,
              19.159827
            ],
            [
              72.866595,
              19.162827
            ],
            [
              72.868396,
              19.164567
            ],
            [
              72.869238,
              19.163827
            ],
            [
              72.869396,
              19.162149
            ],
            [
              72.870396,
              19.162955
            ],
            [
              72.870629,
              19.164594
            ],
            [
              72.871494,
              19.164827
            ],
            [
              72.869745,
              19.165176
            ],
            [
              72.869849,
              19.167374
            ],
            [
              72.871414,
              19.167809
            ],
            [
              72.872396,
              19.168998
            ],
            [
              72.872904,
              19.171319
            ],
            [
              72.874396,
              19.171022
            ],
            [
              72.87598,
              19.173243
            ],
            [
              72.877436,
              19.173787
            ],
            [
              72.877198,
              19.174827
            ],
            [
              72.878828,
              19.176827
            ],
            [
              72.875396,
              19.177405
            ],
            [
              72.873977,
              19.178409
            ],
            [
              72.873396,
              19.180112
            ],
            [
              72.872162,
              19.180593
            ],
            [
              72.870515,
              19.182946
            ],
            [
              72.86896,
              19.183391
            ],
            [
              72.86842,
              19.185851
            ],
            [
              72.864396,
              19.186011
            ],
            [
              72.861493,
              19.187925
            ],
            [
              72.859396,
              19.1874
            ],
            [
              72.859616,
              19.194827
            ],
            [
              72.857874,
              19.192349
            ],
            [
              72.85402,
              19.192451
            ],
            [
              72.853693,
              19.197827
            ],
            [
              72.856135,
              19.198827
            ],
            [
              72.852396,
              19.199943
            ],
            [
              72.850952,
              19.199384
            ],
            [
              72.851664,
              19.201559
            ],
            [
              72.851396,
              19.204095
            ],
            [
              72.850396,
              19.205594
            ],
            [
              72.849396,
              19.205807
            ],
            [
              72.847932,
              19.204827
            ],
            [
              72.848078,
              19.203145
            ],
            [
              72.845396,
              19.202931
            ],
            [
              72.843623,
              19.201827
            ],
            [
              72.844478,
              19.200827
            ],
            [
              72.843759,
              19.199464
            ],
            [
              72.843063,
              19.199827
            ],
            [
              72.842731,
              19.202162
            ],
            [
              72.841396,
              19.201339
            ],
            [
              72.840071,
              19.201503
            ],
            [
              72.83997,
              19.202253
            ],
            [
              72.841606,
              19.203618
            ],
            [
              72.841396,
              19.20466
            ],
            [
              72.839754,
              19.204827
            ],
            [
              72.839025,
              19.207456
            ],
            [
              72.837194,
              19.209827
            ],
            [
              72.835691,
              19.210122
            ],
            [
              72.835396,
              19.211778
            ]
          ]
        ],
        "type": "Polygon"
      },
      "type": "Feature"
    }
  ]
}