{
  "type": "FeatureCollection",
  "metadata": {
    "provider_name": "HAJI ASHRAFI BIRYANI",
    "center_lat": 22.58562545,
    "center_lon": 88.43854711,
    "mode": "motorcycle",
    "total_zones": 4,
    "distance_zones": [
      3,
      4,
      5,
      6
    ],
    "generated_at": "2025-12-28T13:10:42.943303Z"
  },
  "features": [
    {
      "properties": {
        "fill-opacity": 0.33,
        "fillColor": "#bf4040",
        "opacity": 0.33,
        "fill": "#bf4040",
        "fillOpacity": 0.33,
        "color": "#bf4040",
        "contour": 3.0,
        "metric": "distance",
        "provider_name": "HAJI ASHRAFI BIRYANI",
        "zone_type": "distance",
        "distance_km": 3,
        "mode": "motorcycle",
        "center_lat": 22.58562545,
        "center_lon": 88.43854711,
        "label": "3km"
      },
      "geometry": {
        "coordinates": [
          [
            [
              88.443547,
              22.605751
            ],
            [
              88.440547,
              22.604234
            ],
            [
              88.438547,
              22.604085
            ],
            [
              88.435547,
              22.605425
            ],
            [
              88.43284,
              22.604332
            ],
            [
              88.428547,
              22.604097
            ],
            [
              88.425552,
              22.605631
            ],
            [
              88.422965,
              22.603206
            ],
            [
              88.418558,
              22.601625
            ],
            [
              88.420208,
              22.599625
            ],
            [
              88.417501,
              22.597625
            ],
            [
              88.418598,
              22.596676
            ],
            [
              88.420547,
              22.597002
            ],
            [
              88.420777,
              22.595625
            ],
            [
              88.420101,
              22.594625
            ],
            [
              88.420318,
              22.592625
            ],
            [
              88.419547,
              22.591952
            ],
            [
              88.417547,
              22.592239
            ],
            [
              88.41816,
              22.590625
            ],
            [
              88.417017,
              22.589625
            ],
            [
              88.418299,
              22.589377
            ],
            [
              88.418532,
              22.587611
            ],
            [
              88.418836,
              22.588336
            ],
            [
              88.420012,
              22.58809
            ],
            [
              88.420164,
              22.585625
            ],
            [
              88.418547,
              22.583905
            ],
            [
              88.415031,
              22.583625
            ],
            [
              88.417159,
              22.580625
            ],
            [
              88.426547,
              22.578851
            ],
            [
              88.427346,
              22.579826
            ],
            [
              88.43146,
              22.580712
            ],
            [
              88.432547,
              22.582195
            ],
            [
              88.433177,
              22.581625
            ],
            [
              88.431651,
              22.580625
            ],
            [
              88.431731,
              22.579625
            ],
            [
              88.434858,
              22.577937
            ],
            [
              88.435746,
              22.575625
            ],
            [
              88.437854,
              22.574933
            ],
            [
              88.437547,
              22.573574
            ],
            [
              88.437547,
              22.571499
            ],
            [
              88.437686,
              22.572486
            ],
            [
              88.439499,
              22.572625
            ],
            [
              88.438751,
              22.573625
            ],
            [
              88.440127,
              22.576045
            ],
            [
              88.441547,
              22.576253
            ],
            [
              88.443387,
              22.574625
            ],
            [
              88.444292,
              22.57237
            ],
            [
              88.444432,
              22.568625
            ],
            [
              88.445298,
              22.568376
            ],
            [
              88.445547,
              22.567128
            ],
            [
              88.446326,
              22.568625
            ],
            [
              88.447547,
              22.568902
            ],
            [
              88.449073,
              22.568151
            ],
            [
              88.449496,
              22.566574
            ],
            [
              88.452547,
              22.56844
            ],
            [
              88.457213,
              22.568291
            ],
            [
              88.458547,
              22.567177
            ],
            [
              88.458962,
              22.568625
            ],
            [
              88.456805,
              22.569625
            ],
            [
              88.457547,
              22.570414
            ],
            [
              88.459996,
              22.570625
            ],
            [
              88.459846,
              22.573625
            ],
            [
              88.461246,
              22.574324
            ],
            [
              88.461547,
              22.573741
            ],
            [
              88.461772,
              22.574625
            ],
            [
              88.460273,
              22.576625
            ],
            [
              88.461192,
              22.578625
            ],
            [
              88.464898,
              22.579625
            ],
            [
              88.463547,
              22.582329
            ],
            [
              88.462354,
              22.582432
            ],
            [
              88.462806,
              22.583625
            ],
            [
              88.461997,
              22.584625
            ],
            [
              88.464181,
              22.586625
            ],
            [
              88.461547,
              22.59057
            ],
            [
              88.460547,
              22.58941
            ],
            [
              88.457547,
              22.591602
            ],
            [
              88.455755,
              22.590416
            ],
            [
              88.45452,
              22.590598
            ],
            [
              88.451888,
              22.597625
            ],
            [
              88.45147,
              22.602625
            ],
            [
              88.450547,
              22.603035
            ],
            [
              88.448186,
              22.602265
            ],
            [
              88.447547,
              22.604337
            ],
            [
              88.446113,
              22.604191
            ],
            [
              88.443547,
              22.605751
            ]
          ]
        ],
        "type": "Polygon"
      },
      "type": "Feature"
    },
    {
      "properties": {
        "fill-opacity": 0.33,
        "fillColor": "#bf4040",
        "opacity": 0.33,
        "fill": "#bf4040",
        "fillOpacity": 0.33,
        "color": "#bf4040",
        "contour": 4.0,
        "metric": "distance",
        "provider_name": "HAJI ASHRAFI BIRYANI",
        "zone_type": "distance",
        "distance_km": 4,
        "mode": "motorcycle",
        "center_lat": 22.58562545,
        "center_lon": 88.43854711,
        "label": "4km"
      },
      "geometry": {
        "coordinates": [
          [
            [
              88.447547,
              22.611988
            ],
            [
              88.445547,
              22.611015
            ],
            [
              88.441547,
              22.612273
            ],
            [
              88.439547,
              22.610915
            ],
            [
              88.435547,
              22.611849
            ],
            [
              88.434547,
              22.611142
            ],
            [
              88.431547,
              22.610998
            ],
            [
              88.429242,
              22.609929
            ],
            [
              88.429312,
              22.608625
            ],
            [
              88.428388,
              22.608466
            ],
            [
              88.427547,
              22.609304
            ],
            [
              88.426283,
              22.608888
            ],
            [
              88.425698,
              22.606625
            ],
            [
              88.42473,
              22.606442
            ],
            [
              88.424547,
              22.60569
            ],
            [
              88.422547,
              22.606207
            ],
            [
              88.421526,
              22.603646
            ],
            [
              88.420547,
              22.603537
            ],
            [
              88.419428,
              22.603507
            ],
            [
              88.418177,
              22.604625
            ],
            [
              88.419015,
              22.605625
            ],
            [
              88.41968,
              22.609758
            ],
            [
              88.416547,
              22.608731
            ],
            [
              88.415547,
              22.609425
            ],
            [
              88.413149,
              22.608625
            ],
            [
              88.41312,
              22.607198
            ],
            [
              88.416135,
              22.604625
            ],
            [
              88.415547,
              22.60403
            ],
            [
              88.412259,
              22.603913
            ],
            [
              88.409542,
              22.600625
            ],
            [
              88.410389,
              22.599625
            ],
            [
              88.408934,
              22.596625
            ],
            [
              88.411878,
              22.595625
            ],
            [
              88.410547,
              22.595063
            ],
            [
              88.410805,
              22.592625
            ],
            [
              88.409193,
              22.590625
            ],
            [
              88.410775,
              22.589397
            ],
            [
              88.408841,
              22.588625
            ],
            [
              88.407559,
              22.586625
            ],
            [
              88.409297,
              22.584625
            ],
            [
              88.407349,
              22.581823
            ],
            [
              88.406371,
              22.581625
            ],
            [
              88.407547,
              22.581151
            ],
            [
              88.408747,
              22.581826
            ],
            [
              88.409963,
              22.580625
            ],
            [
              88.410547,
              22.578479
            ],
            [
              88.411631,
              22.57871
            ],
            [
              88.411219,
              22.577625
            ],
            [
              88.412266,
              22.576345
            ],
            [
              88.413547,
              22.575026
            ],
            [
              88.414732,
              22.57581
            ],
            [
              88.416695,
              22.572625
            ],
            [
              88.419023,
              22.573102
            ],
            [
              88.420547,
              22.572506
            ],
            [
              88.423099,
              22.575073
            ],
            [
              88.424547,
              22.575378
            ],
            [
              88.424036,
              22.576625
            ],
            [
              88.425547,
              22.57815
            ],
            [
              88.42692,
              22.576625
            ],
            [
              88.426059,
              22.575625
            ],
            [
              88.427352,
              22.573625
            ],
            [
              88.426547,
              22.571928
            ],
            [
              88.430547,
              22.572832
            ],
            [
              88.431547,
              22.573977
            ],
            [
              88.436895,
              22.572974
            ],
            [
              88.435966,
              22.568205
            ],
            [
              88.431523,
              22.568625
            ],
            [
              88.431632,
              22.567625
            ],
            [
              88.435031,
              22.567109
            ],
            [
              88.435547,
              22.563983
            ],
            [
              88.4357,
              22.565625
            ],
            [
              88.436547,
              22.566325
            ],
            [
              88.438547,
              22.566412
            ],
            [
              88.439547,
              22.565522
            ],
            [
              88.440547,
              22.566326
            ],
            [
              88.442547,
              22.565244
            ],
            [
              88.443148,
              22.566024
            ],
            [
              88.444547,
              22.566156
            ],
            [
              88.445099,
              22.565625
            ],
            [
              88.444149,
              22.564625
            ],
            [
              88.444195,
              22.563273
            ],
            [
              88.445547,
              22.564208
            ],
            [
              88.446304,
              22.562382
            ],
            [
              88.447547,
              22.562313
            ],
            [
              88.448102,
              22.564069
            ],
            [
              88.452245,
              22.567927
            ],
            [
              88.455547,
              22.568084
            ],
            [
              88.45828,
              22.565358
            ],
            [
              88.459934,
              22.565012
            ],
            [
              88.462018,
              22.563097
            ],
            [
              88.462207,
              22.561964
            ],
            [
              88.461429,
              22.561625
            ],
            [
              88.461547,
              22.560156
            ],
            [
              88.461777,
              22.561395
            ],
            [
              88.464315,
              22.561393
            ],
            [
              88.464547,
              22.560666
            ],
            [
              88.465547,
              22.560569
            ],
            [
              88.465267,
              22.563904
            ],
            [
              88.465781,
              22.56539
            ],
            [
              88.467543,
              22.565625
            ],
            [
              88.466643,
              22.566625
            ],
            [
              88.467757,
              22.568625
            ],
            [
              88.466908,
              22.568987
            ],
            [
              88.466014,
              22.571092
            ],
            [
              88.464323,
              22.571401
            ],
            [
              88.464345,
              22.572625
            ],
            [
              88.467565,
              22.572643
            ],
            [
              88.467898,
              22.571625
            ],
            [
              88.470048,
              22.571625
            ],
            [
              88.469814,
              22.573358
            ],
            [
              88.470784,
              22.574862
            ],
            [
              88.470297,
              22.575625
            ],
            [
              88.474488,
              22.578625
            ],
            [
              88.473219,
              22.579297
            ],
            [
              88.472547,
              22.581529
            ],
            [
              88.470358,
              22.581437
            ],
            [
              88.470755,
              22.582625
            ],
            [
              88.469833,
              22.583625
            ],
            [
              88.473529,
              22.584625
            ],
            [
              88.470968,
              22.585046
            ],
            [
              88.471283,
              22.587362
            ],
            [
              88.469547,
              22.585917
            ],
            [
              88.466547,
              22.586041
            ],
            [
              88.465194,
              22.587272
            ],
            [
              88.465171,
              22.588001
            ],
            [
              88.466293,
              22.588371
            ],
            [
              88.469458,
              22.588537
            ],
            [
              88.469547,
              22.588064
            ],
            [
              88.469576,
              22.588654
            ],
            [
              88.468657,
              22.589625
            ],
            [
              88.466814,
              22.590625
            ],
            [
              88.468576,
              22.591596
            ],
            [
              88.468525,
              22.592625
            ],
            [
              88.46766,
              22.592738
            ],
            [
              88.467547,
              22.593639
            ],
            [
              88.46743,
              22.592742
            ],
            [
              88.465783,
              22.592861
            ],
            [
              88.465547,
              22.593964
            ],
            [
              88.464094,
              22.594172
            ],
            [
              88.463835,
              22.595337
            ],
            [
              88.464693,
              22.595625
            ],
            [
              88.463547,
              22.597251
            ],
            [
              88.459198,
              22.597277
            ],
            [
              88.458636,
              22.600625
            ],
            [
              88.456666,
              22.600744
            ],
            [
              88.456538,
              22.604625
            ],
            [
              88.455299,
              22.605625
            ],
            [
              88.455264,
              22.607343
            ],
            [
              88.450547,
              22.610206
            ],
            [
              88.449547,
              22.609883
            ],
            [
              88.447547,
              22.611988
            ]
          ]
        ],
        "type": "Polygon"
      },
      "type": "Feature"
    },
    {
      "properties": {
        "fill-opacity": 0.33,
        "fillColor": "#bf4040",
        "opacity": 0.33,
        "fill": "#bf4040",
        "fillOpacity": 0.33,
        "color": "#bf4040",
        "contour": 5.0,
        "metric": "distance",
        "provider_name": "HAJI ASHRAFI BIRYANI",
        "zone_type": "distance",
        "distance_km": 5,
        "mode": "motorcycle",
        "center_lat": 22.58562545,
        "center_lon": 88.43854711,
        "label": "5km"
      },
      "geometry": {
        "coordinates": [
          [
            [
              88.444547,
              22.619535
            ],
            [
              88.443348,
              22.618824
            ],
            [
              88.443099,
              22.617072
            ],
            [
              88.441988,
              22.617066
            ],
            [
              88.441304,
              22.618868
            ],
            [
              88.438846,
              22.617625
            ],
            [
              88.439232,
              22.616625
            ],
            [
              88.438547,
              22.616233
            ],
            [
              88.436579,
              22.617657
            ],
            [
              88.436301,
              22.61687
            ],
            [
              88.434547,
              22.6168
            ],
            [
              88.430547,
              22.614479
            ],
            [
              88.424557,
              22.612615
            ],
            [
              88.423547,
              22.610591
            ],
            [
              88.422936,
              22.614014
            ],
            [
              88.418467,
              22.615704
            ],
            [
              88.415547,
              22.616181
            ],
            [
              88.414012,
              22.61416
            ],
            [
              88.411826,
              22.613905
            ],
            [
              88.411547,
              22.614411
            ],
            [
              88.409599,
              22.612573
            ],
            [
              88.408547,
              22.613766
            ],
            [
              88.406388,
              22.613783
            ],
            [
              88.405852,
              22.611625
            ],
            [
              88.404547,
              22.610425
            ],
            [
              88.405547,
              22.609181
            ],
            [
              88.406245,
              22.609926
            ],
            [
              88.407046,
              22.609625
            ],
            [
              88.407346,
              22.606625
            ],
            [
              88.408234,
              22.606313
            ],
            [
              88.409106,
              22.603065
            ],
            [
              88.408547,
              22.60217
            ],
            [
              88.405426,
              22.601746
            ],
            [
              88.404777,
              22.599395
            ],
            [
              88.401482,
              22.595625
            ],
            [
              88.400847,
              22.591925
            ],
            [
              88.402438,
              22.591517
            ],
            [
              88.402382,
              22.58946
            ],
            [
              88.404547,
              22.589248
            ],
            [
              88.404757,
              22.588625
            ],
            [
              88.401805,
              22.587625
            ],
            [
              88.401208,
              22.585625
            ],
            [
              88.402644,
              22.584527
            ],
            [
              88.400547,
              22.583
            ],
            [
              88.399547,
              22.58417
            ],
            [
              88.397362,
              22.579625
            ],
            [
              88.402042,
              22.57712
            ],
            [
              88.404377,
              22.573625
            ],
            [
              88.405564,
              22.575642
            ],
            [
              88.406438,
              22.572625
            ],
            [
              88.407409,
              22.572487
            ],
            [
              88.408128,
              22.570625
            ],
            [
              88.410399,
              22.569478
            ],
            [
              88.411033,
              22.567625
            ],
            [
              88.410547,
              22.566601
            ],
            [
              88.411547,
              22.566458
            ],
            [
              88.41322,
              22.568951
            ],
            [
              88.414547,
              22.568967
            ],
            [
              88.413732,
              22.567625
            ],
            [
              88.415547,
              22.564335
            ],
            [
              88.416748,
              22.564625
            ],
            [
              88.418572,
              22.5666
            ],
            [
              88.418676,
              22.567625
            ],
            [
              88.420693,
              22.569479
            ],
            [
              88.421547,
              22.572183
            ],
            [
              88.422471,
              22.571625
            ],
            [
              88.422547,
              22.570488
            ],
            [
              88.424547,
              22.571315
            ],
            [
              88.431547,
              22.567128
            ],
            [
              88.434827,
              22.566905
            ],
            [
              88.434017,
              22.559154
            ],
            [
              88.430604,
              22.558625
            ],
            [
              88.43473,
              22.558442
            ],
            [
              88.435006,
              22.562625
            ],
            [
              88.436037,
              22.563625
            ],
            [
              88.436261,
              22.565911
            ],
            [
              88.438547,
              22.566065
            ],
            [
              88.439547,
              22.565098
            ],
            [
              88.440547,
              22.566037
            ],
            [
              88.442547,
              22.565007
            ],
            [
              88.443547,
              22.565988
            ],
            [
              88.444778,
              22.565857
            ],
            [
              88.443547,
              22.563216
            ],
            [
              88.442547,
              22.564181
            ],
            [
              88.44118,
              22.563992
            ],
            [
              88.441975,
              22.562625
            ],
            [
              88.440048,
              22.560625
            ],
            [
              88.441867,
              22.559945
            ],
            [
              88.442146,
              22.557625
            ],
            [
              88.441547,
              22.556974
            ],
            [
              88.440547,
              22.55791
            ],
            [
              88.439305,
              22.556625
            ],
            [
              88.442967,
              22.556046
            ],
            [
              88.443381,
              22.552625
            ],
            [
              88.444547,
              22.551388
            ],
            [
              88.444783,
              22.553625
            ],
            [
              88.443842,
              22.554625
            ],
            [
              88.444173,
              22.557999
            ],
            [
              88.445955,
              22.558033
            ],
            [
              88.447547,
              22.555416
            ],
            [
              88.450547,
              22.555123
            ],
            [
              88.450547,
              22.555665
            ],
            [
              88.448015,
              22.556094
            ],
            [
              88.447861,
              22.557625
            ],
            [
              88.446152,
              22.55923
            ],
            [
              88.445932,
              22.560625
            ],
            [
              88.44771,
              22.561461
            ],
            [
              88.44828,
              22.563892
            ],
            [
              88.452547,
              22.567935
            ],
            [
              88.456755,
              22.567834
            ],
            [
              88.457115,
              22.566194
            ],
            [
              88.458778,
              22.565857
            ],
            [
              88.461978,
              22.562625
            ],
            [
              88.460077,
              22.559625
            ],
            [
              88.460146,
              22.557625
            ],
            [
              88.459096,
              22.555076
            ],
            [
              88.457467,
              22.553625
            ],
            [
              88.458547,
              22.553498
            ],
            [
              88.459694,
              22.554478
            ],
            [
              88.462547,
              22.561082
            ],
            [
              88.463864,
              22.560942
            ],
            [
              88.466139,
              22.558625
            ],
            [
              88.465286,
              22.556625
            ],
            [
              88.465392,
              22.55378
            ],
            [
              88.464547,
              22.553214
            ],
            [
              88.466551,
              22.553621
            ],
            [
              88.466748,
              22.554423
            ],
            [
              88.468933,
              22.554239
            ],
            [
              88.469547,
              22.555029
            ],
            [
              88.472547,
              22.554569
            ],
            [
              88.472612,
              22.554625
            ],
            [
              88.471671,
              22.554749
            ],
            [
              88.471624,
              22.556547
            ],
            [
              88.47225,
              22.556625
            ],
            [
              88.469849,
              22.557625
            ],
            [
              88.470824,
              22.562625
            ],
            [
              88.472725,
              22.563447
            ],
            [
              88.473547,
              22.565409
            ],
            [
              88.476143,
              22.565625
            ],
            [
              88.473266,
              22.568905
            ],
            [
              88.474797,
              22.569375
            ],
            [
              88.475562,
              22.57061
            ],
            [
              88.475421,
              22.572625
            ],
            [
              88.477436,
              22.574625
            ],
            [
              88.47754,
              22.576631
            ],
            [
              88.478185,
              22.575625
            ],
            [
              88.47744,
              22.573518
            ],
            [
              88.479644,
              22.573723
            ],
            [
              88.480547,
              22.572463
            ],
            [
              88.480956,
              22.575215
            ],
            [
              88.483021,
              22.576625
            ],
            [
              88.480547,
              22.577077
            ],
            [
              88.479196,
              22.578274
            ],
            [
              88.480789,
              22.581625
            ],
            [
              88.479547,
              22.582905
            ],
            [
              88.47786,
              22.582939
            ],
            [
              88.477547,
              22.584999
            ],
            [
              88.476089,
              22.585625
            ],
            [
              88.476207,
              22.587625
            ],
            [
              88.475101,
              22.588179
            ],
            [
              88.474547,
              22.590118
            ],
            [
              88.472547,
              22.585313
            ],
            [
              88.47235,
              22.587625
            ],
            [
              88.470211,
              22.588289
            ],
            [
              88.46891,
              22.589989
            ],
            [
              88.467262,
              22.59034
            ],
            [
              88.467547,
              22.591082
            ],
            [
              88.468917,
              22.591255
            ],
            [
              88.469091,
              22.592625
            ],
            [
              88.467547,
              22.594101
            ],
            [
              88.46622,
              22.593298
            ],
            [
              88.465791,
              22.596869
            ],
            [
              88.464547,
              22.596914
            ],
            [
              88.463547,
              22.598112
            ],
            [
              88.462021,
              22.598099
            ],
            [
              88.460983,
              22.600625
            ],
            [
              88.462074,
              22.603097
            ],
            [
              88.463579,
              22.603592
            ],
            [
              88.463547,
              22.606831
            ],
            [
              88.462547,
              22.606541
            ],
            [
              88.462337,
              22.604625
            ],
            [
              88.461002,
              22.60317
            ],
            [
              88.459547,
              22.602852
            ],
            [
              88.458215,
              22.603957
            ],
            [
              88.459166,
              22.601625
            ],
            [
              88.457222,
              22.601301
            ],
            [
              88.457053,
              22.603625
            ],
            [
              88.457898,
              22.604977
            ],
            [
              88.456204,
              22.606968
            ],
            [
              88.457961,
              22.60704
            ],
            [
              88.458246,
              22.605324
            ],
            [
              88.459547,
              22.60538
            ],
            [
              88.461448,
              22.606625
            ],
            [
              88.45879,
              22.606868
            ],
            [
              88.458804,
              22.608368
            ],
            [
              88.459617,
              22.608555
            ],
            [
              88.459743,
              22.609429
            ],
            [
              88.462563,
              22.609642
            ],
            [
              88.459547,
              22.609902
            ],
            [
              88.458126,
              22.609204
            ],
            [
              88.457846,
              22.610625
            ],
            [
              88.456723,
              22.610802
            ],
            [
              88.45659,
              22.613581
            ],
            [
              88.457547,
              22.613625
            ],
            [
              88.455547,
              22.614342
            ],
            [
              88.453547,
              22.613166
            ],
            [
              88.452547,
              22.611042
            ],
            [
              88.450926,
              22.613625
            ],
            [
              88.450909,
              22.614988
            ],
            [
              88.449923,
              22.615625
            ],
            [
              88.450053,
              22.616625
            ],
            [
              88.448007,
              22.617085
            ],
            [
              88.447547,
              22.618248
            ],
            [
              88.446659,
              22.617625
            ],
            [
              88.446624,
              22.616547
            ],
            [
              88.444973,
              22.617052
            ],
            [
              88.444758,
              22.618414
            ],
            [
              88.445417,
              22.618625
            ],
            [
              88.444547,
              22.619535
            ]
          ]
        ],
        "type": "Polygon"
      },
      "type": "Feature"
    },
    {
      "properties": {
        "fill-opacity": 0.33,
        "fillColor": "#bf4040",
        "opacity": 0.33,
        "fill": "#bf4040",
        "fillOpacity": 0.33,
        "color": "#bf4040",
        "contour": 6.0,
        "metric": "distance",
        "provider_name": "HAJI ASHRAFI BIRYANI",
        "zone_type": "distance",
        "distance_km": 6,
        "mode": "motorcycle",
        "center_lat": 22.58562545,
        "center_lon": 88.43854711,
        "label": "6km"
      },
      "geometry": {
        "coordinates": [
          [
            [
              88.446547,
              22.622936
            ],
            [
              88.442502,
              22.622669
            ],
            [
              88.443513,
              22.621625
            ],
            [
              88.439547,
              22.619349
            ],
            [
              88.434711,
              22.619789
            ],
            [
              88.433547,
              22.618854
            ],
            [
              88.432547,
              22.622637
            ],
            [
              88.43163,
              22.621542
            ],
            [
              88.430438,
              22.621734
            ],
            [
              88.429382,
              22.62079
            ],
            [
              88.429547,
              22.618522
            ],
            [
              88.42929,
              22.619369
            ],
            [
              88.427708,
              22.619786
            ],
            [
              88.427204,
              22.618968
            ],
            [
              88.425695,
              22.618773
            ],
            [
              88.423547,
              22.620191
            ],
            [
              88.422547,
              22.619067
            ],
            [
              88.419547,
              22.618118
            ],
            [
              88.41662,
              22.619625
            ],
            [
              88.414547,
              22.623115
            ],
            [
              88.408547,
              22.62032
            ],
            [
              88.407547,
              22.621815
            ],
            [
              88.407289,
              22.620883
            ],
            [
              88.405799,
              22.620625
            ],
            [
              88.405547,
              22.618325
            ],
            [
              88.403793,
              22.619872
            ],
            [
              88.403547,
              22.621324
            ],
            [
              88.40241,
              22.621761
            ],
            [
              88.399885,
              22.617286
            ],
            [
              88.398688,
              22.616625
            ],
            [
              88.399575,
              22.613597
            ],
            [
              88.396675,
              22.611625
            ],
            [
              88.397019,
              22.610153
            ],
            [
              88.395547,
              22.609011
            ],
            [
              88.395175,
              22.607625
            ],
            [
              88.396547,
              22.606689
            ],
            [
              88.396727,
              22.607445
            ],
            [
              88.398205,
              22.607284
            ],
            [
              88.398457,
              22.605715
            ],
            [
              88.397105,
              22.603625
            ],
            [
              88.398028,
              22.601625
            ],
            [
              88.396856,
              22.598625
            ],
            [
              88.398251,
              22.598329
            ],
            [
              88.398957,
              22.595625
            ],
            [
              88.395011,
              22.59316
            ],
            [
              88.395158,
              22.590625
            ],
            [
              88.394547,
              22.590057
            ],
            [
              88.393547,
              22.590713
            ],
            [
              88.393341,
              22.588831
            ],
            [
              88.392733,
              22.588625
            ],
            [
              88.394547,
              22.58687
            ],
            [
              88.397191,
              22.587269
            ],
            [
              88.39816,
              22.583625
            ],
            [
              88.393547,
              22.582894
            ],
            [
              88.392547,
              22.581939
            ],
            [
              88.390662,
              22.58251
            ],
            [
              88.387667,
              22.580625
            ],
            [
              88.388022,
              22.579625
            ],
            [
              88.389552,
              22.577631
            ],
            [
              88.391547,
              22.576911
            ],
            [
              88.391249,
              22.575625
            ],
            [
              88.392547,
              22.574369
            ],
            [
              88.396642,
              22.57353
            ],
            [
              88.398029,
              22.575143
            ],
            [
              88.399547,
              22.575377
            ],
            [
              88.399748,
              22.572424
            ],
            [
              88.398565,
              22.570625
            ],
            [
              88.403005,
              22.570083
            ],
            [
              88.403547,
              22.566083
            ],
            [
              88.406307,
              22.566385
            ],
            [
              88.407971,
              22.563625
            ],
            [
              88.407346,
              22.562625
            ],
            [
              88.408334,
              22.560625
            ],
            [
              88.410547,
              22.55882
            ],
            [
              88.411258,
              22.559625
            ],
            [
              88.411056,
              22.562115
            ],
            [
              88.412547,
              22.562356
            ],
            [
              88.414112,
              22.561625
            ],
            [
              88.413141,
              22.560625
            ],
            [
              88.413308,
              22.558386
            ],
            [
              88.41797,
              22.558625
            ],
            [
              88.417984,
              22.561187
            ],
            [
              88.419749,
              22.561625
            ],
            [
              88.417866,
              22.563625
            ],
            [
              88.418021,
              22.565625
            ],
            [
              88.420921,
              22.569251
            ],
            [
              88.421547,
              22.571983
            ],
            [
              88.422547,
              22.570088
            ],
            [
              88.426547,
              22.569976
            ],
            [
              88.431547,
              22.56696
            ],
            [
              88.434744,
              22.566822
            ],
            [
              88.434872,
              22.564625
            ],
            [
              88.433894,
              22.563625
            ],
            [
              88.433955,
              22.559217
            ],
            [
              88.431547,
              22.559156
            ],
            [
              88.428547,
              22.561051
            ],
            [
              88.425547,
              22.56093
            ],
            [
              88.424547,
              22.561856
            ],
            [
              88.421583,
              22.561625
            ],
            [
              88.423547,
              22.561446
            ],
            [
              88.424547,
              22.560378
            ],
            [
              88.427547,
              22.560238
            ],
            [
              88.430547,
              22.558127
            ],
            [
              88.433547,
              22.558045
            ],
            [
              88.434949,
              22.559223
            ],
            [
              88.436347,
              22.565825
            ],
            [
              88.438547,
              22.565931
            ],
            [
              88.439547,
              22.564946
            ],
            [
              88.440547,
              22.565917
            ],
            [
              88.442547,
              22.564901
            ],
            [
              88.443547,
              22.565891
            ],
            [
              88.444719,
              22.565797
            ],
            [
              88.443831,
              22.56334
            ],
            [
              88.442547,
              22.564317
            ],
            [
              88.441087,
              22.564085
            ],
            [
              88.441846,
              22.562625
            ],
            [
              88.439881,
              22.560625
            ],
            [
              88.441763,
              22.559841
            ],
            [
              88.441921,
              22.557625
            ],
            [
              88.441547,
              22.557231
            ],
            [
              88.440547,
              22.558208
            ],
            [
              88.438978,
              22.556625
            ],
            [
              88.442805,
              22.555883
            ],
            [
              88.442907,
              22.551264
            ],
            [
              88.441547,
              22.550996
            ],
            [
              88.438547,
              22.552745
            ],
            [
              88.43818,
              22.551991
            ],
            [
              88.435956,
              22.551625
            ],
            [
              88.438163,
              22.551241
            ],
            [
              88.439147,
              22.550226
            ],
            [
              88.439356,
              22.548815
            ],
            [
              88.438455,
              22.548533
            ],
            [
              88.439607,
              22.548565
            ],
            [
              88.440547,
              22.550301
            ],
            [
              88.445923,
              22.550002
            ],
            [
              88.446,
              22.548171
            ],
            [
              88.444412,
              22.547759
            ],
            [
              88.443428,
              22.546507
            ],
            [
              88.446547,
              22.547307
            ],
            [
              88.448547,
              22.544615
            ],
            [
              88.448656,
              22.545625
            ],
            [
              88.446914,
              22.548625
            ],
            [
              88.446833,
              22.550911
            ],
            [
              88.444092,
              22.552625
            ],
            [
              88.445108,
              22.553625
            ],
            [
              88.444133,
              22.554625
            ],
            [
              88.444307,
              22.557865
            ],
            [
              88.445801,
              22.557879
            ],
            [
              88.447547,
              22.555067
            ],
            [
              88.449547,
              22.55509
            ],
            [
              88.450547,
              22.554136
            ],
            [
              88.453547,
              22.55423
            ],
            [
              88.454547,
              22.55322
            ],
            [
              88.458547,
              22.553091
            ],
            [
              88.460947,
              22.556225
            ],
            [
              88.46119,
              22.558625
            ],
            [
              88.462547,
              22.560939
            ],
            [
              88.463762,
              22.56084
            ],
            [
              88.465785,
              22.558864
            ],
            [
              88.465939,
              22.557625
            ],
            [
              88.463888,
              22.553284
            ],
            [
              88.461147,
              22.552625
            ],
            [
              88.464712,
              22.550625
            ],
            [
              88.464547,
              22.549442
            ],
            [
              88.466123,
              22.549201
            ],
            [
              88.466288,
              22.547884
            ],
            [
              88.465507,
              22.547665
            ],
            [
              88.465547,
              22.546461
            ],
            [
              88.465718,
              22.547453
            ],
            [
              88.467271,
              22.547349
            ],
            [
              88.467547,
              22.546731
            ],
            [
              88.467725,
              22.548625
            ],
            [
              88.469811,
              22.551361
            ],
            [
              88.470547,
              22.554108
            ],
            [
              88.473927,
              22.553005
            ],
            [
              88.478524,
              22.549602
            ],
            [
              88.480547,
              22.549584
            ],
            [
              88.480588,
              22.549625
            ],
            [
              88.4797,
              22.549778
            ],
            [
              88.479715,
              22.551625
            ],
            [
              88.479547,
              22.551664
            ],
            [
              88.479308,
              22.550863
            ],
            [
              88.478005,
              22.551083
            ],
            [
              88.47677,
              22.552849
            ],
            [
              88.475149,
              22.553228
            ],
            [
              88.473862,
              22.55494
            ],
            [
              88.472082,
              22.555625
            ],
            [
              88.473172,
              22.558
            ],
            [
              88.47574,
              22.558432
            ],
            [
              88.477605,
              22.560625
            ],
            [
              88.477657,
              22.561625
            ],
            [
              88.476105,
              22.562067
            ],
            [
              88.476142,
              22.560029
            ],
            [
              88.474597,
              22.560625
            ],
            [
              88.476025,
              22.562147
            ],
            [
              88.476427,
              22.564745
            ],
            [
              88.477547,
              22.563895
            ],
            [
              88.478547,
              22.564991
            ],
            [
              88.480988,
              22.565184
            ],
            [
              88.481412,
              22.566625
            ],
            [
              88.480116,
              22.567194
            ],
            [
              88.480096,
              22.568075
            ],
            [
              88.480989,
              22.568067
            ],
            [
              88.482254,
              22.565333
            ],
            [
              88.484628,
              22.564625
            ],
            [
              88.485825,
              22.573346
            ],
            [
              88.486547,
              22.573875
            ],
            [
              88.487547,
              22.573029
            ],
            [
              88.489547,
              22.573609
            ],
            [
              88.490368,
              22.575625
            ],
            [
              88.488837,
              22.575915
            ],
            [
              88.488547,
              22.57722
            ],
            [
              88.486547,
              22.577763
            ],
            [
              88.486226,
              22.578625
            ],
            [
              88.489694,
              22.582625
            ],
            [
              88.489547,
              22.583283
            ],
            [
              88.48667,
              22.583502
            ],
            [
              88.485547,
              22.579989
            ],
            [
              88.482119,
              22.582197
            ],
            [
              88.479817,
              22.584895
            ],
            [
              88.478181,
              22.585259
            ],
            [
              88.478547,
              22.586193
            ],
            [
              88.480547,
              22.586325
            ],
            [
              88.482492,
              22.584571
            ],
            [
              88.483619,
              22.584625
            ],
            [
              88.484139,
              22.587625
            ],
            [
              88.483509,
              22.587663
            ],
            [
              88.483344,
              22.586827
            ],
            [
              88.482047,
              22.587125
            ],
            [
              88.481928,
              22.589007
            ],
            [
              88.479742,
              22.590625
            ],
            [
              88.480071,
              22.592101
            ],
            [
              88.481547,
              22.591987
            ],
            [
              88.482175,
              22.592625
            ],
            [
              88.480846,
              22.592924
            ],
            [
              88.480932,
              22.594625
            ],
            [
              88.479547,
              22.594657
            ],
            [
              88.479479,
              22.593692
            ],
            [
              88.474547,
              22.593947
            ],
            [
              88.473079,
              22.595158
            ],
            [
              88.47263,
              22.597625
            ],
            [
              88.471729,
              22.597807
            ],
            [
              88.471547,
              22.59866
            ],
            [
              88.471423,
              22.596625
            ],
            [
              88.469839,
              22.593333
            ],
            [
              88.468553,
              22.593632
            ],
            [
              88.468449,
              22.594527
            ],
            [
              88.466754,
              22.594418
            ],
            [
              88.466505,
              22.593584
            ],
            [
              88.465967,
              22.597045
            ],
            [
              88.462311,
              22.59839
            ],
            [
              88.461182,
              22.600625
            ],
            [
              88.462547,
              22.603056
            ],
            [
              88.463547,
              22.601432
            ],
            [
              88.464671,
              22.601501
            ],
            [
              88.465694,
              22.602625
            ],
            [
              88.464119,
              22.603197
            ],
            [
              88.464005,
              22.608083
            ],
            [
              88.462177,
              22.608995
            ],
            [
              88.46103,
              22.607142
            ],
            [
              88.459127,
              22.607205
            ],
            [
              88.459011,
              22.60909
            ],
            [
              88.457087,
              22.611165
            ],
            [
              88.456837,
              22.612625
            ],
            [
              88.457547,
              22.613372
            ],
            [
              88.459778,
              22.613625
            ],
            [
              88.457049,
              22.614127
            ],
            [
              88.456547,
              22.617015
            ],
            [
              88.456184,
              22.615987
            ],
            [
              88.454906,
              22.615984
            ],
            [
              88.454595,
              22.620673
            ],
            [
              88.453378,
              22.618794
            ],
            [
              88.451818,
              22.618896
            ],
            [
              88.451391,
              22.619781
            ],
            [
              88.448745,
              22.619824
            ],
            [
              88.446547,
              22.622936
            ]
          ]
        ],
        "type": "Polygon"
      },
      "type": "Feature"
    }
  ]
}