{
  "type": "FeatureCollection",
  "metadata": {
    "provider_name": "Domino's Pizza",
    "center_lat": 10.99761605,
    "center_lon": 76.99975133,
    "mode": "motorcycle",
    "total_zones": 4,
    "distance_zones": [
      3,
      4,
      5,
      6
    ],
    "generated_at": "2025-12-29T10:27:29.121851Z"
  },
  "features": [
    {
      "properties": {
        "fill-opacity": 0.33,
        "fillColor": "#bf4040",
        "opacity": 0.33,
        "fill": "#bf4040",
        "fillOpacity": 0.33,
        "color": "#bf4040",
        "contour": 3.0,
        "metric": "distance",
        "provider_name": "Domino's Pizza",
        "zone_type": "distance",
        "distance_km": 3,
        "mode": "motorcycle",
        "center_lat": 10.99761605,
        "center_lon": 76.99975133,
        "label": "3km"
      },
      "geometry": {
        "coordinates": [
          [
            [
              76.999751,
              11.020619
            ],
            [
              76.999421,
              11.017945
            ],
            [
              76.998298,
              11.017616
            ],
            [
              76.997751,
              11.015654
            ],
            [
              76.994634,
              11.016616
            ],
            [
              76.994359,
              11.014007
            ],
            [
              76.992681,
              11.013546
            ],
            [
              76.992578,
              11.012616
            ],
            [
              76.99357,
              11.012435
            ],
            [
              76.993406,
              11.010961
            ],
            [
              76.991952,
              11.010817
            ],
            [
              76.989751,
              11.011785
            ],
            [
              76.988751,
              11.010479
            ],
            [
              76.987434,
              11.010933
            ],
            [
              76.986954,
              11.009616
            ],
            [
              76.988062,
              11.008616
            ],
            [
              76.987465,
              11.006902
            ],
            [
              76.986142,
              11.006616
            ],
            [
              76.98438,
              11.004616
            ],
            [
              76.984336,
              11.003616
            ],
            [
              76.986398,
              11.002263
            ],
            [
              76.986287,
              11.000079
            ],
            [
              76.983087,
              10.99928
            ],
            [
              76.98068,
              10.997686
            ],
            [
              76.979232,
              10.995616
            ],
            [
              76.980751,
              10.994982
            ],
            [
              76.980876,
              10.995491
            ],
            [
              76.982436,
              10.995301
            ],
            [
              76.982424,
              10.993942
            ],
            [
              76.981194,
              10.992616
            ],
            [
              76.981751,
              10.992449
            ],
            [
              76.982751,
              10.993055
            ],
            [
              76.984667,
              10.992532
            ],
            [
              76.984751,
              10.991922
            ],
            [
              76.985751,
              10.992246
            ],
            [
              76.988751,
              10.990375
            ],
            [
              76.989391,
              10.988616
            ],
            [
              76.992216,
              10.988081
            ],
            [
              76.992474,
              10.985892
            ],
            [
              76.991706,
              10.98557
            ],
            [
              76.992841,
              10.985526
            ],
            [
              76.993257,
              10.987109
            ],
            [
              76.994751,
              10.987217
            ],
            [
              76.997691,
              10.985616
            ],
            [
              76.998751,
              10.983015
            ],
            [
              77.000062,
              10.982926
            ],
            [
              77.001631,
              10.981496
            ],
            [
              77.003143,
              10.983224
            ],
            [
              77.005244,
              10.983616
            ],
            [
              77.00401,
              10.983875
            ],
            [
              77.003874,
              10.984616
            ],
            [
              77.004974,
              10.986393
            ],
            [
              77.005988,
              10.986616
            ],
            [
              77.004954,
              10.986819
            ],
            [
              77.004785,
              10.988581
            ],
            [
              77.006751,
              10.988856
            ],
            [
              77.007751,
              10.990245
            ],
            [
              77.008465,
              10.98933
            ],
            [
              77.009751,
              10.989204
            ],
            [
              77.010751,
              10.991097
            ],
            [
              77.011751,
              10.990131
            ],
            [
              77.013751,
              10.990196
            ],
            [
              77.016862,
              10.991505
            ],
            [
              77.01802,
              10.993616
            ],
            [
              77.017816,
              10.99555
            ],
            [
              77.019751,
              10.99819
            ],
            [
              77.022666,
              10.995531
            ],
            [
              77.023589,
              10.995454
            ],
            [
              77.023838,
              10.994616
            ],
            [
              77.023792,
              10.995656
            ],
            [
              77.022937,
              10.995801
            ],
            [
              77.021969,
              10.997616
            ],
            [
              77.023751,
              10.999408
            ],
            [
              77.026393,
              10.999616
            ],
            [
              77.025751,
              11.000255
            ],
            [
              77.025632,
              10.999735
            ],
            [
              77.024129,
              10.999994
            ],
            [
              77.023751,
              11.001711
            ],
            [
              77.022179,
              11.002616
            ],
            [
              77.020751,
              11.002211
            ],
            [
              77.018751,
              11.004521
            ],
            [
              77.017751,
              11.003971
            ],
            [
              77.015751,
              11.007802
            ],
            [
              77.013751,
              11.007713
            ],
            [
              77.011436,
              11.010301
            ],
            [
              77.011015,
              11.013616
            ],
            [
              77.010216,
              11.014081
            ],
            [
              77.009751,
              11.016213
            ],
            [
              77.006882,
              11.016747
            ],
            [
              77.005751,
              11.017686
            ],
            [
              77.005322,
              11.016616
            ],
            [
              77.003751,
              11.016165
            ],
            [
              76.999751,
              11.020619
            ]
          ]
        ],
        "type": "Polygon"
      },
      "type": "Feature"
    },
    {
      "properties": {
        "fill-opacity": 0.33,
        "fillColor": "#bf4040",
        "opacity": 0.33,
        "fill": "#bf4040",
        "fillOpacity": 0.33,
        "color": "#bf4040",
        "contour": 4.0,
        "metric": "distance",
        "provider_name": "Domino's Pizza",
        "zone_type": "distance",
        "distance_km": 4,
        "mode": "motorcycle",
        "center_lat": 10.99761605,
        "center_lon": 76.99975133,
        "label": "4km"
      },
      "geometry": {
        "coordinates": [
          [
            [
              77.003751,
              11.023655
            ],
            [
              77.003287,
              11.022079
            ],
            [
              77.002156,
              11.02202
            ],
            [
              77.001751,
              11.023657
            ],
            [
              77.001564,
              11.022802
            ],
            [
              77.000714,
              11.022616
            ],
            [
              77.001036,
              11.02133
            ],
            [
              76.999206,
              11.02116
            ],
            [
              76.998751,
              11.018265
            ],
            [
              76.997348,
              11.018213
            ],
            [
              76.996751,
              11.020906
            ],
            [
              76.995751,
              11.020974
            ],
            [
              76.994751,
              11.020032
            ],
            [
              76.992751,
              11.021104
            ],
            [
              76.989751,
              11.017883
            ],
            [
              76.986751,
              11.0188
            ],
            [
              76.984751,
              11.017321
            ],
            [
              76.982751,
              11.0184
            ],
            [
              76.981751,
              11.017743
            ],
            [
              76.980426,
              11.013616
            ],
            [
              76.98185,
              11.012516
            ],
            [
              76.981217,
              11.010149
            ],
            [
              76.98002,
              11.009616
            ],
            [
              76.981058,
              11.008308
            ],
            [
              76.975543,
              11.002616
            ],
            [
              76.976908,
              11.001616
            ],
            [
              76.976693,
              10.997558
            ],
            [
              76.97912,
              10.996985
            ],
            [
              76.979031,
              10.996336
            ],
            [
              76.977274,
              10.995616
            ],
            [
              76.978283,
              10.994616
            ],
            [
              76.977432,
              10.993616
            ],
            [
              76.97832,
              10.992616
            ],
            [
              76.975751,
              10.991899
            ],
            [
              76.974751,
              10.992767
            ],
            [
              76.972794,
              10.992659
            ],
            [
              76.972732,
              10.993616
            ],
            [
              76.972732,
              10.992597
            ],
            [
              76.974369,
              10.992234
            ],
            [
              76.974534,
              10.991616
            ],
            [
              76.97435,
              10.991017
            ],
            [
              76.972251,
              10.990616
            ],
            [
              76.973101,
              10.989616
            ],
            [
              76.979751,
              10.987986
            ],
            [
              76.980751,
              10.98924
            ],
            [
              76.981431,
              10.988616
            ],
            [
              76.98143,
              10.986936
            ],
            [
              76.980264,
              10.986616
            ],
            [
              76.982887,
              10.986479
            ],
            [
              76.983751,
              10.988367
            ],
            [
              76.987751,
              10.986323
            ],
            [
              76.988354,
              10.988012
            ],
            [
              76.991751,
              10.988027
            ],
            [
              76.992192,
              10.986616
            ],
            [
              76.991233,
              10.985616
            ],
            [
              76.991751,
              10.985098
            ],
            [
              76.993108,
              10.985258
            ],
            [
              76.993467,
              10.986899
            ],
            [
              76.994497,
              10.986616
            ],
            [
              76.99423,
              10.984136
            ],
            [
              76.991759,
              10.983616
            ],
            [
              76.996751,
              10.982261
            ],
            [
              76.998416,
              10.980616
            ],
            [
              76.995246,
              10.977616
            ],
            [
              76.995751,
              10.975245
            ],
            [
              76.996751,
              10.975611
            ],
            [
              76.996422,
              10.976616
            ],
            [
              76.99728,
              10.978086
            ],
            [
              77.000004,
              10.978363
            ],
            [
              77.001417,
              10.98095
            ],
            [
              77.003751,
              10.983076
            ],
            [
              77.006751,
              10.983163
            ],
            [
              77.007751,
              10.982237
            ],
            [
              77.010927,
              10.982439
            ],
            [
              77.010938,
              10.985428
            ],
            [
              77.011787,
              10.985616
            ],
            [
              77.009751,
              10.98578
            ],
            [
              77.007751,
              10.984034
            ],
            [
              77.004281,
              10.984616
            ],
            [
              77.005436,
              10.985931
            ],
            [
              77.00707,
              10.986296
            ],
            [
              77.008287,
              10.98908
            ],
            [
              77.010171,
              10.989196
            ],
            [
              77.010523,
              10.990843
            ],
            [
              77.011751,
              10.989956
            ],
            [
              77.013751,
              10.989983
            ],
            [
              77.017114,
              10.991252
            ],
            [
              77.019751,
              10.99798
            ],
            [
              77.023416,
              10.994281
            ],
            [
              77.025115,
              10.99398
            ],
            [
              77.026414,
              10.991616
            ],
            [
              77.026751,
              10.987323
            ],
            [
              77.027751,
              10.987175
            ],
            [
              77.026882,
              10.987747
            ],
            [
              77.027122,
              10.992616
            ],
            [
              77.026182,
              10.993616
            ],
            [
              77.026183,
              10.995048
            ],
            [
              77.024551,
              10.995415
            ],
            [
              77.02256,
              10.997616
            ],
            [
              77.023751,
              10.998714
            ],
            [
              77.027751,
              10.998082
            ],
            [
              77.027958,
              10.999616
            ],
            [
              77.028751,
              11.000203
            ],
            [
              77.029428,
              10.999616
            ],
            [
              77.029751,
              10.99587
            ],
            [
              77.030751,
              10.995634
            ],
            [
              77.033751,
              10.998231
            ],
            [
              77.033075,
              11.001292
            ],
            [
              77.035335,
              11.001616
            ],
            [
              77.033991,
              11.001856
            ],
            [
              77.032666,
              11.003531
            ],
            [
              77.029751,
              11.003891
            ],
            [
              77.029348,
              11.003018
            ],
            [
              77.028252,
              11.003117
            ],
            [
              77.027751,
              11.005449
            ],
            [
              77.026751,
              11.005816
            ],
            [
              77.026363,
              11.004004
            ],
            [
              77.024475,
              11.00434
            ],
            [
              77.023045,
              11.005616
            ],
            [
              77.024326,
              11.006616
            ],
            [
              77.023858,
              11.008723
            ],
            [
              77.020751,
              11.008715
            ],
            [
              77.020406,
              11.00996
            ],
            [
              77.021466,
              11.010616
            ],
            [
              77.018751,
              11.012835
            ],
            [
              77.017751,
              11.011506
            ],
            [
              77.01647,
              11.011616
            ],
            [
              77.017038,
              11.012616
            ],
            [
              77.012751,
              11.015844
            ],
            [
              77.01159,
              11.017616
            ],
            [
              77.010971,
              11.020836
            ],
            [
              77.010149,
              11.018218
            ],
            [
              77.007751,
              11.017129
            ],
            [
              77.00622,
              11.018616
            ],
            [
              77.007191,
              11.019616
            ],
            [
              77.006143,
              11.020616
            ],
            [
              77.007086,
              11.021616
            ],
            [
              77.005751,
              11.022805
            ],
            [
              77.004255,
              11.022119
            ],
            [
              77.003751,
              11.023655
            ]
          ]
        ],
        "type": "Polygon"
      },
      "type": "Feature"
    },
    {
      "properties": {
        "fill-opacity": 0.33,
        "fillColor": "#bf4040",
        "opacity": 0.33,
        "fill": "#bf4040",
        "fillOpacity": 0.33,
        "color": "#bf4040",
        "contour": 5.0,
        "metric": "distance",
        "provider_name": "Domino's Pizza",
        "zone_type": "distance",
        "distance_km": 5,
        "mode": "motorcycle",
        "center_lat": 10.99761605,
        "center_lon": 76.99975133,
        "label": "5km"
      },
      "geometry": {
        "coordinates": [
          [
            [
              77.010751,
              11.024657
            ],
            [
              77.009592,
              11.024616
            ],
            [
              77.009471,
              11.022895
            ],
            [
              77.00685,
              11.022516
            ],
            [
              77.005751,
              11.023332
            ],
            [
              77.004751,
              11.022288
            ],
            [
              77.003751,
              11.024125
            ],
            [
              77.002751,
              11.022186
            ],
            [
              77.001751,
              11.024162
            ],
            [
              77.000751,
              11.023256
            ],
            [
              76.997751,
              11.023417
            ],
            [
              76.996751,
              11.022674
            ],
            [
              76.995997,
              11.022862
            ],
            [
              76.995751,
              11.023903
            ],
            [
              76.992751,
              11.023048
            ],
            [
              76.991751,
              11.021947
            ],
            [
              76.990751,
              11.023897
            ],
            [
              76.990202,
              11.021164
            ],
            [
              76.989283,
              11.021148
            ],
            [
              76.988751,
              11.023097
            ],
            [
              76.987751,
              11.023329
            ],
            [
              76.985751,
              11.020561
            ],
            [
              76.985426,
              11.021291
            ],
            [
              76.983491,
              11.021356
            ],
            [
              76.980751,
              11.022836
            ],
            [
              76.97593,
              11.021616
            ],
            [
              76.978088,
              11.020278
            ],
            [
              76.9735,
              11.016616
            ],
            [
              76.974594,
              11.016458
            ],
            [
              76.974751,
              11.015366
            ],
            [
              76.976462,
              11.015326
            ],
            [
              76.976751,
              11.012671
            ],
            [
              76.97908,
              11.012944
            ],
            [
              76.979186,
              11.009616
            ],
            [
              76.976751,
              11.006968
            ],
            [
              76.974943,
              11.007424
            ],
            [
              76.974399,
              11.004967
            ],
            [
              76.972707,
              11.004572
            ],
            [
              76.975301,
              11.001616
            ],
            [
              76.976278,
              10.997143
            ],
            [
              76.977998,
              10.996616
            ],
            [
              76.976422,
              10.995616
            ],
            [
              76.977341,
              10.994616
            ],
            [
              76.976844,
              10.993616
            ],
            [
              76.978114,
              10.992616
            ],
            [
              76.975751,
              10.992198
            ],
            [
              76.971751,
              10.995174
            ],
            [
              76.971432,
              10.993296
            ],
            [
              76.97405,
              10.991915
            ],
            [
              76.974048,
              10.991318
            ],
            [
              76.969751,
              10.99085
            ],
            [
              76.968751,
              10.989996
            ],
            [
              76.966751,
              10.989847
            ],
            [
              76.965751,
              10.988744
            ],
            [
              76.964183,
              10.989616
            ],
            [
              76.963527,
              10.987616
            ],
            [
              76.966797,
              10.98557
            ],
            [
              76.969182,
              10.986616
            ],
            [
              76.969751,
              10.987562
            ],
            [
              76.971042,
              10.986616
            ],
            [
              76.97261,
              10.988616
            ],
            [
              76.974751,
              10.989097
            ],
            [
              76.976751,
              10.987001
            ],
            [
              76.977429,
              10.987937
            ],
            [
              76.979061,
              10.987926
            ],
            [
              76.979751,
              10.986137
            ],
            [
              76.982751,
              10.986061
            ],
            [
              76.983751,
              10.988045
            ],
            [
              76.987751,
              10.98603
            ],
            [
              76.988502,
              10.987864
            ],
            [
              76.991751,
              10.987907
            ],
            [
              76.992057,
              10.986616
            ],
            [
              76.991076,
              10.985616
            ],
            [
              76.992751,
              10.984932
            ],
            [
              76.993969,
              10.986833
            ],
            [
              76.99403,
              10.984337
            ],
            [
              76.990751,
              10.984087
            ],
            [
              76.990437,
              10.983302
            ],
            [
              76.993751,
              10.983061
            ],
            [
              76.994751,
              10.98205
            ],
            [
              76.997007,
              10.981872
            ],
            [
              76.99815,
              10.980616
            ],
            [
              76.996036,
              10.97833
            ],
            [
              76.993495,
              10.977872
            ],
            [
              76.993149,
              10.976217
            ],
            [
              76.991751,
              10.974965
            ],
            [
              76.989085,
              10.974949
            ],
            [
              76.988818,
              10.975682
            ],
            [
              76.987751,
              10.976133
            ],
            [
              76.987603,
              10.975616
            ],
            [
              76.988551,
              10.975415
            ],
            [
              76.988577,
              10.973789
            ],
            [
              76.987131,
              10.973616
            ],
            [
              76.988751,
              10.973538
            ],
            [
              76.989997,
              10.974369
            ],
            [
              76.993088,
              10.973278
            ],
            [
              76.994371,
              10.974995
            ],
            [
              76.995094,
              10.974959
            ],
            [
              76.993199,
              10.972168
            ],
            [
              76.989776,
              10.971616
            ],
            [
              76.991417,
              10.970282
            ],
            [
              76.99105,
              10.968616
            ],
            [
              76.991586,
              10.968451
            ],
            [
              76.992875,
              10.969492
            ],
            [
              76.993283,
              10.971083
            ],
            [
              76.995751,
              10.973176
            ],
            [
              76.997751,
              10.973213
            ],
            [
              76.999233,
              10.972098
            ],
            [
              76.999751,
              10.969118
            ],
            [
              77.000149,
              10.971218
            ],
            [
              77.001751,
              10.971326
            ],
            [
              77.002648,
              10.972616
            ],
            [
              77.001929,
              10.974437
            ],
            [
              77.00254,
              10.974616
            ],
            [
              77.001737,
              10.97463
            ],
            [
              76.999751,
              10.972906
            ],
            [
              76.998751,
              10.973975
            ],
            [
              76.996385,
              10.97425
            ],
            [
              76.997475,
              10.977892
            ],
            [
              76.999163,
              10.978204
            ],
            [
              77.003751,
              10.982931
            ],
            [
              77.006751,
              10.982969
            ],
            [
              77.007751,
              10.981999
            ],
            [
              77.011135,
              10.982231
            ],
            [
              77.011279,
              10.984616
            ],
            [
              77.013066,
              10.985301
            ],
            [
              77.012751,
              10.986088
            ],
            [
              77.009751,
              10.98616
            ],
            [
              77.007751,
              10.984248
            ],
            [
              77.004431,
              10.984616
            ],
            [
              77.008434,
              10.988933
            ],
            [
              77.010237,
              10.989129
            ],
            [
              77.010581,
              10.990785
            ],
            [
              77.011751,
              10.989869
            ],
            [
              77.014461,
              10.989906
            ],
            [
              77.017209,
              10.991157
            ],
            [
              77.01941,
              10.995616
            ],
            [
              77.019565,
              10.997802
            ],
            [
              77.023306,
              10.994171
            ],
            [
              77.024986,
              10.993851
            ],
            [
              77.02615,
              10.991616
            ],
            [
              77.026293,
              10.986616
            ],
            [
              77.025474,
              10.985339
            ],
            [
              77.026751,
              10.985166
            ],
            [
              77.028239,
              10.986616
            ],
            [
              77.028328,
              10.987616
            ],
            [
              77.027291,
              10.988616
            ],
            [
              77.027365,
              10.992616
            ],
            [
              77.026388,
              10.993616
            ],
            [
              77.028751,
              10.995264
            ],
            [
              77.031104,
              10.994968
            ],
            [
              77.032945,
              10.992616
            ],
            [
              77.032563,
              10.990616
            ],
            [
              77.03284,
              10.990526
            ],
            [
              77.033751,
              10.991069
            ],
            [
              77.034379,
              10.989616
            ],
            [
              77.035751,
              10.989096
            ],
            [
              77.037048,
              10.991616
            ],
            [
              77.035151,
              10.992016
            ],
            [
              77.033406,
              10.99496
            ],
            [
              77.035275,
              10.997091
            ],
            [
              77.037054,
              10.997616
            ],
            [
              77.037751,
              10.999892
            ],
            [
              77.041751,
              10.999113
            ],
            [
              77.042751,
              11.000348
            ],
            [
              77.042848,
              11.002616
            ],
            [
              77.04427,
              11.003616
            ],
            [
              77.042089,
              11.003954
            ],
            [
              77.041751,
              11.005105
            ],
            [
              77.038524,
              11.006389
            ],
            [
              77.038812,
              11.007616
            ],
            [
              77.037751,
              11.009976
            ],
            [
              77.036751,
              11.01028
            ],
            [
              77.035943,
              11.009616
            ],
            [
              77.036513,
              11.007616
            ],
            [
              77.035751,
              11.006908
            ],
            [
              77.034162,
              11.009027
            ],
            [
              77.032216,
              11.009616
            ],
            [
              77.032751,
              11.010653
            ],
            [
              77.030751,
              11.011732
            ],
            [
              77.028751,
              11.012235
            ],
            [
              77.027418,
              11.010948
            ],
            [
              77.025258,
              11.011123
            ],
            [
              77.024834,
              11.013616
            ],
            [
              77.023751,
              11.014189
            ],
            [
              77.022751,
              11.012856
            ],
            [
              77.022134,
              11.015999
            ],
            [
              77.020751,
              11.015179
            ],
            [
              77.020301,
              11.015616
            ],
            [
              77.020779,
              11.019644
            ],
            [
              77.018466,
              11.0209
            ],
            [
              77.016751,
              11.019336
            ],
            [
              77.014751,
              11.022225
            ],
            [
              77.013626,
              11.022616
            ],
            [
              77.012728,
              11.021593
            ],
            [
              77.010751,
              11.024657
            ]
          ]
        ],
        "type": "Polygon"
      },
      "type": "Feature"
    },
    {
      "properties": {
        "fill-opacity": 0.33,
        "fillColor": "#bf4040",
        "opacity": 0.33,
        "fill": "#bf4040",
        "fillOpacity": 0.33,
        "color": "#bf4040",
        "contour": 6.0,
        "metric": "distance",
        "provider_name": "Domino's Pizza",
        "zone_type": "distance",
        "distance_km": 6,
        "mode": "motorcycle",
        "center_lat": 10.99761605,
        "center_lon": 76.99975133,
        "label": "6km"
      },
      "geometry": {
        "coordinates": [
          [
            [
              76.988751,
              11.029856
            ],
            [
              76.984722,
              11.029644
            ],
            [
              76.98424,
              11.028126
            ],
            [
              76.981817,
              11.025549
            ],
            [
              76.980518,
              11.026383
            ],
            [
              76.980751,
              11.028279
            ],
            [
              76.976718,
              11.027648
            ],
            [
              76.976423,
              11.025944
            ],
            [
              76.974507,
              11.025616
            ],
            [
              76.976064,
              11.022302
            ],
            [
              76.96694,
              11.020616
            ],
            [
              76.966751,
              11.019476
            ],
            [
              76.964751,
              11.01771
            ],
            [
              76.965751,
              11.015898
            ],
            [
              76.966824,
              11.015688
            ],
            [
              76.966751,
              11.014054
            ],
            [
              76.967751,
              11.012947
            ],
            [
              76.969751,
              11.01434
            ],
            [
              76.969674,
              11.015693
            ],
            [
              76.971751,
              11.015209
            ],
            [
              76.973751,
              11.01594
            ],
            [
              76.974751,
              11.014062
            ],
            [
              76.975751,
              11.014973
            ],
            [
              76.976091,
              11.014616
            ],
            [
              76.973751,
              11.00989
            ],
            [
              76.972549,
              11.011616
            ],
            [
              76.970751,
              11.01225
            ],
            [
              76.969823,
              11.010616
            ],
            [
              76.970467,
              11.010331
            ],
            [
              76.970272,
              11.009094
            ],
            [
              76.967514,
              11.008616
            ],
            [
              76.966997,
              11.007616
            ],
            [
              76.968658,
              11.006523
            ],
            [
              76.968589,
              11.003616
            ],
            [
              76.966521,
              11.002616
            ],
            [
              76.968582,
              11.000446
            ],
            [
              76.972254,
              10.999616
            ],
            [
              76.969684,
              10.997683
            ],
            [
              76.969595,
              10.995616
            ],
            [
              76.967459,
              10.994616
            ],
            [
              76.968302,
              10.993616
            ],
            [
              76.969751,
              10.993413
            ],
            [
              76.970751,
              10.994346
            ],
            [
              76.972304,
              10.992169
            ],
            [
              76.974056,
              10.991616
            ],
            [
              76.969751,
              10.991182
            ],
            [
              76.965751,
              10.989265
            ],
            [
              76.963751,
              10.99117
            ],
            [
              76.961475,
              10.988616
            ],
            [
              76.961751,
              10.980735
            ],
            [
              76.962751,
              10.981805
            ],
            [
              76.964751,
              10.979484
            ],
            [
              76.968586,
              10.979616
            ],
            [
              76.968871,
              10.980496
            ],
            [
              76.972255,
              10.982112
            ],
            [
              76.974761,
              10.980605
            ],
            [
              76.975751,
              10.982075
            ],
            [
              76.976751,
              10.981586
            ],
            [
              76.97695,
              10.982416
            ],
            [
              76.978291,
              10.982616
            ],
            [
              76.978815,
              10.983616
            ],
            [
              76.977696,
              10.984671
            ],
            [
              76.983213,
              10.986154
            ],
            [
              76.983751,
              10.987916
            ],
            [
              76.987751,
              10.985909
            ],
            [
              76.98857,
              10.987797
            ],
            [
              76.991751,
              10.987841
            ],
            [
              76.991985,
              10.986616
            ],
            [
              76.990996,
              10.985616
            ],
            [
              76.991751,
              10.984861
            ],
            [
              76.99327,
              10.985097
            ],
            [
              76.993915,
              10.98678
            ],
            [
              76.993947,
              10.984419
            ],
            [
              76.990751,
              10.98427
            ],
            [
              76.990315,
              10.98318
            ],
            [
              76.996751,
              10.981897
            ],
            [
              76.997939,
              10.980427
            ],
            [
              76.995751,
              10.97831
            ],
            [
              76.993338,
              10.978028
            ],
            [
              76.993,
              10.976366
            ],
            [
              76.991751,
              10.975221
            ],
            [
              76.989448,
              10.975313
            ],
            [
              76.987751,
              10.977109
            ],
            [
              76.986751,
              10.976071
            ],
            [
              76.983751,
              10.975926
            ],
            [
              76.982751,
              10.976627
            ],
            [
              76.982465,
              10.973616
            ],
            [
              76.981505,
              10.972616
            ],
            [
              76.983751,
              10.972266
            ],
            [
              76.984751,
              10.973194
            ],
            [
              76.988751,
              10.973095
            ],
            [
              76.989751,
              10.974049
            ],
            [
              76.993146,
              10.97301
            ],
            [
              76.992751,
              10.971192
            ],
            [
              76.991751,
              10.972157
            ],
            [
              76.989418,
              10.971948
            ],
            [
              76.991211,
              10.969616
            ],
            [
              76.990096,
              10.96827
            ],
            [
              76.989306,
              10.96817
            ],
            [
              76.988805,
              10.96967
            ],
            [
              76.98772,
              10.969647
            ],
            [
              76.988571,
              10.969436
            ],
            [
              76.988284,
              10.968083
            ],
            [
              76.987069,
              10.967934
            ],
            [
              76.986644,
              10.968723
            ],
            [
              76.985708,
              10.967616
            ],
            [
              76.986077,
              10.966616
            ],
            [
              76.985504,
              10.965862
            ],
            [
              76.98383,
              10.965616
            ],
            [
              76.986345,
              10.961209
            ],
            [
              76.987762,
              10.961604
            ],
            [
              76.987988,
              10.963616
            ],
            [
              76.989934,
              10.964433
            ],
            [
              76.990274,
              10.966093
            ],
            [
              76.992751,
              10.967458
            ],
            [
              76.995208,
              10.967073
            ],
            [
              76.995535,
              10.964832
            ],
            [
              76.994743,
              10.964624
            ],
            [
              76.994874,
              10.963616
            ],
            [
              76.996941,
              10.962616
            ],
            [
              76.998163,
              10.963616
            ],
            [
              77.000459,
              10.967907
            ],
            [
              77.002751,
              10.967166
            ],
            [
              77.006771,
              10.969595
            ],
            [
              77.007035,
              10.971331
            ],
            [
              77.008693,
              10.971616
            ],
            [
              77.004751,
              10.975002
            ],
            [
              77.001751,
              10.975121
            ],
            [
              76.999751,
              10.973201
            ],
            [
              76.998751,
              10.974225
            ],
            [
              76.996515,
              10.97438
            ],
            [
              76.997418,
              10.975616
            ],
            [
              76.997453,
              10.977616
            ],
            [
              77.000233,
              10.978134
            ],
            [
              77.001584,
              10.980782
            ],
            [
              77.003751,
              10.982855
            ],
            [
              77.006751,
              10.982877
            ],
            [
              77.007751,
              10.981893
            ],
            [
              77.011219,
              10.982147
            ],
            [
              77.011534,
              10.984832
            ],
            [
              77.013751,
              10.984975
            ],
            [
              77.014178,
              10.986043
            ],
            [
              77.009751,
              10.986303
            ],
            [
              77.007751,
              10.984347
            ],
            [
              77.004509,
              10.984616
            ],
            [
              77.005589,
              10.985778
            ],
            [
              77.007247,
              10.986119
            ],
            [
              77.00851,
              10.988856
            ],
            [
              77.010325,
              10.989041
            ],
            [
              77.010616,
              10.990751
            ],
            [
              77.011751,
              10.989818
            ],
            [
              77.014526,
              10.98984
            ],
            [
              77.017275,
              10.991092
            ],
            [
              77.019497,
              10.995616
            ],
            [
              77.019606,
              10.997761
            ],
            [
              77.02325,
              10.994115
            ],
            [
              77.024925,
              10.99379
            ],
            [
              77.026036,
              10.991616
            ],
            [
              77.026102,
              10.986616
            ],
            [
              77.02533,
              10.985195
            ],
            [
              77.026751,
              10.984971
            ],
            [
              77.028751,
              10.987422
            ],
            [
              77.030751,
              10.987328
            ],
            [
              77.031751,
              10.988254
            ],
            [
              77.032751,
              10.986305
            ],
            [
              77.033355,
              10.988012
            ],
            [
              77.034751,
              10.988145
            ],
            [
              77.035302,
              10.987616
            ],
            [
              77.035225,
              10.985142
            ],
            [
              77.033676,
              10.984691
            ],
            [
              77.032542,
              10.982407
            ],
            [
              77.033751,
              10.981866
            ],
            [
              77.034068,
              10.983299
            ],
            [
              77.0353,
              10.983165
            ],
            [
              77.035466,
              10.981331
            ],
            [
              77.036751,
              10.980616
            ],
            [
              77.037937,
              10.983429
            ],
            [
              77.037321,
              10.986045
            ],
            [
              77.041662,
              10.986527
            ],
            [
              77.041751,
              10.985848
            ],
            [
              77.041751,
              10.986656
            ],
            [
              77.038313,
              10.987177
            ],
            [
              77.038355,
              10.988011
            ],
            [
              77.041889,
              10.988477
            ],
            [
              77.042038,
              10.991329
            ],
            [
              77.043695,
              10.99156
            ],
            [
              77.043751,
              10.990568
            ],
            [
              77.043982,
              10.991616
            ],
            [
              77.043016,
              10.991881
            ],
            [
              77.042931,
              10.992616
            ],
            [
              77.042956,
              10.993411
            ],
            [
              77.043751,
              10.993686
            ],
            [
              77.042751,
              10.99371
            ],
            [
              77.041751,
              10.992864
            ],
            [
              77.036751,
              10.993092
            ],
            [
              77.035454,
              10.992318
            ],
            [
              77.035751,
              10.994301
            ],
            [
              77.034751,
              10.993788
            ],
            [
              77.033946,
              10.994616
            ],
            [
              77.035213,
              10.995153
            ],
            [
              77.035473,
              10.996893
            ],
            [
              77.040751,
              10.997167
            ],
            [
              77.041751,
              10.998131
            ],
            [
              77.044029,
              10.998338
            ],
            [
              77.044751,
              10.999371
            ],
            [
              77.046751,
              10.999364
            ],
            [
              77.048985,
              11.002381
            ],
            [
              77.053207,
              11.002616
            ],
            [
              77.052117,
              11.004616
            ],
            [
              77.049534,
              11.006399
            ],
            [
              77.049485,
              11.007616
            ],
            [
              77.047905,
              11.00877
            ],
            [
              77.044,
              11.009864
            ],
            [
              77.043751,
              11.010721
            ],
            [
              77.042074,
              11.010938
            ],
            [
              77.041751,
              11.012061
            ],
            [
              77.040888,
              11.011479
            ],
            [
              77.038571,
              11.012435
            ],
            [
              77.039187,
              11.014616
            ],
            [
              77.037118,
              11.016983
            ],
            [
              77.036771,
              11.018636
            ],
            [
              77.03443,
              11.016936
            ],
            [
              77.031594,
              11.017773
            ],
            [
              77.030751,
              11.016572
            ],
            [
              77.022751,
              11.022662
            ],
            [
              77.021751,
              11.022945
            ],
            [
              77.020751,
              11.021601
            ],
            [
              77.019667,
              11.021532
            ],
            [
              77.019356,
              11.023616
            ],
            [
              77.020258,
              11.024616
            ],
            [
              77.017751,
              11.025911
            ],
            [
              77.015182,
              11.023185
            ],
            [
              77.012751,
              11.022997
            ],
            [
              77.012146,
              11.024616
            ],
            [
              77.013122,
              11.025616
            ],
            [
              77.012478,
              11.026342
            ],
            [
              77.009842,
              11.026707
            ],
            [
              77.009751,
              11.027497
            ],
            [
              77.009696,
              11.02656
            ],
            [
              77.010552,
              11.026417
            ],
            [
              77.010129,
              11.025237
            ],
            [
              77.006568,
              11.027798
            ],
            [
              77.006177,
              11.025189
            ],
            [
              77.005067,
              11.024932
            ],
            [
              77.004722,
              11.025644
            ],
            [
              77.003989,
              11.024616
            ],
            [
              77.002751,
              11.024682
            ],
            [
              77.001956,
              11.024821
            ],
            [
              77.001954,
              11.025616
            ],
            [
              77.001971,
              11.026395
            ],
            [
              77.003086,
              11.026616
            ],
            [
              77.002751,
              11.0273
            ],
            [
              77.000751,
              11.028522
            ],
            [
              76.998751,
              11.027483
            ],
            [
              76.996292,
              11.028157
            ],
            [
              76.993654,
              11.027519
            ],
            [
              76.992201,
              11.028616
            ],
            [
              76.990321,
              11.028186
            ],
            [
              76.988751,
              11.029856
            ]
          ]
        ],
        "type": "Polygon"
      },
      "type": "Feature"
    }
  ]
}