{
  "type": "FeatureCollection",
  "metadata": {
    "provider_name": "Chew Chow",
    "center_lat": 15.83841421424,
    "center_lon": 74.503695714477,
    "mode": "motorcycle",
    "total_zones": 4,
    "distance_zones": [
      3,
      4,
      5,
      6
    ],
    "generated_at": "2025-12-31T05:39:00.137244Z"
  },
  "features": [
    {
      "properties": {
        "fill-opacity": 0.33,
        "fillColor": "#bf4040",
        "opacity": 0.33,
        "fill": "#bf4040",
        "fillOpacity": 0.33,
        "color": "#bf4040",
        "contour": 3.0,
        "metric": "distance",
        "provider_name": "Chew Chow",
        "zone_type": "distance",
        "distance_km": 3,
        "mode": "motorcycle",
        "center_lat": 15.83841421424,
        "center_lon": 74.503695714477,
        "label": "3km"
      },
      "geometry": {
        "coordinates": [
          [
            [
              74.518695,
              15.854474
            ],
            [
              74.517695,
              15.853618
            ],
            [
              74.515695,
              15.853754
            ],
            [
              74.514517,
              15.854592
            ],
            [
              74.514106,
              15.853003
            ],
            [
              74.510695,
              15.849643
            ],
            [
              74.510009,
              15.850414
            ],
            [
              74.511164,
              15.852414
            ],
            [
              74.507023,
              15.852742
            ],
            [
              74.506695,
              15.854504
            ],
            [
              74.504488,
              15.853621
            ],
            [
              74.50552,
              15.853238
            ],
            [
              74.50554,
              15.852414
            ],
            [
              74.504393,
              15.850716
            ],
            [
              74.502314,
              15.851032
            ],
            [
              74.501695,
              15.852949
            ],
            [
              74.497695,
              15.848512
            ],
            [
              74.499394,
              15.848113
            ],
            [
              74.499424,
              15.846685
            ],
            [
              74.497695,
              15.846638
            ],
            [
              74.496695,
              15.845658
            ],
            [
              74.495695,
              15.846512
            ],
            [
              74.49491,
              15.846414
            ],
            [
              74.495513,
              15.846231
            ],
            [
              74.495397,
              15.844712
            ],
            [
              74.492955,
              15.844154
            ],
            [
              74.492895,
              15.843414
            ],
            [
              74.494205,
              15.842414
            ],
            [
              74.493203,
              15.841414
            ],
            [
              74.494152,
              15.839414
            ],
            [
              74.492981,
              15.838128
            ],
            [
              74.490695,
              15.836946
            ],
            [
              74.489695,
              15.837721
            ],
            [
              74.487695,
              15.837812
            ],
            [
              74.486695,
              15.835831
            ],
            [
              74.483016,
              15.836734
            ],
            [
              74.482695,
              15.837504
            ],
            [
              74.481819,
              15.837414
            ],
            [
              74.48252,
              15.837238
            ],
            [
              74.482539,
              15.836414
            ],
            [
              74.480695,
              15.832593
            ],
            [
              74.483695,
              15.830065
            ],
            [
              74.483975,
              15.833414
            ],
            [
              74.484695,
              15.834041
            ],
            [
              74.490695,
              15.833864
            ],
            [
              74.492322,
              15.831041
            ],
            [
              74.497069,
              15.830414
            ],
            [
              74.49696,
              15.829149
            ],
            [
              74.494695,
              15.827953
            ],
            [
              74.49233,
              15.828048
            ],
            [
              74.491695,
              15.829771
            ],
            [
              74.486208,
              15.829414
            ],
            [
              74.484131,
              15.826414
            ],
            [
              74.485446,
              15.826165
            ],
            [
              74.486695,
              15.824666
            ],
            [
              74.488711,
              15.824429
            ],
            [
              74.489239,
              15.822414
            ],
            [
              74.491193,
              15.821911
            ],
            [
              74.492255,
              15.820414
            ],
            [
              74.489961,
              15.820148
            ],
            [
              74.491217,
              15.817414
            ],
            [
              74.490808,
              15.815527
            ],
            [
              74.492695,
              15.815652
            ],
            [
              74.498084,
              15.819025
            ],
            [
              74.498695,
              15.823866
            ],
            [
              74.499284,
              15.823414
            ],
            [
              74.499243,
              15.819414
            ],
            [
              74.500609,
              15.818414
            ],
            [
              74.500695,
              15.817405
            ],
            [
              74.502695,
              15.817927
            ],
            [
              74.503695,
              15.81738
            ],
            [
              74.506646,
              15.819414
            ],
            [
              74.507231,
              15.822878
            ],
            [
              74.513695,
              15.823751
            ],
            [
              74.517439,
              15.823414
            ],
            [
              74.517225,
              15.826414
            ],
            [
              74.51832,
              15.827414
            ],
            [
              74.518695,
              15.829133
            ],
            [
              74.519752,
              15.828414
            ],
            [
              74.521695,
              15.829672
            ],
            [
              74.525552,
              15.834414
            ],
            [
              74.524523,
              15.835586
            ],
            [
              74.528077,
              15.837414
            ],
            [
              74.528111,
              15.838414
            ],
            [
              74.525869,
              15.840414
            ],
            [
              74.526951,
              15.841414
            ],
            [
              74.526695,
              15.842215
            ],
            [
              74.525695,
              15.841832
            ],
            [
              74.52454,
              15.843414
            ],
            [
              74.525816,
              15.844293
            ],
            [
              74.524987,
              15.844706
            ],
            [
              74.524764,
              15.846414
            ],
            [
              74.524888,
              15.848221
            ],
            [
              74.525695,
              15.848414
            ],
            [
              74.52411,
              15.849829
            ],
            [
              74.522695,
              15.849603
            ],
            [
              74.521695,
              15.852696
            ],
            [
              74.51891,
              15.853628
            ],
            [
              74.518695,
              15.854474
            ]
          ]
        ],
        "type": "Polygon"
      },
      "type": "Feature"
    },
    {
      "properties": {
        "fill-opacity": 0.33,
        "fillColor": "#bf4040",
        "opacity": 0.33,
        "fill": "#bf4040",
        "fillOpacity": 0.33,
        "color": "#bf4040",
        "contour": 4.0,
        "metric": "distance",
        "provider_name": "Chew Chow",
        "zone_type": "distance",
        "distance_km": 4,
        "mode": "motorcycle",
        "center_lat": 15.83841421424,
        "center_lon": 74.503695714477,
        "label": "4km"
      },
      "geometry": {
        "coordinates": [
          [
            [
              74.507695,
              15.862546
            ],
            [
              74.505899,
              15.861414
            ],
            [
              74.507286,
              15.860004
            ],
            [
              74.507152,
              15.858957
            ],
            [
              74.505203,
              15.858921
            ],
            [
              74.504695,
              15.86116
            ],
            [
              74.504529,
              15.859414
            ],
            [
              74.503695,
              15.85859
            ],
            [
              74.498868,
              15.858587
            ],
            [
              74.498695,
              15.859264
            ],
            [
              74.498409,
              15.8577
            ],
            [
              74.497066,
              15.857414
            ],
            [
              74.497316,
              15.854793
            ],
            [
              74.49426,
              15.853414
            ],
            [
              74.494425,
              15.850144
            ],
            [
              74.499006,
              15.847725
            ],
            [
              74.499003,
              15.847106
            ],
            [
              74.496392,
              15.846111
            ],
            [
              74.495024,
              15.847742
            ],
            [
              74.493304,
              15.848022
            ],
            [
              74.494012,
              15.84973
            ],
            [
              74.492695,
              15.849759
            ],
            [
              74.491348,
              15.848414
            ],
            [
              74.492317,
              15.847036
            ],
            [
              74.494043,
              15.846762
            ],
            [
              74.495157,
              15.845414
            ],
            [
              74.494695,
              15.844937
            ],
            [
              74.492313,
              15.845032
            ],
            [
              74.49204,
              15.846758
            ],
            [
              74.490695,
              15.844814
            ],
            [
              74.487077,
              15.844795
            ],
            [
              74.485695,
              15.845964
            ],
            [
              74.48458,
              15.845414
            ],
            [
              74.485512,
              15.84523
            ],
            [
              74.485695,
              15.843681
            ],
            [
              74.486695,
              15.844226
            ],
            [
              74.487695,
              15.843282
            ],
            [
              74.490695,
              15.843041
            ],
            [
              74.491695,
              15.843978
            ],
            [
              74.493926,
              15.842645
            ],
            [
              74.493035,
              15.840414
            ],
            [
              74.494009,
              15.839414
            ],
            [
              74.492895,
              15.838214
            ],
            [
              74.490695,
              15.837095
            ],
            [
              74.489695,
              15.838005
            ],
            [
              74.487695,
              15.838038
            ],
            [
              74.486695,
              15.836046
            ],
            [
              74.481695,
              15.83791
            ],
            [
              74.481199,
              15.837414
            ],
            [
              74.482153,
              15.836414
            ],
            [
              74.479695,
              15.832902
            ],
            [
              74.47827,
              15.832989
            ],
            [
              74.478854,
              15.834414
            ],
            [
              74.477695,
              15.835619
            ],
            [
              74.476695,
              15.835603
            ],
            [
              74.476428,
              15.834681
            ],
            [
              74.472854,
              15.834414
            ],
            [
              74.473571,
              15.83429
            ],
            [
              74.473695,
              15.831857
            ],
            [
              74.475763,
              15.832481
            ],
            [
              74.476599,
              15.830318
            ],
            [
              74.478695,
              15.830118
            ],
            [
              74.479314,
              15.829414
            ],
            [
              74.477571,
              15.82829
            ],
            [
              74.484412,
              15.824414
            ],
            [
              74.48341,
              15.823128
            ],
            [
              74.485229,
              15.822947
            ],
            [
              74.485168,
              15.820941
            ],
            [
              74.482633,
              15.820476
            ],
            [
              74.482276,
              15.819414
            ],
            [
              74.485259,
              15.817977
            ],
            [
              74.485695,
              15.81296
            ],
            [
              74.486363,
              15.815746
            ],
            [
              74.488101,
              15.815414
            ],
            [
              74.487152,
              15.814414
            ],
            [
              74.487695,
              15.813414
            ],
            [
              74.486205,
              15.812904
            ],
            [
              74.484855,
              15.810414
            ],
            [
              74.486923,
              15.809641
            ],
            [
              74.48684,
              15.807558
            ],
            [
              74.487499,
              15.807218
            ],
            [
              74.489695,
              15.807694
            ],
            [
              74.489862,
              15.809414
            ],
            [
              74.490695,
              15.810175
            ],
            [
              74.492695,
              15.80858
            ],
            [
              74.494585,
              15.808524
            ],
            [
              74.500695,
              15.814977
            ],
            [
              74.503143,
              15.813862
            ],
            [
              74.503695,
              15.809736
            ],
            [
              74.504239,
              15.81387
            ],
            [
              74.506407,
              15.814126
            ],
            [
              74.507036,
              15.813414
            ],
            [
              74.506957,
              15.815152
            ],
            [
              74.507802,
              15.815307
            ],
            [
              74.508695,
              15.817101
            ],
            [
              74.509528,
              15.816414
            ],
            [
              74.509695,
              15.814578
            ],
            [
              74.51013,
              15.816979
            ],
            [
              74.511069,
              15.81804
            ],
            [
              74.512871,
              15.818414
            ],
            [
              74.510157,
              15.818876
            ],
            [
              74.508964,
              15.821682
            ],
            [
              74.507695,
              15.821846
            ],
            [
              74.507422,
              15.822687
            ],
            [
              74.516331,
              15.822414
            ],
            [
              74.517695,
              15.820654
            ],
            [
              74.520836,
              15.823273
            ],
            [
              74.521695,
              15.823205
            ],
            [
              74.522534,
              15.822414
            ],
            [
              74.522695,
              15.820714
            ],
            [
              74.524233,
              15.826876
            ],
            [
              74.525456,
              15.826414
            ],
            [
              74.525654,
              15.824372
            ],
            [
              74.527695,
              15.825327
            ],
            [
              74.528571,
              15.82529
            ],
            [
              74.528695,
              15.82463
            ],
            [
              74.528739,
              15.826414
            ],
            [
              74.528028,
              15.826746
            ],
            [
              74.52797,
              15.829414
            ],
            [
              74.53128,
              15.831414
            ],
            [
              74.530009,
              15.831727
            ],
            [
              74.530076,
              15.835033
            ],
            [
              74.531281,
              15.835
            ],
            [
              74.531695,
              15.834094
            ],
            [
              74.536155,
              15.834414
            ],
            [
              74.532695,
              15.834678
            ],
            [
              74.530962,
              15.83668
            ],
            [
              74.529337,
              15.837055
            ],
            [
              74.529327,
              15.837782
            ],
            [
              74.531695,
              15.839155
            ],
            [
              74.53463,
              15.839414
            ],
            [
              74.530403,
              15.839706
            ],
            [
              74.530144,
              15.838965
            ],
            [
              74.529304,
              15.839022
            ],
            [
              74.529243,
              15.839866
            ],
            [
              74.53103,
              15.841414
            ],
            [
              74.530936,
              15.842654
            ],
            [
              74.529314,
              15.843032
            ],
            [
              74.529047,
              15.844766
            ],
            [
              74.527695,
              15.844807
            ],
            [
              74.526695,
              15.845791
            ],
            [
              74.525695,
              15.844924
            ],
            [
              74.525231,
              15.845414
            ],
            [
              74.525695,
              15.847914
            ],
            [
              74.528094,
              15.847813
            ],
            [
              74.529426,
              15.845144
            ],
            [
              74.531695,
              15.845309
            ],
            [
              74.532162,
              15.847947
            ],
            [
              74.534915,
              15.848414
            ],
            [
              74.52927,
              15.848988
            ],
            [
              74.528951,
              15.852414
            ],
            [
              74.527838,
              15.854557
            ],
            [
              74.52716,
              15.854414
            ],
            [
              74.527473,
              15.853414
            ],
            [
              74.526695,
              15.852754
            ],
            [
              74.525968,
              15.853414
            ],
            [
              74.526116,
              15.854835
            ],
            [
              74.522216,
              15.855934
            ],
            [
              74.522695,
              15.857242
            ],
            [
              74.524649,
              15.857414
            ],
            [
              74.521695,
              15.859905
            ],
            [
              74.5194,
              15.858709
            ],
            [
              74.518871,
              15.857238
            ],
            [
              74.518044,
              15.857065
            ],
            [
              74.517873,
              15.855592
            ],
            [
              74.518817,
              15.855292
            ],
            [
              74.517695,
              15.855022
            ],
            [
              74.516695,
              15.85707
            ],
            [
              74.514695,
              15.856671
            ],
            [
              74.513695,
              15.857633
            ],
            [
              74.513059,
              15.85605
            ],
            [
              74.511695,
              15.856111
            ],
            [
              74.50989,
              15.857414
            ],
            [
              74.511308,
              15.858414
            ],
            [
              74.510999,
              15.859414
            ],
            [
              74.507695,
              15.862546
            ]
          ]
        ],
        "type": "Polygon"
      },
      "type": "Feature"
    },
    {
      "properties": {
        "fill-opacity": 0.33,
        "fillColor": "#bf4040",
        "opacity": 0.33,
        "fill": "#bf4040",
        "fillOpacity": 0.33,
        "color": "#bf4040",
        "contour": 5.0,
        "metric": "distance",
        "provider_name": "Chew Chow",
        "zone_type": "distance",
        "distance_km": 5,
        "mode": "motorcycle",
        "center_lat": 15.83841421424,
        "center_lon": 74.503695714477,
        "label": "5km"
      },
      "geometry": {
        "coordinates": [
          [
            [
              74.510695,
              15.869767
            ],
            [
              74.510457,
              15.868652
            ],
            [
              74.507695,
              15.868943
            ],
            [
              74.506083,
              15.867026
            ],
            [
              74.504695,
              15.866764
            ],
            [
              74.502695,
              15.863745
            ],
            [
              74.500695,
              15.865555
            ],
            [
              74.498708,
              15.865414
            ],
            [
              74.502138,
              15.862857
            ],
            [
              74.501695,
              15.861764
            ],
            [
              74.497238,
              15.861957
            ],
            [
              74.49716,
              15.863949
            ],
            [
              74.498331,
              15.864414
            ],
            [
              74.498685,
              15.865414
            ],
            [
              74.496695,
              15.867322
            ],
            [
              74.495695,
              15.866959
            ],
            [
              74.495526,
              15.865583
            ],
            [
              74.494695,
              15.865266
            ],
            [
              74.494172,
              15.862937
            ],
            [
              74.493111,
              15.86283
            ],
            [
              74.492695,
              15.864604
            ],
            [
              74.490777,
              15.863414
            ],
            [
              74.490266,
              15.862414
            ],
            [
              74.493196,
              15.861914
            ],
            [
              74.493519,
              15.85859
            ],
            [
              74.489861,
              15.85858
            ],
            [
              74.489695,
              15.85949
            ],
            [
              74.488866,
              15.857414
            ],
            [
              74.490553,
              15.855271
            ],
            [
              74.49215,
              15.854869
            ],
            [
              74.492457,
              15.853176
            ],
            [
              74.494148,
              15.852414
            ],
            [
              74.494108,
              15.850001
            ],
            [
              74.492292,
              15.849817
            ],
            [
              74.49109,
              15.848414
            ],
            [
              74.492084,
              15.847025
            ],
            [
              74.491298,
              15.846811
            ],
            [
              74.490945,
              15.845165
            ],
            [
              74.487695,
              15.844986
            ],
            [
              74.486012,
              15.846731
            ],
            [
              74.483695,
              15.847798
            ],
            [
              74.483062,
              15.846047
            ],
            [
              74.482305,
              15.846023
            ],
            [
              74.480935,
              15.847414
            ],
            [
              74.482504,
              15.849414
            ],
            [
              74.481799,
              15.849518
            ],
            [
              74.479695,
              15.846729
            ],
            [
              74.478097,
              15.846815
            ],
            [
              74.477695,
              15.847582
            ],
            [
              74.475642,
              15.847414
            ],
            [
              74.477374,
              15.847093
            ],
            [
              74.47824,
              15.845958
            ],
            [
              74.478536,
              15.843573
            ],
            [
              74.477649,
              15.84346
            ],
            [
              74.477695,
              15.842739
            ],
            [
              74.478741,
              15.843368
            ],
            [
              74.479141,
              15.844968
            ],
            [
              74.480695,
              15.846051
            ],
            [
              74.481695,
              15.845009
            ],
            [
              74.485017,
              15.844736
            ],
            [
              74.485695,
              15.842922
            ],
            [
              74.486695,
              15.843862
            ],
            [
              74.488137,
              15.842855
            ],
            [
              74.490695,
              15.842799
            ],
            [
              74.491932,
              15.843651
            ],
            [
              74.493948,
              15.842414
            ],
            [
              74.492947,
              15.841414
            ],
            [
              74.493934,
              15.839414
            ],
            [
              74.492849,
              15.83826
            ],
            [
              74.490695,
              15.837172
            ],
            [
              74.489695,
              15.838123
            ],
            [
              74.487695,
              15.838141
            ],
            [
              74.486695,
              15.836145
            ],
            [
              74.481695,
              15.838079
            ],
            [
              74.48103,
              15.837414
            ],
            [
              74.482009,
              15.836414
            ],
            [
              74.479695,
              15.833075
            ],
            [
              74.478436,
              15.833154
            ],
            [
              74.479238,
              15.834414
            ],
            [
              74.477695,
              15.835971
            ],
            [
              74.476306,
              15.835803
            ],
            [
              74.475695,
              15.834989
            ],
            [
              74.469695,
              15.834811
            ],
            [
              74.468695,
              15.835757
            ],
            [
              74.465695,
              15.835595
            ],
            [
              74.465437,
              15.834672
            ],
            [
              74.463715,
              15.834414
            ],
            [
              74.465695,
              15.83429
            ],
            [
              74.466955,
              15.835154
            ],
            [
              74.468695,
              15.834059
            ],
            [
              74.472695,
              15.833917
            ],
            [
              74.47317,
              15.833414
            ],
            [
              74.472223,
              15.832414
            ],
            [
              74.473388,
              15.830107
            ],
            [
              74.474986,
              15.830123
            ],
            [
              74.475695,
              15.831924
            ],
            [
              74.476336,
              15.830055
            ],
            [
              74.478953,
              15.829671
            ],
            [
              74.477144,
              15.828414
            ],
            [
              74.479126,
              15.827414
            ],
            [
              74.478193,
              15.823916
            ],
            [
              74.476951,
              15.823669
            ],
            [
              74.476637,
              15.824472
            ],
            [
              74.476503,
              15.822606
            ],
            [
              74.475376,
              15.822414
            ],
            [
              74.476695,
              15.821787
            ],
            [
              74.478114,
              15.822995
            ],
            [
              74.479695,
              15.822156
            ],
            [
              74.480695,
              15.82302
            ],
            [
              74.483048,
              15.821766
            ],
            [
              74.481695,
              15.819887
            ],
            [
              74.479695,
              15.819821
            ],
            [
              74.478448,
              15.821661
            ],
            [
              74.47833,
              15.819414
            ],
            [
              74.48123,
              15.818414
            ],
            [
              74.479465,
              15.817644
            ],
            [
              74.479695,
              15.81609
            ],
            [
              74.480931,
              15.816178
            ],
            [
              74.482695,
              15.817936
            ],
            [
              74.484987,
              15.817706
            ],
            [
              74.485163,
              15.814414
            ],
            [
              74.483445,
              15.813664
            ],
            [
              74.483081,
              15.812028
            ],
            [
              74.481695,
              15.810816
            ],
            [
              74.478695,
              15.810667
            ],
            [
              74.477619,
              15.81149
            ],
            [
              74.47562,
              15.810414
            ],
            [
              74.477596,
              15.809315
            ],
            [
              74.479695,
              15.810103
            ],
            [
              74.484043,
              15.809761
            ],
            [
              74.484101,
              15.806008
            ],
            [
              74.482695,
              15.804698
            ],
            [
              74.480966,
              15.804685
            ],
            [
              74.480164,
              15.805414
            ],
            [
              74.479106,
              15.803414
            ],
            [
              74.480695,
              15.801129
            ],
            [
              74.482695,
              15.800002
            ],
            [
              74.483645,
              15.801414
            ],
            [
              74.482949,
              15.801668
            ],
            [
              74.483198,
              15.802911
            ],
            [
              74.487614,
              15.803414
            ],
            [
              74.486871,
              15.80359
            ],
            [
              74.486326,
              15.805783
            ],
            [
              74.488695,
              15.805985
            ],
            [
              74.489695,
              15.80692
            ],
            [
              74.492301,
              15.806414
            ],
            [
              74.492371,
              15.802738
            ],
            [
              74.491643,
              15.802414
            ],
            [
              74.491695,
              15.801248
            ],
            [
              74.493816,
              15.802293
            ],
            [
              74.494268,
              15.804841
            ],
            [
              74.495695,
              15.805015
            ],
            [
              74.49641,
              15.804414
            ],
            [
              74.496695,
              15.800825
            ],
            [
              74.496942,
              15.802167
            ],
            [
              74.498147,
              15.802414
            ],
            [
              74.496987,
              15.802706
            ],
            [
              74.497076,
              15.806414
            ],
            [
              74.498059,
              15.807414
            ],
            [
              74.498108,
              15.809414
            ],
            [
              74.500695,
              15.814774
            ],
            [
              74.503107,
              15.813414
            ],
            [
              74.503204,
              15.809414
            ],
            [
              74.504235,
              15.808414
            ],
            [
              74.504479,
              15.803414
            ],
            [
              74.505314,
              15.803033
            ],
            [
              74.505695,
              15.80091
            ],
            [
              74.505894,
              15.803414
            ],
            [
              74.504974,
              15.804414
            ],
            [
              74.505186,
              15.809414
            ],
            [
              74.504213,
              15.810414
            ],
            [
              74.504424,
              15.813685
            ],
            [
              74.505695,
              15.81385
            ],
            [
              74.507035,
              15.812753
            ],
            [
              74.507301,
              15.810414
            ],
            [
              74.508345,
              15.809414
            ],
            [
              74.508607,
              15.805414
            ],
            [
              74.509572,
              15.80529
            ],
            [
              74.509695,
              15.804577
            ],
            [
              74.509739,
              15.805457
            ],
            [
              74.508887,
              15.805605
            ],
            [
              74.509068,
              15.810414
            ],
            [
              74.507236,
              15.814414
            ],
            [
              74.508401,
              15.815708
            ],
            [
              74.508999,
              15.815717
            ],
            [
              74.510229,
              15.813414
            ],
            [
              74.510355,
              15.810414
            ],
            [
              74.512484,
              15.808414
            ],
            [
              74.512695,
              15.806218
            ],
            [
              74.51294,
              15.809414
            ],
            [
              74.511263,
              15.810982
            ],
            [
              74.511176,
              15.814414
            ],
            [
              74.510217,
              15.815414
            ],
            [
              74.511394,
              15.817715
            ],
            [
              74.512024,
              15.817742
            ],
            [
              74.513289,
              15.815414
            ],
            [
              74.513502,
              15.811414
            ],
            [
              74.514361,
              15.81108
            ],
            [
              74.514687,
              15.809405
            ],
            [
              74.51487,
              15.811414
            ],
            [
              74.513955,
              15.812414
            ],
            [
              74.514111,
              15.816414
            ],
            [
              74.513179,
              15.817414
            ],
            [
              74.513695,
              15.817937
            ],
            [
              74.517094,
              15.817813
            ],
            [
              74.517695,
              15.811656
            ],
            [
              74.518444,
              15.812414
            ],
            [
              74.517855,
              15.812574
            ],
            [
              74.518201,
              15.814908
            ],
            [
              74.519253,
              15.814971
            ],
            [
              74.519695,
              15.812994
            ],
            [
              74.520285,
              15.818825
            ],
            [
              74.523064,
              15.818783
            ],
            [
              74.523629,
              15.812348
            ],
            [
              74.523989,
              15.81212
            ],
            [
              74.524573,
              15.812414
            ],
            [
              74.523795,
              15.812513
            ],
            [
              74.524121,
              15.818414
            ],
            [
              74.524908,
              15.820201
            ],
            [
              74.526844,
              15.820265
            ],
            [
              74.52625,
              15.821859
            ],
            [
              74.527695,
              15.822003
            ],
            [
              74.529119,
              15.820837
            ],
            [
              74.529472,
              15.818414
            ],
            [
              74.531176,
              15.816414
            ],
            [
              74.531012,
              15.818414
            ],
            [
              74.52998,
              15.819414
            ],
            [
              74.530067,
              15.821414
            ],
            [
              74.529124,
              15.822414
            ],
            [
              74.529206,
              15.826414
            ],
            [
              74.528265,
              15.827414
            ],
            [
              74.528411,
              15.829698
            ],
            [
              74.530235,
              15.829414
            ],
            [
              74.531695,
              15.821932
            ],
            [
              74.531912,
              15.824414
            ],
            [
              74.53287,
              15.825414
            ],
            [
              74.531083,
              15.827414
            ],
            [
              74.531342,
              15.829767
            ],
            [
              74.533088,
              15.829806
            ],
            [
              74.536617,
              15.826335
            ],
            [
              74.537601,
              15.82632
            ],
            [
              74.537695,
              15.82562
            ],
            [
              74.537726,
              15.826444
            ],
            [
              74.536925,
              15.826644
            ],
            [
              74.533961,
              15.830679
            ],
            [
              74.530391,
              15.83211
            ],
            [
              74.530419,
              15.83469
            ],
            [
              74.531695,
              15.833819
            ],
            [
              74.540695,
              15.834073
            ],
            [
              74.542308,
              15.833026
            ],
            [
              74.542695,
              15.831374
            ],
            [
              74.543059,
              15.83305
            ],
            [
              74.544606,
              15.833324
            ],
            [
              74.544695,
              15.832654
            ],
            [
              74.54473,
              15.833448
            ],
            [
              74.543086,
              15.833804
            ],
            [
              74.542695,
              15.835511
            ],
            [
              74.541695,
              15.834701
            ],
            [
              74.540695,
              15.835716
            ],
            [
              74.539695,
              15.834796
            ],
            [
              74.538317,
              15.835036
            ],
            [
              74.537695,
              15.837753
            ],
            [
              74.536695,
              15.834898
            ],
            [
              74.532695,
              15.83499
            ],
            [
              74.531112,
              15.83683
            ],
            [
              74.529462,
              15.837181
            ],
            [
              74.531695,
              15.838839
            ],
            [
              74.538932,
              15.839177
            ],
            [
              74.538916,
              15.840634
            ],
            [
              74.537305,
              15.840024
            ],
            [
              74.536695,
              15.842732
            ],
            [
              74.536069,
              15.84004
            ],
            [
              74.530277,
              15.839995
            ],
            [
              74.531305,
              15.842414
            ],
            [
              74.52933,
              15.843414
            ],
            [
              74.52929,
              15.844819
            ],
            [
              74.532351,
              15.845414
            ],
            [
              74.532405,
              15.847704
            ],
            [
              74.536695,
              15.84797
            ],
            [
              74.538438,
              15.845414
            ],
            [
              74.538323,
              15.844786
            ],
            [
              74.536804,
              15.844414
            ],
            [
              74.539354,
              15.844072
            ],
            [
              74.539636,
              15.843355
            ],
            [
              74.540695,
              15.843153
            ],
            [
              74.540661,
              15.843448
            ],
            [
              74.539862,
              15.84358
            ],
            [
              74.53979,
              15.844509
            ],
            [
              74.538906,
              15.844624
            ],
            [
              74.53901,
              15.846414
            ],
            [
              74.53792,
              15.846638
            ],
            [
              74.538092,
              15.848414
            ],
            [
              74.537029,
              15.848747
            ],
            [
              74.536695,
              15.850761
            ],
            [
              74.534889,
              15.851608
            ],
            [
              74.534734,
              15.853414
            ],
            [
              74.533745,
              15.853464
            ],
            [
              74.533695,
              15.854593
            ],
            [
              74.533665,
              15.853383
            ],
            [
              74.534441,
              15.85316
            ],
            [
              74.534345,
              15.849414
            ],
            [
              74.529436,
              15.849154
            ],
            [
              74.529268,
              15.852414
            ],
            [
              74.528258,
              15.853414
            ],
            [
              74.52889,
              15.855414
            ],
            [
              74.527905,
              15.856414
            ],
            [
              74.527803,
              15.858522
            ],
            [
              74.526695,
              15.857685
            ],
            [
              74.525248,
              15.857966
            ],
            [
              74.524899,
              15.859618
            ],
            [
              74.523259,
              15.859978
            ],
            [
              74.524016,
              15.861414
            ],
            [
              74.522695,
              15.86247
            ],
            [
              74.519538,
              15.862571
            ],
            [
              74.518598,
              15.861316
            ],
            [
              74.516067,
              15.863414
            ],
            [
              74.513315,
              15.863034
            ],
            [
              74.511387,
              15.864414
            ],
            [
              74.512459,
              15.865414
            ],
            [
              74.512038,
              15.866414
            ],
            [
              74.51349,
              15.867414
            ],
            [
              74.510695,
              15.869767
            ]
          ]
        ],
        "type": "Polygon"
      },
      "type": "Feature"
    },
    {
      "properties": {
        "fill-opacity": 0.33,
        "fillColor": "#bf4040",
        "opacity": 0.33,
        "fill": "#bf4040",
        "fillOpacity": 0.33,
        "color": "#bf4040",
        "contour": 6.0,
        "metric": "distance",
        "provider_name": "Chew Chow",
        "zone_type": "distance",
        "distance_km": 6,
        "mode": "motorcycle",
        "center_lat": 15.83841421424,
        "center_lon": 74.503695714477,
        "label": "6km"
      },
      "geometry": {
        "coordinates": [
          [
            [
              74.514695,
              15.877508
            ],
            [
              74.51261,
              15.877329
            ],
            [
              74.511695,
              15.878202
            ],
            [
              74.509695,
              15.875546
            ],
            [
              74.507588,
              15.876521
            ],
            [
              74.505255,
              15.875854
            ],
            [
              74.504641,
              15.875414
            ],
            [
              74.505416,
              15.875135
            ],
            [
              74.505263,
              15.873846
            ],
            [
              74.501695,
              15.873532
            ],
            [
              74.502535,
              15.873254
            ],
            [
              74.502285,
              15.869824
            ],
            [
              74.500188,
              15.868921
            ],
            [
              74.49735,
              15.869759
            ],
            [
              74.495695,
              15.867897
            ],
            [
              74.492695,
              15.869744
            ],
            [
              74.489695,
              15.870026
            ],
            [
              74.487529,
              15.86858
            ],
            [
              74.484608,
              15.868414
            ],
            [
              74.482695,
              15.867012
            ],
            [
              74.481113,
              15.864414
            ],
            [
              74.481695,
              15.863626
            ],
            [
              74.483695,
              15.861661
            ],
            [
              74.484152,
              15.863957
            ],
            [
              74.485695,
              15.864079
            ],
            [
              74.487369,
              15.861414
            ],
            [
              74.486695,
              15.860736
            ],
            [
              74.484041,
              15.860414
            ],
            [
              74.484069,
              15.85904
            ],
            [
              74.482255,
              15.857414
            ],
            [
              74.48348,
              15.856414
            ],
            [
              74.483483,
              15.855626
            ],
            [
              74.482504,
              15.855223
            ],
            [
              74.483695,
              15.855322
            ],
            [
              74.484695,
              15.856119
            ],
            [
              74.486521,
              15.855414
            ],
            [
              74.484469,
              15.85364
            ],
            [
              74.48409,
              15.852019
            ],
            [
              74.480331,
              15.848778
            ],
            [
              74.479968,
              15.847141
            ],
            [
              74.478695,
              15.846987
            ],
            [
              74.477695,
              15.84796
            ],
            [
              74.474093,
              15.848414
            ],
            [
              74.474695,
              15.849139
            ],
            [
              74.477698,
              15.849411
            ],
            [
              74.476858,
              15.849576
            ],
            [
              74.476197,
              15.851916
            ],
            [
              74.472053,
              15.851772
            ],
            [
              74.471289,
              15.85282
            ],
            [
              74.471263,
              15.850846
            ],
            [
              74.46897,
              15.850414
            ],
            [
              74.466334,
              15.847414
            ],
            [
              74.467045,
              15.846764
            ],
            [
              74.468695,
              15.847207
            ],
            [
              74.470473,
              15.846191
            ],
            [
              74.471695,
              15.847047
            ],
            [
              74.476695,
              15.846886
            ],
            [
              74.477987,
              15.845705
            ],
            [
              74.478147,
              15.844414
            ],
            [
              74.477184,
              15.843414
            ],
            [
              74.477269,
              15.840414
            ],
            [
              74.476318,
              15.839414
            ],
            [
              74.476417,
              15.837414
            ],
            [
              74.475477,
              15.835632
            ],
            [
              74.469695,
              15.835038
            ],
            [
              74.468695,
              15.836017
            ],
            [
              74.465695,
              15.835964
            ],
            [
              74.463695,
              15.834913
            ],
            [
              74.463261,
              15.836979
            ],
            [
              74.462695,
              15.837403
            ],
            [
              74.461695,
              15.835809
            ],
            [
              74.461106,
              15.837003
            ],
            [
              74.462626,
              15.837414
            ],
            [
              74.460695,
              15.837628
            ],
            [
              74.460125,
              15.832984
            ],
            [
              74.456065,
              15.832414
            ],
            [
              74.455695,
              15.831483
            ],
            [
              74.45571,
              15.830428
            ],
            [
              74.458695,
              15.829548
            ],
            [
              74.459217,
              15.831892
            ],
            [
              74.460916,
              15.832193
            ],
            [
              74.462324,
              15.833785
            ],
            [
              74.465695,
              15.833881
            ],
            [
              74.467695,
              15.834824
            ],
            [
              74.468695,
              15.833806
            ],
            [
              74.472913,
              15.833632
            ],
            [
              74.472041,
              15.832414
            ],
            [
              74.473695,
              15.829764
            ],
            [
              74.475122,
              15.829987
            ],
            [
              74.475695,
              15.831752
            ],
            [
              74.476695,
              15.829729
            ],
            [
              74.47888,
              15.830598
            ],
            [
              74.478886,
              15.829223
            ],
            [
              74.477005,
              15.828414
            ],
            [
              74.478996,
              15.827414
            ],
            [
              74.47814,
              15.826414
            ],
            [
              74.477981,
              15.824128
            ],
            [
              74.475695,
              15.822925
            ],
            [
              74.474695,
              15.823856
            ],
            [
              74.47422,
              15.822414
            ],
            [
              74.476695,
              15.820931
            ],
            [
              74.478139,
              15.821858
            ],
            [
              74.478287,
              15.819006
            ],
            [
              74.480929,
              15.818647
            ],
            [
              74.479091,
              15.817414
            ],
            [
              74.479695,
              15.815823
            ],
            [
              74.4811,
              15.816009
            ],
            [
              74.482695,
              15.817757
            ],
            [
              74.484898,
              15.817617
            ],
            [
              74.484918,
              15.814191
            ],
            [
              74.483285,
              15.813824
            ],
            [
              74.481943,
              15.811166
            ],
            [
              74.478695,
              15.810986
            ],
            [
              74.477695,
              15.811935
            ],
            [
              74.475315,
              15.812033
            ],
            [
              74.473909,
              15.814627
            ],
            [
              74.471766,
              15.816485
            ],
            [
              74.470773,
              15.816491
            ],
            [
              74.470695,
              15.817493
            ],
            [
              74.470671,
              15.816389
            ],
            [
              74.471477,
              15.816195
            ],
            [
              74.472429,
              15.814414
            ],
            [
              74.472359,
              15.812414
            ],
            [
              74.470547,
              15.811562
            ],
            [
              74.469446,
              15.809414
            ],
            [
              74.477695,
              15.808886
            ],
            [
              74.479695,
              15.809822
            ],
            [
              74.483924,
              15.809642
            ],
            [
              74.484067,
              15.806414
            ],
            [
              74.482695,
              15.804997
            ],
            [
              74.481384,
              15.805102
            ],
            [
              74.479695,
              15.806872
            ],
            [
              74.475695,
              15.804769
            ],
            [
              74.472695,
              15.805512
            ],
            [
              74.472309,
              15.8038
            ],
            [
              74.469973,
              15.803414
            ],
            [
              74.471291,
              15.801414
            ],
            [
              74.475695,
              15.800998
            ],
            [
              74.478122,
              15.79884
            ],
            [
              74.478131,
              15.797978
            ],
            [
              74.474376,
              15.795414
            ],
            [
              74.474989,
              15.794414
            ],
            [
              74.476796,
              15.794314
            ],
            [
              74.479265,
              15.795414
            ],
            [
              74.479042,
              15.797414
            ],
            [
              74.480106,
              15.797825
            ],
            [
              74.480413,
              15.796131
            ],
            [
              74.48138,
              15.795414
            ],
            [
              74.481695,
              15.791168
            ],
            [
              74.482695,
              15.791449
            ],
            [
              74.485148,
              15.794414
            ],
            [
              74.482202,
              15.79492
            ],
            [
              74.48229,
              15.796819
            ],
            [
              74.483141,
              15.79686
            ],
            [
              74.483695,
              15.795531
            ],
            [
              74.485403,
              15.796122
            ],
            [
              74.485695,
              15.794634
            ],
            [
              74.485834,
              15.796414
            ],
            [
              74.484111,
              15.798829
            ],
            [
              74.486131,
              15.801414
            ],
            [
              74.483254,
              15.802414
            ],
            [
              74.488027,
              15.803082
            ],
            [
              74.486327,
              15.805414
            ],
            [
              74.488695,
              15.805777
            ],
            [
              74.489695,
              15.80675
            ],
            [
              74.492073,
              15.806414
            ],
            [
              74.491256,
              15.799414
            ],
            [
              74.490315,
              15.798414
            ],
            [
              74.490507,
              15.796226
            ],
            [
              74.493127,
              15.799414
            ],
            [
              74.494435,
              15.804674
            ],
            [
              74.495695,
              15.804789
            ],
            [
              74.496631,
              15.79335
            ],
            [
              74.497467,
              15.793185
            ],
            [
              74.497695,
              15.792325
            ],
            [
              74.497889,
              15.794414
            ],
            [
              74.49697,
              15.795414
            ],
            [
              74.497695,
              15.801905
            ],
            [
              74.499055,
              15.801773
            ],
            [
              74.500355,
              15.799414
            ],
            [
              74.500695,
              15.794847
            ],
            [
              74.50107,
              15.800414
            ],
            [
              74.500001,
              15.802719
            ],
            [
              74.497258,
              15.803414
            ],
            [
              74.497313,
              15.806414
            ],
            [
              74.498306,
              15.807414
            ],
            [
              74.498325,
              15.809414
            ],
            [
              74.499325,
              15.810414
            ],
            [
              74.499372,
              15.812414
            ],
            [
              74.500695,
              15.814679
            ],
            [
              74.502987,
              15.813414
            ],
            [
              74.503021,
              15.810414
            ],
            [
              74.504026,
              15.809745
            ],
            [
              74.504114,
              15.804414
            ],
            [
              74.505124,
              15.803843
            ],
            [
              74.505695,
              15.797033
            ],
            [
              74.506256,
              15.803414
            ],
            [
              74.505266,
              15.803985
            ],
            [
              74.505358,
              15.809414
            ],
            [
              74.504364,
              15.810083
            ],
            [
              74.504403,
              15.813414
            ],
            [
              74.505695,
              15.813718
            ],
            [
              74.50704,
              15.812414
            ],
            [
              74.507073,
              15.810414
            ],
            [
              74.508089,
              15.809414
            ],
            [
              74.508148,
              15.806414
            ],
            [
              74.509172,
              15.805414
            ],
            [
              74.509467,
              15.798414
            ],
            [
              74.508603,
              15.797414
            ],
            [
              74.508695,
              15.796277
            ],
            [
              74.50888,
              15.797229
            ],
            [
              74.509851,
              15.797414
            ],
            [
              74.510218,
              15.805414
            ],
            [
              74.509264,
              15.807414
            ],
            [
              74.50931,
              15.810414
            ],
            [
              74.507381,
              15.814414
            ],
            [
              74.508695,
              15.815717
            ],
            [
              74.510043,
              15.813414
            ],
            [
              74.510076,
              15.811414
            ],
            [
              74.511084,
              15.810803
            ],
            [
              74.511111,
              15.809414
            ],
            [
              74.512136,
              15.808414
            ],
            [
              74.51225,
              15.804414
            ],
            [
              74.513424,
              15.803143
            ],
            [
              74.514102,
              15.803414
            ],
            [
              74.514237,
              15.804414
            ],
            [
              74.513172,
              15.805414
            ],
            [
              74.513265,
              15.809414
            ],
            [
              74.511306,
              15.811025
            ],
            [
              74.511354,
              15.814414
            ],
            [
              74.510372,
              15.815414
            ],
            [
              74.510491,
              15.816618
            ],
            [
              74.511695,
              15.817733
            ],
            [
              74.513068,
              15.815414
            ],
            [
              74.513142,
              15.811414
            ],
            [
              74.514695,
              15.808912
            ],
            [
              74.515243,
              15.811414
            ],
            [
              74.51427,
              15.812414
            ],
            [
              74.514327,
              15.816414
            ],
            [
              74.513355,
              15.817414
            ],
            [
              74.517076,
              15.817414
            ],
            [
              74.517202,
              15.811414
            ],
            [
              74.516249,
              15.810414
            ],
            [
              74.516328,
              15.808046
            ],
            [
              74.517414,
              15.806414
            ],
            [
              74.517695,
              15.802892
            ],
            [
              74.517991,
              15.807414
            ],
            [
              74.519695,
              15.809112
            ],
            [
              74.520545,
              15.807264
            ],
            [
              74.521342,
              15.807061
            ],
            [
              74.521695,
              15.805154
            ],
            [
              74.523695,
              15.806195
            ],
            [
              74.525337,
              15.805055
            ],
            [
              74.525695,
              15.803104
            ],
            [
              74.526108,
              15.803414
            ],
            [
              74.525878,
              15.805414
            ],
            [
              74.524975,
              15.806414
            ],
            [
              74.525076,
              15.808414
            ],
            [
              74.526695,
              15.810091
            ],
            [
              74.528898,
              15.810414
            ],
            [
              74.525695,
              15.810749
            ],
            [
              74.524233,
              15.813414
            ],
            [
              74.52433,
              15.818414
            ],
            [
              74.525387,
              15.819722
            ],
            [
              74.52707,
              15.820039
            ],
            [
              74.526283,
              15.821414
            ],
            [
              74.526695,
              15.8218
            ],
            [
              74.527943,
              15.821662
            ],
            [
              74.529094,
              15.820414
            ],
            [
              74.529132,
              15.818414
            ],
            [
              74.532345,
              15.812414
            ],
            [
              74.532609,
              15.808414
            ],
            [
              74.533537,
              15.808414
            ],
            [
              74.532867,
              15.808585
            ],
            [
              74.533011,
              15.81373
            ],
            [
              74.532128,
              15.814414
            ],
            [
              74.533184,
              15.814902
            ],
            [
              74.534551,
              15.814269
            ],
            [
              74.534695,
              15.813423
            ],
            [
              74.534851,
              15.814414
            ],
            [
              74.53391,
              15.814628
            ],
            [
              74.534142,
              15.815967
            ],
            [
              74.537191,
              15.816414
            ],
            [
              74.534205,
              15.816923
            ],
            [
              74.534074,
              15.819414
            ],
            [
              74.532208,
              15.822414
            ],
            [
              74.532256,
              15.824414
            ],
            [
              74.533243,
              15.825414
            ],
            [
              74.531315,
              15.827414
            ],
            [
              74.531464,
              15.829645
            ],
            [
              74.532942,
              15.829661
            ],
            [
              74.538399,
              15.824118
            ],
            [
              74.541695,
              15.824071
            ],
            [
              74.543632,
              15.82135
            ],
            [
              74.545258,
              15.821414
            ],
            [
              74.543902,
              15.821621
            ],
            [
              74.542889,
              15.824608
            ],
            [
              74.539326,
              15.825045
            ],
            [
              74.534111,
              15.83083
            ],
            [
              74.530487,
              15.832205
            ],
            [
              74.530505,
              15.834604
            ],
            [
              74.531695,
              15.833702
            ],
            [
              74.540978,
              15.833697
            ],
            [
              74.542168,
              15.832414
            ],
            [
              74.542695,
              15.826104
            ],
            [
              74.543695,
              15.832872
            ],
            [
              74.546695,
              15.830982
            ],
            [
              74.54812,
              15.830839
            ],
            [
              74.548687,
              15.826406
            ],
            [
              74.549226,
              15.829883
            ],
            [
              74.551388,
              15.830107
            ],
            [
              74.551667,
              15.829386
            ],
            [
              74.553144,
              15.829414
            ],
            [
              74.552738,
              15.830457
            ],
            [
              74.55021,
              15.830928
            ],
            [
              74.549823,
              15.834286
            ],
            [
              74.550315,
              15.834414
            ],
            [
              74.549653,
              15.834456
            ],
            [
              74.549472,
              15.832414
            ],
            [
              74.548695,
              15.831765
            ],
            [
              74.546314,
              15.834033
            ],
            [
              74.544695,
              15.836883
            ],
            [
              74.544598,
              15.835414
            ],
            [
              74.545462,
              15.834414
            ],
            [
              74.544695,
              15.833924
            ],
            [
              74.543396,
              15.834115
            ],
            [
              74.542695,
              15.835939
            ],
            [
              74.541695,
              15.834997
            ],
            [
              74.540695,
              15.836003
            ],
            [
              74.539695,
              15.835032
            ],
            [
              74.538454,
              15.835173
            ],
            [
              74.537695,
              15.838016
            ],
            [
              74.536695,
              15.835074
            ],
            [
              74.532695,
              15.835116
            ],
            [
              74.53118,
              15.836899
            ],
            [
              74.529523,
              15.837241
            ],
            [
              74.531695,
              15.838712
            ],
            [
              74.5391,
              15.839009
            ],
            [
              74.539095,
              15.840813
            ],
            [
              74.537324,
              15.840414
            ],
            [
              74.53729,
              15.842414
            ],
            [
              74.536139,
              15.843414
            ],
            [
              74.536695,
              15.843917
            ],
            [
              74.539001,
              15.84372
            ],
            [
              74.540389,
              15.841108
            ],
            [
              74.542104,
              15.839823
            ],
            [
              74.542492,
              15.83821
            ],
            [
              74.543695,
              15.837164
            ],
            [
              74.544548,
              15.837414
            ],
            [
              74.541143,
              15.843861
            ],
            [
              74.538255,
              15.846974
            ],
            [
              74.538319,
              15.848414
            ],
            [
              74.537287,
              15.849005
            ],
            [
              74.536975,
              15.850693
            ],
            [
              74.535294,
              15.852013
            ],
            [
              74.533892,
              15.85561
            ],
            [
              74.533189,
              15.854414
            ],
            [
              74.534136,
              15.852414
            ],
            [
              74.534089,
              15.849414
            ],
            [
              74.529508,
              15.849227
            ],
            [
              74.529396,
              15.852414
            ],
            [
              74.528391,
              15.853414
            ],
            [
              74.529205,
              15.855414
            ],
            [
              74.528251,
              15.856414
            ],
            [
              74.528084,
              15.858802
            ],
            [
              74.525491,
              15.858209
            ],
            [
              74.525174,
              15.859893
            ],
            [
              74.523434,
              15.860414
            ],
            [
              74.524482,
              15.861414
            ],
            [
              74.523339,
              15.863057
            ],
            [
              74.519942,
              15.863414
            ],
            [
              74.522114,
              15.864995
            ],
            [
              74.521857,
              15.867414
            ],
            [
              74.519695,
              15.869081
            ],
            [
              74.518695,
              15.867862
            ],
            [
              74.518121,
              15.869414
            ],
            [
              74.516838,
              15.869557
            ],
            [
              74.516695,
              15.870467
            ],
            [
              74.516311,
              15.869414
            ],
            [
              74.517433,
              15.869152
            ],
            [
              74.517164,
              15.867945
            ],
            [
              74.513695,
              15.867908
            ],
            [
              74.512367,
              15.869085
            ],
            [
              74.512575,
              15.872534
            ],
            [
              74.513695,
              15.873216
            ],
            [
              74.514695,
              15.872436
            ],
            [
              74.515721,
              15.873388
            ],
            [
              74.515695,
              15.874641
            ],
            [
              74.514228,
              15.874946
            ],
            [
              74.514695,
              15.877508
            ]
          ]
        ],
        "type": "Polygon"
      },
      "type": "Feature"
    }
  ]
}