{
  "type": "FeatureCollection",
  "metadata": {
    "provider_name": "Rendom Restaurant",
    "center_lat": 26.87093347,
    "center_lon": 75.78066479,
    "mode": "motorcycle",
    "total_zones": 4,
    "distance_zones": [
      3,
      4,
      5,
      6
    ],
    "generated_at": "2025-12-30T06:44:49.972969Z"
  },
  "features": [
    {
      "properties": {
        "fill-opacity": 0.33,
        "fillColor": "#bf4040",
        "opacity": 0.33,
        "fill": "#bf4040",
        "fillOpacity": 0.33,
        "color": "#bf4040",
        "contour": 3.0,
        "metric": "distance",
        "provider_name": "Rendom Restaurant",
        "zone_type": "distance",
        "distance_km": 3,
        "mode": "motorcycle",
        "center_lat": 26.87093347,
        "center_lon": 75.78066479,
        "label": "3km"
      },
      "geometry": {
        "coordinates": [
          [
            [
              75.768664,
              26.891595
            ],
            [
              75.765664,
              26.88917
            ],
            [
              75.764664,
              26.889441
            ],
            [
              75.761248,
              26.887933
            ],
            [
              75.760841,
              26.884757
            ],
            [
              75.759664,
              26.884467
            ],
            [
              75.758664,
              26.882485
            ],
            [
              75.756664,
              26.882261
            ],
            [
              75.75532,
              26.880933
            ],
            [
              75.754652,
              26.878933
            ],
            [
              75.755664,
              26.878569
            ],
            [
              75.755877,
              26.879721
            ],
            [
              75.757234,
              26.879503
            ],
            [
              75.757458,
              26.878139
            ],
            [
              75.756476,
              26.877933
            ],
            [
              75.758664,
              26.876254
            ],
            [
              75.759171,
              26.877426
            ],
            [
              75.760123,
              26.877392
            ],
            [
              75.760637,
              26.874905
            ],
            [
              75.761664,
              26.875624
            ],
            [
              75.76231,
              26.874933
            ],
            [
              75.762664,
              26.870056
            ],
            [
              75.763664,
              26.870322
            ],
            [
              75.765249,
              26.868933
            ],
            [
              75.764664,
              26.868326
            ],
            [
              75.76251,
              26.868778
            ],
            [
              75.762558,
              26.869827
            ],
            [
              75.761482,
              26.869751
            ],
            [
              75.76075,
              26.871018
            ],
            [
              75.759812,
              26.871081
            ],
            [
              75.759664,
              26.872241
            ],
            [
              75.758121,
              26.867933
            ],
            [
              75.758887,
              26.865933
            ],
            [
              75.758067,
              26.864933
            ],
            [
              75.760427,
              26.862933
            ],
            [
              75.760741,
              26.858009
            ],
            [
              75.762673,
              26.857924
            ],
            [
              75.763072,
              26.859526
            ],
            [
              75.764205,
              26.859474
            ],
            [
              75.763664,
              26.856067
            ],
            [
              75.765664,
              26.857482
            ],
            [
              75.766664,
              26.85559
            ],
            [
              75.767664,
              26.857102
            ],
            [
              75.769664,
              26.854933
            ],
            [
              75.773664,
              26.852489
            ],
            [
              75.776311,
              26.854933
            ],
            [
              75.776824,
              26.854092
            ],
            [
              75.778997,
              26.854266
            ],
            [
              75.783664,
              26.848328
            ],
            [
              75.785679,
              26.846919
            ],
            [
              75.785938,
              26.849933
            ],
            [
              75.787319,
              26.850933
            ],
            [
              75.787664,
              26.853337
            ],
            [
              75.789664,
              26.851647
            ],
            [
              75.790664,
              26.852133
            ],
            [
              75.790937,
              26.85366
            ],
            [
              75.793664,
              26.854782
            ],
            [
              75.794664,
              26.852575
            ],
            [
              75.799862,
              26.855933
            ],
            [
              75.800235,
              26.857933
            ],
            [
              75.797133,
              26.860933
            ],
            [
              75.797664,
              26.861447
            ],
            [
              75.798263,
              26.860532
            ],
            [
              75.80006,
              26.860537
            ],
            [
              75.802791,
              26.862806
            ],
            [
              75.80211,
              26.863933
            ],
            [
              75.802365,
              26.866233
            ],
            [
              75.8044,
              26.866933
            ],
            [
              75.804383,
              26.867651
            ],
            [
              75.801201,
              26.86747
            ],
            [
              75.797664,
              26.872527
            ],
            [
              75.794664,
              26.870231
            ],
            [
              75.79433,
              26.871933
            ],
            [
              75.793063,
              26.872933
            ],
            [
              75.793889,
              26.873933
            ],
            [
              75.793382,
              26.875216
            ],
            [
              75.794098,
              26.8765
            ],
            [
              75.795894,
              26.877933
            ],
            [
              75.795756,
              26.879933
            ],
            [
              75.794948,
              26.880217
            ],
            [
              75.794666,
              26.881933
            ],
            [
              75.793871,
              26.88214
            ],
            [
              75.791664,
              26.885655
            ],
            [
              75.789664,
              26.885552
            ],
            [
              75.790282,
              26.886933
            ],
            [
              75.789813,
              26.888082
            ],
            [
              75.788664,
              26.8886
            ],
            [
              75.787658,
              26.887926
            ],
            [
              75.786877,
              26.889145
            ],
            [
              75.783664,
              26.89013
            ],
            [
              75.781674,
              26.888924
            ],
            [
              75.780143,
              26.886454
            ],
            [
              75.77916,
              26.886429
            ],
            [
              75.778692,
              26.887961
            ],
            [
              75.777664,
              26.888161
            ],
            [
              75.775485,
              26.885753
            ],
            [
              75.773288,
              26.887933
            ],
            [
              75.770491,
              26.888759
            ],
            [
              75.768664,
              26.891595
            ]
          ]
        ],
        "type": "Polygon"
      },
      "type": "Feature"
    },
    {
      "properties": {
        "fill-opacity": 0.33,
        "fillColor": "#bf4040",
        "opacity": 0.33,
        "fill": "#bf4040",
        "fillOpacity": 0.33,
        "color": "#bf4040",
        "contour": 4.0,
        "metric": "distance",
        "provider_name": "Rendom Restaurant",
        "zone_type": "distance",
        "distance_km": 4,
        "mode": "motorcycle",
        "center_lat": 26.87093347,
        "center_lon": 75.78066479,
        "label": "4km"
      },
      "geometry": {
        "coordinates": [
          [
            [
              75.769664,
              26.899978
            ],
            [
              75.76405,
              26.895933
            ],
            [
              75.763803,
              26.893933
            ],
            [
              75.76275,
              26.892847
            ],
            [
              75.760664,
              26.892458
            ],
            [
              75.759664,
              26.89149
            ],
            [
              75.757286,
              26.891311
            ],
            [
              75.756419,
              26.889688
            ],
            [
              75.755664,
              26.889471
            ],
            [
              75.754664,
              26.890431
            ],
            [
              75.753543,
              26.889933
            ],
            [
              75.749929,
              26.885933
            ],
            [
              75.750873,
              26.884933
            ],
            [
              75.750002,
              26.883595
            ],
            [
              75.748664,
              26.882312
            ],
            [
              75.747664,
              26.882744
            ],
            [
              75.74455,
              26.878933
            ],
            [
              75.747074,
              26.875933
            ],
            [
              75.750079,
              26.875348
            ],
            [
              75.750392,
              26.873933
            ],
            [
              75.751664,
              26.87351
            ],
            [
              75.751924,
              26.874674
            ],
            [
              75.752664,
              26.874707
            ],
            [
              75.753533,
              26.872802
            ],
            [
              75.754515,
              26.872784
            ],
            [
              75.754929,
              26.871933
            ],
            [
              75.753894,
              26.870933
            ],
            [
              75.754334,
              26.868933
            ],
            [
              75.753356,
              26.867933
            ],
            [
              75.75336,
              26.865933
            ],
            [
              75.754379,
              26.864933
            ],
            [
              75.753401,
              26.86367
            ],
            [
              75.754463,
              26.852732
            ],
            [
              75.755664,
              26.851272
            ],
            [
              75.758923,
              26.852674
            ],
            [
              75.759664,
              26.854302
            ],
            [
              75.760905,
              26.852933
            ],
            [
              75.761193,
              26.850933
            ],
            [
              75.760545,
              26.849933
            ],
            [
              75.761136,
              26.849405
            ],
            [
              75.763664,
              26.848347
            ],
            [
              75.764664,
              26.849096
            ],
            [
              75.767664,
              26.848095
            ],
            [
              75.76799,
              26.846933
            ],
            [
              75.772664,
              26.845186
            ],
            [
              75.777664,
              26.844604
            ],
            [
              75.7779,
              26.848698
            ],
            [
              75.779664,
              26.848647
            ],
            [
              75.780317,
              26.847933
            ],
            [
              75.779453,
              26.846933
            ],
            [
              75.779664,
              26.845757
            ],
            [
              75.779812,
              26.846785
            ],
            [
              75.781664,
              26.847542
            ],
            [
              75.782664,
              26.846741
            ],
            [
              75.78666,
              26.846929
            ],
            [
              75.788742,
              26.844933
            ],
            [
              75.790814,
              26.844783
            ],
            [
              75.791664,
              26.846051
            ],
            [
              75.792664,
              26.846117
            ],
            [
              75.793664,
              26.843731
            ],
            [
              75.797301,
              26.845933
            ],
            [
              75.798508,
              26.84809
            ],
            [
              75.799664,
              26.847734
            ],
            [
              75.800052,
              26.848545
            ],
            [
              75.801919,
              26.848933
            ],
            [
              75.800892,
              26.850933
            ],
            [
              75.801664,
              26.851344
            ],
            [
              75.802664,
              26.850611
            ],
            [
              75.804762,
              26.852835
            ],
            [
              75.805123,
              26.854474
            ],
            [
              75.807664,
              26.855594
            ],
            [
              75.807722,
              26.856991
            ],
            [
              75.806018,
              26.858287
            ],
            [
              75.805664,
              26.859648
            ],
            [
              75.804496,
              26.859933
            ],
            [
              75.805014,
              26.860933
            ],
            [
              75.803833,
              26.861101
            ],
            [
              75.80406,
              26.862538
            ],
            [
              75.805664,
              26.863606
            ],
            [
              75.806664,
              26.862275
            ],
            [
              75.807697,
              26.8629
            ],
            [
              75.80808,
              26.866517
            ],
            [
              75.814347,
              26.866933
            ],
            [
              75.812664,
              26.869107
            ],
            [
              75.811273,
              26.867324
            ],
            [
              75.810194,
              26.867462
            ],
            [
              75.808971,
              26.870933
            ],
            [
              75.809777,
              26.871933
            ],
            [
              75.809664,
              26.873627
            ],
            [
              75.809419,
              26.872179
            ],
            [
              75.807742,
              26.872011
            ],
            [
              75.807664,
              26.873007
            ],
            [
              75.807592,
              26.872005
            ],
            [
              75.806821,
              26.871776
            ],
            [
              75.808318,
              26.868933
            ],
            [
              75.807664,
              26.868336
            ],
            [
              75.806296,
              26.868565
            ],
            [
              75.805664,
              26.869753
            ],
            [
              75.80502,
              26.868577
            ],
            [
              75.803297,
              26.868565
            ],
            [
              75.803333,
              26.869933
            ],
            [
              75.798224,
              26.873493
            ],
            [
              75.798834,
              26.879763
            ],
            [
              75.799698,
              26.879899
            ],
            [
              75.799664,
              26.881282
            ],
            [
              75.797664,
              26.880291
            ],
            [
              75.796664,
              26.881283
            ],
            [
              75.795697,
              26.880901
            ],
            [
              75.79535,
              26.882618
            ],
            [
              75.794452,
              26.882933
            ],
            [
              75.795385,
              26.883933
            ],
            [
              75.79424,
              26.885933
            ],
            [
              75.794862,
              26.889933
            ],
            [
              75.793744,
              26.892013
            ],
            [
              75.792877,
              26.892146
            ],
            [
              75.792664,
              26.894982
            ],
            [
              75.789952,
              26.895933
            ],
            [
              75.788664,
              26.897565
            ],
            [
              75.785664,
              26.895116
            ],
            [
              75.785269,
              26.893328
            ],
            [
              75.782269,
              26.892328
            ],
            [
              75.782012,
              26.890585
            ],
            [
              75.781173,
              26.890442
            ],
            [
              75.773692,
              26.896933
            ],
            [
              75.772664,
              26.899793
            ],
            [
              75.769664,
              26.899978
            ]
          ]
        ],
        "type": "Polygon"
      },
      "type": "Feature"
    },
    {
      "properties": {
        "fill-opacity": 0.33,
        "fillColor": "#bf4040",
        "opacity": 0.33,
        "fill": "#bf4040",
        "fillOpacity": 0.33,
        "color": "#bf4040",
        "contour": 5.0,
        "metric": "distance",
        "provider_name": "Rendom Restaurant",
        "zone_type": "distance",
        "distance_km": 5,
        "mode": "motorcycle",
        "center_lat": 26.87093347,
        "center_lon": 75.78066479,
        "label": "5km"
      },
      "geometry": {
        "coordinates": [
          [
            [
              75.771664,
              26.908011
            ],
            [
              75.769685,
              26.906912
            ],
            [
              75.768603,
              26.904994
            ],
            [
              75.764183,
              26.900933
            ],
            [
              75.762664,
              26.900504
            ],
            [
              75.761664,
              26.899297
            ],
            [
              75.758397,
              26.898933
            ],
            [
              75.760317,
              26.896933
            ],
            [
              75.760323,
              26.895933
            ],
            [
              75.758664,
              26.895537
            ],
            [
              75.756384,
              26.893213
            ],
            [
              75.756031,
              26.891567
            ],
            [
              75.754664,
              26.892407
            ],
            [
              75.752221,
              26.89249
            ],
            [
              75.751664,
              26.895648
            ],
            [
              75.750664,
              26.896234
            ],
            [
              75.750215,
              26.893382
            ],
            [
              75.748721,
              26.89299
            ],
            [
              75.747726,
              26.893933
            ],
            [
              75.746795,
              26.893802
            ],
            [
              75.746632,
              26.891965
            ],
            [
              75.745664,
              26.891438
            ],
            [
              75.745531,
              26.890066
            ],
            [
              75.744644,
              26.889933
            ],
            [
              75.745449,
              26.887933
            ],
            [
              75.744138,
              26.885933
            ],
            [
              75.744914,
              26.884684
            ],
            [
              75.742367,
              26.884636
            ],
            [
              75.738664,
              26.886248
            ],
            [
              75.73457,
              26.879839
            ],
            [
              75.736664,
              26.877483
            ],
            [
              75.738562,
              26.87683
            ],
            [
              75.738664,
              26.874966
            ],
            [
              75.739664,
              26.874562
            ],
            [
              75.740257,
              26.872933
            ],
            [
              75.742664,
              26.872678
            ],
            [
              75.743664,
              26.871685
            ],
            [
              75.747664,
              26.871383
            ],
            [
              75.748799,
              26.872067
            ],
            [
              75.748998,
              26.868933
            ],
            [
              75.751407,
              26.868675
            ],
            [
              75.751664,
              26.867324
            ],
            [
              75.752664,
              26.869059
            ],
            [
              75.753679,
              26.869948
            ],
            [
              75.753694,
              26.868903
            ],
            [
              75.752683,
              26.868914
            ],
            [
              75.75276,
              26.865933
            ],
            [
              75.75383,
              26.864933
            ],
            [
              75.752947,
              26.86365
            ],
            [
              75.751429,
              26.863168
            ],
            [
              75.748325,
              26.859272
            ],
            [
              75.746853,
              26.859122
            ],
            [
              75.746664,
              26.859978
            ],
            [
              75.745052,
              26.857933
            ],
            [
              75.74619,
              26.854933
            ],
            [
              75.748941,
              26.854933
            ],
            [
              75.747584,
              26.852014
            ],
            [
              75.747357,
              26.848933
            ],
            [
              75.749298,
              26.844567
            ],
            [
              75.75082,
              26.845088
            ],
            [
              75.751664,
              26.843906
            ],
            [
              75.754664,
              26.845668
            ],
            [
              75.756664,
              26.844039
            ],
            [
              75.759946,
              26.844215
            ],
            [
              75.761068,
              26.843337
            ],
            [
              75.760787,
              26.841055
            ],
            [
              75.761664,
              26.840655
            ],
            [
              75.764719,
              26.841878
            ],
            [
              75.764664,
              26.84301
            ],
            [
              75.766191,
              26.84246
            ],
            [
              75.767589,
              26.838933
            ],
            [
              75.771507,
              26.838775
            ],
            [
              75.773664,
              26.839502
            ],
            [
              75.774807,
              26.838933
            ],
            [
              75.774929,
              26.836933
            ],
            [
              75.777664,
              26.835779
            ],
            [
              75.778963,
              26.836933
            ],
            [
              75.778734,
              26.838002
            ],
            [
              75.7779,
              26.838169
            ],
            [
              75.778029,
              26.839568
            ],
            [
              75.779429,
              26.839698
            ],
            [
              75.779854,
              26.838744
            ],
            [
              75.781816,
              26.838933
            ],
            [
              75.779948,
              26.839217
            ],
            [
              75.779796,
              26.840065
            ],
            [
              75.778041,
              26.840933
            ],
            [
              75.778205,
              26.847933
            ],
            [
              75.779664,
              26.84835
            ],
            [
              75.780059,
              26.847933
            ],
            [
              75.779105,
              26.846933
            ],
            [
              75.779664,
              26.845385
            ],
            [
              75.781664,
              26.847312
            ],
            [
              75.782664,
              26.846484
            ],
            [
              75.786069,
              26.846337
            ],
            [
              75.786664,
              26.844585
            ],
            [
              75.792983,
              26.843251
            ],
            [
              75.793664,
              26.834652
            ],
            [
              75.793817,
              26.83578
            ],
            [
              75.795486,
              26.835933
            ],
            [
              75.79393,
              26.836199
            ],
            [
              75.794094,
              26.837503
            ],
            [
              75.7986,
              26.838933
            ],
            [
              75.796664,
              26.83909
            ],
            [
              75.795919,
              26.839933
            ],
            [
              75.796664,
              26.840651
            ],
            [
              75.798367,
              26.840635
            ],
            [
              75.798664,
              26.840067
            ],
            [
              75.799664,
              26.840825
            ],
            [
              75.800314,
              26.841933
            ],
            [
              75.799315,
              26.842933
            ],
            [
              75.800913,
              26.843182
            ],
            [
              75.800931,
              26.841933
            ],
            [
              75.801752,
              26.841846
            ],
            [
              75.802664,
              26.843449
            ],
            [
              75.810318,
              26.845933
            ],
            [
              75.810504,
              26.848093
            ],
            [
              75.813664,
              26.848411
            ],
            [
              75.809553,
              26.855044
            ],
            [
              75.809737,
              26.85586
            ],
            [
              75.813926,
              26.857933
            ],
            [
              75.811995,
              26.858264
            ],
            [
              75.811114,
              26.859383
            ],
            [
              75.811664,
              26.862066
            ],
            [
              75.807549,
              26.860818
            ],
            [
              75.807155,
              26.861933
            ],
            [
              75.808429,
              26.862933
            ],
            [
              75.80841,
              26.866188
            ],
            [
              75.813664,
              26.866253
            ],
            [
              75.814664,
              26.865301
            ],
            [
              75.820664,
              26.865672
            ],
            [
              75.821676,
              26.863922
            ],
            [
              75.823855,
              26.865933
            ],
            [
              75.822664,
              26.868103
            ],
            [
              75.817664,
              26.868094
            ],
            [
              75.817115,
              26.866483
            ],
            [
              75.815664,
              26.866362
            ],
            [
              75.814176,
              26.867933
            ],
            [
              75.815102,
              26.869933
            ],
            [
              75.814028,
              26.871297
            ],
            [
              75.812664,
              26.871732
            ],
            [
              75.810729,
              26.870997
            ],
            [
              75.810534,
              26.873063
            ],
            [
              75.812052,
              26.874933
            ],
            [
              75.810992,
              26.876933
            ],
            [
              75.811664,
              26.882329
            ],
            [
              75.811181,
              26.881416
            ],
            [
              75.808944,
              26.880933
            ],
            [
              75.808038,
              26.879559
            ],
            [
              75.804664,
              26.878776
            ],
            [
              75.804015,
              26.877582
            ],
            [
              75.802284,
              26.877313
            ],
            [
              75.801819,
              26.876933
            ],
            [
              75.802886,
              26.874933
            ],
            [
              75.800471,
              26.87374
            ],
            [
              75.799318,
              26.875933
            ],
            [
              75.799664,
              26.87662
            ],
            [
              75.801554,
              26.876933
            ],
            [
              75.799324,
              26.878933
            ],
            [
              75.802183,
              26.884415
            ],
            [
              75.805485,
              26.885933
            ],
            [
              75.804374,
              26.886643
            ],
            [
              75.803664,
              26.88951
            ],
            [
              75.800922,
              26.888675
            ],
            [
              75.798664,
              26.886722
            ],
            [
              75.795664,
              26.888248
            ],
            [
              75.793288,
              26.893933
            ],
            [
              75.796827,
              26.89577
            ],
            [
              75.796065,
              26.897532
            ],
            [
              75.797418,
              26.897686
            ],
            [
              75.797664,
              26.896832
            ],
            [
              75.797752,
              26.897933
            ],
            [
              75.795917,
              26.898186
            ],
            [
              75.795664,
              26.899087
            ],
            [
              75.795445,
              26.898152
            ],
            [
              75.794017,
              26.898286
            ],
            [
              75.79285,
              26.899933
            ],
            [
              75.792868,
              26.90173
            ],
            [
              75.793736,
              26.901933
            ],
            [
              75.792664,
              26.902969
            ],
            [
              75.791664,
              26.902567
            ],
            [
              75.790664,
              26.903194
            ],
            [
              75.789664,
              26.905866
            ],
            [
              75.788636,
              26.904962
            ],
            [
              75.789453,
              26.904722
            ],
            [
              75.789293,
              26.903304
            ],
            [
              75.786664,
              26.902537
            ],
            [
              75.784664,
              26.898164
            ],
            [
              75.783664,
              26.897768
            ],
            [
              75.779664,
              26.899345
            ],
            [
              75.778034,
              26.900933
            ],
            [
              75.780289,
              26.901933
            ],
            [
              75.779664,
              26.90321
            ],
            [
              75.776556,
              26.903825
            ],
            [
              75.777185,
              26.904933
            ],
            [
              75.776664,
              26.906832
            ],
            [
              75.774664,
              26.906568
            ],
            [
              75.771664,
              26.908011
            ]
          ]
        ],
        "type": "Polygon"
      },
      "type": "Feature"
    },
    {
      "properties": {
        "fill-opacity": 0.33,
        "fillColor": "#bf4040",
        "opacity": 0.33,
        "fill": "#bf4040",
        "fillOpacity": 0.33,
        "color": "#bf4040",
        "contour": 6.0,
        "metric": "distance",
        "provider_name": "Rendom Restaurant",
        "zone_type": "distance",
        "distance_km": 6,
        "mode": "motorcycle",
        "center_lat": 26.87093347,
        "center_lon": 75.78066479,
        "label": "6km"
      },
      "geometry": {
        "coordinates": [
          [
            [
              75.774664,
              26.915041
            ],
            [
              75.773468,
              26.915129
            ],
            [
              75.772596,
              26.913933
            ],
            [
              75.772368,
              26.91123
            ],
            [
              75.770458,
              26.910933
            ],
            [
              75.770039,
              26.909933
            ],
            [
              75.767022,
              26.912291
            ],
            [
              75.766664,
              26.913939
            ],
            [
              75.766596,
              26.911933
            ],
            [
              75.767244,
              26.911512
            ],
            [
              75.768169,
              26.905933
            ],
            [
              75.766664,
              26.905156
            ],
            [
              75.762451,
              26.905147
            ],
            [
              75.760999,
              26.899599
            ],
            [
              75.758272,
              26.89954
            ],
            [
              75.755933,
              26.902202
            ],
            [
              75.754271,
              26.90254
            ],
            [
              75.752664,
              26.905496
            ],
            [
              75.751424,
              26.903933
            ],
            [
              75.751853,
              26.902745
            ],
            [
              75.750664,
              26.901309
            ],
            [
              75.749664,
              26.901431
            ],
            [
              75.748722,
              26.899933
            ],
            [
              75.749945,
              26.898214
            ],
            [
              75.749007,
              26.895591
            ],
            [
              75.746238,
              26.894359
            ],
            [
              75.745664,
              26.892661
            ],
            [
              75.744664,
              26.893607
            ],
            [
              75.743869,
              26.892933
            ],
            [
              75.744664,
              26.890705
            ],
            [
              75.743664,
              26.890441
            ],
            [
              75.742664,
              26.89167
            ],
            [
              75.739664,
              26.892425
            ],
            [
              75.737576,
              26.892021
            ],
            [
              75.736664,
              26.890339
            ],
            [
              75.734716,
              26.893985
            ],
            [
              75.733664,
              26.893823
            ],
            [
              75.732317,
              26.891933
            ],
            [
              75.732664,
              26.889095
            ],
            [
              75.733669,
              26.887928
            ],
            [
              75.730995,
              26.885933
            ],
            [
              75.732847,
              26.884933
            ],
            [
              75.732832,
              26.883765
            ],
            [
              75.73128,
              26.881933
            ],
            [
              75.732292,
              26.879933
            ],
            [
              75.729532,
              26.878066
            ],
            [
              75.730042,
              26.876556
            ],
            [
              75.726028,
              26.875933
            ],
            [
              75.727379,
              26.874648
            ],
            [
              75.728699,
              26.874968
            ],
            [
              75.729664,
              26.872903
            ],
            [
              75.730664,
              26.873398
            ],
            [
              75.734065,
              26.872334
            ],
            [
              75.734074,
              26.870933
            ],
            [
              75.736664,
              26.868581
            ],
            [
              75.737484,
              26.870114
            ],
            [
              75.740465,
              26.870734
            ],
            [
              75.742664,
              26.868662
            ],
            [
              75.744664,
              26.867777
            ],
            [
              75.745664,
              26.868186
            ],
            [
              75.745998,
              26.865933
            ],
            [
              75.747664,
              26.865357
            ],
            [
              75.749472,
              26.868126
            ],
            [
              75.750821,
              26.867933
            ],
            [
              75.751673,
              26.864925
            ],
            [
              75.749904,
              26.863933
            ],
            [
              75.75072,
              26.862877
            ],
            [
              75.749761,
              26.862836
            ],
            [
              75.749732,
              26.861865
            ],
            [
              75.747664,
              26.859619
            ],
            [
              75.746664,
              26.86059
            ],
            [
              75.745664,
              26.859503
            ],
            [
              75.744664,
              26.860443
            ],
            [
              75.743383,
              26.860214
            ],
            [
              75.74137,
              26.857933
            ],
            [
              75.742141,
              26.856456
            ],
            [
              75.740514,
              26.856083
            ],
            [
              75.73887,
              26.853933
            ],
            [
              75.73861,
              26.851933
            ],
            [
              75.740664,
              26.849201
            ],
            [
              75.742762,
              26.84903
            ],
            [
              75.742197,
              26.847933
            ],
            [
              75.743867,
              26.843933
            ],
            [
              75.74264,
              26.841933
            ],
            [
              75.743377,
              26.840645
            ],
            [
              75.746751,
              26.84002
            ],
            [
              75.749762,
              26.836836
            ],
            [
              75.751318,
              26.838933
            ],
            [
              75.750181,
              26.83945
            ],
            [
              75.75031,
              26.840287
            ],
            [
              75.751664,
              26.841254
            ],
            [
              75.75396,
              26.841228
            ],
            [
              75.755745,
              26.839933
            ],
            [
              75.754743,
              26.838933
            ],
            [
              75.75535,
              26.836933
            ],
            [
              75.754453,
              26.834933
            ],
            [
              75.756664,
              26.832618
            ],
            [
              75.761664,
              26.83414
            ],
            [
              75.76684,
              26.833758
            ],
            [
              75.766041,
              26.834933
            ],
            [
              75.766664,
              26.836408
            ],
            [
              75.767911,
              26.83618
            ],
            [
              75.768832,
              26.834933
            ],
            [
              75.768047,
              26.832933
            ],
            [
              75.768664,
              26.832353
            ],
            [
              75.771664,
              26.832009
            ],
            [
              75.772714,
              26.833933
            ],
            [
              75.771855,
              26.834933
            ],
            [
              75.773664,
              26.835057
            ],
            [
              75.776189,
              26.831933
            ],
            [
              75.775237,
              26.830933
            ],
            [
              75.776308,
              26.829933
            ],
            [
              75.775455,
              26.828933
            ],
            [
              75.775664,
              26.827856
            ],
            [
              75.777108,
              26.82949
            ],
            [
              75.779707,
              26.82989
            ],
            [
              75.778906,
              26.830933
            ],
            [
              75.781819,
              26.833778
            ],
            [
              75.781018,
              26.835933
            ],
            [
              75.782306,
              26.838291
            ],
            [
              75.788725,
              26.837994
            ],
            [
              75.789605,
              26.835933
            ],
            [
              75.786654,
              26.833944
            ],
            [
              75.786893,
              26.832933
            ],
            [
              75.792664,
              26.830879
            ],
            [
              75.793232,
              26.829366
            ],
            [
              75.79079,
              26.828933
            ],
            [
              75.792664,
              26.82689
            ],
            [
              75.794126,
              26.827395
            ],
            [
              75.794664,
              26.825776
            ],
            [
              75.798245,
              26.828933
            ],
            [
              75.797705,
              26.829973
            ],
            [
              75.796805,
              26.830074
            ],
            [
              75.796179,
              26.832418
            ],
            [
              75.797475,
              26.832743
            ],
            [
              75.797585,
              26.831853
            ],
            [
              75.799445,
              26.831714
            ],
            [
              75.799664,
              26.830516
            ],
            [
              75.802664,
              26.832582
            ],
            [
              75.804413,
              26.835682
            ],
            [
              75.802915,
              26.837933
            ],
            [
              75.803664,
              26.838616
            ],
            [
              75.804462,
              26.83773
            ],
            [
              75.806664,
              26.837765
            ],
            [
              75.807505,
              26.838933
            ],
            [
              75.806012,
              26.839281
            ],
            [
              75.806168,
              26.840429
            ],
            [
              75.808664,
              26.840532
            ],
            [
              75.809823,
              26.841933
            ],
            [
              75.8082,
              26.842933
            ],
            [
              75.813664,
              26.843395
            ],
            [
              75.816835,
              26.842763
            ],
            [
              75.818072,
              26.844933
            ],
            [
              75.817081,
              26.84735
            ],
            [
              75.81558,
              26.847849
            ],
            [
              75.814958,
              26.849933
            ],
            [
              75.817991,
              26.851933
            ],
            [
              75.818611,
              26.853987
            ],
            [
              75.819664,
              26.853073
            ],
            [
              75.823664,
              26.854922
            ],
            [
              75.824774,
              26.856823
            ],
            [
              75.825934,
              26.856933
            ],
            [
              75.826241,
              26.859933
            ],
            [
              75.825664,
              26.860659
            ],
            [
              75.824664,
              26.860446
            ],
            [
              75.824062,
              26.861933
            ],
            [
              75.825288,
              26.86531
            ],
            [
              75.827015,
              26.866933
            ],
            [
              75.824993,
              26.868933
            ],
            [
              75.82449,
              26.872933
            ],
            [
              75.822839,
              26.873933
            ],
            [
              75.820692,
              26.876933
            ],
            [
              75.818925,
              26.875933
            ],
            [
              75.81911,
              26.873933
            ],
            [
              75.820353,
              26.872933
            ],
            [
              75.819664,
              26.872238
            ],
            [
              75.818664,
              26.873442
            ],
            [
              75.816053,
              26.872544
            ],
            [
              75.814664,
              26.873427
            ],
            [
              75.813664,
              26.872341
            ],
            [
              75.811335,
              26.873603
            ],
            [
              75.812384,
              26.875933
            ],
            [
              75.811514,
              26.876933
            ],
            [
              75.811639,
              26.878933
            ],
            [
              75.812664,
              26.880836
            ],
            [
              75.81366,
              26.880933
            ],
            [
              75.812664,
              26.88103
            ],
            [
              75.812294,
              26.882304
            ],
            [
              75.813664,
              26.883606
            ],
            [
              75.817281,
              26.883549
            ],
            [
              75.817697,
              26.882901
            ],
            [
              75.818422,
              26.883933
            ],
            [
              75.816897,
              26.885166
            ],
            [
              75.816664,
              26.886661
            ],
            [
              75.814457,
              26.886933
            ],
            [
              75.815821,
              26.887776
            ],
            [
              75.814664,
              26.890399
            ],
            [
              75.813664,
              26.890939
            ],
            [
              75.810664,
              26.889383
            ],
            [
              75.809278,
              26.892933
            ],
            [
              75.810717,
              26.893933
            ],
            [
              75.809781,
              26.89405
            ],
            [
              75.809664,
              26.896439
            ],
            [
              75.805798,
              26.895933
            ],
            [
              75.807176,
              26.893933
            ],
            [
              75.805664,
              26.893269
            ],
            [
              75.804896,
              26.893933
            ],
            [
              75.805178,
              26.895447
            ],
            [
              75.803664,
              26.896079
            ],
            [
              75.802845,
              26.894933
            ],
            [
              75.804348,
              26.894616
            ],
            [
              75.804161,
              26.893437
            ],
            [
              75.801703,
              26.892972
            ],
            [
              75.801664,
              26.893523
            ],
            [
              75.80115,
              26.892447
            ],
            [
              75.800195,
              26.892464
            ],
            [
              75.798696,
              26.894965
            ],
            [
              75.796071,
              26.894933
            ],
            [
              75.797615,
              26.894982
            ],
            [
              75.798223,
              26.897933
            ],
            [
              75.795664,
              26.899475
            ],
            [
              75.794664,
              26.898402
            ],
            [
              75.793447,
              26.899715
            ],
            [
              75.793345,
              26.900933
            ],
            [
              75.794361,
              26.901933
            ],
            [
              75.791202,
              26.904933
            ],
            [
              75.79085,
              26.909118
            ],
            [
              75.789989,
              26.908933
            ],
            [
              75.79003,
              26.907567
            ],
            [
              75.787787,
              26.906933
            ],
            [
              75.787932,
              26.908201
            ],
            [
              75.786208,
              26.908476
            ],
            [
              75.785214,
              26.909483
            ],
            [
              75.785121,
              26.911933
            ],
            [
              75.780664,
              26.912766
            ],
            [
              75.778664,
              26.914463
            ],
            [
              75.777664,
              26.913418
            ],
            [
              75.774664,
              26.915041
            ]
          ]
        ],
        "type": "Polygon"
      },
      "type": "Feature"
    }
  ]
}