{
  "type": "FeatureCollection",
  "metadata": {
    "provider_name": "SBM Big Bites",
    "center_lat": 26.872475,
    "center_lon": 75.7759847,
    "mode": "motorcycle",
    "total_zones": 4,
    "distance_zones": [
      3,
      4,
      5,
      6
    ],
    "generated_at": "2025-12-28T11:02:36.843371Z"
  },
  "features": [
    {
      "properties": {
        "fill-opacity": 0.33,
        "fillColor": "#bf4040",
        "opacity": 0.33,
        "fill": "#bf4040",
        "fillOpacity": 0.33,
        "color": "#bf4040",
        "contour": 3.0,
        "metric": "distance",
        "provider_name": "SBM Big Bites",
        "zone_type": "distance",
        "distance_km": 3,
        "mode": "motorcycle",
        "center_lat": 26.872475,
        "center_lon": 75.7759847,
        "label": "3km"
      },
      "geometry": {
        "coordinates": [
          [
            [
              75.769984,
              26.894035
            ],
            [
              75.763741,
              26.890718
            ],
            [
              75.763038,
              26.88942
            ],
            [
              75.760984,
              26.889875
            ],
            [
              75.759296,
              26.889163
            ],
            [
              75.758083,
              26.887475
            ],
            [
              75.759236,
              26.885475
            ],
            [
              75.758408,
              26.885051
            ],
            [
              75.758141,
              26.883318
            ],
            [
              75.754984,
              26.88412
            ],
            [
              75.753372,
              26.882087
            ],
            [
              75.754027,
              26.880475
            ],
            [
              75.751729,
              26.879475
            ],
            [
              75.75646,
              26.878951
            ],
            [
              75.756578,
              26.877881
            ],
            [
              75.753854,
              26.877475
            ],
            [
              75.754984,
              26.876238
            ],
            [
              75.756984,
              26.875835
            ],
            [
              75.757386,
              26.874475
            ],
            [
              75.755507,
              26.873475
            ],
            [
              75.754271,
              26.871187
            ],
            [
              75.7541,
              26.869359
            ],
            [
              75.752443,
              26.866475
            ],
            [
              75.75258,
              26.863475
            ],
            [
              75.753636,
              26.863126
            ],
            [
              75.755817,
              26.860308
            ],
            [
              75.756885,
              26.854375
            ],
            [
              75.758984,
              26.854408
            ],
            [
              75.759984,
              26.855256
            ],
            [
              75.761984,
              26.851424
            ],
            [
              75.765169,
              26.85166
            ],
            [
              75.768984,
              26.850243
            ],
            [
              75.772984,
              26.847507
            ],
            [
              75.775984,
              26.847434
            ],
            [
              75.775746,
              26.849475
            ],
            [
              75.774337,
              26.850475
            ],
            [
              75.776527,
              26.852932
            ],
            [
              75.778204,
              26.853255
            ],
            [
              75.779322,
              26.854475
            ],
            [
              75.778585,
              26.857475
            ],
            [
              75.777519,
              26.858475
            ],
            [
              75.777728,
              26.861731
            ],
            [
              75.782393,
              26.860884
            ],
            [
              75.782694,
              26.857765
            ],
            [
              75.781728,
              26.857475
            ],
            [
              75.78319,
              26.85668
            ],
            [
              75.785984,
              26.853002
            ],
            [
              75.786179,
              26.854475
            ],
            [
              75.787324,
              26.855475
            ],
            [
              75.787984,
              26.860251
            ],
            [
              75.790984,
              26.857582
            ],
            [
              75.792884,
              26.858475
            ],
            [
              75.792311,
              26.859475
            ],
            [
              75.792984,
              26.860667
            ],
            [
              75.794984,
              26.860339
            ],
            [
              75.795984,
              26.859053
            ],
            [
              75.796984,
              26.859544
            ],
            [
              75.798161,
              26.861298
            ],
            [
              75.799272,
              26.861475
            ],
            [
              75.79918,
              26.863475
            ],
            [
              75.796606,
              26.864097
            ],
            [
              75.796363,
              26.865854
            ],
            [
              75.79351,
              26.868
            ],
            [
              75.792984,
              26.869718
            ],
            [
              75.791684,
              26.869175
            ],
            [
              75.789984,
              26.870865
            ],
            [
              75.788984,
              26.870037
            ],
            [
              75.788587,
              26.874475
            ],
            [
              75.789529,
              26.87593
            ],
            [
              75.792373,
              26.875475
            ],
            [
              75.795895,
              26.877475
            ],
            [
              75.794113,
              26.881603
            ],
            [
              75.790984,
              26.884291
            ],
            [
              75.789984,
              26.88362
            ],
            [
              75.788984,
              26.887073
            ],
            [
              75.787984,
              26.88683
            ],
            [
              75.787148,
              26.890638
            ],
            [
              75.785984,
              26.889794
            ],
            [
              75.784025,
              26.891515
            ],
            [
              75.78253,
              26.891475
            ],
            [
              75.780877,
              26.889475
            ],
            [
              75.780403,
              26.887056
            ],
            [
              75.779523,
              26.887014
            ],
            [
              75.777984,
              26.888946
            ],
            [
              75.775969,
              26.887459
            ],
            [
              75.77521,
              26.889701
            ],
            [
              75.773984,
              26.890332
            ],
            [
              75.772984,
              26.889599
            ],
            [
              75.769941,
              26.891431
            ],
            [
              75.769984,
              26.894035
            ]
          ]
        ],
        "type": "Polygon"
      },
      "type": "Feature"
    },
    {
      "properties": {
        "fill-opacity": 0.33,
        "fillColor": "#bf4040",
        "opacity": 0.33,
        "fill": "#bf4040",
        "fillOpacity": 0.33,
        "color": "#bf4040",
        "contour": 4.0,
        "metric": "distance",
        "provider_name": "SBM Big Bites",
        "zone_type": "distance",
        "distance_km": 4,
        "mode": "motorcycle",
        "center_lat": 26.872475,
        "center_lon": 75.7759847,
        "label": "4km"
      },
      "geometry": {
        "coordinates": [
          [
            [
              75.773984,
              26.901534
            ],
            [
              75.771984,
              26.902124
            ],
            [
              75.767995,
              26.899464
            ],
            [
              75.766984,
              26.899929
            ],
            [
              75.766792,
              26.898667
            ],
            [
              75.763984,
              26.897707
            ],
            [
              75.760838,
              26.892475
            ],
            [
              75.759071,
              26.891388
            ],
            [
              75.754878,
              26.891581
            ],
            [
              75.751746,
              26.890475
            ],
            [
              75.744984,
              26.882227
            ],
            [
              75.745253,
              26.880206
            ],
            [
              75.74206,
              26.880398
            ],
            [
              75.742312,
              26.878475
            ],
            [
              75.744146,
              26.877475
            ],
            [
              75.743806,
              26.876475
            ],
            [
              75.744984,
              26.874841
            ],
            [
              75.752446,
              26.871475
            ],
            [
              75.752253,
              26.870206
            ],
            [
              75.750359,
              26.8691
            ],
            [
              75.746953,
              26.868506
            ],
            [
              75.746827,
              26.867632
            ],
            [
              75.74588,
              26.867475
            ],
            [
              75.746244,
              26.866215
            ],
            [
              75.744984,
              26.865958
            ],
            [
              75.742544,
              26.863475
            ],
            [
              75.746984,
              26.859287
            ],
            [
              75.749312,
              26.859475
            ],
            [
              75.748984,
              26.857327
            ],
            [
              75.750984,
              26.856475
            ],
            [
              75.749984,
              26.856475
            ],
            [
              75.749984,
              26.850871
            ],
            [
              75.751984,
              26.846803
            ],
            [
              75.755043,
              26.847415
            ],
            [
              75.755991,
              26.848482
            ],
            [
              75.759406,
              26.845475
            ],
            [
              75.762436,
              26.845023
            ],
            [
              75.762984,
              26.846707
            ],
            [
              75.763098,
              26.84536
            ],
            [
              75.762535,
              26.844923
            ],
            [
              75.762984,
              26.843657
            ],
            [
              75.764984,
              26.844328
            ],
            [
              75.765984,
              26.843182
            ],
            [
              75.767206,
              26.843696
            ],
            [
              75.769984,
              26.840784
            ],
            [
              75.772984,
              26.842447
            ],
            [
              75.776984,
              26.838986
            ],
            [
              75.778243,
              26.839475
            ],
            [
              75.778579,
              26.84888
            ],
            [
              75.779708,
              26.848475
            ],
            [
              75.779984,
              26.845673
            ],
            [
              75.780984,
              26.848245
            ],
            [
              75.781936,
              26.847426
            ],
            [
              75.786379,
              26.847475
            ],
            [
              75.786984,
              26.852695
            ],
            [
              75.787009,
              26.851475
            ],
            [
              75.788984,
              26.850054
            ],
            [
              75.789278,
              26.851181
            ],
            [
              75.790739,
              26.851229
            ],
            [
              75.790984,
              26.849956
            ],
            [
              75.791839,
              26.850475
            ],
            [
              75.792113,
              26.852345
            ],
            [
              75.792984,
              26.852634
            ],
            [
              75.793829,
              26.852319
            ],
            [
              75.793984,
              26.850095
            ],
            [
              75.797077,
              26.851475
            ],
            [
              75.797824,
              26.852634
            ],
            [
              75.800063,
              26.853475
            ],
            [
              75.800566,
              26.855893
            ],
            [
              75.802288,
              26.856171
            ],
            [
              75.800696,
              26.857187
            ],
            [
              75.800412,
              26.858903
            ],
            [
              75.798609,
              26.8591
            ],
            [
              75.798436,
              26.860475
            ],
            [
              75.801984,
              26.861018
            ],
            [
              75.80338,
              26.862475
            ],
            [
              75.802718,
              26.863475
            ],
            [
              75.802984,
              26.865367
            ],
            [
              75.804984,
              26.865266
            ],
            [
              75.805744,
              26.866714
            ],
            [
              75.807323,
              26.867475
            ],
            [
              75.806193,
              26.867684
            ],
            [
              75.805984,
              26.869316
            ],
            [
              75.805789,
              26.86867
            ],
            [
              75.800984,
              26.868497
            ],
            [
              75.799375,
              26.870475
            ],
            [
              75.797984,
              26.875001
            ],
            [
              75.794793,
              26.873283
            ],
            [
              75.794671,
              26.874475
            ],
            [
              75.795819,
              26.87464
            ],
            [
              75.795854,
              26.875605
            ],
            [
              75.796735,
              26.875724
            ],
            [
              75.797754,
              26.877475
            ],
            [
              75.797554,
              26.879475
            ],
            [
              75.795458,
              26.882475
            ],
            [
              75.794662,
              26.888475
            ],
            [
              75.795226,
              26.891475
            ],
            [
              75.792889,
              26.89257
            ],
            [
              75.791984,
              26.891117
            ],
            [
              75.791795,
              26.893475
            ],
            [
              75.788984,
              26.896054
            ],
            [
              75.78435,
              26.892475
            ],
            [
              75.78177,
              26.89226
            ],
            [
              75.780687,
              26.894177
            ],
            [
              75.775682,
              26.896475
            ],
            [
              75.775482,
              26.899475
            ],
            [
              75.773984,
              26.901534
            ]
          ]
        ],
        "type": "Polygon"
      },
      "type": "Feature"
    },
    {
      "properties": {
        "fill-opacity": 0.33,
        "fillColor": "#bf4040",
        "opacity": 0.33,
        "fill": "#bf4040",
        "fillOpacity": 0.33,
        "color": "#bf4040",
        "contour": 5.0,
        "metric": "distance",
        "provider_name": "SBM Big Bites",
        "zone_type": "distance",
        "distance_km": 5,
        "mode": "motorcycle",
        "center_lat": 26.872475,
        "center_lon": 75.7759847,
        "label": "5km"
      },
      "geometry": {
        "coordinates": [
          [
            [
              75.771984,
              26.909584
            ],
            [
              75.770984,
              26.90872
            ],
            [
              75.768459,
              26.908475
            ],
            [
              75.767973,
              26.907475
            ],
            [
              75.768734,
              26.907224
            ],
            [
              75.768539,
              26.905919
            ],
            [
              75.762984,
              26.902856
            ],
            [
              75.761484,
              26.898975
            ],
            [
              75.758378,
              26.898869
            ],
            [
              75.756788,
              26.900475
            ],
            [
              75.755756,
              26.898247
            ],
            [
              75.758266,
              26.897193
            ],
            [
              75.757258,
              26.893201
            ],
            [
              75.751638,
              26.891128
            ],
            [
              75.751361,
              26.893475
            ],
            [
              75.752247,
              26.894475
            ],
            [
              75.7514,
              26.895475
            ],
            [
              75.752354,
              26.896475
            ],
            [
              75.750984,
              26.898477
            ],
            [
              75.749423,
              26.897036
            ],
            [
              75.749789,
              26.89467
            ],
            [
              75.747977,
              26.894482
            ],
            [
              75.744836,
              26.892475
            ],
            [
              75.743764,
              26.890475
            ],
            [
              75.745251,
              26.887475
            ],
            [
              75.743984,
              26.886305
            ],
            [
              75.737117,
              26.888342
            ],
            [
              75.736277,
              26.886182
            ],
            [
              75.734974,
              26.885485
            ],
            [
              75.734829,
              26.88363
            ],
            [
              75.733819,
              26.882475
            ],
            [
              75.733916,
              26.880475
            ],
            [
              75.732085,
              26.878475
            ],
            [
              75.734984,
              26.877046
            ],
            [
              75.736984,
              26.874993
            ],
            [
              75.738327,
              26.874817
            ],
            [
              75.738609,
              26.873475
            ],
            [
              75.739941,
              26.872431
            ],
            [
              75.740331,
              26.873128
            ],
            [
              75.741984,
              26.873023
            ],
            [
              75.744984,
              26.870876
            ],
            [
              75.745984,
              26.871671
            ],
            [
              75.746984,
              26.870713
            ],
            [
              75.747984,
              26.87127
            ],
            [
              75.749078,
              26.870568
            ],
            [
              75.744614,
              26.867845
            ],
            [
              75.742984,
              26.865934
            ],
            [
              75.738248,
              26.866738
            ],
            [
              75.737936,
              26.867523
            ],
            [
              75.736948,
              26.866475
            ],
            [
              75.737673,
              26.866163
            ],
            [
              75.737483,
              26.864975
            ],
            [
              75.735824,
              26.864634
            ],
            [
              75.733228,
              26.862475
            ],
            [
              75.733984,
              26.861705
            ],
            [
              75.735244,
              26.861735
            ],
            [
              75.734984,
              26.860447
            ],
            [
              75.739736,
              26.856475
            ],
            [
              75.740984,
              26.851906
            ],
            [
              75.742984,
              26.851236
            ],
            [
              75.744984,
              26.851597
            ],
            [
              75.745458,
              26.853001
            ],
            [
              75.746459,
              26.852949
            ],
            [
              75.745923,
              26.850475
            ],
            [
              75.743549,
              26.848475
            ],
            [
              75.745768,
              26.841475
            ],
            [
              75.746834,
              26.840325
            ],
            [
              75.747984,
              26.839533
            ],
            [
              75.749984,
              26.841361
            ],
            [
              75.750984,
              26.840092
            ],
            [
              75.751984,
              26.842138
            ],
            [
              75.754984,
              26.84186
            ],
            [
              75.757436,
              26.838926
            ],
            [
              75.758319,
              26.835809
            ],
            [
              75.762984,
              26.836873
            ],
            [
              75.766889,
              26.836379
            ],
            [
              75.767984,
              26.837138
            ],
            [
              75.769984,
              26.834873
            ],
            [
              75.771322,
              26.837475
            ],
            [
              75.7721,
              26.83759
            ],
            [
              75.773695,
              26.835185
            ],
            [
              75.775499,
              26.833989
            ],
            [
              75.776984,
              26.830297
            ],
            [
              75.779984,
              26.831694
            ],
            [
              75.781418,
              26.83704
            ],
            [
              75.783821,
              26.837475
            ],
            [
              75.782169,
              26.83766
            ],
            [
              75.782255,
              26.838745
            ],
            [
              75.781263,
              26.839754
            ],
            [
              75.778656,
              26.840146
            ],
            [
              75.778583,
              26.843475
            ],
            [
              75.777605,
              26.844475
            ],
            [
              75.778601,
              26.845475
            ],
            [
              75.778732,
              26.848727
            ],
            [
              75.779404,
              26.848475
            ],
            [
              75.77972,
              26.845211
            ],
            [
              75.780984,
              26.84791
            ],
            [
              75.781693,
              26.847183
            ],
            [
              75.784984,
              26.847096
            ],
            [
              75.785938,
              26.846475
            ],
            [
              75.785951,
              26.845441
            ],
            [
              75.788656,
              26.845146
            ],
            [
              75.788984,
              26.844273
            ],
            [
              75.793581,
              26.844072
            ],
            [
              75.793984,
              26.841315
            ],
            [
              75.795608,
              26.843851
            ],
            [
              75.797984,
              26.844095
            ],
            [
              75.799984,
              26.845586
            ],
            [
              75.800867,
              26.848592
            ],
            [
              75.802915,
              26.847406
            ],
            [
              75.803565,
              26.847894
            ],
            [
              75.803743,
              26.851475
            ],
            [
              75.805506,
              26.853953
            ],
            [
              75.806632,
              26.854122
            ],
            [
              75.806984,
              26.852844
            ],
            [
              75.80906,
              26.853475
            ],
            [
              75.808249,
              26.85674
            ],
            [
              75.806425,
              26.858475
            ],
            [
              75.808554,
              26.866905
            ],
            [
              75.810984,
              26.867167
            ],
            [
              75.811984,
              26.866183
            ],
            [
              75.815835,
              26.866325
            ],
            [
              75.815984,
              26.865493
            ],
            [
              75.816077,
              26.866381
            ],
            [
              75.814285,
              26.866775
            ],
            [
              75.813211,
              26.868475
            ],
            [
              75.81333,
              26.869129
            ],
            [
              75.814824,
              26.869475
            ],
            [
              75.813226,
              26.869716
            ],
            [
              75.812984,
              26.870519
            ],
            [
              75.810984,
              26.870505
            ],
            [
              75.809984,
              26.869572
            ],
            [
              75.809617,
              26.870107
            ],
            [
              75.809409,
              26.87205
            ],
            [
              75.810691,
              26.875475
            ],
            [
              75.809984,
              26.876138
            ],
            [
              75.806919,
              26.87454
            ],
            [
              75.807556,
              26.874047
            ],
            [
              75.807406,
              26.872052
            ],
            [
              75.804019,
              26.871475
            ],
            [
              75.805462,
              26.869952
            ],
            [
              75.804984,
              26.869015
            ],
            [
              75.803572,
              26.869475
            ],
            [
              75.803964,
              26.871475
            ],
            [
              75.801984,
              26.873457
            ],
            [
              75.799036,
              26.874475
            ],
            [
              75.79925,
              26.881209
            ],
            [
              75.800118,
              26.881475
            ],
            [
              75.800047,
              26.883411
            ],
            [
              75.800984,
              26.88361
            ],
            [
              75.800074,
              26.883564
            ],
            [
              75.796921,
              26.882475
            ],
            [
              75.796034,
              26.883524
            ],
            [
              75.796487,
              26.886475
            ],
            [
              75.795669,
              26.887475
            ],
            [
              75.798258,
              26.890201
            ],
            [
              75.798525,
              26.891934
            ],
            [
              75.800011,
              26.892475
            ],
            [
              75.79799,
              26.89748
            ],
            [
              75.7961,
              26.89759
            ],
            [
              75.795984,
              26.898733
            ],
            [
              75.794984,
              26.898895
            ],
            [
              75.794558,
              26.895901
            ],
            [
              75.793499,
              26.895989
            ],
            [
              75.792984,
              26.901928
            ],
            [
              75.790984,
              26.901884
            ],
            [
              75.789984,
              26.903712
            ],
            [
              75.789559,
              26.9029
            ],
            [
              75.78777,
              26.902689
            ],
            [
              75.786719,
              26.90174
            ],
            [
              75.785984,
              26.899809
            ],
            [
              75.779984,
              26.899335
            ],
            [
              75.77996,
              26.90045
            ],
            [
              75.778893,
              26.900566
            ],
            [
              75.780003,
              26.900493
            ],
            [
              75.780984,
              26.89952
            ],
            [
              75.781616,
              26.900843
            ],
            [
              75.783145,
              26.901475
            ],
            [
              75.781695,
              26.902475
            ],
            [
              75.782096,
              26.904587
            ],
            [
              75.778845,
              26.905475
            ],
            [
              75.779135,
              26.908625
            ],
            [
              75.775984,
              26.909253
            ],
            [
              75.774774,
              26.908264
            ],
            [
              75.771984,
              26.909584
            ]
          ]
        ],
        "type": "Polygon"
      },
      "type": "Feature"
    },
    {
      "properties": {
        "fill-opacity": 0.33,
        "fillColor": "#bf4040",
        "opacity": 0.33,
        "fill": "#bf4040",
        "fillOpacity": 0.33,
        "color": "#bf4040",
        "contour": 6.0,
        "metric": "distance",
        "provider_name": "SBM Big Bites",
        "zone_type": "distance",
        "distance_km": 6,
        "mode": "motorcycle",
        "center_lat": 26.872475,
        "center_lon": 75.7759847,
        "label": "6km"
      },
      "geometry": {
        "coordinates": [
          [
            [
              75.778984,
              26.916516
            ],
            [
              75.776984,
              26.915998
            ],
            [
              75.774923,
              26.916413
            ],
            [
              75.773984,
              26.917399
            ],
            [
              75.773819,
              26.91664
            ],
            [
              75.771606,
              26.915475
            ],
            [
              75.771802,
              26.912475
            ],
            [
              75.770984,
              26.911725
            ],
            [
              75.76893,
              26.911421
            ],
            [
              75.766984,
              26.913772
            ],
            [
              75.767481,
              26.907475
            ],
            [
              75.768427,
              26.906475
            ],
            [
              75.765984,
              26.904757
            ],
            [
              75.761692,
              26.904767
            ],
            [
              75.76127,
              26.899189
            ],
            [
              75.758688,
              26.899178
            ],
            [
              75.755353,
              26.902843
            ],
            [
              75.753889,
              26.903379
            ],
            [
              75.753516,
              26.905475
            ],
            [
              75.754128,
              26.906475
            ],
            [
              75.752984,
              26.907941
            ],
            [
              75.750984,
              26.906481
            ],
            [
              75.746396,
              26.900475
            ],
            [
              75.746348,
              26.898839
            ],
            [
              75.748429,
              26.897919
            ],
            [
              75.749183,
              26.895276
            ],
            [
              75.743984,
              26.892945
            ],
            [
              75.738984,
              26.894446
            ],
            [
              75.738249,
              26.893475
            ],
            [
              75.73866,
              26.892475
            ],
            [
              75.736984,
              26.890909
            ],
            [
              75.734591,
              26.894475
            ],
            [
              75.734877,
              26.895475
            ],
            [
              75.732984,
              26.89643
            ],
            [
              75.730101,
              26.891475
            ],
            [
              75.73173,
              26.887475
            ],
            [
              75.728387,
              26.884475
            ],
            [
              75.73163,
              26.883475
            ],
            [
              75.731111,
              26.883348
            ],
            [
              75.731521,
              26.879475
            ],
            [
              75.729717,
              26.878741
            ],
            [
              75.728984,
              26.876206
            ],
            [
              75.727033,
              26.876523
            ],
            [
              75.725764,
              26.877695
            ],
            [
              75.723775,
              26.875684
            ],
            [
              75.723828,
              26.874475
            ],
            [
              75.725984,
              26.873208
            ],
            [
              75.728984,
              26.872927
            ],
            [
              75.730509,
              26.870999
            ],
            [
              75.733627,
              26.869475
            ],
            [
              75.733984,
              26.867819
            ],
            [
              75.737419,
              26.865475
            ],
            [
              75.735984,
              26.865386
            ],
            [
              75.734984,
              26.864021
            ],
            [
              75.733984,
              26.865032
            ],
            [
              75.732984,
              26.86404
            ],
            [
              75.730984,
              26.863877
            ],
            [
              75.729984,
              26.86484
            ],
            [
              75.728984,
              26.86375
            ],
            [
              75.726108,
              26.863475
            ],
            [
              75.72731,
              26.861148
            ],
            [
              75.725061,
              26.857475
            ],
            [
              75.728984,
              26.855196
            ],
            [
              75.732927,
              26.855417
            ],
            [
              75.733984,
              26.856384
            ],
            [
              75.735617,
              26.856107
            ],
            [
              75.736052,
              26.854475
            ],
            [
              75.739943,
              26.849475
            ],
            [
              75.738973,
              26.847486
            ],
            [
              75.739673,
              26.842475
            ],
            [
              75.738121,
              26.841612
            ],
            [
              75.73796,
              26.842475
            ],
            [
              75.737612,
              26.841475
            ],
            [
              75.738984,
              26.839201
            ],
            [
              75.740171,
              26.839475
            ],
            [
              75.740527,
              26.836475
            ],
            [
              75.741984,
              26.835277
            ],
            [
              75.742984,
              26.836845
            ],
            [
              75.743984,
              26.836161
            ],
            [
              75.745549,
              26.837909
            ],
            [
              75.746984,
              26.837148
            ],
            [
              75.747984,
              26.837974
            ],
            [
              75.750461,
              26.834475
            ],
            [
              75.749777,
              26.832475
            ],
            [
              75.75341,
              26.8319
            ],
            [
              75.753703,
              26.828755
            ],
            [
              75.752984,
              26.828123
            ],
            [
              75.755422,
              26.828475
            ],
            [
              75.755054,
              26.829475
            ],
            [
              75.755984,
              26.830237
            ],
            [
              75.759984,
              26.829347
            ],
            [
              75.762984,
              26.830568
            ],
            [
              75.764984,
              26.829371
            ],
            [
              75.765057,
              26.830402
            ],
            [
              75.766955,
              26.830446
            ],
            [
              75.767727,
              26.829475
            ],
            [
              75.770182,
              26.829277
            ],
            [
              75.770984,
              26.830762
            ],
            [
              75.771979,
              26.830475
            ],
            [
              75.771238,
              26.829475
            ],
            [
              75.772914,
              26.827404
            ],
            [
              75.774984,
              26.828182
            ],
            [
              75.775984,
              26.827505
            ],
            [
              75.777766,
              26.829693
            ],
            [
              75.779177,
              26.829282
            ],
            [
              75.781457,
              26.833475
            ],
            [
              75.78169,
              26.836769
            ],
            [
              75.783984,
              26.837026
            ],
            [
              75.784984,
              26.837922
            ],
            [
              75.789984,
              26.837881
            ],
            [
              75.790984,
              26.838784
            ],
            [
              75.793142,
              26.838475
            ],
            [
              75.793984,
              26.832189
            ],
            [
              75.794778,
              26.833475
            ],
            [
              75.794159,
              26.83365
            ],
            [
              75.794556,
              26.835903
            ],
            [
              75.798093,
              26.835475
            ],
            [
              75.796843,
              26.836475
            ],
            [
              75.798984,
              26.838163
            ],
            [
              75.799608,
              26.840851
            ],
            [
              75.802984,
              26.841374
            ],
            [
              75.802894,
              26.842565
            ],
            [
              75.806984,
              26.843418
            ],
            [
              75.807984,
              26.84423
            ],
            [
              75.809752,
              26.844242
            ],
            [
              75.809984,
              26.843711
            ],
            [
              75.81534,
              26.846475
            ],
            [
              75.814131,
              26.849621
            ],
            [
              75.812696,
              26.850186
            ],
            [
              75.812439,
              26.85193
            ],
            [
              75.810958,
              26.853501
            ],
            [
              75.812496,
              26.855475
            ],
            [
              75.811812,
              26.856647
            ],
            [
              75.813984,
              26.855403
            ],
            [
              75.816038,
              26.856475
            ],
            [
              75.81628,
              26.857475
            ],
            [
              75.813984,
              26.857695
            ],
            [
              75.811557,
              26.859047
            ],
            [
              75.811486,
              26.860973
            ],
            [
              75.814187,
              26.861475
            ],
            [
              75.812584,
              26.862075
            ],
            [
              75.811984,
              26.864375
            ],
            [
              75.811099,
              26.863475
            ],
            [
              75.811828,
              26.863319
            ],
            [
              75.811575,
              26.861884
            ],
            [
              75.809116,
              26.862343
            ],
            [
              75.808855,
              26.861604
            ],
            [
              75.807984,
              26.861584
            ],
            [
              75.807572,
              26.863475
            ],
            [
              75.808655,
              26.863804
            ],
            [
              75.808833,
              26.866626
            ],
            [
              75.810984,
              26.866667
            ],
            [
              75.811984,
              26.865573
            ],
            [
              75.814984,
              26.865693
            ],
            [
              75.815984,
              26.86478
            ],
            [
              75.819984,
              26.865057
            ],
            [
              75.820984,
              26.866097
            ],
            [
              75.822602,
              26.864093
            ],
            [
              75.822984,
              26.862251
            ],
            [
              75.825106,
              26.865597
            ],
            [
              75.824774,
              26.867264
            ],
            [
              75.822577,
              26.867067
            ],
            [
              75.821984,
              26.870598
            ],
            [
              75.820686,
              26.868475
            ],
            [
              75.821722,
              26.867475
            ],
            [
              75.820984,
              26.866852
            ],
            [
              75.818984,
              26.868925
            ],
            [
              75.817711,
              26.868747
            ],
            [
              75.818637,
              26.867475
            ],
            [
              75.816984,
              26.865968
            ],
            [
              75.813696,
              26.868187
            ],
            [
              75.813984,
              26.868953
            ],
            [
              75.815364,
              26.869095
            ],
            [
              75.81542,
              26.869911
            ],
            [
              75.813842,
              26.870333
            ],
            [
              75.812984,
              26.872422
            ],
            [
              75.812875,
              26.871584
            ],
            [
              75.811314,
              26.871804
            ],
            [
              75.810801,
              26.873291
            ],
            [
              75.811421,
              26.875475
            ],
            [
              75.810469,
              26.876475
            ],
            [
              75.811421,
              26.877475
            ],
            [
              75.81145,
              26.880475
            ],
            [
              75.812245,
              26.881475
            ],
            [
              75.811984,
              26.88484
            ],
            [
              75.810752,
              26.882706
            ],
            [
              75.809142,
              26.882632
            ],
            [
              75.808984,
              26.883293
            ],
            [
              75.807568,
              26.881891
            ],
            [
              75.802984,
              26.880046
            ],
            [
              75.799984,
              26.877977
            ],
            [
              75.799876,
              26.880475
            ],
            [
              75.801603,
              26.883856
            ],
            [
              75.8026,
              26.88409
            ],
            [
              75.802984,
              26.882526
            ],
            [
              75.803984,
              26.882864
            ],
            [
              75.807002,
              26.884457
            ],
            [
              75.80813,
              26.885475
            ],
            [
              75.807929,
              26.88642
            ],
            [
              75.804533,
              26.889023
            ],
            [
              75.805154,
              26.891475
            ],
            [
              75.798984,
              26.890047
            ],
            [
              75.798902,
              26.891556
            ],
            [
              75.800771,
              26.891688
            ],
            [
              75.79951,
              26.893475
            ],
            [
              75.799456,
              26.895946
            ],
            [
              75.798664,
              26.896155
            ],
            [
              75.798243,
              26.897734
            ],
            [
              75.796574,
              26.898065
            ],
            [
              75.795984,
              26.900183
            ],
            [
              75.794527,
              26.899931
            ],
            [
              75.794352,
              26.896475
            ],
            [
              75.793773,
              26.896263
            ],
            [
              75.793853,
              26.902475
            ],
            [
              75.791852,
              26.903343
            ],
            [
              75.790486,
              26.904976
            ],
            [
              75.790353,
              26.907475
            ],
            [
              75.791131,
              26.908622
            ],
            [
              75.787984,
              26.908892
            ],
            [
              75.785984,
              26.909941
            ],
            [
              75.785714,
              26.910745
            ],
            [
              75.788093,
              26.912475
            ],
            [
              75.786984,
              26.9133
            ],
            [
              75.786379,
              26.91208
            ],
            [
              75.78431,
              26.9128
            ],
            [
              75.783984,
              26.914402
            ],
            [
              75.781333,
              26.914823
            ],
            [
              75.778984,
              26.916516
            ]
          ]
        ],
        "type": "Polygon"
      },
      "type": "Feature"
    }
  ]
}