{
  "type": "FeatureCollection",
  "metadata": {
    "provider_name": "Cafistro -The Veg Cafe",
    "center_lat": 26.80230045,
    "center_lon": 75.85689157,
    "mode": "motorcycle",
    "total_zones": 4,
    "distance_zones": [
      3,
      4,
      5,
      6
    ],
    "generated_at": "2025-12-28T12:30:29.888578Z"
  },
  "features": [
    {
      "properties": {
        "fill-opacity": 0.33,
        "fillColor": "#bf4040",
        "opacity": 0.33,
        "fill": "#bf4040",
        "fillOpacity": 0.33,
        "color": "#bf4040",
        "contour": 3.0,
        "metric": "distance",
        "provider_name": "Cafistro -The Veg Cafe",
        "zone_type": "distance",
        "distance_km": 3,
        "mode": "motorcycle",
        "center_lat": 26.80230045,
        "center_lon": 75.85689157,
        "label": "3km"
      },
      "geometry": {
        "coordinates": [
          [
            [
              75.845891,
              26.827327
            ],
            [
              75.842811,
              26.82338
            ],
            [
              75.84355,
              26.8223
            ],
            [
              75.842891,
              26.820709
            ],
            [
              75.843891,
              26.821165
            ],
            [
              75.844783,
              26.8203
            ],
            [
              75.843891,
              26.819527
            ],
            [
              75.842891,
              26.820111
            ],
            [
              75.841607,
              26.816584
            ],
            [
              75.84048,
              26.8163
            ],
            [
              75.83932,
              26.8143
            ],
            [
              75.839891,
              26.813445
            ],
            [
              75.840047,
              26.814145
            ],
            [
              75.842891,
              26.813633
            ],
            [
              75.843891,
              26.815004
            ],
            [
              75.844535,
              26.813656
            ],
            [
              75.842965,
              26.811227
            ],
            [
              75.839858,
              26.810333
            ],
            [
              75.838773,
              26.808418
            ],
            [
              75.836891,
              26.807829
            ],
            [
              75.83527,
              26.808679
            ],
            [
              75.834908,
              26.810317
            ],
            [
              75.834099,
              26.810092
            ],
            [
              75.833718,
              26.8083
            ],
            [
              75.834653,
              26.8073
            ],
            [
              75.832547,
              26.8063
            ],
            [
              75.830592,
              26.799599
            ],
            [
              75.831155,
              26.7983
            ],
            [
              75.829806,
              26.798385
            ],
            [
              75.829153,
              26.7963
            ],
            [
              75.831552,
              26.795961
            ],
            [
              75.831891,
              26.795184
            ],
            [
              75.832247,
              26.795944
            ],
            [
              75.834396,
              26.795805
            ],
            [
              75.834891,
              26.793314
            ],
            [
              75.835891,
              26.796011
            ],
            [
              75.836891,
              26.795128
            ],
            [
              75.843891,
              26.795797
            ],
            [
              75.844435,
              26.7943
            ],
            [
              75.842629,
              26.793562
            ],
            [
              75.842372,
              26.790819
            ],
            [
              75.840776,
              26.790415
            ],
            [
              75.840819,
              26.789227
            ],
            [
              75.841235,
              26.789956
            ],
            [
              75.843709,
              26.7903
            ],
            [
              75.843769,
              26.791422
            ],
            [
              75.844827,
              26.791364
            ],
            [
              75.844793,
              26.792398
            ],
            [
              75.846012,
              26.7923
            ],
            [
              75.844602,
              26.7903
            ],
            [
              75.846921,
              26.78633
            ],
            [
              75.851891,
              26.785493
            ],
            [
              75.852115,
              26.7873
            ],
            [
              75.850408,
              26.788817
            ],
            [
              75.850309,
              26.791718
            ],
            [
              75.849521,
              26.79193
            ],
            [
              75.849388,
              26.793797
            ],
            [
              75.848565,
              26.793974
            ],
            [
              75.848891,
              26.794754
            ],
            [
              75.850229,
              26.793638
            ],
            [
              75.851654,
              26.790063
            ],
            [
              75.852891,
              26.791722
            ],
            [
              75.855891,
              26.789752
            ],
            [
              75.858173,
              26.789581
            ],
            [
              75.858535,
              26.787943
            ],
            [
              75.860198,
              26.787607
            ],
            [
              75.860552,
              26.785961
            ],
            [
              75.862429,
              26.7843
            ],
            [
              75.862332,
              26.7833
            ],
            [
              75.858464,
              26.779873
            ],
            [
              75.859891,
              26.779406
            ],
            [
              75.860266,
              26.780925
            ],
            [
              75.861891,
              26.781042
            ],
            [
              75.862891,
              26.781961
            ],
            [
              75.864718,
              26.7793
            ],
            [
              75.864891,
              26.777453
            ],
            [
              75.865115,
              26.7803
            ],
            [
              75.86419,
              26.7813
            ],
            [
              75.866083,
              26.782108
            ],
            [
              75.866097,
              26.784094
            ],
            [
              75.867685,
              26.785506
            ],
            [
              75.867811,
              26.78838
            ],
            [
              75.870891,
              26.786194
            ],
            [
              75.871976,
              26.7863
            ],
            [
              75.87097,
              26.786379
            ],
            [
              75.87128,
              26.787911
            ],
            [
              75.87629,
              26.7883
            ],
            [
              75.875597,
              26.7893
            ],
            [
              75.871891,
              26.789615
            ],
            [
              75.870271,
              26.7913
            ],
            [
              75.870891,
              26.791991
            ],
            [
              75.871659,
              26.791068
            ],
            [
              75.873989,
              26.791203
            ],
            [
              75.873891,
              26.793273
            ],
            [
              75.873592,
              26.791599
            ],
            [
              75.872891,
              26.791485
            ],
            [
              75.871663,
              26.7933
            ],
            [
              75.871891,
              26.793668
            ],
            [
              75.872775,
              26.793184
            ],
            [
              75.87382,
              26.7933
            ],
            [
              75.872997,
              26.793406
            ],
            [
              75.873396,
              26.795796
            ],
            [
              75.875628,
              26.796037
            ],
            [
              75.875891,
              26.795238
            ],
            [
              75.877244,
              26.7953
            ],
            [
              75.876021,
              26.79543
            ],
            [
              75.875891,
              26.796428
            ],
            [
              75.873416,
              26.796824
            ],
            [
              75.873478,
              26.797713
            ],
            [
              75.875138,
              26.798054
            ],
            [
              75.875517,
              26.799674
            ],
            [
              75.876891,
              26.799913
            ],
            [
              75.877743,
              26.798152
            ],
            [
              75.879649,
              26.798058
            ],
            [
              75.879891,
              26.797137
            ],
            [
              75.880891,
              26.797453
            ],
            [
              75.882482,
              26.799709
            ],
            [
              75.883927,
              26.800264
            ],
            [
              75.883891,
              26.800871
            ],
            [
              75.883799,
              26.800392
            ],
            [
              75.882249,
              26.800658
            ],
            [
              75.882142,
              26.802049
            ],
            [
              75.885169,
              26.805022
            ],
            [
              75.886572,
              26.8053
            ],
            [
              75.882396,
              26.805805
            ],
            [
              75.882048,
              26.808143
            ],
            [
              75.882936,
              26.8083
            ],
            [
              75.881891,
              26.809003
            ],
            [
              75.880891,
              26.808317
            ],
            [
              75.880146,
              26.809554
            ],
            [
              75.877359,
              26.8103
            ],
            [
              75.878043,
              26.8113
            ],
            [
              75.877659,
              26.812068
            ],
            [
              75.875891,
              26.811488
            ],
            [
              75.874448,
              26.811857
            ],
            [
              75.874891,
              26.813027
            ],
            [
              75.876601,
              26.81301
            ],
            [
              75.876891,
              26.812316
            ],
            [
              75.878617,
              26.8133
            ],
            [
              75.876797,
              26.8153
            ],
            [
              75.874388,
              26.814797
            ],
            [
              75.873891,
              26.817809
            ],
            [
              75.873669,
              26.8153
            ],
            [
              75.872891,
              26.814625
            ],
            [
              75.868427,
              26.814836
            ],
            [
              75.867787,
              26.817196
            ],
            [
              75.866977,
              26.817386
            ],
            [
              75.864891,
              26.816901
            ],
            [
              75.865478,
              26.8153
            ],
            [
              75.863891,
              26.814607
            ],
            [
              75.862891,
              26.816083
            ],
            [
              75.858347,
              26.816756
            ],
            [
              75.858891,
              26.819655
            ],
            [
              75.855764,
              26.8233
            ],
            [
              75.852276,
              26.823685
            ],
            [
              75.850891,
              26.825498
            ],
            [
              75.845891,
              26.827327
            ]
          ]
        ],
        "type": "Polygon"
      },
      "type": "Feature"
    },
    {
      "properties": {
        "fill-opacity": 0.33,
        "fillColor": "#bf4040",
        "opacity": 0.33,
        "fill": "#bf4040",
        "fillOpacity": 0.33,
        "color": "#bf4040",
        "contour": 4.0,
        "metric": "distance",
        "provider_name": "Cafistro -The Veg Cafe",
        "zone_type": "distance",
        "distance_km": 4,
        "mode": "motorcycle",
        "center_lat": 26.80230045,
        "center_lon": 75.85689157,
        "label": "4km"
      },
      "geometry": {
        "coordinates": [
          [
            [
              75.850891,
              26.834782
            ],
            [
              75.847377,
              26.832815
            ],
            [
              75.847649,
              26.8313
            ],
            [
              75.846891,
              26.830661
            ],
            [
              75.846048,
              26.8313
            ],
            [
              75.846237,
              26.8333
            ],
            [
              75.845056,
              26.8343
            ],
            [
              75.838454,
              26.8333
            ],
            [
              75.837768,
              26.8303
            ],
            [
              75.839751,
              26.8283
            ],
            [
              75.840825,
              26.828234
            ],
            [
              75.840747,
              26.824444
            ],
            [
              75.834364,
              26.8243
            ],
            [
              75.834423,
              26.8233
            ],
            [
              75.837891,
              26.819628
            ],
            [
              75.838891,
              26.819333
            ],
            [
              75.839891,
              26.820932
            ],
            [
              75.842237,
              26.820646
            ],
            [
              75.841204,
              26.816987
            ],
            [
              75.839891,
              26.818134
            ],
            [
              75.837506,
              26.817685
            ],
            [
              75.835891,
              26.814533
            ],
            [
              75.834296,
              26.815705
            ],
            [
              75.834042,
              26.817451
            ],
            [
              75.831891,
              26.818765
            ],
            [
              75.829502,
              26.8163
            ],
            [
              75.832354,
              26.813763
            ],
            [
              75.832211,
              26.81198
            ],
            [
              75.830891,
              26.812844
            ],
            [
              75.829891,
              26.811746
            ],
            [
              75.828891,
              26.812655
            ],
            [
              75.828429,
              26.810762
            ],
            [
              75.826608,
              26.8103
            ],
            [
              75.826317,
              26.806874
            ],
            [
              75.823708,
              26.8043
            ],
            [
              75.822675,
              26.7983
            ],
            [
              75.819407,
              26.7963
            ],
            [
              75.819851,
              26.79526
            ],
            [
              75.822891,
              26.795024
            ],
            [
              75.823891,
              26.794029
            ],
            [
              75.82623,
              26.793961
            ],
            [
              75.827262,
              26.794671
            ],
            [
              75.826421,
              26.79177
            ],
            [
              75.82564,
              26.7913
            ],
            [
              75.825772,
              26.788181
            ],
            [
              75.829163,
              26.789028
            ],
            [
              75.82804,
              26.789448
            ],
            [
              75.829008,
              26.791417
            ],
            [
              75.827223,
              26.7923
            ],
            [
              75.829554,
              26.795637
            ],
            [
              75.830891,
              26.795759
            ],
            [
              75.831891,
              26.794769
            ],
            [
              75.834177,
              26.795586
            ],
            [
              75.834216,
              26.793975
            ],
            [
              75.832493,
              26.7923
            ],
            [
              75.833333,
              26.790858
            ],
            [
              75.831719,
              26.7893
            ],
            [
              75.831965,
              26.788226
            ],
            [
              75.830714,
              26.787478
            ],
            [
              75.831891,
              26.78457
            ],
            [
              75.835116,
              26.787075
            ],
            [
              75.83667,
              26.7873
            ],
            [
              75.833891,
              26.78752
            ],
            [
              75.833213,
              26.7883
            ],
            [
              75.835891,
              26.789875
            ],
            [
              75.836891,
              26.788932
            ],
            [
              75.839251,
              26.78866
            ],
            [
              75.839891,
              26.786969
            ],
            [
              75.843891,
              26.789405
            ],
            [
              75.844305,
              26.7853
            ],
            [
              75.843651,
              26.784059
            ],
            [
              75.846891,
              26.783913
            ],
            [
              75.847891,
              26.782926
            ],
            [
              75.848891,
              26.783646
            ],
            [
              75.852955,
              26.783364
            ],
            [
              75.851846,
              26.7823
            ],
            [
              75.852689,
              26.782097
            ],
            [
              75.852749,
              26.781158
            ],
            [
              75.855158,
              26.778567
            ],
            [
              75.852494,
              26.775697
            ],
            [
              75.851059,
              26.775468
            ],
            [
              75.850891,
              26.776077
            ],
            [
              75.850058,
              26.7753
            ],
            [
              75.851671,
              26.77508
            ],
            [
              75.851891,
              26.773923
            ],
            [
              75.85209,
              26.775101
            ],
            [
              75.85444,
              26.776751
            ],
            [
              75.855891,
              26.776932
            ],
            [
              75.858819,
              26.772227
            ],
            [
              75.859891,
              26.772305
            ],
            [
              75.859999,
              26.773192
            ],
            [
              75.861891,
              26.773141
            ],
            [
              75.863891,
              26.771409
            ],
            [
              75.866037,
              26.772446
            ],
            [
              75.866891,
              26.768648
            ],
            [
              75.867147,
              26.770044
            ],
            [
              75.868481,
              26.7703
            ],
            [
              75.867195,
              26.770603
            ],
            [
              75.867392,
              26.771799
            ],
            [
              75.870329,
              26.7723
            ],
            [
              75.869891,
              26.773237
            ],
            [
              75.86955,
              26.772641
            ],
            [
              75.867891,
              26.772684
            ],
            [
              75.867582,
              26.773609
            ],
            [
              75.869891,
              26.773338
            ],
            [
              75.870591,
              26.7746
            ],
            [
              75.871891,
              26.774914
            ],
            [
              75.87206,
              26.776131
            ],
            [
              75.874176,
              26.7773
            ],
            [
              75.872891,
              26.778541
            ],
            [
              75.872647,
              26.777544
            ],
            [
              75.87132,
              26.777728
            ],
            [
              75.870891,
              26.78005
            ],
            [
              75.870553,
              26.778638
            ],
            [
              75.868753,
              26.779438
            ],
            [
              75.866891,
              26.776729
            ],
            [
              75.864624,
              26.781567
            ],
            [
              75.866281,
              26.781911
            ],
            [
              75.866573,
              26.783618
            ],
            [
              75.867891,
              26.783849
            ],
            [
              75.868737,
              26.782146
            ],
            [
              75.870891,
              26.781544
            ],
            [
              75.875182,
              26.786009
            ],
            [
              75.875891,
              26.787789
            ],
            [
              75.878891,
              26.787881
            ],
            [
              75.881369,
              26.786778
            ],
            [
              75.881891,
              26.784291
            ],
            [
              75.882389,
              26.786802
            ],
            [
              75.886191,
              26.7873
            ],
            [
              75.885083,
              26.787492
            ],
            [
              75.884658,
              26.7893
            ],
            [
              75.881219,
              26.790627
            ],
            [
              75.880397,
              26.793794
            ],
            [
              75.883891,
              26.794063
            ],
            [
              75.884329,
              26.794862
            ],
            [
              75.885891,
              26.795087
            ],
            [
              75.886626,
              26.795034
            ],
            [
              75.886891,
              26.79359
            ],
            [
              75.887451,
              26.79374
            ],
            [
              75.888225,
              26.797966
            ],
            [
              75.891564,
              26.7983
            ],
            [
              75.888891,
              26.798507
            ],
            [
              75.887891,
              26.799541
            ],
            [
              75.886448,
              26.798857
            ],
            [
              75.887453,
              26.802738
            ],
            [
              75.891891,
              26.801188
            ],
            [
              75.893084,
              26.802492
            ],
            [
              75.892413,
              26.804778
            ],
            [
              75.894601,
              26.80501
            ],
            [
              75.894891,
              26.804043
            ],
            [
              75.896693,
              26.8053
            ],
            [
              75.894891,
              26.807537
            ],
            [
              75.894612,
              26.806579
            ],
            [
              75.8924,
              26.806809
            ],
            [
              75.891891,
              26.809619
            ],
            [
              75.890891,
              26.809107
            ],
            [
              75.888312,
              26.810721
            ],
            [
              75.888708,
              26.8133
            ],
            [
              75.887009,
              26.813418
            ],
            [
              75.886891,
              26.815455
            ],
            [
              75.884891,
              26.813581
            ],
            [
              75.878891,
              26.813792
            ],
            [
              75.878891,
              26.815732
            ],
            [
              75.875891,
              26.815834
            ],
            [
              75.874605,
              26.815014
            ],
            [
              75.874536,
              26.816656
            ],
            [
              75.877786,
              26.8193
            ],
            [
              75.877088,
              26.821497
            ],
            [
              75.875451,
              26.82186
            ],
            [
              75.875412,
              26.82278
            ],
            [
              75.87823,
              26.8233
            ],
            [
              75.876244,
              26.823653
            ],
            [
              75.87526,
              26.824669
            ],
            [
              75.874891,
              26.826813
            ],
            [
              75.871891,
              26.824487
            ],
            [
              75.868972,
              26.8233
            ],
            [
              75.869175,
              26.821016
            ],
            [
              75.865891,
              26.820494
            ],
            [
              75.861891,
              26.827654
            ],
            [
              75.860891,
              26.82802
            ],
            [
              75.860459,
              26.825732
            ],
            [
              75.859429,
              26.825838
            ],
            [
              75.86043,
              26.829839
            ],
            [
              75.858891,
              26.830618
            ],
            [
              75.855891,
              26.828761
            ],
            [
              75.853891,
              26.829278
            ],
            [
              75.854407,
              26.8303
            ],
            [
              75.853646,
              26.832055
            ],
            [
              75.850891,
              26.834782
            ]
          ]
        ],
        "type": "Polygon"
      },
      "type": "Feature"
    },
    {
      "properties": {
        "fill-opacity": 0.33,
        "fillColor": "#bf4040",
        "opacity": 0.33,
        "fill": "#bf4040",
        "fillOpacity": 0.33,
        "color": "#bf4040",
        "contour": 5.0,
        "metric": "distance",
        "provider_name": "Cafistro -The Veg Cafe",
        "zone_type": "distance",
        "distance_km": 5,
        "mode": "motorcycle",
        "center_lat": 26.80230045,
        "center_lon": 75.85689157,
        "label": "5km"
      },
      "geometry": {
        "coordinates": [
          [
            [
              75.832891,
              26.840341
            ],
            [
              75.829634,
              26.8363
            ],
            [
              75.831427,
              26.8333
            ],
            [
              75.828891,
              26.830128
            ],
            [
              75.830695,
              26.8283
            ],
            [
              75.833891,
              26.828014
            ],
            [
              75.834005,
              26.829187
            ],
            [
              75.834891,
              26.829234
            ],
            [
              75.840605,
              26.828014
            ],
            [
              75.840528,
              26.824663
            ],
            [
              75.828891,
              26.824602
            ],
            [
              75.828756,
              26.823435
            ],
            [
              75.824353,
              26.8233
            ],
            [
              75.829891,
              26.822941
            ],
            [
              75.830532,
              26.8223
            ],
            [
              75.829519,
              26.8213
            ],
            [
              75.83046,
              26.8203
            ],
            [
              75.827682,
              26.819509
            ],
            [
              75.826344,
              26.816847
            ],
            [
              75.823445,
              26.8163
            ],
            [
              75.822996,
              26.815195
            ],
            [
              75.820891,
              26.814889
            ],
            [
              75.819356,
              26.8133
            ],
            [
              75.817771,
              26.8113
            ],
            [
              75.819513,
              26.8093
            ],
            [
              75.81825,
              26.8083
            ],
            [
              75.81872,
              26.8073
            ],
            [
              75.817031,
              26.8063
            ],
            [
              75.816477,
              26.8023
            ],
            [
              75.813512,
              26.801679
            ],
            [
              75.811491,
              26.7987
            ],
            [
              75.810966,
              26.7963
            ],
            [
              75.811885,
              26.795294
            ],
            [
              75.813891,
              26.795114
            ],
            [
              75.816221,
              26.79297
            ],
            [
              75.817006,
              26.7933
            ],
            [
              75.815407,
              26.794816
            ],
            [
              75.815891,
              26.795911
            ],
            [
              75.818891,
              26.795813
            ],
            [
              75.819891,
              26.794785
            ],
            [
              75.826289,
              26.793697
            ],
            [
              75.825891,
              26.791805
            ],
            [
              75.822891,
              26.791728
            ],
            [
              75.821891,
              26.790569
            ],
            [
              75.820709,
              26.790482
            ],
            [
              75.819477,
              26.787714
            ],
            [
              75.816891,
              26.7853
            ],
            [
              75.81948,
              26.784889
            ],
            [
              75.820891,
              26.781967
            ],
            [
              75.823891,
              26.782134
            ],
            [
              75.824854,
              26.781263
            ],
            [
              75.825891,
              26.781178
            ],
            [
              75.826005,
              26.7813
            ],
            [
              75.825028,
              26.781437
            ],
            [
              75.825087,
              26.7833
            ],
            [
              75.826891,
              26.78444
            ],
            [
              75.828891,
              26.780596
            ],
            [
              75.833891,
              26.780757
            ],
            [
              75.834891,
              26.781767
            ],
            [
              75.835891,
              26.780335
            ],
            [
              75.836891,
              26.782002
            ],
            [
              75.837405,
              26.780786
            ],
            [
              75.835912,
              26.7803
            ],
            [
              75.837891,
              26.779235
            ],
            [
              75.838891,
              26.779229
            ],
            [
              75.838844,
              26.779347
            ],
            [
              75.837995,
              26.779404
            ],
            [
              75.838496,
              26.781695
            ],
            [
              75.842206,
              26.781985
            ],
            [
              75.842891,
              26.78369
            ],
            [
              75.845097,
              26.7833
            ],
            [
              75.843412,
              26.779779
            ],
            [
              75.840757,
              26.777434
            ],
            [
              75.841891,
              26.774673
            ],
            [
              75.842141,
              26.77605
            ],
            [
              75.843408,
              26.775817
            ],
            [
              75.843519,
              26.774672
            ],
            [
              75.841916,
              26.774275
            ],
            [
              75.841624,
              26.7733
            ],
            [
              75.842765,
              26.7723
            ],
            [
              75.843996,
              26.7723
            ],
            [
              75.844891,
              26.77014
            ],
            [
              75.848301,
              26.77189
            ],
            [
              75.849891,
              26.774804
            ],
            [
              75.851058,
              26.7743
            ],
            [
              75.85097,
              26.771379
            ],
            [
              75.851894,
              26.7713
            ],
            [
              75.851296,
              26.769895
            ],
            [
              75.850122,
              26.7693
            ],
            [
              75.852891,
              26.768203
            ],
            [
              75.853143,
              26.769048
            ],
            [
              75.858891,
              26.769023
            ],
            [
              75.859533,
              26.771659
            ],
            [
              75.860891,
              26.772767
            ],
            [
              75.862203,
              26.772612
            ],
            [
              75.864497,
              26.7683
            ],
            [
              75.862802,
              26.7653
            ],
            [
              75.862891,
              26.763724
            ],
            [
              75.863083,
              26.765108
            ],
            [
              75.864007,
              26.765184
            ],
            [
              75.864417,
              26.766774
            ],
            [
              75.865891,
              26.767935
            ],
            [
              75.86721,
              26.767619
            ],
            [
              75.867352,
              26.7633
            ],
            [
              75.868891,
              26.759748
            ],
            [
              75.869554,
              26.7603
            ],
            [
              75.869164,
              26.7633
            ],
            [
              75.868232,
              26.7643
            ],
            [
              75.868367,
              26.7683
            ],
            [
              75.867408,
              26.7693
            ],
            [
              75.87032,
              26.769728
            ],
            [
              75.870891,
              26.765248
            ],
            [
              75.871241,
              26.7703
            ],
            [
              75.870322,
              26.7713
            ],
            [
              75.87217,
              26.772022
            ],
            [
              75.872891,
              26.773894
            ],
            [
              75.873891,
              26.772962
            ],
            [
              75.875217,
              26.7733
            ],
            [
              75.872728,
              26.775464
            ],
            [
              75.878891,
              26.776097
            ],
            [
              75.879637,
              26.774554
            ],
            [
              75.878053,
              26.7743
            ],
            [
              75.879891,
              26.774182
            ],
            [
              75.880231,
              26.77496
            ],
            [
              75.884147,
              26.7763
            ],
            [
              75.881311,
              26.77672
            ],
            [
              75.881188,
              26.778003
            ],
            [
              75.88261,
              26.7783
            ],
            [
              75.882097,
              26.7793
            ],
            [
              75.88331,
              26.7803
            ],
            [
              75.882104,
              26.7813
            ],
            [
              75.879807,
              26.781384
            ],
            [
              75.878891,
              26.779611
            ],
            [
              75.875891,
              26.779626
            ],
            [
              75.874891,
              26.780679
            ],
            [
              75.873891,
              26.779692
            ],
            [
              75.871891,
              26.779761
            ],
            [
              75.871619,
              26.782572
            ],
            [
              75.875317,
              26.785874
            ],
            [
              75.875891,
              26.787629
            ],
            [
              75.878891,
              26.787668
            ],
            [
              75.88117,
              26.786578
            ],
            [
              75.881891,
              26.783798
            ],
            [
              75.882891,
              26.786732
            ],
            [
              75.887891,
              26.786843
            ],
            [
              75.889891,
              26.78595
            ],
            [
              75.896034,
              26.786157
            ],
            [
              75.896124,
              26.7863
            ],
            [
              75.895091,
              26.7865
            ],
            [
              75.894308,
              26.788717
            ],
            [
              75.892891,
              26.789889
            ],
            [
              75.891891,
              26.790423
            ],
            [
              75.890891,
              26.789943
            ],
            [
              75.889588,
              26.790997
            ],
            [
              75.88936,
              26.7963
            ],
            [
              75.888622,
              26.7973
            ],
            [
              75.890891,
              26.797783
            ],
            [
              75.892891,
              26.796717
            ],
            [
              75.893466,
              26.797725
            ],
            [
              75.894318,
              26.797727
            ],
            [
              75.894885,
              26.795294
            ],
            [
              75.895346,
              26.797845
            ],
            [
              75.89885,
              26.7983
            ],
            [
              75.897891,
              26.79923
            ],
            [
              75.897704,
              26.798487
            ],
            [
              75.895891,
              26.798533
            ],
            [
              75.895261,
              26.8003
            ],
            [
              75.896891,
              26.800949
            ],
            [
              75.900891,
              26.799977
            ],
            [
              75.901065,
              26.801126
            ],
            [
              75.90215,
              26.8013
            ],
            [
              75.902865,
              26.8033
            ],
            [
              75.902159,
              26.8043
            ],
            [
              75.902891,
              26.805024
            ],
            [
              75.903731,
              26.8043
            ],
            [
              75.903742,
              26.803449
            ],
            [
              75.902962,
              26.8033
            ],
            [
              75.903891,
              26.802627
            ],
            [
              75.904593,
              26.8033
            ],
            [
              75.903096,
              26.8063
            ],
            [
              75.902891,
              26.808772
            ],
            [
              75.901891,
              26.80726
            ],
            [
              75.900094,
              26.810503
            ],
            [
              75.897814,
              26.8113
            ],
            [
              75.897397,
              26.8143
            ],
            [
              75.896188,
              26.8153
            ],
            [
              75.894891,
              26.815031
            ],
            [
              75.893891,
              26.81778
            ],
            [
              75.89132,
              26.814871
            ],
            [
              75.889891,
              26.815654
            ],
            [
              75.889253,
              26.813938
            ],
            [
              75.887487,
              26.813896
            ],
            [
              75.887277,
              26.8153
            ],
            [
              75.888262,
              26.8173
            ],
            [
              75.886499,
              26.817907
            ],
            [
              75.886187,
              26.8193
            ],
            [
              75.887568,
              26.8203
            ],
            [
              75.885331,
              26.82074
            ],
            [
              75.885945,
              26.823354
            ],
            [
              75.884408,
              26.823816
            ],
            [
              75.883975,
              26.8253
            ],
            [
              75.883181,
              26.82559
            ],
            [
              75.883068,
              26.827123
            ],
            [
              75.883722,
              26.8273
            ],
            [
              75.882126,
              26.827535
            ],
            [
              75.881891,
              26.828523
            ],
            [
              75.881499,
              26.826692
            ],
            [
              75.879891,
              26.826603
            ],
            [
              75.878891,
              26.825713
            ],
            [
              75.87653,
              26.825939
            ],
            [
              75.876314,
              26.8273
            ],
            [
              75.877285,
              26.8283
            ],
            [
              75.876262,
              26.8293
            ],
            [
              75.876213,
              26.8313
            ],
            [
              75.87763,
              26.832039
            ],
            [
              75.877891,
              26.83077
            ],
            [
              75.878793,
              26.8323
            ],
            [
              75.876126,
              26.8353
            ],
            [
              75.874717,
              26.8353
            ],
            [
              75.870891,
              26.83099
            ],
            [
              75.870646,
              26.8303
            ],
            [
              75.871654,
              26.830063
            ],
            [
              75.871819,
              26.8293
            ],
            [
              75.871368,
              26.827823
            ],
            [
              75.869891,
              26.828576
            ],
            [
              75.868891,
              26.827612
            ],
            [
              75.867061,
              26.8293
            ],
            [
              75.867065,
              26.830126
            ],
            [
              75.868058,
              26.8303
            ],
            [
              75.865381,
              26.83179
            ],
            [
              75.86451,
              26.8333
            ],
            [
              75.865311,
              26.8353
            ],
            [
              75.856684,
              26.835507
            ],
            [
              75.856015,
              26.8353
            ],
            [
              75.856844,
              26.8343
            ],
            [
              75.855891,
              26.833689
            ],
            [
              75.855477,
              26.835886
            ],
            [
              75.851469,
              26.835878
            ],
            [
              75.850891,
              26.838307
            ],
            [
              75.847891,
              26.834797
            ],
            [
              75.840804,
              26.835213
            ],
            [
              75.838798,
              26.8363
            ],
            [
              75.835301,
              26.83671
            ],
            [
              75.832891,
              26.840341
            ]
          ]
        ],
        "type": "Polygon"
      },
      "type": "Feature"
    },
    {
      "properties": {
        "fill-opacity": 0.33,
        "fillColor": "#bf4040",
        "opacity": 0.33,
        "fill": "#bf4040",
        "fillOpacity": 0.33,
        "color": "#bf4040",
        "contour": 6.0,
        "metric": "distance",
        "provider_name": "Cafistro -The Veg Cafe",
        "zone_type": "distance",
        "distance_km": 6,
        "mode": "motorcycle",
        "center_lat": 26.80230045,
        "center_lon": 75.85689157,
        "label": "6km"
      },
      "geometry": {
        "coordinates": [
          [
            [
              75.827891,
              26.847425
            ],
            [
              75.826891,
              26.847611
            ],
            [
              75.825147,
              26.842044
            ],
            [
              75.822808,
              26.8413
            ],
            [
              75.82283,
              26.840239
            ],
            [
              75.82433,
              26.8393
            ],
            [
              75.822642,
              26.837549
            ],
            [
              75.821417,
              26.8373
            ],
            [
              75.820171,
              26.8353
            ],
            [
              75.821487,
              26.8343
            ],
            [
              75.821008,
              26.8323
            ],
            [
              75.821648,
              26.831057
            ],
            [
              75.824891,
              26.831313
            ],
            [
              75.826159,
              26.830568
            ],
            [
              75.826891,
              26.828743
            ],
            [
              75.829891,
              26.827806
            ],
            [
              75.833891,
              26.827716
            ],
            [
              75.834891,
              26.829123
            ],
            [
              75.838891,
              26.828626
            ],
            [
              75.840389,
              26.827798
            ],
            [
              75.840598,
              26.8253
            ],
            [
              75.839891,
              26.824586
            ],
            [
              75.828891,
              26.824889
            ],
            [
              75.827891,
              26.823511
            ],
            [
              75.815891,
              26.823412
            ],
            [
              75.815813,
              26.822378
            ],
            [
              75.814262,
              26.8223
            ],
            [
              75.816722,
              26.821131
            ],
            [
              75.816891,
              26.820393
            ],
            [
              75.818344,
              26.821847
            ],
            [
              75.819891,
              26.821953
            ],
            [
              75.820777,
              26.8213
            ],
            [
              75.820692,
              26.8203
            ],
            [
              75.821732,
              26.820141
            ],
            [
              75.822393,
              26.821798
            ],
            [
              75.82451,
              26.822681
            ],
            [
              75.829891,
              26.822691
            ],
            [
              75.830282,
              26.8223
            ],
            [
              75.829277,
              26.8213
            ],
            [
              75.830254,
              26.8203
            ],
            [
              75.827496,
              26.819695
            ],
            [
              75.827157,
              26.818034
            ],
            [
              75.825891,
              26.816876
            ],
            [
              75.822891,
              26.816794
            ],
            [
              75.820891,
              26.817816
            ],
            [
              75.818891,
              26.816932
            ],
            [
              75.818328,
              26.818737
            ],
            [
              75.817102,
              26.819089
            ],
            [
              75.813891,
              26.818549
            ],
            [
              75.813493,
              26.817698
            ],
            [
              75.811856,
              26.817335
            ],
            [
              75.811859,
              26.816268
            ],
            [
              75.813258,
              26.815667
            ],
            [
              75.814203,
              26.813989
            ],
            [
              75.81197,
              26.8133
            ],
            [
              75.811501,
              26.8113
            ],
            [
              75.809292,
              26.809899
            ],
            [
              75.809931,
              26.80826
            ],
            [
              75.808065,
              26.806126
            ],
            [
              75.805835,
              26.806356
            ],
            [
              75.80567,
              26.8043
            ],
            [
              75.804461,
              26.8023
            ],
            [
              75.805124,
              26.801067
            ],
            [
              75.803415,
              26.798776
            ],
            [
              75.804132,
              26.7953
            ],
            [
              75.804797,
              26.795206
            ],
            [
              75.805447,
              26.7933
            ],
            [
              75.807891,
              26.791952
            ],
            [
              75.808891,
              26.792995
            ],
            [
              75.810891,
              26.793106
            ],
            [
              75.811484,
              26.794707
            ],
            [
              75.81432,
              26.7943
            ],
            [
              75.814458,
              26.792733
            ],
            [
              75.812558,
              26.7923
            ],
            [
              75.8126,
              26.7903
            ],
            [
              75.813533,
              26.788942
            ],
            [
              75.814891,
              26.788664
            ],
            [
              75.814943,
              26.787248
            ],
            [
              75.813891,
              26.78819
            ],
            [
              75.812891,
              26.786967
            ],
            [
              75.811891,
              26.787868
            ],
            [
              75.810891,
              26.787735
            ],
            [
              75.808876,
              26.7843
            ],
            [
              75.813438,
              26.782847
            ],
            [
              75.812794,
              26.7803
            ],
            [
              75.814891,
              26.777854
            ],
            [
              75.816891,
              26.778938
            ],
            [
              75.817096,
              26.780095
            ],
            [
              75.819431,
              26.77984
            ],
            [
              75.820544,
              26.778953
            ],
            [
              75.823064,
              26.779127
            ],
            [
              75.823366,
              26.7813
            ],
            [
              75.824202,
              26.781611
            ],
            [
              75.826507,
              26.7783
            ],
            [
              75.829812,
              26.775221
            ],
            [
              75.830752,
              26.775161
            ],
            [
              75.830891,
              26.773541
            ],
            [
              75.831074,
              26.775117
            ],
            [
              75.832193,
              26.7753
            ],
            [
              75.832564,
              26.7763
            ],
            [
              75.829402,
              26.776811
            ],
            [
              75.82943,
              26.777761
            ],
            [
              75.83111,
              26.7783
            ],
            [
              75.828891,
              26.778632
            ],
            [
              75.828533,
              26.779658
            ],
            [
              75.836324,
              26.779733
            ],
            [
              75.838527,
              26.7773
            ],
            [
              75.837535,
              26.7763
            ],
            [
              75.837729,
              26.772138
            ],
            [
              75.839033,
              26.771158
            ],
            [
              75.840891,
              26.772179
            ],
            [
              75.843956,
              26.770365
            ],
            [
              75.844343,
              26.7683
            ],
            [
              75.841598,
              26.767593
            ],
            [
              75.840906,
              26.766315
            ],
            [
              75.842891,
              26.765408
            ],
            [
              75.843534,
              26.766657
            ],
            [
              75.845891,
              26.76663
            ],
            [
              75.846641,
              26.76755
            ],
            [
              75.848891,
              26.767857
            ],
            [
              75.849643,
              26.766052
            ],
            [
              75.851891,
              26.766893
            ],
            [
              75.853629,
              26.7653
            ],
            [
              75.853689,
              26.764502
            ],
            [
              75.852888,
              26.764297
            ],
            [
              75.855757,
              26.764166
            ],
            [
              75.856269,
              26.7633
            ],
            [
              75.856053,
              26.7653
            ],
            [
              75.855115,
              26.7663
            ],
            [
              75.856064,
              26.7683
            ],
            [
              75.859278,
              26.768913
            ],
            [
              75.859657,
              26.771534
            ],
            [
              75.860891,
              26.772619
            ],
            [
              75.862104,
              26.772512
            ],
            [
              75.864268,
              26.7683
            ],
            [
              75.862231,
              26.76396
            ],
            [
              75.859649,
              26.763543
            ],
            [
              75.859285,
              26.7623
            ],
            [
              75.863216,
              26.762975
            ],
            [
              75.864614,
              26.766577
            ],
            [
              75.865891,
              26.767688
            ],
            [
              75.866747,
              26.7673
            ],
            [
              75.867288,
              26.7643
            ],
            [
              75.865541,
              26.7633
            ],
            [
              75.866891,
              26.762905
            ],
            [
              75.867235,
              26.761956
            ],
            [
              75.865891,
              26.7606
            ],
            [
              75.862725,
              26.7603
            ],
            [
              75.864891,
              26.760043
            ],
            [
              75.866074,
              26.7583
            ],
            [
              75.866321,
              26.7573
            ],
            [
              75.864853,
              26.755338
            ],
            [
              75.865241,
              26.75365
            ],
            [
              75.868891,
              26.753491
            ],
            [
              75.869764,
              26.7513
            ],
            [
              75.870891,
              26.751077
            ],
            [
              75.871332,
              26.7523
            ],
            [
              75.870157,
              26.752566
            ],
            [
              75.870363,
              26.753828
            ],
            [
              75.87201,
              26.754181
            ],
            [
              75.872092,
              26.755099
            ],
            [
              75.872941,
              26.75525
            ],
            [
              75.872117,
              26.755525
            ],
            [
              75.872244,
              26.756947
            ],
            [
              75.874536,
              26.7573
            ],
            [
              75.873206,
              26.757615
            ],
            [
              75.873067,
              26.761475
            ],
            [
              75.871175,
              26.7623
            ],
            [
              75.871497,
              26.7703
            ],
            [
              75.870662,
              26.771529
            ],
            [
              75.872312,
              26.771879
            ],
            [
              75.872891,
              26.773673
            ],
            [
              75.873891,
              26.772698
            ],
            [
              75.875289,
              26.772902
            ],
            [
              75.875891,
              26.774817
            ],
            [
              75.878891,
              26.773777
            ],
            [
              75.880891,
              26.774769
            ],
            [
              75.883259,
              26.773668
            ],
            [
              75.883678,
              26.771087
            ],
            [
              75.887732,
              26.770141
            ],
            [
              75.887891,
              26.769408
            ],
            [
              75.888058,
              26.7713
            ],
            [
              75.886922,
              26.7723
            ],
            [
              75.88715,
              26.773041
            ],
            [
              75.891552,
              26.7733
            ],
            [
              75.892206,
              26.774985
            ],
            [
              75.894229,
              26.7753
            ],
            [
              75.892213,
              26.775622
            ],
            [
              75.892111,
              26.77708
            ],
            [
              75.892923,
              26.777332
            ],
            [
              75.890334,
              26.777743
            ],
            [
              75.889075,
              26.779484
            ],
            [
              75.887254,
              26.779663
            ],
            [
              75.886891,
              26.780417
            ],
            [
              75.884891,
              26.780286
            ],
            [
              75.883891,
              26.781776
            ],
            [
              75.879891,
              26.781834
            ],
            [
              75.878891,
              26.779892
            ],
            [
              75.875891,
              26.779898
            ],
            [
              75.874891,
              26.780917
            ],
            [
              75.873891,
              26.779922
            ],
            [
              75.871667,
              26.780076
            ],
            [
              75.871698,
              26.782493
            ],
            [
              75.875381,
              26.78581
            ],
            [
              75.875726,
              26.787466
            ],
            [
              75.878891,
              26.787569
            ],
            [
              75.881088,
              26.786496
            ],
            [
              75.881891,
              26.783632
            ],
            [
              75.882891,
              26.786601
            ],
            [
              75.887891,
              26.786652
            ],
            [
              75.889338,
              26.785747
            ],
            [
              75.89425,
              26.785659
            ],
            [
              75.894897,
              26.7833
            ],
            [
              75.895676,
              26.783085
            ],
            [
              75.897891,
              26.782965
            ],
            [
              75.899891,
              26.783937
            ],
            [
              75.900891,
              26.783027
            ],
            [
              75.905275,
              26.7833
            ],
            [
              75.901891,
              26.783558
            ],
            [
              75.899487,
              26.784896
            ],
            [
              75.899492,
              26.786699
            ],
            [
              75.902075,
              26.788484
            ],
            [
              75.899891,
              26.788664
            ],
            [
              75.897891,
              26.787749
            ],
            [
              75.896212,
              26.7913
            ],
            [
              75.897009,
              26.792418
            ],
            [
              75.895891,
              26.793525
            ],
            [
              75.895345,
              26.791846
            ],
            [
              75.894486,
              26.791895
            ],
            [
              75.894355,
              26.7943
            ],
            [
              75.895495,
              26.7953
            ],
            [
              75.895613,
              26.7973
            ],
            [
              75.899891,
              26.797889
            ],
            [
              75.901472,
              26.7973
            ],
            [
              75.901891,
              26.796026
            ],
            [
              75.905891,
              26.796544
            ],
            [
              75.905883,
              26.7953
            ],
            [
              75.907749,
              26.795158
            ],
            [
              75.907891,
              26.794343
            ],
            [
              75.907941,
              26.79535
            ],
            [
              75.907104,
              26.795513
            ],
            [
              75.907125,
              26.7973
            ],
            [
              75.905307,
              26.8003
            ],
            [
              75.905519,
              26.801673
            ],
            [
              75.906891,
              26.801922
            ],
            [
              75.907891,
              26.801043
            ],
            [
              75.908891,
              26.802938
            ],
            [
              75.909891,
              26.801121
            ],
            [
              75.910891,
              26.803026
            ],
            [
              75.914591,
              26.8033
            ],
            [
              75.909456,
              26.803865
            ],
            [
              75.910141,
              26.80555
            ],
            [
              75.909157,
              26.8063
            ],
            [
              75.908891,
              26.808466
            ],
            [
              75.907556,
              26.8083
            ],
            [
              75.908655,
              26.8073
            ],
            [
              75.906701,
              26.80549
            ],
            [
              75.906266,
              26.803925
            ],
            [
              75.90457,
              26.803979
            ],
            [
              75.903448,
              26.8063
            ],
            [
              75.903376,
              26.8093
            ],
            [
              75.905235,
              26.8103
            ],
            [
              75.902263,
              26.8123
            ],
            [
              75.904118,
              26.8133
            ],
            [
              75.902169,
              26.8143
            ],
            [
              75.902891,
              26.816543
            ],
            [
              75.901891,
              26.817648
            ],
            [
              75.900994,
              26.8163
            ],
            [
              75.901633,
              26.816042
            ],
            [
              75.901613,
              26.8143
            ],
            [
              75.899891,
              26.81375
            ],
            [
              75.899299,
              26.816708
            ],
            [
              75.897508,
              26.816917
            ],
            [
              75.896891,
              26.818177
            ],
            [
              75.895837,
              26.818246
            ],
            [
              75.897335,
              26.819856
            ],
            [
              75.900993,
              26.8203
            ],
            [
              75.897891,
              26.820736
            ],
            [
              75.89515,
              26.8233
            ],
            [
              75.891193,
              26.823602
            ],
            [
              75.890891,
              26.824866
            ],
            [
              75.889061,
              26.8223
            ],
            [
              75.889268,
              26.820923
            ],
            [
              75.8856,
              26.821009
            ],
            [
              75.885572,
              26.822619
            ],
            [
              75.887487,
              26.824705
            ],
            [
              75.889142,
              26.825049
            ],
            [
              75.890491,
              26.8263
            ],
            [
              75.888206,
              26.8283
            ],
            [
              75.889123,
              26.8293
            ],
            [
              75.888933,
              26.8333
            ],
            [
              75.885178,
              26.833587
            ],
            [
              75.884891,
              26.834406
            ],
            [
              75.884529,
              26.833662
            ],
            [
              75.882891,
              26.833617
            ],
            [
              75.880891,
              26.834632
            ],
            [
              75.880339,
              26.832853
            ],
            [
              75.878891,
              26.832796
            ],
            [
              75.878314,
              26.835723
            ],
            [
              75.87285,
              26.836259
            ],
            [
              75.868095,
              26.8403
            ],
            [
              75.86761,
              26.839581
            ],
            [
              75.865784,
              26.8393
            ],
            [
              75.862891,
              26.836577
            ],
            [
              75.861395,
              26.8383
            ],
            [
              75.856891,
              26.838499
            ],
            [
              75.856094,
              26.839503
            ],
            [
              75.853291,
              26.8403
            ],
            [
              75.856153,
              26.844038
            ],
            [
              75.854891,
              26.845806
            ],
            [
              75.852852,
              26.84534
            ],
            [
              75.852604,
              26.844587
            ],
            [
              75.848891,
              26.844346
            ],
            [
              75.848898,
              26.844293
            ],
            [
              75.849699,
              26.844108
            ],
            [
              75.849766,
              26.8433
            ],
            [
              75.848974,
              26.8413
            ],
            [
              75.851393,
              26.840802
            ],
            [
              75.849891,
              26.838785
            ],
            [
              75.842891,
              26.838517
            ],
            [
              75.841891,
              26.836613
            ],
            [
              75.835891,
              26.836944
            ],
            [
              75.827891,
              26.847425
            ]
          ]
        ],
        "type": "Polygon"
      },
      "type": "Feature"
    }
  ]
}