{
  "type": "FeatureCollection",
  "metadata": {
    "provider_name": "Waffles by UPP",
    "center_lat": 24.632093,
    "center_lon": 73.7126,
    "mode": "motorcycle",
    "total_zones": 4,
    "distance_zones": [
      3,
      4,
      5,
      6
    ],
    "generated_at": "2025-12-30T11:15:52.313753Z"
  },
  "features": [
    {
      "properties": {
        "fill-opacity": 0.33,
        "fillColor": "#bf4040",
        "opacity": 0.33,
        "fill": "#bf4040",
        "fillOpacity": 0.33,
        "color": "#bf4040",
        "contour": 3.0,
        "metric": "distance",
        "provider_name": "Waffles by UPP",
        "zone_type": "distance",
        "distance_km": 3,
        "mode": "motorcycle",
        "center_lat": 24.632093,
        "center_lon": 73.7126,
        "label": "3km"
      },
      "geometry": {
        "coordinates": [
          [
            [
              73.7206,
              24.657352
            ],
            [
              73.717956,
              24.656093
            ],
            [
              73.717992,
              24.655093
            ],
            [
              73.719223,
              24.654716
            ],
            [
              73.719282,
              24.653093
            ],
            [
              73.7176,
              24.650523
            ],
            [
              73.7156,
              24.650459
            ],
            [
              73.714885,
              24.651093
            ],
            [
              73.716591,
              24.653093
            ],
            [
              73.71199,
              24.653093
            ],
            [
              73.712216,
              24.652093
            ],
            [
              73.714156,
              24.651649
            ],
            [
              73.714162,
              24.648093
            ],
            [
              73.71607,
              24.646093
            ],
            [
              73.714894,
              24.644798
            ],
            [
              73.713289,
              24.644782
            ],
            [
              73.712919,
              24.646412
            ],
            [
              73.7106,
              24.647473
            ],
            [
              73.707953,
              24.646446
            ],
            [
              73.7076,
              24.647625
            ],
            [
              73.702983,
              24.642709
            ],
            [
              73.700166,
              24.642659
            ],
            [
              73.69868,
              24.645173
            ],
            [
              73.6976,
              24.645237
            ],
            [
              73.697391,
              24.643301
            ],
            [
              73.693803,
              24.641093
            ],
            [
              73.696583,
              24.638093
            ],
            [
              73.694742,
              24.637093
            ],
            [
              73.694884,
              24.636093
            ],
            [
              73.6966,
              24.635019
            ],
            [
              73.696799,
              24.635893
            ],
            [
              73.6976,
              24.635996
            ],
            [
              73.698326,
              24.635093
            ],
            [
              73.697265,
              24.633758
            ],
            [
              73.698303,
              24.632796
            ],
            [
              73.6996,
              24.633817
            ],
            [
              73.700298,
              24.633093
            ],
            [
              73.6986,
              24.631509
            ],
            [
              73.6976,
              24.632737
            ],
            [
              73.697047,
              24.632093
            ],
            [
              73.697291,
              24.630784
            ],
            [
              73.699948,
              24.630441
            ],
            [
              73.699928,
              24.628764
            ],
            [
              73.6976,
              24.628538
            ],
            [
              73.6966,
              24.629584
            ],
            [
              73.694311,
              24.629093
            ],
            [
              73.694477,
              24.62797
            ],
            [
              73.696009,
              24.627502
            ],
            [
              73.696221,
              24.625093
            ],
            [
              73.694573,
              24.623093
            ],
            [
              73.69446,
              24.621093
            ],
            [
              73.696306,
              24.620093
            ],
            [
              73.694332,
              24.619093
            ],
            [
              73.694457,
              24.61795
            ],
            [
              73.697606,
              24.615099
            ],
            [
              73.6996,
              24.608189
            ],
            [
              73.69973,
              24.608963
            ],
            [
              73.70308,
              24.609612
            ],
            [
              73.702805,
              24.611093
            ],
            [
              73.7036,
              24.611854
            ],
            [
              73.705137,
              24.61063
            ],
            [
              73.70538,
              24.608873
            ],
            [
              73.706948,
              24.609744
            ],
            [
              73.707519,
              24.611173
            ],
            [
              73.7086,
              24.610556
            ],
            [
              73.7106,
              24.61195
            ],
            [
              73.712028,
              24.611093
            ],
            [
              73.7176,
              24.612622
            ],
            [
              73.7196,
              24.611721
            ],
            [
              73.7236,
              24.612904
            ],
            [
              73.7246,
              24.612038
            ],
            [
              73.7256,
              24.612696
            ],
            [
              73.728775,
              24.611917
            ],
            [
              73.729736,
              24.618956
            ],
            [
              73.725917,
              24.629093
            ],
            [
              73.724901,
              24.630093
            ],
            [
              73.726181,
              24.636093
            ],
            [
              73.7236,
              24.63759
            ],
            [
              73.7226,
              24.636626
            ],
            [
              73.721312,
              24.636805
            ],
            [
              73.721202,
              24.639093
            ],
            [
              73.720199,
              24.640093
            ],
            [
              73.7236,
              24.64264
            ],
            [
              73.7246,
              24.640993
            ],
            [
              73.725171,
              24.645093
            ],
            [
              73.723219,
              24.645712
            ],
            [
              73.719085,
              24.649093
            ],
            [
              73.720819,
              24.650093
            ],
            [
              73.719883,
              24.651093
            ],
            [
              73.7206,
              24.657352
            ]
          ]
        ],
        "type": "Polygon"
      },
      "type": "Feature"
    },
    {
      "properties": {
        "fill-opacity": 0.33,
        "fillColor": "#bf4040",
        "opacity": 0.33,
        "fill": "#bf4040",
        "fillOpacity": 0.33,
        "color": "#bf4040",
        "contour": 4.0,
        "metric": "distance",
        "provider_name": "Waffles by UPP",
        "zone_type": "distance",
        "distance_km": 4,
        "mode": "motorcycle",
        "center_lat": 24.632093,
        "center_lon": 73.7126,
        "label": "4km"
      },
      "geometry": {
        "coordinates": [
          [
            [
              73.7266,
              24.664113
            ],
            [
              73.726497,
              24.663195
            ],
            [
              73.725494,
              24.663198
            ],
            [
              73.720958,
              24.658734
            ],
            [
              73.7166,
              24.658455
            ],
            [
              73.716473,
              24.657219
            ],
            [
              73.712485,
              24.657207
            ],
            [
              73.711197,
              24.656093
            ],
            [
              73.7126,
              24.656025
            ],
            [
              73.713298,
              24.655093
            ],
            [
              73.71198,
              24.653712
            ],
            [
              73.71023,
              24.653462
            ],
            [
              73.71003,
              24.652093
            ],
            [
              73.713891,
              24.651384
            ],
            [
              73.71396,
              24.648093
            ],
            [
              73.71592,
              24.646093
            ],
            [
              73.7146,
              24.644795
            ],
            [
              73.713388,
              24.644881
            ],
            [
              73.713038,
              24.646531
            ],
            [
              73.7106,
              24.646729
            ],
            [
              73.70891,
              24.648403
            ],
            [
              73.7076,
              24.648578
            ],
            [
              73.70689,
              24.646802
            ],
            [
              73.702843,
              24.642849
            ],
            [
              73.7006,
              24.642713
            ],
            [
              73.6986,
              24.645625
            ],
            [
              73.69724,
              24.645452
            ],
            [
              73.6966,
              24.643589
            ],
            [
              73.695227,
              24.64372
            ],
            [
              73.694693,
              24.647186
            ],
            [
              73.690712,
              24.647205
            ],
            [
              73.6886,
              24.648481
            ],
            [
              73.688527,
              24.647165
            ],
            [
              73.687877,
              24.647093
            ],
            [
              73.688524,
              24.647017
            ],
            [
              73.688542,
              24.646035
            ],
            [
              73.69011,
              24.645603
            ],
            [
              73.690541,
              24.643093
            ],
            [
              73.693924,
              24.640417
            ],
            [
              73.695121,
              24.638093
            ],
            [
              73.6936,
              24.636559
            ],
            [
              73.690365,
              24.636327
            ],
            [
              73.692205,
              24.635093
            ],
            [
              73.691125,
              24.633568
            ],
            [
              73.68805,
              24.633093
            ],
            [
              73.6906,
              24.632888
            ],
            [
              73.692332,
              24.631093
            ],
            [
              73.692251,
              24.629441
            ],
            [
              73.690284,
              24.629093
            ],
            [
              73.6906,
              24.62796
            ],
            [
              73.6936,
              24.628951
            ],
            [
              73.69421,
              24.627703
            ],
            [
              73.695953,
              24.627093
            ],
            [
              73.695983,
              24.625093
            ],
            [
              73.694257,
              24.623435
            ],
            [
              73.694062,
              24.621093
            ],
            [
              73.695883,
              24.619809
            ],
            [
              73.694214,
              24.619707
            ],
            [
              73.694013,
              24.620506
            ],
            [
              73.6916,
              24.620264
            ],
            [
              73.691199,
              24.619493
            ],
            [
              73.689457,
              24.619093
            ],
            [
              73.691147,
              24.61864
            ],
            [
              73.692207,
              24.617093
            ],
            [
              73.692407,
              24.6119
            ],
            [
              73.69519,
              24.611093
            ],
            [
              73.694253,
              24.608439
            ],
            [
              73.691812,
              24.608093
            ],
            [
              73.695243,
              24.606736
            ],
            [
              73.695475,
              24.604093
            ],
            [
              73.696448,
              24.603941
            ],
            [
              73.6966,
              24.60293
            ],
            [
              73.696736,
              24.604229
            ],
            [
              73.695848,
              24.605093
            ],
            [
              73.697038,
              24.605531
            ],
            [
              73.699072,
              24.603565
            ],
            [
              73.7006,
              24.599806
            ],
            [
              73.702655,
              24.600093
            ],
            [
              73.702071,
              24.603621
            ],
            [
              73.7036,
              24.603469
            ],
            [
              73.706773,
              24.604919
            ],
            [
              73.708376,
              24.604869
            ],
            [
              73.708453,
              24.603093
            ],
            [
              73.709373,
              24.602866
            ],
            [
              73.7096,
              24.601747
            ],
            [
              73.710196,
              24.603496
            ],
            [
              73.711519,
              24.604093
            ],
            [
              73.709994,
              24.604487
            ],
            [
              73.709883,
              24.606093
            ],
            [
              73.7106,
              24.606759
            ],
            [
              73.713999,
              24.606492
            ],
            [
              73.716049,
              24.604093
            ],
            [
              73.7176,
              24.603525
            ],
            [
              73.719301,
              24.605391
            ],
            [
              73.7216,
              24.605519
            ],
            [
              73.724089,
              24.608603
            ],
            [
              73.7266,
              24.608769
            ],
            [
              73.730455,
              24.608093
            ],
            [
              73.730197,
              24.607093
            ],
            [
              73.7316,
              24.605183
            ],
            [
              73.735563,
              24.605129
            ],
            [
              73.735789,
              24.606093
            ],
            [
              73.733904,
              24.606397
            ],
            [
              73.733141,
              24.613093
            ],
            [
              73.731495,
              24.616093
            ],
            [
              73.731943,
              24.618093
            ],
            [
              73.733219,
              24.619093
            ],
            [
              73.7306,
              24.619298
            ],
            [
              73.729275,
              24.620768
            ],
            [
              73.728091,
              24.625093
            ],
            [
              73.725188,
              24.630093
            ],
            [
              73.72694,
              24.634093
            ],
            [
              73.726065,
              24.635093
            ],
            [
              73.7266,
              24.635807
            ],
            [
              73.730035,
              24.635093
            ],
            [
              73.729876,
              24.636093
            ],
            [
              73.726165,
              24.637658
            ],
            [
              73.726058,
              24.640093
            ],
            [
              73.725102,
              24.641093
            ],
            [
              73.725128,
              24.644093
            ],
            [
              73.726985,
              24.644478
            ],
            [
              73.727408,
              24.641901
            ],
            [
              73.72922,
              24.641713
            ],
            [
              73.7296,
              24.640988
            ],
            [
              73.730688,
              24.642004
            ],
            [
              73.7306,
              24.649478
            ],
            [
              73.730337,
              24.648355
            ],
            [
              73.728439,
              24.648253
            ],
            [
              73.728008,
              24.645684
            ],
            [
              73.7266,
              24.645549
            ],
            [
              73.7256,
              24.646573
            ],
            [
              73.7236,
              24.644724
            ],
            [
              73.723023,
              24.646516
            ],
            [
              73.71926,
              24.649093
            ],
            [
              73.721161,
              24.650093
            ],
            [
              73.720182,
              24.651093
            ],
            [
              73.720194,
              24.653093
            ],
            [
              73.722659,
              24.655034
            ],
            [
              73.722218,
              24.656474
            ],
            [
              73.7246,
              24.656978
            ],
            [
              73.72541,
              24.656903
            ],
            [
              73.7256,
              24.656019
            ],
            [
              73.730115,
              24.656093
            ],
            [
              73.7276,
              24.656305
            ],
            [
              73.726849,
              24.657093
            ],
            [
              73.7276,
              24.65793
            ],
            [
              73.729577,
              24.658093
            ],
            [
              73.7266,
              24.65831
            ],
            [
              73.7256,
              24.657414
            ],
            [
              73.722073,
              24.658093
            ],
            [
              73.72663,
              24.663062
            ],
            [
              73.7266,
              24.664113
            ]
          ]
        ],
        "type": "Polygon"
      },
      "type": "Feature"
    },
    {
      "properties": {
        "fill-opacity": 0.33,
        "fillColor": "#bf4040",
        "opacity": 0.33,
        "fill": "#bf4040",
        "fillOpacity": 0.33,
        "color": "#bf4040",
        "contour": 5.0,
        "metric": "distance",
        "provider_name": "Waffles by UPP",
        "zone_type": "distance",
        "distance_km": 5,
        "mode": "motorcycle",
        "center_lat": 24.632093,
        "center_lon": 73.7126,
        "label": "5km"
      },
      "geometry": {
        "coordinates": [
          [
            [
              73.7346,
              24.668106
            ],
            [
              73.734538,
              24.667154
            ],
            [
              73.733473,
              24.667219
            ],
            [
              73.732056,
              24.664636
            ],
            [
              73.731182,
              24.664675
            ],
            [
              73.7306,
              24.666435
            ],
            [
              73.72898,
              24.664712
            ],
            [
              73.726095,
              24.664093
            ],
            [
              73.732598,
              24.66309
            ],
            [
              73.732016,
              24.658676
            ],
            [
              73.7306,
              24.659546
            ],
            [
              73.7296,
              24.658592
            ],
            [
              73.7266,
              24.658653
            ],
            [
              73.7256,
              24.657688
            ],
            [
              73.722366,
              24.657859
            ],
            [
              73.725965,
              24.661727
            ],
            [
              73.7256,
              24.663635
            ],
            [
              73.7206,
              24.658749
            ],
            [
              73.7166,
              24.658703
            ],
            [
              73.7156,
              24.657273
            ],
            [
              73.7116,
              24.657524
            ],
            [
              73.7076,
              24.655274
            ],
            [
              73.701586,
              24.655093
            ],
            [
              73.7076,
              24.654713
            ],
            [
              73.70927,
              24.653093
            ],
            [
              73.707454,
              24.651093
            ],
            [
              73.70828,
              24.650773
            ],
            [
              73.708559,
              24.649093
            ],
            [
              73.707159,
              24.648533
            ],
            [
              73.706802,
              24.64689
            ],
            [
              73.7026,
              24.64283
            ],
            [
              73.700411,
              24.642904
            ],
            [
              73.6986,
              24.645774
            ],
            [
              73.697143,
              24.645549
            ],
            [
              73.696814,
              24.643878
            ],
            [
              73.6956,
              24.643748
            ],
            [
              73.694913,
              24.647406
            ],
            [
              73.6906,
              24.647646
            ],
            [
              73.6876,
              24.650534
            ],
            [
              73.684259,
              24.650093
            ],
            [
              73.68697,
              24.649463
            ],
            [
              73.688089,
              24.648093
            ],
            [
              73.686283,
              24.647409
            ],
            [
              73.686283,
              24.646776
            ],
            [
              73.689887,
              24.64538
            ],
            [
              73.689308,
              24.640801
            ],
            [
              73.691028,
              24.641093
            ],
            [
              73.69007,
              24.642093
            ],
            [
              73.6906,
              24.643566
            ],
            [
              73.693818,
              24.640311
            ],
            [
              73.694942,
              24.638093
            ],
            [
              73.6936,
              24.636745
            ],
            [
              73.689204,
              24.636489
            ],
            [
              73.689204,
              24.635697
            ],
            [
              73.691973,
              24.635093
            ],
            [
              73.6906,
              24.63365
            ],
            [
              73.6866,
              24.633548
            ],
            [
              73.6856,
              24.632522
            ],
            [
              73.682431,
              24.632093
            ],
            [
              73.684157,
              24.63165
            ],
            [
              73.6846,
              24.629923
            ],
            [
              73.685692,
              24.63
            ],
            [
              73.68587,
              24.631093
            ],
            [
              73.6876,
              24.632606
            ],
            [
              73.690886,
              24.632379
            ],
            [
              73.692022,
              24.631093
            ],
            [
              73.691899,
              24.629793
            ],
            [
              73.690255,
              24.629748
            ],
            [
              73.6886,
              24.631489
            ],
            [
              73.685448,
              24.627941
            ],
            [
              73.688056,
              24.625549
            ],
            [
              73.688378,
              24.623093
            ],
            [
              73.6896,
              24.62179
            ],
            [
              73.6916,
              24.621918
            ],
            [
              73.693007,
              24.623685
            ],
            [
              73.694086,
              24.623579
            ],
            [
              73.693956,
              24.620737
            ],
            [
              73.6916,
              24.620696
            ],
            [
              73.688875,
              24.619093
            ],
            [
              73.691977,
              24.617093
            ],
            [
              73.6916,
              24.61307
            ],
            [
              73.6886,
              24.615261
            ],
            [
              73.68636,
              24.613332
            ],
            [
              73.685889,
              24.611803
            ],
            [
              73.683813,
              24.611879
            ],
            [
              73.682495,
              24.610093
            ],
            [
              73.6836,
              24.609236
            ],
            [
              73.683807,
              24.609885
            ],
            [
              73.686075,
              24.609568
            ],
            [
              73.6866,
              24.605398
            ],
            [
              73.68742,
              24.603913
            ],
            [
              73.6896,
              24.60243
            ],
            [
              73.691722,
              24.602093
            ],
            [
              73.690804,
              24.604093
            ],
            [
              73.691947,
              24.605093
            ],
            [
              73.691963,
              24.606093
            ],
            [
              73.690199,
              24.606692
            ],
            [
              73.690269,
              24.607423
            ],
            [
              73.6926,
              24.607481
            ],
            [
              73.693163,
              24.606656
            ],
            [
              73.694834,
              24.606327
            ],
            [
              73.694901,
              24.604093
            ],
            [
              73.697193,
              24.600093
            ],
            [
              73.6966,
              24.599402
            ],
            [
              73.6936,
              24.599414
            ],
            [
              73.692971,
              24.597464
            ],
            [
              73.6936,
              24.59715
            ],
            [
              73.69508,
              24.598613
            ],
            [
              73.697002,
              24.598495
            ],
            [
              73.696328,
              24.596821
            ],
            [
              73.69807,
              24.595563
            ],
            [
              73.699587,
              24.59308
            ],
            [
              73.701368,
              24.592861
            ],
            [
              73.7016,
              24.592038
            ],
            [
              73.702555,
              24.592137
            ],
            [
              73.702746,
              24.592946
            ],
            [
              73.70188,
              24.597093
            ],
            [
              73.7026,
              24.597744
            ],
            [
              73.7036,
              24.596289
            ],
            [
              73.7056,
              24.595081
            ],
            [
              73.7066,
              24.595855
            ],
            [
              73.707745,
              24.594093
            ],
            [
              73.7096,
              24.593179
            ],
            [
              73.711638,
              24.595055
            ],
            [
              73.715681,
              24.595012
            ],
            [
              73.716069,
              24.596093
            ],
            [
              73.714797,
              24.59729
            ],
            [
              73.713115,
              24.597608
            ],
            [
              73.7136,
              24.599809
            ],
            [
              73.7166,
              24.598054
            ],
            [
              73.7206,
              24.598089
            ],
            [
              73.721639,
              24.599053
            ],
            [
              73.720056,
              24.600549
            ],
            [
              73.7206,
              24.601823
            ],
            [
              73.7226,
              24.600915
            ],
            [
              73.7276,
              24.600477
            ],
            [
              73.728019,
              24.601673
            ],
            [
              73.7296,
              24.602722
            ],
            [
              73.730154,
              24.601538
            ],
            [
              73.729355,
              24.600338
            ],
            [
              73.728244,
              24.600093
            ],
            [
              73.728134,
              24.599093
            ],
            [
              73.7296,
              24.599057
            ],
            [
              73.72976,
              24.599933
            ],
            [
              73.73173,
              24.600962
            ],
            [
              73.7336,
              24.604706
            ],
            [
              73.7356,
              24.604593
            ],
            [
              73.740414,
              24.601907
            ],
            [
              73.742288,
              24.601781
            ],
            [
              73.742551,
              24.601044
            ],
            [
              73.7436,
              24.600642
            ],
            [
              73.743636,
              24.601129
            ],
            [
              73.742756,
              24.601249
            ],
            [
              73.742706,
              24.602199
            ],
            [
              73.741094,
              24.602587
            ],
            [
              73.740766,
              24.604259
            ],
            [
              73.739713,
              24.605206
            ],
            [
              73.7386,
              24.604491
            ],
            [
              73.737069,
              24.605093
            ],
            [
              73.738847,
              24.606846
            ],
            [
              73.739118,
              24.608574
            ],
            [
              73.741504,
              24.609093
            ],
            [
              73.7406,
              24.611182
            ],
            [
              73.7376,
              24.61314
            ],
            [
              73.73656,
              24.611053
            ],
            [
              73.734616,
              24.613093
            ],
            [
              73.736035,
              24.613657
            ],
            [
              73.736058,
              24.615093
            ],
            [
              73.73487,
              24.615363
            ],
            [
              73.734719,
              24.616973
            ],
            [
              73.735372,
              24.617093
            ],
            [
              73.733049,
              24.618093
            ],
            [
              73.7336,
              24.618603
            ],
            [
              73.7356,
              24.618217
            ],
            [
              73.736961,
              24.620093
            ],
            [
              73.73678,
              24.622273
            ],
            [
              73.735451,
              24.622241
            ],
            [
              73.7346,
              24.619551
            ],
            [
              73.7306,
              24.61965
            ],
            [
              73.729381,
              24.620874
            ],
            [
              73.72632,
              24.627093
            ],
            [
              73.726311,
              24.629093
            ],
            [
              73.725308,
              24.630093
            ],
            [
              73.726353,
              24.63334
            ],
            [
              73.72792,
              24.633772
            ],
            [
              73.728101,
              24.634591
            ],
            [
              73.73199,
              24.633483
            ],
            [
              73.7336,
              24.631794
            ],
            [
              73.736748,
              24.632093
            ],
            [
              73.7366,
              24.633151
            ],
            [
              73.736303,
              24.632389
            ],
            [
              73.7346,
              24.632378
            ],
            [
              73.73287,
              24.634363
            ],
            [
              73.731241,
              24.634734
            ],
            [
              73.731055,
              24.637093
            ],
            [
              73.731866,
              24.638359
            ],
            [
              73.73032,
              24.638372
            ],
            [
              73.729945,
              24.636747
            ],
            [
              73.7286,
              24.636632
            ],
            [
              73.726336,
              24.637829
            ],
            [
              73.726248,
              24.640093
            ],
            [
              73.725267,
              24.641093
            ],
            [
              73.7256,
              24.644431
            ],
            [
              73.726844,
              24.644337
            ],
            [
              73.72721,
              24.641703
            ],
            [
              73.7296,
              24.640565
            ],
            [
              73.731135,
              24.642093
            ],
            [
              73.730975,
              24.653093
            ],
            [
              73.730184,
              24.652093
            ],
            [
              73.730089,
              24.649093
            ],
            [
              73.728221,
              24.648471
            ],
            [
              73.7276,
              24.645726
            ],
            [
              73.7256,
              24.646751
            ],
            [
              73.7236,
              24.644823
            ],
            [
              73.723088,
              24.646581
            ],
            [
              73.719346,
              24.649093
            ],
            [
              73.721295,
              24.650093
            ],
            [
              73.720305,
              24.651093
            ],
            [
              73.720311,
              24.653093
            ],
            [
              73.722781,
              24.654911
            ],
            [
              73.722357,
              24.656335
            ],
            [
              73.7246,
              24.656783
            ],
            [
              73.7256,
              24.655824
            ],
            [
              73.7296,
              24.655835
            ],
            [
              73.730889,
              24.654803
            ],
            [
              73.734253,
              24.654746
            ],
            [
              73.737778,
              24.651093
            ],
            [
              73.7376,
              24.653908
            ],
            [
              73.7366,
              24.653421
            ],
            [
              73.7346,
              24.65544
            ],
            [
              73.731086,
              24.656093
            ],
            [
              73.7336,
              24.657789
            ],
            [
              73.735241,
              24.657734
            ],
            [
              73.7356,
              24.656994
            ],
            [
              73.7366,
              24.657066
            ],
            [
              73.736597,
              24.657095
            ],
            [
              73.735797,
              24.65729
            ],
            [
              73.735719,
              24.658212
            ],
            [
              73.7336,
              24.658396
            ],
            [
              73.732908,
              24.659093
            ],
            [
              73.73282,
              24.661872
            ],
            [
              73.734577,
              24.662093
            ],
            [
              73.732603,
              24.663093
            ],
            [
              73.733894,
              24.664798
            ],
            [
              73.734002,
              24.66669
            ],
            [
              73.7346,
              24.667043
            ],
            [
              73.7346,
              24.668106
            ]
          ]
        ],
        "type": "Polygon"
      },
      "type": "Feature"
    },
    {
      "properties": {
        "fill-opacity": 0.33,
        "fillColor": "#bf4040",
        "opacity": 0.33,
        "fill": "#bf4040",
        "fillOpacity": 0.33,
        "color": "#bf4040",
        "contour": 6.0,
        "metric": "distance",
        "provider_name": "Waffles by UPP",
        "zone_type": "distance",
        "distance_km": 6,
        "mode": "motorcycle",
        "center_lat": 24.632093,
        "center_lon": 73.7126,
        "label": "6km"
      },
      "geometry": {
        "coordinates": [
          [
            [
              73.7376,
              24.67613
            ],
            [
              73.737224,
              24.674468
            ],
            [
              73.736451,
              24.674241
            ],
            [
              73.734161,
              24.670093
            ],
            [
              73.733924,
              24.667768
            ],
            [
              73.73314,
              24.667633
            ],
            [
              73.733077,
              24.671093
            ],
            [
              73.734781,
              24.674093
            ],
            [
              73.7346,
              24.676091
            ],
            [
              73.733039,
              24.672653
            ],
            [
              73.731163,
              24.672093
            ],
            [
              73.732068,
              24.669093
            ],
            [
              73.73104,
              24.668093
            ],
            [
              73.731007,
              24.666685
            ],
            [
              73.7286,
              24.664739
            ],
            [
              73.726154,
              24.664538
            ],
            [
              73.726235,
              24.663728
            ],
            [
              73.730162,
              24.663093
            ],
            [
              73.7276,
              24.660386
            ],
            [
              73.725249,
              24.660742
            ],
            [
              73.726289,
              24.662093
            ],
            [
              73.7256,
              24.663779
            ],
            [
              73.7206,
              24.658837
            ],
            [
              73.7166,
              24.658812
            ],
            [
              73.7156,
              24.657397
            ],
            [
              73.7116,
              24.65773
            ],
            [
              73.7076,
              24.65557
            ],
            [
              73.7016,
              24.655557
            ],
            [
              73.7006,
              24.656556
            ],
            [
              73.691656,
              24.656093
            ],
            [
              73.6926,
              24.655387
            ],
            [
              73.692747,
              24.655945
            ],
            [
              73.694216,
              24.65571
            ],
            [
              73.6946,
              24.653985
            ],
            [
              73.695035,
              24.655657
            ],
            [
              73.6996,
              24.655646
            ],
            [
              73.7006,
              24.654594
            ],
            [
              73.7076,
              24.654476
            ],
            [
              73.708861,
              24.653354
            ],
            [
              73.70706,
              24.651093
            ],
            [
              73.708089,
              24.649093
            ],
            [
              73.70274,
              24.642952
            ],
            [
              73.700453,
              24.642946
            ],
            [
              73.6986,
              24.645851
            ],
            [
              73.697079,
              24.645613
            ],
            [
              73.696762,
              24.64393
            ],
            [
              73.695424,
              24.643917
            ],
            [
              73.695088,
              24.647581
            ],
            [
              73.6906,
              24.647787
            ],
            [
              73.6876,
              24.650734
            ],
            [
              73.6846,
              24.650695
            ],
            [
              73.683997,
              24.650093
            ],
            [
              73.6866,
              24.649458
            ],
            [
              73.687826,
              24.648319
            ],
            [
              73.686162,
              24.64753
            ],
            [
              73.686162,
              24.646656
            ],
            [
              73.6898,
              24.645293
            ],
            [
              73.689927,
              24.643765
            ],
            [
              73.688933,
              24.643093
            ],
            [
              73.689173,
              24.640666
            ],
            [
              73.691024,
              24.640668
            ],
            [
              73.690254,
              24.642093
            ],
            [
              73.6906,
              24.643414
            ],
            [
              73.693764,
              24.640257
            ],
            [
              73.694855,
              24.638093
            ],
            [
              73.6936,
              24.636835
            ],
            [
              73.689125,
              24.636567
            ],
            [
              73.6896,
              24.635381
            ],
            [
              73.691779,
              24.635272
            ],
            [
              73.6906,
              24.633786
            ],
            [
              73.6866,
              24.633597
            ],
            [
              73.6856,
              24.632729
            ],
            [
              73.682049,
              24.632093
            ],
            [
              73.683858,
              24.631351
            ],
            [
              73.684179,
              24.629672
            ],
            [
              73.686079,
              24.629572
            ],
            [
              73.684916,
              24.628093
            ],
            [
              73.687716,
              24.625093
            ],
            [
              73.687695,
              24.622188
            ],
            [
              73.689346,
              24.621093
            ],
            [
              73.6886,
              24.620362
            ],
            [
              73.6876,
              24.621709
            ],
            [
              73.6866,
              24.621556
            ],
            [
              73.687325,
              24.620818
            ],
            [
              73.687962,
              24.61673
            ],
            [
              73.6836,
              24.616446
            ],
            [
              73.682119,
              24.617573
            ],
            [
              73.680924,
              24.616768
            ],
            [
              73.680337,
              24.613093
            ],
            [
              73.679044,
              24.611648
            ],
            [
              73.6756,
              24.610308
            ],
            [
              73.673648,
              24.610141
            ],
            [
              73.6736,
              24.610917
            ],
            [
              73.673529,
              24.610164
            ],
            [
              73.673579,
              24.610072
            ],
            [
              73.6756,
              24.609877
            ],
            [
              73.676112,
              24.609605
            ],
            [
              73.67747,
              24.606963
            ],
            [
              73.680045,
              24.606538
            ],
            [
              73.680467,
              24.60396
            ],
            [
              73.6826,
              24.604769
            ],
            [
              73.6836,
              24.603747
            ],
            [
              73.685968,
              24.603461
            ],
            [
              73.6856,
              24.601386
            ],
            [
              73.6846,
              24.602269
            ],
            [
              73.683443,
              24.602093
            ],
            [
              73.6846,
              24.600451
            ],
            [
              73.6856,
              24.600799
            ],
            [
              73.6863,
              24.600093
            ],
            [
              73.684843,
              24.599093
            ],
            [
              73.687242,
              24.596735
            ],
            [
              73.6886,
              24.59682
            ],
            [
              73.690622,
              24.594115
            ],
            [
              73.6926,
              24.594354
            ],
            [
              73.693226,
              24.592719
            ],
            [
              73.695069,
              24.592562
            ],
            [
              73.6966,
              24.59065
            ],
            [
              73.700662,
              24.592155
            ],
            [
              73.701438,
              24.591093
            ],
            [
              73.700501,
              24.590093
            ],
            [
              73.7016,
              24.587705
            ],
            [
              73.705272,
              24.588093
            ],
            [
              73.705174,
              24.591518
            ],
            [
              73.706875,
              24.590817
            ],
            [
              73.7076,
              24.591648
            ],
            [
              73.708253,
              24.591093
            ],
            [
              73.707378,
              24.589871
            ],
            [
              73.710014,
              24.588507
            ],
            [
              73.7106,
              24.586841
            ],
            [
              73.7146,
              24.586254
            ],
            [
              73.716244,
              24.587093
            ],
            [
              73.716696,
              24.589093
            ],
            [
              73.718291,
              24.591401
            ],
            [
              73.720257,
              24.592435
            ],
            [
              73.7206,
              24.594227
            ],
            [
              73.721401,
              24.592894
            ],
            [
              73.7266,
              24.591353
            ],
            [
              73.726924,
              24.592768
            ],
            [
              73.728206,
              24.593093
            ],
            [
              73.726494,
              24.593987
            ],
            [
              73.726349,
              24.595093
            ],
            [
              73.727947,
              24.596745
            ],
            [
              73.728219,
              24.598473
            ],
            [
              73.729919,
              24.598773
            ],
            [
              73.732008,
              24.600684
            ],
            [
              73.73349,
              24.604202
            ],
            [
              73.734293,
              24.604399
            ],
            [
              73.73583,
              24.604323
            ],
            [
              73.739346,
              24.602093
            ],
            [
              73.738438,
              24.601093
            ],
            [
              73.7386,
              24.598856
            ],
            [
              73.738941,
              24.600751
            ],
            [
              73.740196,
              24.601496
            ],
            [
              73.741905,
              24.601398
            ],
            [
              73.744155,
              24.599093
            ],
            [
              73.742519,
              24.597093
            ],
            [
              73.7426,
              24.595847
            ],
            [
              73.742765,
              24.596927
            ],
            [
              73.745005,
              24.597498
            ],
            [
              73.745451,
              24.595093
            ],
            [
              73.7447,
              24.593193
            ],
            [
              73.7476,
              24.592361
            ],
            [
              73.74677,
              24.594093
            ],
            [
              73.74786,
              24.598093
            ],
            [
              73.746181,
              24.598674
            ],
            [
              73.746006,
              24.601093
            ],
            [
              73.747834,
              24.603858
            ],
            [
              73.750047,
              24.604093
            ],
            [
              73.749777,
              24.605093
            ],
            [
              73.747234,
              24.605458
            ],
            [
              73.746684,
              24.605093
            ],
            [
              73.747494,
              24.604987
            ],
            [
              73.747519,
              24.604093
            ],
            [
              73.7466,
              24.603405
            ],
            [
              73.745828,
              24.604093
            ],
            [
              73.746572,
              24.605093
            ],
            [
              73.745495,
              24.605197
            ],
            [
              73.744327,
              24.603093
            ],
            [
              73.744215,
              24.601708
            ],
            [
              73.745194,
              24.601093
            ],
            [
              73.7446,
              24.600569
            ],
            [
              73.742962,
              24.602455
            ],
            [
              73.741313,
              24.602806
            ],
            [
              73.739964,
              24.605457
            ],
            [
              73.737363,
              24.604856
            ],
            [
              73.739009,
              24.606683
            ],
            [
              73.73932,
              24.608372
            ],
            [
              73.7436,
              24.608657
            ],
            [
              73.743979,
              24.610093
            ],
            [
              73.7426,
              24.611416
            ],
            [
              73.741254,
              24.610747
            ],
            [
              73.740874,
              24.613093
            ],
            [
              73.741813,
              24.614093
            ],
            [
              73.74073,
              24.615223
            ],
            [
              73.739032,
              24.615525
            ],
            [
              73.7386,
              24.617929
            ],
            [
              73.73807,
              24.614622
            ],
            [
              73.735292,
              24.615785
            ],
            [
              73.73721,
              24.620093
            ],
            [
              73.736985,
              24.622478
            ],
            [
              73.735225,
              24.622468
            ],
            [
              73.7346,
              24.619741
            ],
            [
              73.7306,
              24.619786
            ],
            [
              73.729435,
              24.620928
            ],
            [
              73.727153,
              24.626646
            ],
            [
              73.726381,
              24.627093
            ],
            [
              73.726152,
              24.629645
            ],
            [
              73.725374,
              24.630093
            ],
            [
              73.726419,
              24.633273
            ],
            [
              73.728038,
              24.633654
            ],
            [
              73.728267,
              24.634425
            ],
            [
              73.731846,
              24.633339
            ],
            [
              73.7336,
              24.631505
            ],
            [
              73.73714,
              24.632093
            ],
            [
              73.7366,
              24.633608
            ],
            [
              73.7346,
              24.632676
            ],
            [
              73.733018,
              24.634511
            ],
            [
              73.731366,
              24.634859
            ],
            [
              73.731247,
              24.637093
            ],
            [
              73.732016,
              24.638509
            ],
            [
              73.730178,
              24.638514
            ],
            [
              73.729827,
              24.636865
            ],
            [
              73.7286,
              24.636777
            ],
            [
              73.726411,
              24.637904
            ],
            [
              73.726339,
              24.640093
            ],
            [
              73.72535,
              24.641093
            ],
            [
              73.7256,
              24.644346
            ],
            [
              73.726778,
              24.644271
            ],
            [
              73.727129,
              24.641622
            ],
            [
              73.7296,
              24.640413
            ],
            [
              73.731282,
              24.642093
            ],
            [
              73.731215,
              24.653093
            ],
            [
              73.730318,
              24.653374
            ],
            [
              73.729928,
              24.649093
            ],
            [
              73.728134,
              24.648558
            ],
            [
              73.7276,
              24.645824
            ],
            [
              73.7256,
              24.646838
            ],
            [
              73.7236,
              24.64488
            ],
            [
              73.723178,
              24.646671
            ],
            [
              73.719397,
              24.649093
            ],
            [
              73.721366,
              24.650093
            ],
            [
              73.720372,
              24.651093
            ],
            [
              73.720376,
              24.653093
            ],
            [
              73.722904,
              24.654788
            ],
            [
              73.722422,
              24.65627
            ],
            [
              73.7246,
              24.656589
            ],
            [
              73.7256,
              24.65563
            ],
            [
              73.7296,
              24.65559
            ],
            [
              73.7306,
              24.654624
            ],
            [
              73.73394,
              24.654433
            ],
            [
              73.738969,
              24.649462
            ],
            [
              73.740301,
              24.646794
            ],
            [
              73.744044,
              24.644093
            ],
            [
              73.743751,
              24.645941
            ],
            [
              73.74461,
              24.647082
            ],
            [
              73.743801,
              24.651891
            ],
            [
              73.7456,
              24.653387
            ],
            [
              73.743922,
              24.653415
            ],
            [
              73.742834,
              24.655327
            ],
            [
              73.740914,
              24.656093
            ],
            [
              73.740898,
              24.657794
            ],
            [
              73.742763,
              24.658093
            ],
            [
              73.742678,
              24.659093
            ],
            [
              73.7406,
              24.659284
            ],
            [
              73.739775,
              24.660093
            ],
            [
              73.739367,
              24.66186
            ],
            [
              73.7406,
              24.663548
            ],
            [
              73.739134,
              24.663627
            ],
            [
              73.738837,
              24.665093
            ],
            [
              73.737688,
              24.665181
            ],
            [
              73.7376,
              24.666123
            ],
            [
              73.737371,
              24.664864
            ],
            [
              73.738303,
              24.664093
            ],
            [
              73.7376,
              24.66346
            ],
            [
              73.735939,
              24.665093
            ],
            [
              73.734758,
              24.665251
            ],
            [
              73.734819,
              24.668873
            ],
            [
              73.7356,
              24.669672
            ],
            [
              73.735766,
              24.671926
            ],
            [
              73.736649,
              24.672043
            ],
            [
              73.7376,
              24.673905
            ],
            [
              73.73768,
              24.676012
            ],
            [
              73.7383,
              24.676093
            ],
            [
              73.7376,
              24.67613
            ]
          ]
        ],
        "type": "Polygon"
      },
      "type": "Feature"
    }
  ]
}