{
  "type": "FeatureCollection",
  "metadata": {
    "provider_name": "The Old Delhi",
    "center_lat": 28.44505889,
    "center_lon": 77.08073125,
    "mode": "motorcycle",
    "total_zones": 4,
    "distance_zones": [
      3,
      4,
      5,
      6
    ],
    "generated_at": "2025-12-24T07:38:06.094328Z"
  },
  "features": [
    {
      "properties": {
        "fill-opacity": 0.33,
        "fillColor": "#bf4040",
        "opacity": 0.33,
        "fill": "#bf4040",
        "fillOpacity": 0.33,
        "color": "#bf4040",
        "contour": 3.0,
        "metric": "distance",
        "provider_name": "The Old Delhi",
        "zone_type": "distance",
        "distance_km": 3,
        "mode": "motorcycle",
        "center_lat": 28.44505889,
        "center_lon": 77.08073125,
        "label": "3km"
      },
      "geometry": {
        "coordinates": [
          [
            [
              77.072731,
              28.467578
            ],
            [
              77.071461,
              28.464328
            ],
            [
              77.070632,
              28.46396
            ],
            [
              77.070642,
              28.463058
            ],
            [
              77.073084,
              28.462412
            ],
            [
              77.072167,
              28.459622
            ],
            [
              77.070155,
              28.459483
            ],
            [
              77.069731,
              28.460434
            ],
            [
              77.067659,
              28.46113
            ],
            [
              77.067941,
              28.459058
            ],
            [
              77.0692,
              28.458058
            ],
            [
              77.068968,
              28.456821
            ],
            [
              77.067731,
              28.456633
            ],
            [
              77.066731,
              28.457589
            ],
            [
              77.064731,
              28.456457
            ],
            [
              77.062731,
              28.457289
            ],
            [
              77.061714,
              28.456058
            ],
            [
              77.063135,
              28.453462
            ],
            [
              77.062915,
              28.452058
            ],
            [
              77.061731,
              28.452953
            ],
            [
              77.059862,
              28.452927
            ],
            [
              77.060059,
              28.451386
            ],
            [
              77.062097,
              28.450058
            ],
            [
              77.06205,
              28.448739
            ],
            [
              77.060203,
              28.447058
            ],
            [
              77.060579,
              28.446058
            ],
            [
              77.061731,
              28.4462
            ],
            [
              77.06342,
              28.448369
            ],
            [
              77.064018,
              28.448058
            ],
            [
              77.06393,
              28.446859
            ],
            [
              77.061918,
              28.445871
            ],
            [
              77.061731,
              28.444404
            ],
            [
              77.060718,
              28.444072
            ],
            [
              77.062505,
              28.442058
            ],
            [
              77.061435,
              28.441058
            ],
            [
              77.062361,
              28.440058
            ],
            [
              77.061731,
              28.438353
            ],
            [
              77.065974,
              28.437058
            ],
            [
              77.062225,
              28.433058
            ],
            [
              77.062168,
              28.432058
            ],
            [
              77.065731,
              28.433715
            ],
            [
              77.067731,
              28.431948
            ],
            [
              77.068584,
              28.432205
            ],
            [
              77.068679,
              28.43311
            ],
            [
              77.072731,
              28.432047
            ],
            [
              77.075316,
              28.429644
            ],
            [
              77.077517,
              28.429058
            ],
            [
              77.07863,
              28.425957
            ],
            [
              77.081731,
              28.425558
            ],
            [
              77.082021,
              28.426769
            ],
            [
              77.083683,
              28.427058
            ],
            [
              77.083566,
              28.429058
            ],
            [
              77.084569,
              28.429058
            ],
            [
              77.086731,
              28.427213
            ],
            [
              77.087731,
              28.427452
            ],
            [
              77.090025,
              28.426353
            ],
            [
              77.091747,
              28.424042
            ],
            [
              77.094888,
              28.426901
            ],
            [
              77.096677,
              28.430058
            ],
            [
              77.098386,
              28.431058
            ],
            [
              77.09815,
              28.432058
            ],
            [
              77.095731,
              28.432901
            ],
            [
              77.092731,
              28.430427
            ],
            [
              77.091265,
              28.434058
            ],
            [
              77.092239,
              28.435551
            ],
            [
              77.094164,
              28.435492
            ],
            [
              77.094731,
              28.433803
            ],
            [
              77.096529,
              28.434261
            ],
            [
              77.098077,
              28.436713
            ],
            [
              77.101764,
              28.438058
            ],
            [
              77.099205,
              28.438533
            ],
            [
              77.099107,
              28.439682
            ],
            [
              77.100797,
              28.440125
            ],
            [
              77.099833,
              28.441161
            ],
            [
              77.099918,
              28.444246
            ],
            [
              77.098708,
              28.445036
            ],
            [
              77.099093,
              28.446697
            ],
            [
              77.100962,
              28.447058
            ],
            [
              77.10019,
              28.449599
            ],
            [
              77.103081,
              28.450058
            ],
            [
              77.099212,
              28.45054
            ],
            [
              77.098809,
              28.452137
            ],
            [
              77.09798,
              28.452308
            ],
            [
              77.097731,
              28.454588
            ],
            [
              77.096308,
              28.454636
            ],
            [
              77.095731,
              28.457286
            ],
            [
              77.093744,
              28.458072
            ],
            [
              77.092931,
              28.459258
            ],
            [
              77.090731,
              28.459298
            ],
            [
              77.089731,
              28.45838
            ],
            [
              77.085731,
              28.458596
            ],
            [
              77.084731,
              28.459729
            ],
            [
              77.083207,
              28.460058
            ],
            [
              77.083595,
              28.461058
            ],
            [
              77.08085,
              28.462177
            ],
            [
              77.079731,
              28.463678
            ],
            [
              77.077042,
              28.460748
            ],
            [
              77.074569,
              28.459897
            ],
            [
              77.07392,
              28.466058
            ],
            [
              77.07299,
              28.466317
            ],
            [
              77.072731,
              28.467578
            ]
          ]
        ],
        "type": "Polygon"
      },
      "type": "Feature"
    },
    {
      "properties": {
        "fill-opacity": 0.33,
        "fillColor": "#bf4040",
        "opacity": 0.33,
        "fill": "#bf4040",
        "fillOpacity": 0.33,
        "color": "#bf4040",
        "contour": 4.0,
        "metric": "distance",
        "provider_name": "The Old Delhi",
        "zone_type": "distance",
        "distance_km": 4,
        "mode": "motorcycle",
        "center_lat": 28.44505889,
        "center_lon": 77.08073125,
        "label": "4km"
      },
      "geometry": {
        "coordinates": [
          [
            [
              77.071731,
              28.476519
            ],
            [
              77.070307,
              28.474482
            ],
            [
              77.068664,
              28.474058
            ],
            [
              77.069625,
              28.473953
            ],
            [
              77.070326,
              28.472654
            ],
            [
              77.070188,
              28.470601
            ],
            [
              77.06813,
              28.470457
            ],
            [
              77.066413,
              28.472058
            ],
            [
              77.067545,
              28.470058
            ],
            [
              77.066686,
              28.469104
            ],
            [
              77.066605,
              28.467184
            ],
            [
              77.065824,
              28.467058
            ],
            [
              77.068731,
              28.466792
            ],
            [
              77.069731,
              28.465835
            ],
            [
              77.070295,
              28.467494
            ],
            [
              77.071105,
              28.467432
            ],
            [
              77.0712,
              28.465058
            ],
            [
              77.070063,
              28.463726
            ],
            [
              77.068731,
              28.463466
            ],
            [
              77.066268,
              28.464596
            ],
            [
              77.065731,
              28.46697
            ],
            [
              77.065591,
              28.466199
            ],
            [
              77.062978,
              28.466811
            ],
            [
              77.062938,
              28.466058
            ],
            [
              77.06444,
              28.465768
            ],
            [
              77.063731,
              28.464382
            ],
            [
              77.062218,
              28.466546
            ],
            [
              77.060387,
              28.467058
            ],
            [
              77.059787,
              28.466058
            ],
            [
              77.06035,
              28.464058
            ],
            [
              77.05983,
              28.462058
            ],
            [
              77.060567,
              28.461894
            ],
            [
              77.060017,
              28.459058
            ],
            [
              77.051675,
              28.458058
            ],
            [
              77.052583,
              28.450058
            ],
            [
              77.054174,
              28.449502
            ],
            [
              77.054392,
              28.44872
            ],
            [
              77.053503,
              28.446831
            ],
            [
              77.053871,
              28.445918
            ],
            [
              77.052618,
              28.444058
            ],
            [
              77.056193,
              28.443058
            ],
            [
              77.054243,
              28.441058
            ],
            [
              77.054463,
              28.439791
            ],
            [
              77.0562,
              28.440058
            ],
            [
              77.056059,
              28.438058
            ],
            [
              77.054577,
              28.436058
            ],
            [
              77.054868,
              28.430058
            ],
            [
              77.056072,
              28.428058
            ],
            [
              77.055386,
              28.425058
            ],
            [
              77.056731,
              28.424569
            ],
            [
              77.059807,
              28.424982
            ],
            [
              77.060511,
              28.427058
            ],
            [
              77.062731,
              28.42841
            ],
            [
              77.063511,
              28.425058
            ],
            [
              77.06778,
              28.425009
            ],
            [
              77.067929,
              28.428257
            ],
            [
              77.066964,
              28.429058
            ],
            [
              77.067731,
              28.429486
            ],
            [
              77.068731,
              28.428519
            ],
            [
              77.069465,
              28.430325
            ],
            [
              77.070731,
              28.430392
            ],
            [
              77.072062,
              28.429058
            ],
            [
              77.070592,
              28.427197
            ],
            [
              77.070469,
              28.425796
            ],
            [
              77.072955,
              28.425834
            ],
            [
              77.073708,
              28.427081
            ],
            [
              77.074731,
              28.42696
            ],
            [
              77.077731,
              28.423583
            ],
            [
              77.080112,
              28.423677
            ],
            [
              77.080691,
              28.424058
            ],
            [
              77.08,
              28.425058
            ],
            [
              77.081066,
              28.425394
            ],
            [
              77.081689,
              28.422016
            ],
            [
              77.086731,
              28.41934
            ],
            [
              77.087731,
              28.417934
            ],
            [
              77.088731,
              28.418533
            ],
            [
              77.089669,
              28.418058
            ],
            [
              77.088592,
              28.41692
            ],
            [
              77.090731,
              28.414978
            ],
            [
              77.091389,
              28.416401
            ],
            [
              77.094731,
              28.417515
            ],
            [
              77.094706,
              28.420083
            ],
            [
              77.096731,
              28.41932
            ],
            [
              77.098467,
              28.421058
            ],
            [
              77.097213,
              28.422058
            ],
            [
              77.097731,
              28.422668
            ],
            [
              77.098731,
              28.42161
            ],
            [
              77.102217,
              28.424058
            ],
            [
              77.101558,
              28.425058
            ],
            [
              77.103964,
              28.427058
            ],
            [
              77.10444,
              28.42935
            ],
            [
              77.105731,
              28.429083
            ],
            [
              77.106366,
              28.430423
            ],
            [
              77.108533,
              28.431058
            ],
            [
              77.108254,
              28.432058
            ],
            [
              77.105894,
              28.433222
            ],
            [
              77.104731,
              28.434694
            ],
            [
              77.103731,
              28.43441
            ],
            [
              77.101731,
              28.435365
            ],
            [
              77.100131,
              28.433658
            ],
            [
              77.098731,
              28.433484
            ],
            [
              77.098275,
              28.436058
            ],
            [
              77.103731,
              28.438134
            ],
            [
              77.104404,
              28.440058
            ],
            [
              77.103812,
              28.44114
            ],
            [
              77.102244,
              28.441571
            ],
            [
              77.102098,
              28.443058
            ],
            [
              77.102731,
              28.443705
            ],
            [
              77.104731,
              28.442825
            ],
            [
              77.105124,
              28.443666
            ],
            [
              77.106816,
              28.444058
            ],
            [
              77.107109,
              28.447058
            ],
            [
              77.106767,
              28.448094
            ],
            [
              77.10585,
              28.448178
            ],
            [
              77.10629,
              28.449499
            ],
            [
              77.11319,
              28.450058
            ],
            [
              77.107311,
              28.450639
            ],
            [
              77.106038,
              28.452058
            ],
            [
              77.107808,
              28.452981
            ],
            [
              77.107731,
              28.4548
            ],
            [
              77.106731,
              28.454204
            ],
            [
              77.105731,
              28.455122
            ],
            [
              77.104642,
              28.455058
            ],
            [
              77.10548,
              28.453058
            ],
            [
              77.105119,
              28.450671
            ],
            [
              77.101938,
              28.451265
            ],
            [
              77.101731,
              28.452126
            ],
            [
              77.10074,
              28.452058
            ],
            [
              77.101601,
              28.451928
            ],
            [
              77.101097,
              28.450692
            ],
            [
              77.099691,
              28.451019
            ],
            [
              77.09949,
              28.452817
            ],
            [
              77.098538,
              28.453058
            ],
            [
              77.098217,
              28.456058
            ],
            [
              77.097141,
              28.457058
            ],
            [
              77.096989,
              28.459316
            ],
            [
              77.096077,
              28.460058
            ],
            [
              77.096142,
              28.46247
            ],
            [
              77.091731,
              28.464261
            ],
            [
              77.089731,
              28.463638
            ],
            [
              77.089149,
              28.465058
            ],
            [
              77.086857,
              28.466185
            ],
            [
              77.08672,
              28.46707
            ],
            [
              77.085731,
              28.466056
            ],
            [
              77.083731,
              28.465967
            ],
            [
              77.083731,
              28.470672
            ],
            [
              77.079731,
              28.472619
            ],
            [
              77.075731,
              28.468949
            ],
            [
              77.074731,
              28.46939
            ],
            [
              77.073602,
              28.471058
            ],
            [
              77.074731,
              28.473072
            ],
            [
              77.071731,
              28.476519
            ]
          ]
        ],
        "type": "Polygon"
      },
      "type": "Feature"
    },
    {
      "properties": {
        "fill-opacity": 0.33,
        "fillColor": "#bf4040",
        "opacity": 0.33,
        "fill": "#bf4040",
        "fillOpacity": 0.33,
        "color": "#bf4040",
        "contour": 5.0,
        "metric": "distance",
        "provider_name": "The Old Delhi",
        "zone_type": "distance",
        "distance_km": 5,
        "mode": "motorcycle",
        "center_lat": 28.44505889,
        "center_lon": 77.08073125,
        "label": "5km"
      },
      "geometry": {
        "coordinates": [
          [
            [
              77.079731,
              28.480075
            ],
            [
              77.077731,
              28.479398
            ],
            [
              77.075731,
              28.480707
            ],
            [
              77.074731,
              28.480053
            ],
            [
              77.073731,
              28.480571
            ],
            [
              77.072633,
              28.479156
            ],
            [
              77.069731,
              28.478723
            ],
            [
              77.068333,
              28.477456
            ],
            [
              77.063649,
              28.47714
            ],
            [
              77.062951,
              28.476058
            ],
            [
              77.064773,
              28.473016
            ],
            [
              77.063953,
              28.472836
            ],
            [
              77.063731,
              28.471824
            ],
            [
              77.062321,
              28.471648
            ],
            [
              77.062447,
              28.472775
            ],
            [
              77.061731,
              28.473057
            ],
            [
              77.057731,
              28.469756
            ],
            [
              77.056325,
              28.473653
            ],
            [
              77.054841,
              28.473948
            ],
            [
              77.054415,
              28.473058
            ],
            [
              77.056231,
              28.469058
            ],
            [
              77.05497,
              28.46582
            ],
            [
              77.053341,
              28.464448
            ],
            [
              77.048731,
              28.464255
            ],
            [
              77.047339,
              28.462451
            ],
            [
              77.047304,
              28.460058
            ],
            [
              77.048222,
              28.459058
            ],
            [
              77.044689,
              28.455017
            ],
            [
              77.045232,
              28.452058
            ],
            [
              77.046731,
              28.451905
            ],
            [
              77.047484,
              28.451058
            ],
            [
              77.045127,
              28.449058
            ],
            [
              77.046862,
              28.446058
            ],
            [
              77.045505,
              28.442058
            ],
            [
              77.047842,
              28.440947
            ],
            [
              77.04706,
              28.440058
            ],
            [
              77.047634,
              28.439962
            ],
            [
              77.047706,
              28.438083
            ],
            [
              77.047015,
              28.437058
            ],
            [
              77.048016,
              28.434058
            ],
            [
              77.047872,
              28.430058
            ],
            [
              77.049461,
              28.428788
            ],
            [
              77.049731,
              28.427103
            ],
            [
              77.051731,
              28.427488
            ],
            [
              77.052856,
              28.426058
            ],
            [
              77.052731,
              28.425002
            ],
            [
              77.050731,
              28.426152
            ],
            [
              77.049691,
              28.425098
            ],
            [
              77.049233,
              28.423058
            ],
            [
              77.050996,
              28.422324
            ],
            [
              77.050859,
              28.42093
            ],
            [
              77.048006,
              28.420058
            ],
            [
              77.048731,
              28.418708
            ],
            [
              77.049731,
              28.418917
            ],
            [
              77.050019,
              28.41977
            ],
            [
              77.051308,
              28.419635
            ],
            [
              77.051602,
              28.418187
            ],
            [
              77.050378,
              28.418058
            ],
            [
              77.050731,
              28.417661
            ],
            [
              77.053731,
              28.417396
            ],
            [
              77.055043,
              28.418058
            ],
            [
              77.056731,
              28.415699
            ],
            [
              77.058888,
              28.417058
            ],
            [
              77.059731,
              28.419938
            ],
            [
              77.060731,
              28.418604
            ],
            [
              77.062731,
              28.418072
            ],
            [
              77.064415,
              28.419374
            ],
            [
              77.068731,
              28.41976
            ],
            [
              77.072123,
              28.418666
            ],
            [
              77.073484,
              28.420305
            ],
            [
              77.074731,
              28.420514
            ],
            [
              77.075731,
              28.418808
            ],
            [
              77.077731,
              28.418449
            ],
            [
              77.079731,
              28.421716
            ],
            [
              77.079986,
              28.419058
            ],
            [
              77.078105,
              28.417058
            ],
            [
              77.079147,
              28.416058
            ],
            [
              77.078975,
              28.414058
            ],
            [
              77.082329,
              28.413657
            ],
            [
              77.08252,
              28.412269
            ],
            [
              77.08172,
              28.412048
            ],
            [
              77.084731,
              28.411859
            ],
            [
              77.087347,
              28.410675
            ],
            [
              77.089731,
              28.407891
            ],
            [
              77.09016,
              28.409629
            ],
            [
              77.091213,
              28.40954
            ],
            [
              77.091731,
              28.40601
            ],
            [
              77.09235,
              28.408439
            ],
            [
              77.09436,
              28.408058
            ],
            [
              77.093264,
              28.411525
            ],
            [
              77.094828,
              28.411961
            ],
            [
              77.095143,
              28.413646
            ],
            [
              77.097325,
              28.415058
            ],
            [
              77.097571,
              28.416218
            ],
            [
              77.099655,
              28.416134
            ],
            [
              77.099991,
              28.416798
            ],
            [
              77.101731,
              28.415668
            ],
            [
              77.103084,
              28.417058
            ],
            [
              77.102221,
              28.417548
            ],
            [
              77.102363,
              28.418426
            ],
            [
              77.104516,
              28.419273
            ],
            [
              77.104731,
              28.420597
            ],
            [
              77.105731,
              28.419984
            ],
            [
              77.113731,
              28.426733
            ],
            [
              77.113006,
              28.429334
            ],
            [
              77.11395,
              28.431277
            ],
            [
              77.111731,
              28.432713
            ],
            [
              77.110731,
              28.431762
            ],
            [
              77.109619,
              28.433171
            ],
            [
              77.112255,
              28.439058
            ],
            [
              77.109731,
              28.439263
            ],
            [
              77.109259,
              28.438531
            ],
            [
              77.107731,
              28.43838
            ],
            [
              77.105365,
              28.439693
            ],
            [
              77.104086,
              28.441413
            ],
            [
              77.102449,
              28.441777
            ],
            [
              77.102474,
              28.443315
            ],
            [
              77.104731,
              28.442492
            ],
            [
              77.105731,
              28.443515
            ],
            [
              77.106506,
              28.443058
            ],
            [
              77.105633,
              28.441961
            ],
            [
              77.106731,
              28.441879
            ],
            [
              77.107731,
              28.442774
            ],
            [
              77.108731,
              28.44186
            ],
            [
              77.110284,
              28.443505
            ],
            [
              77.11285,
              28.443939
            ],
            [
              77.112992,
              28.446058
            ],
            [
              77.112117,
              28.447058
            ],
            [
              77.11337,
              28.448419
            ],
            [
              77.122681,
              28.449008
            ],
            [
              77.122731,
              28.448053
            ],
            [
              77.122794,
              28.449058
            ],
            [
              77.121827,
              28.449154
            ],
            [
              77.121731,
              28.450068
            ],
            [
              77.121469,
              28.44932
            ],
            [
              77.115731,
              28.449486
            ],
            [
              77.114731,
              28.45052
            ],
            [
              77.107473,
              28.450801
            ],
            [
              77.106321,
              28.452058
            ],
            [
              77.108085,
              28.452705
            ],
            [
              77.109214,
              28.455058
            ],
            [
              77.108731,
              28.456513
            ],
            [
              77.106731,
              28.454598
            ],
            [
              77.105731,
              28.4557
            ],
            [
              77.104382,
              28.455407
            ],
            [
              77.104976,
              28.450813
            ],
            [
              77.103488,
              28.450815
            ],
            [
              77.102076,
              28.452403
            ],
            [
              77.100371,
              28.452699
            ],
            [
              77.10024,
              28.454549
            ],
            [
              77.101232,
              28.456558
            ],
            [
              77.102806,
              28.456983
            ],
            [
              77.103856,
              28.458184
            ],
            [
              77.102306,
              28.458634
            ],
            [
              77.101731,
              28.459877
            ],
            [
              77.100951,
              28.457838
            ],
            [
              77.098506,
              28.457834
            ],
            [
              77.099036,
              28.459058
            ],
            [
              77.098487,
              28.461058
            ],
            [
              77.099915,
              28.461243
            ],
            [
              77.101731,
              28.4602
            ],
            [
              77.103725,
              28.462058
            ],
            [
              77.10308,
              28.463058
            ],
            [
              77.103731,
              28.46448
            ],
            [
              77.097731,
              28.464665
            ],
            [
              77.096457,
              28.463785
            ],
            [
              77.095353,
              28.466437
            ],
            [
              77.097486,
              28.467058
            ],
            [
              77.093731,
              28.470909
            ],
            [
              77.093491,
              28.469298
            ],
            [
              77.088494,
              28.468296
            ],
            [
              77.088293,
              28.467058
            ],
            [
              77.087485,
              28.466813
            ],
            [
              77.086247,
              28.468542
            ],
            [
              77.089987,
              28.472058
            ],
            [
              77.088829,
              28.475157
            ],
            [
              77.086731,
              28.475254
            ],
            [
              77.086363,
              28.474427
            ],
            [
              77.084959,
              28.474287
            ],
            [
              77.083759,
              28.478087
            ],
            [
              77.080731,
              28.477552
            ],
            [
              77.079731,
              28.480075
            ]
          ]
        ],
        "type": "Polygon"
      },
      "type": "Feature"
    },
    {
      "properties": {
        "fill-opacity": 0.33,
        "fillColor": "#bf4040",
        "opacity": 0.33,
        "fill": "#bf4040",
        "fillOpacity": 0.33,
        "color": "#bf4040",
        "contour": 6.0,
        "metric": "distance",
        "provider_name": "The Old Delhi",
        "zone_type": "distance",
        "distance_km": 6,
        "mode": "motorcycle",
        "center_lat": 28.44505889,
        "center_lon": 77.08073125,
        "label": "6km"
      },
      "geometry": {
        "coordinates": [
          [
            [
              77.078731,
              28.487179
            ],
            [
              77.071548,
              28.482241
            ],
            [
              77.070731,
              28.480427
            ],
            [
              77.069251,
              28.480579
            ],
            [
              77.068731,
              28.481633
            ],
            [
              77.065731,
              28.482815
            ],
            [
              77.065519,
              28.479846
            ],
            [
              77.065924,
              28.479058
            ],
            [
              77.067731,
              28.478804
            ],
            [
              77.067731,
              28.477808
            ],
            [
              77.063974,
              28.478058
            ],
            [
              77.063731,
              28.479791
            ],
            [
              77.060731,
              28.48052
            ],
            [
              77.057731,
              28.480134
            ],
            [
              77.057553,
              28.479236
            ],
            [
              77.055731,
              28.478333
            ],
            [
              77.054152,
              28.47848
            ],
            [
              77.053731,
              28.479252
            ],
            [
              77.051731,
              28.478519
            ],
            [
              77.049731,
              28.481296
            ],
            [
              77.048623,
              28.481167
            ],
            [
              77.04851,
              28.479058
            ],
            [
              77.051298,
              28.475626
            ],
            [
              77.052901,
              28.475228
            ],
            [
              77.052992,
              28.47432
            ],
            [
              77.05386,
              28.474058
            ],
            [
              77.050731,
              28.47333
            ],
            [
              77.049731,
              28.471972
            ],
            [
              77.045381,
              28.470409
            ],
            [
              77.045306,
              28.469058
            ],
            [
              77.043275,
              28.468058
            ],
            [
              77.04443,
              28.467058
            ],
            [
              77.04419,
              28.465599
            ],
            [
              77.041542,
              28.465058
            ],
            [
              77.040961,
              28.463058
            ],
            [
              77.041534,
              28.458058
            ],
            [
              77.044154,
              28.457058
            ],
            [
              77.044744,
              28.456045
            ],
            [
              77.040731,
              28.453905
            ],
            [
              77.039156,
              28.455484
            ],
            [
              77.037923,
              28.455058
            ],
            [
              77.038165,
              28.449058
            ],
            [
              77.039538,
              28.446866
            ],
            [
              77.040123,
              28.443058
            ],
            [
              77.039617,
              28.441173
            ],
            [
              77.040525,
              28.437264
            ],
            [
              77.040277,
              28.434058
            ],
            [
              77.042036,
              28.431058
            ],
            [
              77.041187,
              28.429602
            ],
            [
              77.038873,
              28.429058
            ],
            [
              77.044731,
              28.426118
            ],
            [
              77.045275,
              28.427514
            ],
            [
              77.046102,
              28.427429
            ],
            [
              77.044137,
              28.424652
            ],
            [
              77.042731,
              28.424551
            ],
            [
              77.042489,
              28.4233
            ],
            [
              77.040909,
              28.423237
            ],
            [
              77.040731,
              28.423901
            ],
            [
              77.039807,
              28.423058
            ],
            [
              77.04056,
              28.422888
            ],
            [
              77.041589,
              28.420058
            ],
            [
              77.039947,
              28.419275
            ],
            [
              77.039731,
              28.420883
            ],
            [
              77.039597,
              28.419058
            ],
            [
              77.041362,
              28.41869
            ],
            [
              77.041355,
              28.417434
            ],
            [
              77.040432,
              28.417058
            ],
            [
              77.040731,
              28.415054
            ],
            [
              77.041731,
              28.415286
            ],
            [
              77.042731,
              28.413895
            ],
            [
              77.046107,
              28.415435
            ],
            [
              77.046392,
              28.413719
            ],
            [
              77.048227,
              28.413058
            ],
            [
              77.047159,
              28.412058
            ],
            [
              77.047731,
              28.4114
            ],
            [
              77.049976,
              28.411304
            ],
            [
              77.050099,
              28.409427
            ],
            [
              77.051731,
              28.408507
            ],
            [
              77.053046,
              28.410743
            ],
            [
              77.054731,
              28.411779
            ],
            [
              77.056228,
              28.411556
            ],
            [
              77.056525,
              28.410058
            ],
            [
              77.057617,
              28.409944
            ],
            [
              77.057731,
              28.409016
            ],
            [
              77.057938,
              28.410058
            ],
            [
              77.057207,
              28.411058
            ],
            [
              77.059197,
              28.412058
            ],
            [
              77.059376,
              28.413413
            ],
            [
              77.063731,
              28.411099
            ],
            [
              77.065731,
              28.412996
            ],
            [
              77.067151,
              28.412058
            ],
            [
              77.067731,
              28.410517
            ],
            [
              77.068086,
              28.412703
            ],
            [
              77.070731,
              28.412936
            ],
            [
              77.07138,
              28.412058
            ],
            [
              77.069731,
              28.41113
            ],
            [
              77.069731,
              28.410491
            ],
            [
              77.069766,
              28.411023
            ],
            [
              77.071398,
              28.410725
            ],
            [
              77.071731,
              28.409019
            ],
            [
              77.074731,
              28.409505
            ],
            [
              77.076799,
              28.40699
            ],
            [
              77.078368,
              28.412421
            ],
            [
              77.079731,
              28.413536
            ],
            [
              77.081731,
              28.413498
            ],
            [
              77.082189,
              28.413058
            ],
            [
              77.081395,
              28.411722
            ],
            [
              77.08504,
              28.411367
            ],
            [
              77.084443,
              28.409771
            ],
            [
              77.085731,
              28.409627
            ],
            [
              77.086731,
              28.410512
            ],
            [
              77.089217,
              28.408058
            ],
            [
              77.087499,
              28.406058
            ],
            [
              77.088202,
              28.404587
            ],
            [
              77.086731,
              28.403777
            ],
            [
              77.084309,
              28.404058
            ],
            [
              77.083693,
              28.40302
            ],
            [
              77.08423,
              28.402058
            ],
            [
              77.087731,
              28.400264
            ],
            [
              77.087894,
              28.400896
            ],
            [
              77.089456,
              28.400783
            ],
            [
              77.091731,
              28.399538
            ],
            [
              77.092731,
              28.397148
            ],
            [
              77.093731,
              28.397836
            ],
            [
              77.092947,
              28.398274
            ],
            [
              77.093165,
              28.399624
            ],
            [
              77.095169,
              28.39962
            ],
            [
              77.096459,
              28.401058
            ],
            [
              77.095605,
              28.402184
            ],
            [
              77.098701,
              28.403058
            ],
            [
              77.097987,
              28.404058
            ],
            [
              77.098731,
              28.404832
            ],
            [
              77.101712,
              28.405058
            ],
            [
              77.101321,
              28.406469
            ],
            [
              77.104616,
              28.409058
            ],
            [
              77.102162,
              28.40949
            ],
            [
              77.10235,
              28.413439
            ],
            [
              77.104731,
              28.413739
            ],
            [
              77.105731,
              28.414811
            ],
            [
              77.107666,
              28.414993
            ],
            [
              77.109731,
              28.414207
            ],
            [
              77.109259,
              28.41753
            ],
            [
              77.110845,
              28.417944
            ],
            [
              77.111087,
              28.418702
            ],
            [
              77.116791,
              28.419058
            ],
            [
              77.114859,
              28.422186
            ],
            [
              77.113093,
              28.422421
            ],
            [
              77.112205,
              28.424058
            ],
            [
              77.117764,
              28.429092
            ],
            [
              77.116681,
              28.429108
            ],
            [
              77.114731,
              28.427349
            ],
            [
              77.113307,
              28.429058
            ],
            [
              77.114329,
              28.431058
            ],
            [
              77.112157,
              28.433058
            ],
            [
              77.115915,
              28.434874
            ],
            [
              77.116115,
              28.438058
            ],
            [
              77.113731,
              28.438512
            ],
            [
              77.112731,
              28.439535
            ],
            [
              77.109731,
              28.439615
            ],
            [
              77.107731,
              28.438654
            ],
            [
              77.105495,
              28.439822
            ],
            [
              77.104185,
              28.441513
            ],
            [
              77.102533,
              28.441861
            ],
            [
              77.102545,
              28.443244
            ],
            [
              77.103731,
              28.442356
            ],
            [
              77.105096,
              28.442424
            ],
            [
              77.105731,
              28.441519
            ],
            [
              77.107731,
              28.442476
            ],
            [
              77.108731,
              28.441503
            ],
            [
              77.110463,
              28.443326
            ],
            [
              77.113097,
              28.443692
            ],
            [
              77.113306,
              28.446058
            ],
            [
              77.112351,
              28.447058
            ],
            [
              77.113497,
              28.448293
            ],
            [
              77.121731,
              28.448648
            ],
            [
              77.122356,
              28.448058
            ],
            [
              77.122481,
              28.442058
            ],
            [
              77.121566,
              28.441058
            ],
            [
              77.121731,
              28.439027
            ],
            [
              77.122046,
              28.440743
            ],
            [
              77.122915,
              28.441058
            ],
            [
              77.123247,
              28.449058
            ],
            [
              77.122067,
              28.450058
            ],
            [
              77.121983,
              28.456058
            ],
            [
              77.12106,
              28.456388
            ],
            [
              77.120598,
              28.458191
            ],
            [
              77.119725,
              28.458064
            ],
            [
              77.120567,
              28.457894
            ],
            [
              77.120547,
              28.456058
            ],
            [
              77.121422,
              28.455058
            ],
            [
              77.121043,
              28.449746
            ],
            [
              77.115731,
              28.449694
            ],
            [
              77.114731,
              28.450709
            ],
            [
              77.107545,
              28.450873
            ],
            [
              77.10644,
              28.452058
            ],
            [
              77.108185,
              28.452605
            ],
            [
              77.109378,
              28.456058
            ],
            [
              77.108731,
              28.456706
            ],
            [
              77.106731,
              28.454743
            ],
            [
              77.105059,
              28.457058
            ],
            [
              77.107894,
              28.468058
            ],
            [
              77.10579,
              28.468117
            ],
            [
              77.105647,
              28.468974
            ],
            [
              77.100731,
              28.472248
            ],
            [
              77.097731,
              28.476083
            ],
            [
              77.094628,
              28.475955
            ],
            [
              77.093731,
              28.479647
            ],
            [
              77.089157,
              28.476058
            ],
            [
              77.086731,
              28.475868
            ],
            [
              77.085486,
              28.474813
            ],
            [
              77.086557,
              28.479233
            ],
            [
              77.089789,
              28.481058
            ],
            [
              77.086731,
              28.48132
            ],
            [
              77.085731,
              28.482254
            ],
            [
              77.080212,
              28.48254
            ],
            [
              77.079111,
              28.483439
            ],
            [
              77.078771,
              28.485018
            ],
            [
              77.079653,
              28.487058
            ],
            [
              77.078731,
              28.487179
            ]
          ]
        ],
        "type": "Polygon"
      },
      "type": "Feature"
    }
  ]
}