{
  "type": "FeatureCollection",
  "metadata": {
    "provider_name": "Rajesh Chole Kulche",
    "center_lat": 28.4537803,
    "center_lon": 77.0401169,
    "mode": "motorcycle",
    "total_zones": 4,
    "distance_zones": [
      3,
      4,
      5,
      6
    ],
    "generated_at": "2025-12-28T09:59:28.624090Z"
  },
  "features": [
    {
      "properties": {
        "fill-opacity": 0.33,
        "fillColor": "#bf4040",
        "opacity": 0.33,
        "fill": "#bf4040",
        "fillOpacity": 0.33,
        "color": "#bf4040",
        "contour": 3.0,
        "metric": "distance",
        "provider_name": "Rajesh Chole Kulche",
        "zone_type": "distance",
        "distance_km": 3,
        "mode": "motorcycle",
        "center_lat": 28.4537803,
        "center_lon": 77.0401169,
        "label": "3km"
      },
      "geometry": {
        "coordinates": [
          [
            [
              77.034116,
              28.474028
            ],
            [
              77.031495,
              28.47278
            ],
            [
              77.031116,
              28.470667
            ],
            [
              77.028116,
              28.47082
            ],
            [
              77.027969,
              28.469928
            ],
            [
              77.027116,
              28.469846
            ],
            [
              77.026412,
              28.470076
            ],
            [
              77.026116,
              28.471621
            ],
            [
              77.025147,
              28.47181
            ],
            [
              77.024417,
              28.47048
            ],
            [
              77.023116,
              28.470726
            ],
            [
              77.022468,
              28.46978
            ],
            [
              77.023419,
              28.469082
            ],
            [
              77.023039,
              28.467702
            ],
            [
              77.024689,
              28.467352
            ],
            [
              77.024653,
              28.466243
            ],
            [
              77.023248,
              28.465911
            ],
            [
              77.021116,
              28.467335
            ],
            [
              77.017979,
              28.463917
            ],
            [
              77.018802,
              28.46278
            ],
            [
              77.018632,
              28.460264
            ],
            [
              77.01778,
              28.45878
            ],
            [
              77.015462,
              28.45778
            ],
            [
              77.014852,
              28.45678
            ],
            [
              77.016036,
              28.455699
            ],
            [
              77.017479,
              28.45078
            ],
            [
              77.021163,
              28.450733
            ],
            [
              77.02286,
              28.452036
            ],
            [
              77.026116,
              28.451113
            ],
            [
              77.027116,
              28.452523
            ],
            [
              77.027843,
              28.45078
            ],
            [
              77.027379,
              28.447518
            ],
            [
              77.02541,
              28.448486
            ],
            [
              77.020116,
              28.44817
            ],
            [
              77.018882,
              28.44578
            ],
            [
              77.021573,
              28.44378
            ],
            [
              77.024116,
              28.443509
            ],
            [
              77.028116,
              28.443363
            ],
            [
              77.030116,
              28.445222
            ],
            [
              77.0333,
              28.444964
            ],
            [
              77.033165,
              28.43878
            ],
            [
              77.033728,
              28.436392
            ],
            [
              77.035825,
              28.43378
            ],
            [
              77.036116,
              28.430679
            ],
            [
              77.038116,
              28.431804
            ],
            [
              77.038895,
              28.43278
            ],
            [
              77.038426,
              28.43378
            ],
            [
              77.040116,
              28.435098
            ],
            [
              77.042116,
              28.433429
            ],
            [
              77.048116,
              28.433804
            ],
            [
              77.049668,
              28.434228
            ],
            [
              77.050035,
              28.43578
            ],
            [
              77.053769,
              28.438128
            ],
            [
              77.056116,
              28.438479
            ],
            [
              77.057116,
              28.437523
            ],
            [
              77.058898,
              28.437562
            ],
            [
              77.059116,
              28.436026
            ],
            [
              77.059916,
              28.43778
            ],
            [
              77.059279,
              28.44078
            ],
            [
              77.063251,
              28.439645
            ],
            [
              77.063675,
              28.44078
            ],
            [
              77.062614,
              28.44278
            ],
            [
              77.063439,
              28.44378
            ],
            [
              77.063189,
              28.444852
            ],
            [
              77.061116,
              28.444929
            ],
            [
              77.061895,
              28.44678
            ],
            [
              77.061056,
              28.44778
            ],
            [
              77.061196,
              28.45278
            ],
            [
              77.059053,
              28.45478
            ],
            [
              77.059381,
              28.459044
            ],
            [
              77.056947,
              28.459611
            ],
            [
              77.054116,
              28.459183
            ],
            [
              77.053116,
              28.460158
            ],
            [
              77.052116,
              28.459169
            ],
            [
              77.050812,
              28.46078
            ],
            [
              77.056873,
              28.466023
            ],
            [
              77.057337,
              28.471
            ],
            [
              77.056116,
              28.472736
            ],
            [
              77.054972,
              28.47078
            ],
            [
              77.055742,
              28.46878
            ],
            [
              77.055116,
              28.467205
            ],
            [
              77.054116,
              28.468219
            ],
            [
              77.052116,
              28.468083
            ],
            [
              77.049116,
              28.470008
            ],
            [
              77.047116,
              28.468107
            ],
            [
              77.045496,
              28.46878
            ],
            [
              77.046329,
              28.46978
            ],
            [
              77.043379,
              28.470042
            ],
            [
              77.04284,
              28.46978
            ],
            [
              77.043513,
              28.468384
            ],
            [
              77.0416,
              28.46778
            ],
            [
              77.041195,
              28.465701
            ],
            [
              77.039934,
              28.465598
            ],
            [
              77.03787,
              28.46678
            ],
            [
              77.040376,
              28.47078
            ],
            [
              77.040239,
              28.47178
            ],
            [
              77.037116,
              28.471637
            ],
            [
              77.035004,
              28.472667
            ],
            [
              77.034116,
              28.474028
            ]
          ]
        ],
        "type": "Polygon"
      },
      "type": "Feature"
    },
    {
      "properties": {
        "fill-opacity": 0.33,
        "fillColor": "#bf4040",
        "opacity": 0.33,
        "fill": "#bf4040",
        "fillOpacity": 0.33,
        "color": "#bf4040",
        "contour": 4.0,
        "metric": "distance",
        "provider_name": "Rajesh Chole Kulche",
        "zone_type": "distance",
        "distance_km": 4,
        "mode": "motorcycle",
        "center_lat": 28.4537803,
        "center_lon": 77.0401169,
        "label": "4km"
      },
      "geometry": {
        "coordinates": [
          [
            [
              77.035116,
              28.48096
            ],
            [
              77.034116,
              28.479006
            ],
            [
              77.031293,
              28.478956
            ],
            [
              77.030935,
              28.47978
            ],
            [
              77.030126,
              28.47877
            ],
            [
              77.028116,
              28.479165
            ],
            [
              77.027116,
              28.478102
            ],
            [
              77.025999,
              28.478897
            ],
            [
              77.024226,
              28.478671
            ],
            [
              77.023377,
              28.47652
            ],
            [
              77.021116,
              28.475108
            ],
            [
              77.019116,
              28.475377
            ],
            [
              77.018086,
              28.476749
            ],
            [
              77.016116,
              28.477035
            ],
            [
              77.01444,
              28.47378
            ],
            [
              77.014894,
              28.472002
            ],
            [
              77.014013,
              28.47178
            ],
            [
              77.014999,
              28.46978
            ],
            [
              77.012818,
              28.46978
            ],
            [
              77.012286,
              28.46861
            ],
            [
              77.010896,
              28.468
            ],
            [
              77.010448,
              28.463448
            ],
            [
              77.008839,
              28.462057
            ],
            [
              77.008621,
              28.460275
            ],
            [
              77.004629,
              28.45678
            ],
            [
              77.006038,
              28.454702
            ],
            [
              77.007874,
              28.454538
            ],
            [
              77.006831,
              28.45178
            ],
            [
              77.010455,
              28.450118
            ],
            [
              77.010095,
              28.44778
            ],
            [
              77.010954,
              28.443618
            ],
            [
              77.016116,
              28.444141
            ],
            [
              77.015179,
              28.443717
            ],
            [
              77.015252,
              28.442644
            ],
            [
              77.013023,
              28.439873
            ],
            [
              77.013116,
              28.438352
            ],
            [
              77.014116,
              28.43941
            ],
            [
              77.015116,
              28.43872
            ],
            [
              77.017116,
              28.439033
            ],
            [
              77.018116,
              28.438138
            ],
            [
              77.019675,
              28.440221
            ],
            [
              77.021402,
              28.440494
            ],
            [
              77.022116,
              28.443095
            ],
            [
              77.028986,
              28.44291
            ],
            [
              77.030116,
              28.445086
            ],
            [
              77.033116,
              28.4445
            ],
            [
              77.032116,
              28.441134
            ],
            [
              77.028473,
              28.441137
            ],
            [
              77.028116,
              28.442299
            ],
            [
              77.025329,
              28.44078
            ],
            [
              77.027747,
              28.44041
            ],
            [
              77.027878,
              28.43978
            ],
            [
              77.025007,
              28.437889
            ],
            [
              77.025102,
              28.436766
            ],
            [
              77.027116,
              28.43509
            ],
            [
              77.02741,
              28.436487
            ],
            [
              77.030116,
              28.436461
            ],
            [
              77.030828,
              28.43578
            ],
            [
              77.029858,
              28.434521
            ],
            [
              77.033992,
              28.433656
            ],
            [
              77.033805,
              28.432091
            ],
            [
              77.032301,
              28.43078
            ],
            [
              77.033051,
              28.42978
            ],
            [
              77.033256,
              28.43064
            ],
            [
              77.034698,
              28.430361
            ],
            [
              77.034801,
              28.429095
            ],
            [
              77.033116,
              28.428022
            ],
            [
              77.032116,
              28.428333
            ],
            [
              77.031741,
              28.427155
            ],
            [
              77.030034,
              28.42678
            ],
            [
              77.032116,
              28.426542
            ],
            [
              77.033116,
              28.425894
            ],
            [
              77.035116,
              28.425578
            ],
            [
              77.035388,
              28.42578
            ],
            [
              77.034185,
              28.425848
            ],
            [
              77.034633,
              28.427263
            ],
            [
              77.036601,
              28.427264
            ],
            [
              77.037871,
              28.42578
            ],
            [
              77.038061,
              28.422725
            ],
            [
              77.039116,
              28.42195
            ],
            [
              77.039924,
              28.423972
            ],
            [
              77.041729,
              28.42478
            ],
            [
              77.040116,
              28.428906
            ],
            [
              77.044572,
              28.42778
            ],
            [
              77.044914,
              28.429982
            ],
            [
              77.048116,
              28.431243
            ],
            [
              77.049759,
              28.42978
            ],
            [
              77.050116,
              28.427466
            ],
            [
              77.053197,
              28.427699
            ],
            [
              77.055116,
              28.428602
            ],
            [
              77.056116,
              28.427954
            ],
            [
              77.057553,
              28.428344
            ],
            [
              77.057546,
              28.43178
            ],
            [
              77.056035,
              28.432699
            ],
            [
              77.056049,
              28.43378
            ],
            [
              77.057695,
              28.43478
            ],
            [
              77.058116,
              28.436549
            ],
            [
              77.058417,
              28.43308
            ],
            [
              77.060116,
              28.433105
            ],
            [
              77.061116,
              28.432283
            ],
            [
              77.061528,
              28.43378
            ],
            [
              77.060543,
              28.43478
            ],
            [
              77.061116,
              28.43563
            ],
            [
              77.064837,
              28.4355
            ],
            [
              77.064965,
              28.433931
            ],
            [
              77.06407,
              28.433826
            ],
            [
              77.064116,
              28.43324
            ],
            [
              77.064237,
              28.433659
            ],
            [
              77.065168,
              28.433728
            ],
            [
              77.067116,
              28.435079
            ],
            [
              77.068259,
              28.434923
            ],
            [
              77.069116,
              28.433742
            ],
            [
              77.071271,
              28.433625
            ],
            [
              77.071262,
              28.43678
            ],
            [
              77.070387,
              28.43778
            ],
            [
              77.071026,
              28.44069
            ],
            [
              77.070059,
              28.44178
            ],
            [
              77.070758,
              28.44478
            ],
            [
              77.06968,
              28.44778
            ],
            [
              77.066116,
              28.450253
            ],
            [
              77.066116,
              28.450883
            ],
            [
              77.068809,
              28.451088
            ],
            [
              77.068207,
              28.45478
            ],
            [
              77.066791,
              28.455105
            ],
            [
              77.06605,
              28.45378
            ],
            [
              77.067017,
              28.45768
            ],
            [
              77.064185,
              28.459849
            ],
            [
              77.064242,
              28.460906
            ],
            [
              77.062657,
              28.46132
            ],
            [
              77.060226,
              28.463889
            ],
            [
              77.057438,
              28.464101
            ],
            [
              77.058116,
              28.467578
            ],
            [
              77.059961,
              28.467624
            ],
            [
              77.060489,
              28.46678
            ],
            [
              77.06016,
              28.467823
            ],
            [
              77.058473,
              28.468137
            ],
            [
              77.058329,
              28.46878
            ],
            [
              77.060338,
              28.471558
            ],
            [
              77.062116,
              28.472378
            ],
            [
              77.062709,
              28.47378
            ],
            [
              77.062124,
              28.47478
            ],
            [
              77.063542,
              28.47678
            ],
            [
              77.059116,
              28.476419
            ],
            [
              77.059409,
              28.478073
            ],
            [
              77.057116,
              28.479739
            ],
            [
              77.05705,
              28.478847
            ],
            [
              77.054116,
              28.478841
            ],
            [
              77.053852,
              28.478044
            ],
            [
              77.052116,
              28.478051
            ],
            [
              77.05031,
              28.478973
            ],
            [
              77.050116,
              28.480114
            ],
            [
              77.050435,
              28.475461
            ],
            [
              77.049116,
              28.474636
            ],
            [
              77.048214,
              28.47578
            ],
            [
              77.046454,
              28.476117
            ],
            [
              77.046288,
              28.478952
            ],
            [
              77.044836,
              28.47806
            ],
            [
              77.042116,
              28.47786
            ],
            [
              77.041878,
              28.477018
            ],
            [
              77.039116,
              28.476723
            ],
            [
              77.039139,
              28.479803
            ],
            [
              77.037116,
              28.479863
            ],
            [
              77.036116,
              28.479053
            ],
            [
              77.035116,
              28.48096
            ]
          ]
        ],
        "type": "Polygon"
      },
      "type": "Feature"
    },
    {
      "properties": {
        "fill-opacity": 0.33,
        "fillColor": "#bf4040",
        "opacity": 0.33,
        "fill": "#bf4040",
        "fillOpacity": 0.33,
        "color": "#bf4040",
        "contour": 5.0,
        "metric": "distance",
        "provider_name": "Rajesh Chole Kulche",
        "zone_type": "distance",
        "distance_km": 5,
        "mode": "motorcycle",
        "center_lat": 28.4537803,
        "center_lon": 77.0401169,
        "label": "5km"
      },
      "geometry": {
        "coordinates": [
          [
            [
              77.053116,
              28.486415
            ],
            [
              77.051116,
              28.485962
            ],
            [
              77.050206,
              28.48469
            ],
            [
              77.049116,
              28.484866
            ],
            [
              77.048116,
              28.48395
            ],
            [
              77.049613,
              28.483277
            ],
            [
              77.049531,
              28.482366
            ],
            [
              77.046116,
              28.482474
            ],
            [
              77.044662,
              28.481235
            ],
            [
              77.042021,
              28.480875
            ],
            [
              77.041983,
              28.479913
            ],
            [
              77.041223,
              28.47978
            ],
            [
              77.042522,
              28.47878
            ],
            [
              77.041116,
              28.477519
            ],
            [
              77.039853,
              28.47778
            ],
            [
              77.039568,
              28.480231
            ],
            [
              77.037116,
              28.480291
            ],
            [
              77.036116,
              28.479359
            ],
            [
              77.035116,
              28.481329
            ],
            [
              77.034254,
              28.479642
            ],
            [
              77.032116,
              28.479326
            ],
            [
              77.029116,
              28.482316
            ],
            [
              77.028094,
              28.481802
            ],
            [
              77.02547,
              28.482133
            ],
            [
              77.025272,
              28.483936
            ],
            [
              77.024116,
              28.484823
            ],
            [
              77.022835,
              28.483061
            ],
            [
              77.019116,
              28.482924
            ],
            [
              77.018116,
              28.484207
            ],
            [
              77.012116,
              28.485055
            ],
            [
              77.011742,
              28.483154
            ],
            [
              77.010116,
              28.482428
            ],
            [
              77.006295,
              28.471602
            ],
            [
              77.004405,
              28.46878
            ],
            [
              77.006172,
              28.46778
            ],
            [
              77.003116,
              28.464955
            ],
            [
              77.002032,
              28.464865
            ],
            [
              77.001822,
              28.46078
            ],
            [
              77.001116,
              28.460039
            ],
            [
              77.000116,
              28.461087
            ],
            [
              76.999116,
              28.460003
            ],
            [
              76.996843,
              28.460053
            ],
            [
              76.996516,
              28.457381
            ],
            [
              76.994475,
              28.45678
            ],
            [
              76.998908,
              28.45278
            ],
            [
              76.997875,
              28.45178
            ],
            [
              76.998724,
              28.44978
            ],
            [
              76.997711,
              28.448375
            ],
            [
              77.001116,
              28.446578
            ],
            [
              77.003408,
              28.44678
            ],
            [
              77.004116,
              28.447694
            ],
            [
              77.004236,
              28.4469
            ],
            [
              77.005222,
              28.44678
            ],
            [
              77.005871,
              28.44178
            ],
            [
              77.007559,
              28.44078
            ],
            [
              77.00545,
              28.438446
            ],
            [
              77.006464,
              28.43678
            ],
            [
              77.006063,
              28.43478
            ],
            [
              77.007215,
              28.433878
            ],
            [
              77.006309,
              28.43178
            ],
            [
              77.007116,
              28.431495
            ],
            [
              77.008848,
              28.433048
            ],
            [
              77.012116,
              28.43366
            ],
            [
              77.014116,
              28.43226
            ],
            [
              77.016035,
              28.43278
            ],
            [
              77.015577,
              28.43378
            ],
            [
              77.011877,
              28.43554
            ],
            [
              77.014116,
              28.43824
            ],
            [
              77.017116,
              28.436033
            ],
            [
              77.018495,
              28.436158
            ],
            [
              77.018959,
              28.434623
            ],
            [
              77.020116,
              28.434768
            ],
            [
              77.021116,
              28.433092
            ],
            [
              77.021662,
              28.435235
            ],
            [
              77.023511,
              28.435174
            ],
            [
              77.024717,
              28.43378
            ],
            [
              77.024588,
              28.432308
            ],
            [
              77.023339,
              28.432003
            ],
            [
              77.023129,
              28.432792
            ],
            [
              77.022437,
              28.43278
            ],
            [
              77.023076,
              28.432739
            ],
            [
              77.023,
              28.43178
            ],
            [
              77.024116,
              28.430453
            ],
            [
              77.025601,
              28.430264
            ],
            [
              77.02684,
              28.42878
            ],
            [
              77.024116,
              28.427403
            ],
            [
              77.021259,
              28.427922
            ],
            [
              77.02094,
              28.42878
            ],
            [
              77.021072,
              28.427735
            ],
            [
              77.021986,
              28.42678
            ],
            [
              77.021231,
              28.42578
            ],
            [
              77.022116,
              28.424826
            ],
            [
              77.02241,
              28.426486
            ],
            [
              77.023603,
              28.426267
            ],
            [
              77.025116,
              28.422027
            ],
            [
              77.027967,
              28.422929
            ],
            [
              77.031735,
              28.422398
            ],
            [
              77.032116,
              28.421653
            ],
            [
              77.034527,
              28.422369
            ],
            [
              77.035116,
              28.423201
            ],
            [
              77.037647,
              28.42278
            ],
            [
              77.036691,
              28.41878
            ],
            [
              77.039474,
              28.418137
            ],
            [
              77.041116,
              28.413305
            ],
            [
              77.043721,
              28.41578
            ],
            [
              77.04304,
              28.41678
            ],
            [
              77.044848,
              28.41878
            ],
            [
              77.044393,
              28.41978
            ],
            [
              77.047389,
              28.42078
            ],
            [
              77.046322,
              28.420985
            ],
            [
              77.046277,
              28.422619
            ],
            [
              77.047319,
              28.42378
            ],
            [
              77.046022,
              28.424874
            ],
            [
              77.048116,
              28.427321
            ],
            [
              77.049116,
              28.427349
            ],
            [
              77.051116,
              28.425231
            ],
            [
              77.053482,
              28.426145
            ],
            [
              77.053856,
              28.42378
            ],
            [
              77.052775,
              28.421439
            ],
            [
              77.054534,
              28.421362
            ],
            [
              77.055091,
              28.42178
            ],
            [
              77.054267,
              28.421931
            ],
            [
              77.054559,
              28.423338
            ],
            [
              77.056569,
              28.424233
            ],
            [
              77.056797,
              28.4221
            ],
            [
              77.055137,
              28.42178
            ],
            [
              77.057116,
              28.42016
            ],
            [
              77.059711,
              28.422185
            ],
            [
              77.062713,
              28.422183
            ],
            [
              77.064179,
              28.42578
            ],
            [
              77.063459,
              28.42678
            ],
            [
              77.064741,
              28.42878
            ],
            [
              77.064353,
              28.431544
            ],
            [
              77.066116,
              28.433893
            ],
            [
              77.07286,
              28.429524
            ],
            [
              77.073022,
              28.427874
            ],
            [
              77.072116,
              28.427482
            ],
            [
              77.076469,
              28.427427
            ],
            [
              77.077398,
              28.42778
            ],
            [
              77.077817,
              28.42908
            ],
            [
              77.08017,
              28.42978
            ],
            [
              77.078456,
              28.43178
            ],
            [
              77.080443,
              28.434454
            ],
            [
              77.0787,
              28.436364
            ],
            [
              77.07887,
              28.44178
            ],
            [
              77.078116,
              28.442812
            ],
            [
              77.074628,
              28.44378
            ],
            [
              77.077326,
              28.44578
            ],
            [
              77.077491,
              28.44878
            ],
            [
              77.075521,
              28.45078
            ],
            [
              77.076135,
              28.451762
            ],
            [
              77.075323,
              28.451986
            ],
            [
              77.075131,
              28.453795
            ],
            [
              77.074355,
              28.454019
            ],
            [
              77.07375,
              28.45578
            ],
            [
              77.074249,
              28.457912
            ],
            [
              77.072116,
              28.458147
            ],
            [
              77.070116,
              28.460233
            ],
            [
              77.068832,
              28.460496
            ],
            [
              77.068146,
              28.463809
            ],
            [
              77.066547,
              28.46421
            ],
            [
              77.06633,
              28.46578
            ],
            [
              77.067874,
              28.46678
            ],
            [
              77.068207,
              28.46878
            ],
            [
              77.067116,
              28.468776
            ],
            [
              77.066771,
              28.467125
            ],
            [
              77.066116,
              28.467021
            ],
            [
              77.062701,
              28.467365
            ],
            [
              77.061331,
              28.467995
            ],
            [
              77.061116,
              28.468867
            ],
            [
              77.058986,
              28.46878
            ],
            [
              77.060018,
              28.468878
            ],
            [
              77.06097,
              28.470926
            ],
            [
              77.062538,
              28.471358
            ],
            [
              77.068576,
              28.47732
            ],
            [
              77.07315,
              28.477747
            ],
            [
              77.073483,
              28.47878
            ],
            [
              77.071597,
              28.47926
            ],
            [
              77.071813,
              28.48078
            ],
            [
              77.071173,
              28.480837
            ],
            [
              77.070116,
              28.479912
            ],
            [
              77.068039,
              28.48078
            ],
            [
              77.068345,
              28.478552
            ],
            [
              77.066116,
              28.479171
            ],
            [
              77.063116,
              28.482818
            ],
            [
              77.061116,
              28.481155
            ],
            [
              77.059116,
              28.482326
            ],
            [
              77.056304,
              28.479593
            ],
            [
              77.0532,
              28.479696
            ],
            [
              77.053116,
              28.479096
            ],
            [
              77.052664,
              28.48078
            ],
            [
              77.05081,
              28.48178
            ],
            [
              77.05374,
              28.48378
            ],
            [
              77.053116,
              28.486415
            ]
          ]
        ],
        "type": "Polygon"
      },
      "type": "Feature"
    },
    {
      "properties": {
        "fill-opacity": 0.33,
        "fillColor": "#bf4040",
        "opacity": 0.33,
        "fill": "#bf4040",
        "fillOpacity": 0.33,
        "color": "#bf4040",
        "contour": 6.0,
        "metric": "distance",
        "provider_name": "Rajesh Chole Kulche",
        "zone_type": "distance",
        "distance_km": 6,
        "mode": "motorcycle",
        "center_lat": 28.4537803,
        "center_lon": 77.0401169,
        "label": "6km"
      },
      "geometry": {
        "coordinates": [
          [
            [
              77.058116,
              28.493813
            ],
            [
              77.057116,
              28.493725
            ],
            [
              77.054611,
              28.490285
            ],
            [
              77.051116,
              28.487245
            ],
            [
              77.050655,
              28.488241
            ],
            [
              77.053201,
              28.490695
            ],
            [
              77.053116,
              28.491444
            ],
            [
              77.052116,
              28.490919
            ],
            [
              77.051116,
              28.491814
            ],
            [
              77.050833,
              28.491064
            ],
            [
              77.049169,
              28.490832
            ],
            [
              77.049116,
              28.491631
            ],
            [
              77.048612,
              28.490284
            ],
            [
              77.046116,
              28.489344
            ],
            [
              77.044116,
              28.490163
            ],
            [
              77.042431,
              28.48978
            ],
            [
              77.04464,
              28.487304
            ],
            [
              77.044637,
              28.486259
            ],
            [
              77.043477,
              28.48614
            ],
            [
              77.043116,
              28.486846
            ],
            [
              77.042788,
              28.486109
            ],
            [
              77.040515,
              28.48578
            ],
            [
              77.043588,
              28.484252
            ],
            [
              77.043548,
              28.483349
            ],
            [
              77.038738,
              28.483158
            ],
            [
              77.038397,
              28.48178
            ],
            [
              77.039738,
              28.48078
            ],
            [
              77.036395,
              28.480501
            ],
            [
              77.036116,
              28.479484
            ],
            [
              77.035752,
              28.481416
            ],
            [
              77.034447,
              28.48178
            ],
            [
              77.034296,
              28.48578
            ],
            [
              77.033116,
              28.48693
            ],
            [
              77.031116,
              28.487371
            ],
            [
              77.029246,
              28.48678
            ],
            [
              77.030041,
              28.48578
            ],
            [
              77.028825,
              28.48378
            ],
            [
              77.025961,
              28.482624
            ],
            [
              77.027116,
              28.485248
            ],
            [
              77.029072,
              28.486824
            ],
            [
              77.028991,
              28.488655
            ],
            [
              77.027116,
              28.491029
            ],
            [
              77.025116,
              28.490916
            ],
            [
              77.024116,
              28.492005
            ],
            [
              77.020116,
              28.492589
            ],
            [
              77.017116,
              28.490817
            ],
            [
              77.015116,
              28.492005
            ],
            [
              77.013116,
              28.491881
            ],
            [
              77.010803,
              28.490093
            ],
            [
              77.010445,
              28.488451
            ],
            [
              77.009116,
              28.487283
            ],
            [
              77.006888,
              28.487551
            ],
            [
              77.005476,
              28.489139
            ],
            [
              77.003803,
              28.489093
            ],
            [
              77.003822,
              28.487485
            ],
            [
              77.007393,
              28.486057
            ],
            [
              77.007447,
              28.48445
            ],
            [
              77.005919,
              28.483977
            ],
            [
              77.005506,
              28.48239
            ],
            [
              77.001707,
              28.478189
            ],
            [
              76.999855,
              28.47778
            ],
            [
              76.999491,
              28.472406
            ],
            [
              76.998116,
              28.471982
            ],
            [
              76.99691,
              28.467986
            ],
            [
              76.995868,
              28.46778
            ],
            [
              76.994116,
              28.465683
            ],
            [
              76.99198,
              28.464917
            ],
            [
              76.989825,
              28.461071
            ],
            [
              76.986116,
              28.460062
            ],
            [
              76.984222,
              28.45778
            ],
            [
              76.987116,
              28.455229
            ],
            [
              76.991908,
              28.45478
            ],
            [
              76.991438,
              28.450459
            ],
            [
              76.988324,
              28.44678
            ],
            [
              76.988628,
              28.444291
            ],
            [
              76.994116,
              28.442104
            ],
            [
              76.995116,
              28.442343
            ],
            [
              76.995673,
              28.44478
            ],
            [
              76.996972,
              28.445924
            ],
            [
              76.998322,
              28.44478
            ],
            [
              76.997513,
              28.443177
            ],
            [
              76.999523,
              28.43978
            ],
            [
              76.997977,
              28.43778
            ],
            [
              76.999495,
              28.435158
            ],
            [
              76.998967,
              28.43363
            ],
            [
              76.999465,
              28.43078
            ],
            [
              77.001116,
              28.431005
            ],
            [
              77.002116,
              28.429914
            ],
            [
              77.003116,
              28.430339
            ],
            [
              77.003426,
              28.429089
            ],
            [
              77.000889,
              28.426008
            ],
            [
              77.001116,
              28.423882
            ],
            [
              77.005121,
              28.424775
            ],
            [
              77.006116,
              28.426522
            ],
            [
              77.007719,
              28.426382
            ],
            [
              77.007963,
              28.424626
            ],
            [
              77.010139,
              28.424758
            ],
            [
              77.009467,
              28.42878
            ],
            [
              77.009103,
              28.428793
            ],
            [
              77.008796,
              28.427101
            ],
            [
              77.007421,
              28.42778
            ],
            [
              77.007704,
              28.429192
            ],
            [
              77.009116,
              28.430357
            ],
            [
              77.010116,
              28.428811
            ],
            [
              77.014116,
              28.429467
            ],
            [
              77.015924,
              28.426587
            ],
            [
              77.018518,
              28.426182
            ],
            [
              77.017604,
              28.423293
            ],
            [
              77.016429,
              28.423093
            ],
            [
              77.015116,
              28.424273
            ],
            [
              77.014643,
              28.42378
            ],
            [
              77.016721,
              28.422384
            ],
            [
              77.016237,
              28.4199
            ],
            [
              77.017116,
              28.419346
            ],
            [
              77.019116,
              28.422227
            ],
            [
              77.022554,
              28.421217
            ],
            [
              77.022592,
              28.419304
            ],
            [
              77.021116,
              28.417617
            ],
            [
              77.022116,
              28.41754
            ],
            [
              77.024116,
              28.419633
            ],
            [
              77.026002,
              28.419666
            ],
            [
              77.026116,
              28.419059
            ],
            [
              77.02621,
              28.419686
            ],
            [
              77.025563,
              28.42078
            ],
            [
              77.027116,
              28.422278
            ],
            [
              77.031179,
              28.421842
            ],
            [
              77.031713,
              28.42078
            ],
            [
              77.03103,
              28.41778
            ],
            [
              77.032721,
              28.417385
            ],
            [
              77.033362,
              28.41578
            ],
            [
              77.032814,
              28.414477
            ],
            [
              77.035116,
              28.412839
            ],
            [
              77.036116,
              28.414643
            ],
            [
              77.039229,
              28.413892
            ],
            [
              77.039325,
              28.412988
            ],
            [
              77.040132,
              28.412764
            ],
            [
              77.038709,
              28.40978
            ],
            [
              77.042545,
              28.409208
            ],
            [
              77.04297,
              28.40578
            ],
            [
              77.044116,
              28.404531
            ],
            [
              77.044889,
              28.407008
            ],
            [
              77.046447,
              28.40778
            ],
            [
              77.045872,
              28.409024
            ],
            [
              77.048048,
              28.40978
            ],
            [
              77.050364,
              28.41178
            ],
            [
              77.048435,
              28.41478
            ],
            [
              77.051794,
              28.41578
            ],
            [
              77.052729,
              28.41778
            ],
            [
              77.051852,
              28.419045
            ],
            [
              77.054116,
              28.419028
            ],
            [
              77.055116,
              28.420099
            ],
            [
              77.056737,
              28.417401
            ],
            [
              77.058116,
              28.417289
            ],
            [
              77.05947,
              28.418426
            ],
            [
              77.060116,
              28.420377
            ],
            [
              77.061929,
              28.41878
            ],
            [
              77.058961,
              28.416935
            ],
            [
              77.060116,
              28.415628
            ],
            [
              77.061137,
              28.415801
            ],
            [
              77.063116,
              28.414492
            ],
            [
              77.066116,
              28.414774
            ],
            [
              77.067635,
              28.417261
            ],
            [
              77.070116,
              28.416305
            ],
            [
              77.070741,
              28.417155
            ],
            [
              77.071105,
              28.41778
            ],
            [
              77.069116,
              28.419107
            ],
            [
              77.068084,
              28.42178
            ],
            [
              77.069786,
              28.42278
            ],
            [
              77.070104,
              28.42478
            ],
            [
              77.071937,
              28.425959
            ],
            [
              77.072749,
              28.424413
            ],
            [
              77.073463,
              28.424433
            ],
            [
              77.074517,
              28.42578
            ],
            [
              77.073779,
              28.427117
            ],
            [
              77.076116,
              28.425333
            ],
            [
              77.079116,
              28.426428
            ],
            [
              77.080116,
              28.425556
            ],
            [
              77.081812,
              28.425476
            ],
            [
              77.082091,
              28.423806
            ],
            [
              77.081099,
              28.42378
            ],
            [
              77.082195,
              28.423701
            ],
            [
              77.087116,
              28.426527
            ],
            [
              77.090322,
              28.42978
            ],
            [
              77.088626,
              28.43078
            ],
            [
              77.088848,
              28.43178
            ],
            [
              77.087401,
              28.433065
            ],
            [
              77.086217,
              28.43888
            ],
            [
              77.083801,
              28.439465
            ],
            [
              77.083116,
              28.441643
            ],
            [
              77.081116,
              28.441194
            ],
            [
              77.080557,
              28.44178
            ],
            [
              77.08207,
              28.442733
            ],
            [
              77.084857,
              28.44278
            ],
            [
              77.083454,
              28.444118
            ],
            [
              77.083519,
              28.445378
            ],
            [
              77.085846,
              28.44578
            ],
            [
              77.083116,
              28.445995
            ],
            [
              77.082434,
              28.44778
            ],
            [
              77.083116,
              28.448522
            ],
            [
              77.085435,
              28.448461
            ],
            [
              77.086601,
              28.44978
            ],
            [
              77.085116,
              28.450165
            ],
            [
              77.084116,
              28.449228
            ],
            [
              77.083116,
              28.450092
            ],
            [
              77.081366,
              28.450029
            ],
            [
              77.078749,
              28.448413
            ],
            [
              77.07844,
              28.450103
            ],
            [
              77.075914,
              28.452578
            ],
            [
              77.074946,
              28.45478
            ],
            [
              77.075116,
              28.456742
            ],
            [
              77.077165,
              28.45978
            ],
            [
              77.075116,
              28.459529
            ],
            [
              77.07436,
              28.46078
            ],
            [
              77.074509,
              28.46478
            ],
            [
              77.073272,
              28.46578
            ],
            [
              77.072825,
              28.46978
            ],
            [
              77.073447,
              28.47078
            ],
            [
              77.072528,
              28.47178
            ],
            [
              77.072348,
              28.475011
            ],
            [
              77.070781,
              28.475445
            ],
            [
              77.070116,
              28.476506
            ],
            [
              77.069116,
              28.474491
            ],
            [
              77.067683,
              28.475346
            ],
            [
              77.068966,
              28.47593
            ],
            [
              77.069116,
              28.476927
            ],
            [
              77.073116,
              28.477045
            ],
            [
              77.074116,
              28.475814
            ],
            [
              77.076116,
              28.476069
            ],
            [
              77.077116,
              28.477235
            ],
            [
              77.079116,
              28.477426
            ],
            [
              77.079288,
              28.478609
            ],
            [
              77.083485,
              28.47978
            ],
            [
              77.08313,
              28.48078
            ],
            [
              77.082116,
              28.480162
            ],
            [
              77.08114,
              28.48178
            ],
            [
              77.080116,
              28.481964
            ],
            [
              77.079116,
              28.480876
            ],
            [
              77.077869,
              28.481532
            ],
            [
              77.077091,
              28.48278
            ],
            [
              77.078395,
              28.48678
            ],
            [
              77.078135,
              28.487799
            ],
            [
              77.077994,
              28.486902
            ],
            [
              77.075508,
              28.487388
            ],
            [
              77.075116,
              28.48578
            ],
            [
              77.073317,
              28.483579
            ],
            [
              77.072273,
              28.483624
            ],
            [
              77.072068,
              28.482731
            ],
            [
              77.071116,
              28.485036
            ],
            [
              77.070852,
              28.484044
            ],
            [
              77.069054,
              28.48478
            ],
            [
              77.070116,
              28.486053
            ],
            [
              77.068116,
              28.487771
            ],
            [
              77.066275,
              28.487938
            ],
            [
              77.066116,
              28.488629
            ],
            [
              77.063502,
              28.485395
            ],
            [
              77.060159,
              28.485823
            ],
            [
              77.060158,
              28.486822
            ],
            [
              77.057408,
              28.48978
            ],
            [
              77.058469,
              28.491427
            ],
            [
              77.059895,
              28.49178
            ],
            [
              77.059495,
              28.493158
            ],
            [
              77.058116,
              28.493813
            ]
          ]
        ],
        "type": "Polygon"
      },
      "type": "Feature"
    }
  ]
}