{
  "type": "FeatureCollection",
  "metadata": {
    "provider_name": "Gurgaon Adda",
    "center_lat": 28.4919682,
    "center_lon": 77.0003627,
    "mode": "motorcycle",
    "total_zones": 4,
    "distance_zones": [
      3,
      4,
      5,
      6
    ],
    "generated_at": "2025-12-28T16:52:50.481086Z"
  },
  "features": [
    {
      "properties": {
        "fill-opacity": 0.33,
        "fillColor": "#bf4040",
        "opacity": 0.33,
        "fill": "#bf4040",
        "fillOpacity": 0.33,
        "color": "#bf4040",
        "contour": 3.0,
        "metric": "distance",
        "provider_name": "Gurgaon Adda",
        "zone_type": "distance",
        "distance_km": 3,
        "mode": "motorcycle",
        "center_lat": 28.4919682,
        "center_lon": 77.0003627,
        "label": "3km"
      },
      "geometry": {
        "coordinates": [
          [
            [
              77.017362,
              28.512221
            ],
            [
              77.017287,
              28.511043
            ],
            [
              77.016266,
              28.511064
            ],
            [
              77.016005,
              28.510325
            ],
            [
              77.013483,
              28.510088
            ],
            [
              77.012362,
              28.511833
            ],
            [
              77.009362,
              28.509463
            ],
            [
              77.007436,
              28.511042
            ],
            [
              77.005362,
              28.510273
            ],
            [
              77.003068,
              28.511262
            ],
            [
              77.001362,
              28.510321
            ],
            [
              77.00127,
              28.510875
            ],
            [
              76.998475,
              28.511081
            ],
            [
              76.998352,
              28.511978
            ],
            [
              76.996362,
              28.510395
            ],
            [
              76.992362,
              28.512369
            ],
            [
              76.9918,
              28.511968
            ],
            [
              76.994781,
              28.509387
            ],
            [
              76.994762,
              28.508568
            ],
            [
              76.993362,
              28.507354
            ],
            [
              76.989362,
              28.50712
            ],
            [
              76.987362,
              28.507253
            ],
            [
              76.98659,
              28.507968
            ],
            [
              76.986761,
              28.508569
            ],
            [
              76.988451,
              28.508879
            ],
            [
              76.989425,
              28.510968
            ],
            [
              76.989307,
              28.510968
            ],
            [
              76.988652,
              28.510678
            ],
            [
              76.988048,
              28.510654
            ],
            [
              76.987415,
              28.510915
            ],
            [
              76.986476,
              28.509854
            ],
            [
              76.984362,
              28.510395
            ],
            [
              76.983362,
              28.509399
            ],
            [
              76.98244,
              28.510968
            ],
            [
              76.980914,
              28.510416
            ],
            [
              76.980644,
              28.509968
            ],
            [
              76.982099,
              28.509705
            ],
            [
              76.982247,
              28.508852
            ],
            [
              76.983852,
              28.508458
            ],
            [
              76.98405,
              28.506968
            ],
            [
              76.981329,
              28.503968
            ],
            [
              76.980614,
              28.500716
            ],
            [
              76.97904,
              28.500646
            ],
            [
              76.978753,
              28.501577
            ],
            [
              76.979425,
              28.502031
            ],
            [
              76.978262,
              28.502068
            ],
            [
              76.976362,
              28.500182
            ],
            [
              76.975362,
              28.501206
            ],
            [
              76.975099,
              28.500231
            ],
            [
              76.97352,
              28.499968
            ],
            [
              76.974362,
              28.499307
            ],
            [
              76.974448,
              28.499882
            ],
            [
              76.976128,
              28.499733
            ],
            [
              76.976316,
              28.497014
            ],
            [
              76.975362,
              28.496855
            ],
            [
              76.977362,
              28.496499
            ],
            [
              76.977889,
              28.499441
            ],
            [
              76.978796,
              28.499402
            ],
            [
              76.979362,
              28.497662
            ],
            [
              76.979946,
              28.499384
            ],
            [
              76.981905,
              28.498968
            ],
            [
              76.979127,
              28.495203
            ],
            [
              76.978215,
              28.494968
            ],
            [
              76.977944,
              28.493386
            ],
            [
              76.975056,
              28.492968
            ],
            [
              76.981362,
              28.492578
            ],
            [
              76.982362,
              28.49354
            ],
            [
              76.986821,
              28.492968
            ],
            [
              76.986699,
              28.491631
            ],
            [
              76.985362,
              28.491417
            ],
            [
              76.984362,
              28.492371
            ],
            [
              76.982679,
              28.490651
            ],
            [
              76.982973,
              28.487357
            ],
            [
              76.979362,
              28.487041
            ],
            [
              76.979178,
              28.486152
            ],
            [
              76.97766,
              28.485968
            ],
            [
              76.980362,
              28.485385
            ],
            [
              76.981362,
              28.483549
            ],
            [
              76.984362,
              28.483546
            ],
            [
              76.98587,
              28.481968
            ],
            [
              76.985704,
              28.480626
            ],
            [
              76.982003,
              28.477327
            ],
            [
              76.980249,
              28.476968
            ],
            [
              76.979285,
              28.47389
            ],
            [
              76.981362,
              28.474902
            ],
            [
              76.982285,
              28.474891
            ],
            [
              76.982346,
              28.473951
            ],
            [
              76.982999,
              28.473968
            ],
            [
              76.982461,
              28.474067
            ],
            [
              76.982791,
              28.475539
            ],
            [
              76.986362,
              28.476
            ],
            [
              76.990184,
              28.474789
            ],
            [
              76.990392,
              28.473938
            ],
            [
              76.990865,
              28.476465
            ],
            [
              76.993362,
              28.477612
            ],
            [
              76.99486,
              28.477465
            ],
            [
              76.995362,
              28.476744
            ],
            [
              76.996362,
              28.477671
            ],
            [
              76.998381,
              28.476949
            ],
            [
              76.999112,
              28.477968
            ],
            [
              77.003362,
              28.478811
            ],
            [
              77.004362,
              28.476811
            ],
            [
              77.011362,
              28.475387
            ],
            [
              77.013354,
              28.473968
            ],
            [
              77.015676,
              28.473654
            ],
            [
              77.016362,
              28.474294
            ],
            [
              77.016897,
              28.472968
            ],
            [
              77.018362,
              28.472445
            ],
            [
              77.019254,
              28.472968
            ],
            [
              77.019352,
              28.473968
            ],
            [
              77.020818,
              28.474968
            ],
            [
              77.020409,
              28.476968
            ],
            [
              77.021397,
              28.478968
            ],
            [
              77.02166,
              28.483265
            ],
            [
              77.018967,
              28.489968
            ],
            [
              77.019536,
              28.490968
            ],
            [
              77.016362,
              28.491246
            ],
            [
              77.015659,
              28.491968
            ],
            [
              77.015476,
              28.493968
            ],
            [
              77.016778,
              28.494968
            ],
            [
              77.016628,
              28.496234
            ],
            [
              77.013882,
              28.496968
            ],
            [
              77.015362,
              28.497878
            ],
            [
              77.017364,
              28.497966
            ],
            [
              77.016601,
              28.498206
            ],
            [
              77.016773,
              28.499557
            ],
            [
              77.01844,
              28.49989
            ],
            [
              77.018938,
              28.500968
            ],
            [
              77.016362,
              28.505297
            ],
            [
              77.014343,
              28.506949
            ],
            [
              77.017384,
              28.510946
            ],
            [
              77.017362,
              28.512221
            ]
          ]
        ],
        "type": "Polygon"
      },
      "type": "Feature"
    },
    {
      "properties": {
        "fill-opacity": 0.33,
        "fillColor": "#bf4040",
        "opacity": 0.33,
        "fill": "#bf4040",
        "fillOpacity": 0.33,
        "color": "#bf4040",
        "contour": 4.0,
        "metric": "distance",
        "provider_name": "Gurgaon Adda",
        "zone_type": "distance",
        "distance_km": 4,
        "mode": "motorcycle",
        "center_lat": 28.4919682,
        "center_lon": 77.0003627,
        "label": "4km"
      },
      "geometry": {
        "coordinates": [
          [
            [
              77.020362,
              28.52014
            ],
            [
              77.01811,
              28.51822
            ],
            [
              77.016362,
              28.518248
            ],
            [
              77.015362,
              28.515667
            ],
            [
              77.012508,
              28.517113
            ],
            [
              77.012093,
              28.516237
            ],
            [
              77.010743,
              28.516349
            ],
            [
              77.010362,
              28.518422
            ],
            [
              77.008362,
              28.515276
            ],
            [
              77.006654,
              28.51626
            ],
            [
              77.006362,
              28.517609
            ],
            [
              77.006084,
              28.516246
            ],
            [
              77.004362,
              28.516599
            ],
            [
              77.003362,
              28.515323
            ],
            [
              77.002362,
              28.517569
            ],
            [
              77.001362,
              28.516279
            ],
            [
              76.999362,
              28.517674
            ],
            [
              76.998736,
              28.516968
            ],
            [
              76.998998,
              28.514968
            ],
            [
              77.001,
              28.513968
            ],
            [
              77.000362,
              28.511468
            ],
            [
              76.999135,
              28.51174
            ],
            [
              76.997113,
              28.513968
            ],
            [
              76.996947,
              28.515383
            ],
            [
              76.99785,
              28.515968
            ],
            [
              76.997362,
              28.516524
            ],
            [
              76.993358,
              28.514972
            ],
            [
              76.991696,
              28.515301
            ],
            [
              76.990362,
              28.516659
            ],
            [
              76.99029,
              28.515968
            ],
            [
              76.991203,
              28.514968
            ],
            [
              76.990362,
              28.512994
            ],
            [
              76.98956,
              28.513166
            ],
            [
              76.989469,
              28.514075
            ],
            [
              76.987773,
              28.514378
            ],
            [
              76.986362,
              28.5161
            ],
            [
              76.984362,
              28.515258
            ],
            [
              76.983601,
              28.516968
            ],
            [
              76.984535,
              28.517968
            ],
            [
              76.984362,
              28.51922
            ],
            [
              76.982362,
              28.518535
            ],
            [
              76.980957,
              28.518968
            ],
            [
              76.978645,
              28.517968
            ],
            [
              76.978201,
              28.514968
            ],
            [
              76.977362,
              28.514257
            ],
            [
              76.975853,
              28.514459
            ],
            [
              76.975362,
              28.516159
            ],
            [
              76.974362,
              28.515189
            ],
            [
              76.972502,
              28.515828
            ],
            [
              76.972362,
              28.51205
            ],
            [
              76.975235,
              28.509968
            ],
            [
              76.975052,
              28.505968
            ],
            [
              76.974362,
              28.505317
            ],
            [
              76.971734,
              28.50534
            ],
            [
              76.971362,
              28.506983
            ],
            [
              76.971041,
              28.505289
            ],
            [
              76.968957,
              28.504968
            ],
            [
              76.97478,
              28.504386
            ],
            [
              76.974679,
              28.500651
            ],
            [
              76.968362,
              28.500297
            ],
            [
              76.96758,
              28.50175
            ],
            [
              76.969069,
              28.501968
            ],
            [
              76.967362,
              28.502063
            ],
            [
              76.966869,
              28.500461
            ],
            [
              76.965657,
              28.500263
            ],
            [
              76.964362,
              28.501056
            ],
            [
              76.963372,
              28.499968
            ],
            [
              76.964194,
              28.499799
            ],
            [
              76.964362,
              28.498497
            ],
            [
              76.96456,
              28.49977
            ],
            [
              76.972706,
              28.499312
            ],
            [
              76.973025,
              28.494968
            ],
            [
              76.971245,
              28.490085
            ],
            [
              76.969861,
              28.488968
            ],
            [
              76.973779,
              28.487384
            ],
            [
              76.975001,
              28.485968
            ],
            [
              76.975216,
              28.483822
            ],
            [
              76.977362,
              28.483827
            ],
            [
              76.977651,
              28.484968
            ],
            [
              76.97862,
              28.485225
            ],
            [
              76.984019,
              28.479968
            ],
            [
              76.98168,
              28.47765
            ],
            [
              76.980362,
              28.477334
            ],
            [
              76.979635,
              28.47824
            ],
            [
              76.97798,
              28.478586
            ],
            [
              76.973408,
              28.483013
            ],
            [
              76.972353,
              28.482977
            ],
            [
              76.971927,
              28.481968
            ],
            [
              76.973203,
              28.480809
            ],
            [
              76.973291,
              28.478896
            ],
            [
              76.97612,
              28.478726
            ],
            [
              76.97895,
              28.475968
            ],
            [
              76.978753,
              28.474577
            ],
            [
              76.972999,
              28.468968
            ],
            [
              76.972362,
              28.467441
            ],
            [
              76.973362,
              28.467603
            ],
            [
              76.979938,
              28.474392
            ],
            [
              76.981362,
              28.474564
            ],
            [
              76.987995,
              28.4686
            ],
            [
              76.988362,
              28.466533
            ],
            [
              76.9887,
              28.46863
            ],
            [
              76.991362,
              28.468723
            ],
            [
              76.99256,
              28.46977
            ],
            [
              76.992738,
              28.471344
            ],
            [
              76.990912,
              28.475968
            ],
            [
              76.992097,
              28.477233
            ],
            [
              76.993362,
              28.47736
            ],
            [
              76.994446,
              28.476884
            ],
            [
              76.993645,
              28.474968
            ],
            [
              76.994359,
              28.472964
            ],
            [
              76.996362,
              28.473772
            ],
            [
              77.001156,
              28.472761
            ],
            [
              77.001362,
              28.47193
            ],
            [
              77.003222,
              28.471828
            ],
            [
              77.003362,
              28.470736
            ],
            [
              77.006362,
              28.470442
            ],
            [
              77.008362,
              28.469012
            ],
            [
              77.015362,
              28.467991
            ],
            [
              77.016238,
              28.465844
            ],
            [
              77.018813,
              28.466419
            ],
            [
              77.019362,
              28.464351
            ],
            [
              77.022362,
              28.46423
            ],
            [
              77.022549,
              28.466781
            ],
            [
              77.023695,
              28.467635
            ],
            [
              77.027239,
              28.467091
            ],
            [
              77.026362,
              28.469906
            ],
            [
              77.02547,
              28.470076
            ],
            [
              77.025525,
              28.471805
            ],
            [
              77.027205,
              28.472125
            ],
            [
              77.027945,
              28.474968
            ],
            [
              77.029664,
              28.476968
            ],
            [
              77.026368,
              28.478968
            ],
            [
              77.029966,
              28.479968
            ],
            [
              77.029362,
              28.481024
            ],
            [
              77.025692,
              28.482297
            ],
            [
              77.026574,
              28.48518
            ],
            [
              77.021685,
              28.496291
            ],
            [
              77.020362,
              28.496746
            ],
            [
              77.019121,
              28.496209
            ],
            [
              77.018192,
              28.494138
            ],
            [
              77.018533,
              28.492797
            ],
            [
              77.017529,
              28.491801
            ],
            [
              77.016362,
              28.491771
            ],
            [
              77.016017,
              28.495968
            ],
            [
              77.014038,
              28.496968
            ],
            [
              77.017954,
              28.497376
            ],
            [
              77.017939,
              28.498391
            ],
            [
              77.020068,
              28.498262
            ],
            [
              77.025568,
              28.501968
            ],
            [
              77.024637,
              28.503968
            ],
            [
              77.025415,
              28.50902
            ],
            [
              77.022362,
              28.508403
            ],
            [
              77.017807,
              28.510413
            ],
            [
              77.019876,
              28.514454
            ],
            [
              77.023412,
              28.517968
            ],
            [
              77.023362,
              28.519202
            ],
            [
              77.020576,
              28.519182
            ],
            [
              77.020362,
              28.52014
            ]
          ]
        ],
        "type": "Polygon"
      },
      "type": "Feature"
    },
    {
      "properties": {
        "fill-opacity": 0.33,
        "fillColor": "#bf4040",
        "opacity": 0.33,
        "fill": "#bf4040",
        "fillOpacity": 0.33,
        "color": "#bf4040",
        "contour": 5.0,
        "metric": "distance",
        "provider_name": "Gurgaon Adda",
        "zone_type": "distance",
        "distance_km": 5,
        "mode": "motorcycle",
        "center_lat": 28.4919682,
        "center_lon": 77.0003627,
        "label": "5km"
      },
      "geometry": {
        "coordinates": [
          [
            [
              77.021362,
              28.528076
            ],
            [
              77.018822,
              28.526508
            ],
            [
              77.017258,
              28.527072
            ],
            [
              77.016362,
              28.526586
            ],
            [
              77.016561,
              28.524968
            ],
            [
              77.018116,
              28.523968
            ],
            [
              77.017362,
              28.523257
            ],
            [
              77.016362,
              28.523672
            ],
            [
              77.016261,
              28.521968
            ],
            [
              77.014749,
              28.519581
            ],
            [
              77.013362,
              28.519141
            ],
            [
              77.006362,
              28.519727
            ],
            [
              77.005362,
              28.516507
            ],
            [
              77.004362,
              28.518412
            ],
            [
              77.000362,
              28.518308
            ],
            [
              76.999759,
              28.518968
            ],
            [
              77.001362,
              28.520736
            ],
            [
              77.002559,
              28.519771
            ],
            [
              77.003967,
              28.520968
            ],
            [
              77.001774,
              28.52138
            ],
            [
              77.001667,
              28.522663
            ],
            [
              77.003268,
              28.522968
            ],
            [
              77.002362,
              28.524304
            ],
            [
              77.001775,
              28.523555
            ],
            [
              76.998362,
              28.523081
            ],
            [
              76.998385,
              28.522945
            ],
            [
              76.999202,
              28.522808
            ],
            [
              76.998956,
              28.521374
            ],
            [
              76.996016,
              28.520968
            ],
            [
              76.998847,
              28.520453
            ],
            [
              76.998731,
              28.518599
            ],
            [
              76.996102,
              28.519228
            ],
            [
              76.994776,
              28.517554
            ],
            [
              76.993076,
              28.517254
            ],
            [
              76.992362,
              28.515533
            ],
            [
              76.99069,
              28.517295
            ],
            [
              76.988788,
              28.517968
            ],
            [
              76.989362,
              28.518728
            ],
            [
              76.992653,
              28.518968
            ],
            [
              76.99067,
              28.519276
            ],
            [
              76.990362,
              28.520966
            ],
            [
              76.990008,
              28.519322
            ],
            [
              76.987915,
              28.51952
            ],
            [
              76.988362,
              28.520806
            ],
            [
              76.99036,
              28.520968
            ],
            [
              76.9895,
              28.521105
            ],
            [
              76.989362,
              28.522441
            ],
            [
              76.989198,
              28.521132
            ],
            [
              76.988362,
              28.521129
            ],
            [
              76.986362,
              28.522959
            ],
            [
              76.986165,
              28.522165
            ],
            [
              76.983362,
              28.521701
            ],
            [
              76.981713,
              28.519617
            ],
            [
              76.980362,
              28.520437
            ],
            [
              76.977362,
              28.518391
            ],
            [
              76.975362,
              28.518169
            ],
            [
              76.973362,
              28.522741
            ],
            [
              76.973219,
              28.520968
            ],
            [
              76.973982,
              28.520588
            ],
            [
              76.974056,
              28.518968
            ],
            [
              76.971362,
              28.517419
            ],
            [
              76.970362,
              28.518358
            ],
            [
              76.967888,
              28.518493
            ],
            [
              76.966775,
              28.51938
            ],
            [
              76.966362,
              28.521367
            ],
            [
              76.963995,
              28.519968
            ],
            [
              76.96369,
              28.518968
            ],
            [
              76.965362,
              28.517217
            ],
            [
              76.965669,
              28.518661
            ],
            [
              76.966362,
              28.518745
            ],
            [
              76.967128,
              28.517734
            ],
            [
              76.969948,
              28.516968
            ],
            [
              76.9688,
              28.51553
            ],
            [
              76.967362,
              28.515453
            ],
            [
              76.966912,
              28.514418
            ],
            [
              76.965288,
              28.514042
            ],
            [
              76.965331,
              28.512999
            ],
            [
              76.964234,
              28.512968
            ],
            [
              76.965362,
              28.512954
            ],
            [
              76.965584,
              28.513746
            ],
            [
              76.969362,
              28.514629
            ],
            [
              76.969956,
              28.511968
            ],
            [
              76.971067,
              28.510673
            ],
            [
              76.974362,
              28.510441
            ],
            [
              76.974853,
              28.508968
            ],
            [
              76.974362,
              28.508425
            ],
            [
              76.971362,
              28.508446
            ],
            [
              76.969362,
              28.510105
            ],
            [
              76.968205,
              28.508968
            ],
            [
              76.970737,
              28.507343
            ],
            [
              76.97067,
              28.50566
            ],
            [
              76.964362,
              28.505327
            ],
            [
              76.963726,
              28.502604
            ],
            [
              76.961091,
              28.502239
            ],
            [
              76.959362,
              28.500233
            ],
            [
              76.956073,
              28.499968
            ],
            [
              76.95892,
              28.499526
            ],
            [
              76.959403,
              28.496968
            ],
            [
              76.960362,
              28.496671
            ],
            [
              76.961593,
              28.496737
            ],
            [
              76.961978,
              28.498352
            ],
            [
              76.963687,
              28.499293
            ],
            [
              76.962983,
              28.495968
            ],
            [
              76.963981,
              28.494968
            ],
            [
              76.962166,
              28.493968
            ],
            [
              76.964362,
              28.493111
            ],
            [
              76.964987,
              28.496343
            ],
            [
              76.966771,
              28.496968
            ],
            [
              76.965002,
              28.497607
            ],
            [
              76.965047,
              28.499283
            ],
            [
              76.97259,
              28.499195
            ],
            [
              76.972761,
              28.494968
            ],
            [
              76.971656,
              28.491674
            ],
            [
              76.969708,
              28.489622
            ],
            [
              76.964804,
              28.490409
            ],
            [
              76.964362,
              28.492229
            ],
            [
              76.961528,
              28.489968
            ],
            [
              76.963362,
              28.487268
            ],
            [
              76.964362,
              28.487556
            ],
            [
              76.965362,
              28.48969
            ],
            [
              76.967775,
              28.488381
            ],
            [
              76.96811,
              28.483968
            ],
            [
              76.967213,
              28.482968
            ],
            [
              76.967362,
              28.481195
            ],
            [
              76.968362,
              28.481409
            ],
            [
              76.968887,
              28.484443
            ],
            [
              76.970627,
              28.484232
            ],
            [
              76.971452,
              28.483057
            ],
            [
              76.970598,
              28.481968
            ],
            [
              76.970991,
              28.480596
            ],
            [
              76.972686,
              28.480292
            ],
            [
              76.973362,
              28.478356
            ],
            [
              76.976613,
              28.478219
            ],
            [
              76.978538,
              28.475968
            ],
            [
              76.978469,
              28.474861
            ],
            [
              76.975362,
              28.47214
            ],
            [
              76.97443,
              28.472036
            ],
            [
              76.974362,
              28.472996
            ],
            [
              76.974295,
              28.472035
            ],
            [
              76.973255,
              28.472075
            ],
            [
              76.973021,
              28.469968
            ],
            [
              76.971362,
              28.468757
            ],
            [
              76.968362,
              28.471653
            ],
            [
              76.968172,
              28.471158
            ],
            [
              76.96455,
              28.471155
            ],
            [
              76.964061,
              28.471968
            ],
            [
              76.963564,
              28.469968
            ],
            [
              76.965573,
              28.469179
            ],
            [
              76.966362,
              28.468036
            ],
            [
              76.967362,
              28.468959
            ],
            [
              76.969158,
              28.466764
            ],
            [
              76.970362,
              28.467719
            ],
            [
              76.971073,
              28.466968
            ],
            [
              76.968229,
              28.464101
            ],
            [
              76.968096,
              28.462234
            ],
            [
              76.967289,
              28.462041
            ],
            [
              76.967242,
              28.461088
            ],
            [
              76.966355,
              28.460975
            ],
            [
              76.966362,
              28.460368
            ],
            [
              76.966397,
              28.460933
            ],
            [
              76.967427,
              28.460903
            ],
            [
              76.969598,
              28.462732
            ],
            [
              76.969942,
              28.464388
            ],
            [
              76.972362,
              28.466481
            ],
            [
              76.974271,
              28.464968
            ],
            [
              76.974362,
              28.461437
            ],
            [
              76.97991,
              28.461968
            ],
            [
              76.980185,
              28.462968
            ],
            [
              76.974776,
              28.465968
            ],
            [
              76.978488,
              28.467842
            ],
            [
              76.980015,
              28.469968
            ],
            [
              76.979339,
              28.469991
            ],
            [
              76.977959,
              28.468371
            ],
            [
              76.976362,
              28.468267
            ],
            [
              76.975362,
              28.46734
            ],
            [
              76.974774,
              28.467968
            ],
            [
              76.975076,
              28.469254
            ],
            [
              76.978123,
              28.472207
            ],
            [
              76.979797,
              28.472533
            ],
            [
              76.981362,
              28.474226
            ],
            [
              76.986643,
              28.469248
            ],
            [
              76.987744,
              28.467349
            ],
            [
              76.987362,
              28.46612
            ],
            [
              76.986339,
              28.465991
            ],
            [
              76.986131,
              28.464199
            ],
            [
              76.985336,
              28.463968
            ],
            [
              76.985362,
              28.462393
            ],
            [
              76.986362,
              28.461932
            ],
            [
              76.987362,
              28.46272
            ],
            [
              76.988198,
              28.461132
            ],
            [
              76.987288,
              28.460893
            ],
            [
              76.990815,
              28.46042
            ],
            [
              76.990362,
              28.458583
            ],
            [
              76.991362,
              28.458094
            ],
            [
              76.992841,
              28.459968
            ],
            [
              76.99221,
              28.46112
            ],
            [
              76.993962,
              28.461368
            ],
            [
              76.995945,
              28.464968
            ],
            [
              76.995801,
              28.465968
            ],
            [
              76.992362,
              28.467384
            ],
            [
              76.990362,
              28.466148
            ],
            [
              76.988904,
              28.467968
            ],
            [
              76.992224,
              28.468106
            ],
            [
              76.99304,
              28.47129
            ],
            [
              76.99469,
              28.47164
            ],
            [
              76.996362,
              28.473413
            ],
            [
              76.997362,
              28.472486
            ],
            [
              77.000362,
              28.472447
            ],
            [
              77.002688,
              28.471293
            ],
            [
              77.003923,
              28.468968
            ],
            [
              77.004222,
              28.464108
            ],
            [
              77.003362,
              28.463812
            ],
            [
              77.008362,
              28.46224
            ],
            [
              77.009362,
              28.463639
            ],
            [
              77.010362,
              28.46339
            ],
            [
              77.011928,
              28.461968
            ],
            [
              77.011302,
              28.460968
            ],
            [
              77.012136,
              28.459968
            ],
            [
              77.016187,
              28.458793
            ],
            [
              77.01628,
              28.45705
            ],
            [
              77.014949,
              28.456968
            ],
            [
              77.015362,
              28.456119
            ],
            [
              77.015623,
              28.456707
            ],
            [
              77.019362,
              28.457591
            ],
            [
              77.021362,
              28.457104
            ],
            [
              77.024504,
              28.457826
            ],
            [
              77.025362,
              28.459068
            ],
            [
              77.028362,
              28.45683
            ],
            [
              77.029327,
              28.461968
            ],
            [
              77.032362,
              28.460357
            ],
            [
              77.033305,
              28.460968
            ],
            [
              77.032526,
              28.461132
            ],
            [
              77.032561,
              28.461968
            ],
            [
              77.03408,
              28.463968
            ],
            [
              77.033053,
              28.466277
            ],
            [
              77.033362,
              28.467258
            ],
            [
              77.034837,
              28.467968
            ],
            [
              77.034376,
              28.471968
            ],
            [
              77.035105,
              28.474225
            ],
            [
              77.037472,
              28.475858
            ],
            [
              77.038041,
              28.478289
            ],
            [
              77.03949,
              28.479095
            ],
            [
              77.038412,
              28.480017
            ],
            [
              77.037334,
              28.479996
            ],
            [
              77.037203,
              28.479127
            ],
            [
              77.035615,
              28.47922
            ],
            [
              77.033362,
              28.487011
            ],
            [
              77.029563,
              28.488168
            ],
            [
              77.030105,
              28.493968
            ],
            [
              77.028491,
              28.497968
            ],
            [
              77.029386,
              28.501991
            ],
            [
              77.028362,
              28.50263
            ],
            [
              77.027842,
              28.504448
            ],
            [
              77.026155,
              28.504761
            ],
            [
              77.026049,
              28.505968
            ],
            [
              77.02794,
              28.50939
            ],
            [
              77.031452,
              28.512878
            ],
            [
              77.031465,
              28.51507
            ],
            [
              77.029217,
              28.515113
            ],
            [
              77.027362,
              28.511406
            ],
            [
              77.026016,
              28.511622
            ],
            [
              77.025663,
              28.514268
            ],
            [
              77.024362,
              28.515614
            ],
            [
              77.023362,
              28.513378
            ],
            [
              77.020105,
              28.51371
            ],
            [
              77.02209,
              28.51624
            ],
            [
              77.024243,
              28.517087
            ],
            [
              77.024362,
              28.517978
            ],
            [
              77.027789,
              28.518541
            ],
            [
              77.027294,
              28.519968
            ],
            [
              77.028168,
              28.520968
            ],
            [
              77.027492,
              28.521968
            ],
            [
              77.029966,
              28.525968
            ],
            [
              77.02932,
              28.52601
            ],
            [
              77.026832,
              28.523498
            ],
            [
              77.025766,
              28.523372
            ],
            [
              77.02543,
              28.525035
            ],
            [
              77.022362,
              28.52601
            ],
            [
              77.021362,
              28.528076
            ]
          ]
        ],
        "type": "Polygon"
      },
      "type": "Feature"
    },
    {
      "properties": {
        "fill-opacity": 0.33,
        "fillColor": "#bf4040",
        "opacity": 0.33,
        "fill": "#bf4040",
        "fillOpacity": 0.33,
        "color": "#bf4040",
        "contour": 6.0,
        "metric": "distance",
        "provider_name": "Gurgaon Adda",
        "zone_type": "distance",
        "distance_km": 6,
        "mode": "motorcycle",
        "center_lat": 28.4919682,
        "center_lon": 77.0003627,
        "label": "6km"
      },
      "geometry": {
        "coordinates": [
          [
            [
              77.019362,
              28.536295
            ],
            [
              77.017785,
              28.535968
            ],
            [
              77.018015,
              28.534315
            ],
            [
              77.014722,
              28.530968
            ],
            [
              77.016056,
              28.528968
            ],
            [
              77.015671,
              28.522659
            ],
            [
              77.015474,
              28.521856
            ],
            [
              77.014601,
              28.521729
            ],
            [
              77.014362,
              28.519614
            ],
            [
              77.010081,
              28.519687
            ],
            [
              77.00961,
              28.519968
            ],
            [
              77.010362,
              28.520717
            ],
            [
              77.013819,
              28.520968
            ],
            [
              77.011362,
              28.521154
            ],
            [
              77.010362,
              28.522219
            ],
            [
              77.00794,
              28.522545
            ],
            [
              77.008362,
              28.523653
            ],
            [
              77.012437,
              28.524043
            ],
            [
              77.011069,
              28.524674
            ],
            [
              77.01073,
              28.525968
            ],
            [
              77.009362,
              28.525504
            ],
            [
              77.007362,
              28.527464
            ],
            [
              77.005046,
              28.527652
            ],
            [
              77.00569,
              28.52964
            ],
            [
              77.006476,
              28.529968
            ],
            [
              77.006421,
              28.532026
            ],
            [
              77.003362,
              28.529202
            ],
            [
              76.998335,
              28.527968
            ],
            [
              76.999218,
              28.526823
            ],
            [
              77.002362,
              28.526627
            ],
            [
              77.002921,
              28.525968
            ],
            [
              77.001362,
              28.524419
            ],
            [
              76.999362,
              28.524355
            ],
            [
              76.997362,
              28.525261
            ],
            [
              76.995362,
              28.524372
            ],
            [
              76.994362,
              28.525306
            ],
            [
              76.991864,
              28.525469
            ],
            [
              76.991721,
              28.526609
            ],
            [
              76.993589,
              28.526968
            ],
            [
              76.989593,
              28.528199
            ],
            [
              76.988718,
              28.529968
            ],
            [
              76.986362,
              28.531576
            ],
            [
              76.982529,
              28.527968
            ],
            [
              76.984082,
              28.527687
            ],
            [
              76.984018,
              28.526312
            ],
            [
              76.981702,
              28.525968
            ],
            [
              76.984362,
              28.525796
            ],
            [
              76.984797,
              28.526533
            ],
            [
              76.985816,
              28.526421
            ],
            [
              76.985688,
              28.522642
            ],
            [
              76.983078,
              28.522252
            ],
            [
              76.981592,
              28.519738
            ],
            [
              76.980362,
              28.520621
            ],
            [
              76.977362,
              28.518602
            ],
            [
              76.975083,
              28.518688
            ],
            [
              76.974912,
              28.520968
            ],
            [
              76.972818,
              28.523968
            ],
            [
              76.974362,
              28.52563
            ],
            [
              76.979508,
              28.525968
            ],
            [
              76.973362,
              28.526328
            ],
            [
              76.972362,
              28.525389
            ],
            [
              76.968362,
              28.525226
            ],
            [
              76.967635,
              28.525968
            ],
            [
              76.967362,
              28.529925
            ],
            [
              76.96575,
              28.52358
            ],
            [
              76.96049,
              28.523096
            ],
            [
              76.960362,
              28.523603
            ],
            [
              76.960291,
              28.522896
            ],
            [
              76.96099,
              28.521968
            ],
            [
              76.960362,
              28.52125
            ],
            [
              76.958623,
              28.522228
            ],
            [
              76.958362,
              28.523292
            ],
            [
              76.957362,
              28.523232
            ],
            [
              76.959143,
              28.520968
            ],
            [
              76.957233,
              28.519839
            ],
            [
              76.960362,
              28.519623
            ],
            [
              76.960962,
              28.518968
            ],
            [
              76.959362,
              28.517258
            ],
            [
              76.955213,
              28.516968
            ],
            [
              76.957958,
              28.516563
            ],
            [
              76.958362,
              28.514814
            ],
            [
              76.962362,
              28.518515
            ],
            [
              76.963112,
              28.514717
            ],
            [
              76.964362,
              28.516504
            ],
            [
              76.966713,
              28.515319
            ],
            [
              76.966653,
              28.514677
            ],
            [
              76.965009,
              28.514321
            ],
            [
              76.964845,
              28.513485
            ],
            [
              76.963046,
              28.513284
            ],
            [
              76.961936,
              28.511542
            ],
            [
              76.963668,
              28.511662
            ],
            [
              76.964879,
              28.513451
            ],
            [
              76.967362,
              28.513404
            ],
            [
              76.969362,
              28.514366
            ],
            [
              76.969735,
              28.511968
            ],
            [
              76.970934,
              28.51054
            ],
            [
              76.97468,
              28.509968
            ],
            [
              76.974362,
              28.508616
            ],
            [
              76.971362,
              28.508625
            ],
            [
              76.969004,
              28.510326
            ],
            [
              76.96782,
              28.508968
            ],
            [
              76.968981,
              28.507586
            ],
            [
              76.970602,
              28.507208
            ],
            [
              76.970573,
              28.505757
            ],
            [
              76.964362,
              28.505577
            ],
            [
              76.963598,
              28.502732
            ],
            [
              76.960944,
              28.502386
            ],
            [
              76.959362,
              28.500544
            ],
            [
              76.952362,
              28.50035
            ],
            [
              76.951037,
              28.500968
            ],
            [
              76.951362,
              28.499618
            ],
            [
              76.958656,
              28.499261
            ],
            [
              76.959362,
              28.496472
            ],
            [
              76.961766,
              28.496564
            ],
            [
              76.962127,
              28.499203
            ],
            [
              76.96369,
              28.498968
            ],
            [
              76.962745,
              28.495968
            ],
            [
              76.963745,
              28.494968
            ],
            [
              76.961808,
              28.493968
            ],
            [
              76.963884,
              28.492968
            ],
            [
              76.962692,
              28.491638
            ],
            [
              76.961362,
              28.492396
            ],
            [
              76.957362,
              28.492261
            ],
            [
              76.956362,
              28.493148
            ],
            [
              76.954416,
              28.493021
            ],
            [
              76.954362,
              28.493875
            ],
            [
              76.954319,
              28.493011
            ],
            [
              76.956017,
              28.492623
            ],
            [
              76.956362,
              28.491769
            ],
            [
              76.959754,
              28.49136
            ],
            [
              76.959767,
              28.487563
            ],
            [
              76.958362,
              28.4883
            ],
            [
              76.957056,
              28.487968
            ],
            [
              76.958362,
              28.486611
            ],
            [
              76.960741,
              28.486347
            ],
            [
              76.961096,
              28.482968
            ],
            [
              76.960152,
              28.481968
            ],
            [
              76.9616,
              28.479968
            ],
            [
              76.963822,
              28.479428
            ],
            [
              76.964129,
              28.478201
            ],
            [
              76.963362,
              28.476234
            ],
            [
              76.962041,
              28.476646
            ],
            [
              76.961362,
              28.478344
            ],
            [
              76.960362,
              28.477095
            ],
            [
              76.95781,
              28.476968
            ],
            [
              76.956362,
              28.475357
            ],
            [
              76.955154,
              28.471968
            ],
            [
              76.95806,
              28.469968
            ],
            [
              76.956281,
              28.469049
            ],
            [
              76.957046,
              28.468652
            ],
            [
              76.957035,
              28.467295
            ],
            [
              76.955313,
              28.465919
            ],
            [
              76.957362,
              28.466301
            ],
            [
              76.958362,
              28.46476
            ],
            [
              76.958689,
              28.466641
            ],
            [
              76.960312,
              28.466918
            ],
            [
              76.960315,
              28.462921
            ],
            [
              76.961362,
              28.462037
            ],
            [
              76.963362,
              28.462546
            ],
            [
              76.963594,
              28.463968
            ],
            [
              76.965988,
              28.466342
            ],
            [
              76.969775,
              28.466381
            ],
            [
              76.967963,
              28.464367
            ],
            [
              76.967601,
              28.462729
            ],
            [
              76.965939,
              28.461391
            ],
            [
              76.964418,
              28.457912
            ],
            [
              76.962346,
              28.456968
            ],
            [
              76.96319,
              28.45414
            ],
            [
              76.963154,
              28.453176
            ],
            [
              76.962323,
              28.452968
            ],
            [
              76.962362,
              28.45185
            ],
            [
              76.962446,
              28.452884
            ],
            [
              76.963437,
              28.452893
            ],
            [
              76.964546,
              28.454784
            ],
            [
              76.965992,
              28.458338
            ],
            [
              76.968362,
              28.458615
            ],
            [
              76.970362,
              28.45725
            ],
            [
              76.972127,
              28.457203
            ],
            [
              76.974133,
              28.457968
            ],
            [
              76.973587,
              28.458192
            ],
            [
              76.973974,
              28.459356
            ],
            [
              76.975362,
              28.459132
            ],
            [
              76.977029,
              28.461301
            ],
            [
              76.978362,
              28.461459
            ],
            [
              76.979111,
              28.460968
            ],
            [
              76.97928,
              28.458968
            ],
            [
              76.97907,
              28.45826
            ],
            [
              76.97723,
              28.457968
            ],
            [
              76.977977,
              28.456583
            ],
            [
              76.979362,
              28.456866
            ],
            [
              76.981362,
              28.454863
            ],
            [
              76.982362,
              28.454958
            ],
            [
              76.986222,
              28.457968
            ],
            [
              76.989362,
              28.458296
            ],
            [
              76.988878,
              28.456483
            ],
            [
              76.991681,
              28.455287
            ],
            [
              76.9954,
              28.45093
            ],
            [
              76.999595,
              28.456968
            ],
            [
              76.999362,
              28.458024
            ],
            [
              76.997886,
              28.458491
            ],
            [
              76.997982,
              28.459348
            ],
            [
              77.000445,
              28.459968
            ],
            [
              77.001085,
              28.462245
            ],
            [
              77.002362,
              28.463288
            ],
            [
              77.002893,
              28.461498
            ],
            [
              77.004362,
              28.461463
            ],
            [
              77.005362,
              28.460506
            ],
            [
              77.012362,
              28.459525
            ],
            [
              77.014749,
              28.458354
            ],
            [
              77.014362,
              28.457351
            ],
            [
              77.010981,
              28.456968
            ],
            [
              77.012181,
              28.455786
            ],
            [
              77.013362,
              28.456507
            ],
            [
              77.013891,
              28.455968
            ],
            [
              77.013743,
              28.454587
            ],
            [
              77.011149,
              28.452968
            ],
            [
              77.012184,
              28.451968
            ],
            [
              77.012362,
              28.449266
            ],
            [
              77.013287,
              28.448892
            ],
            [
              77.014362,
              28.448835
            ],
            [
              77.01448,
              28.44985
            ],
            [
              77.016588,
              28.450742
            ],
            [
              77.018362,
              28.453168
            ],
            [
              77.019362,
              28.451931
            ],
            [
              77.022362,
              28.453033
            ],
            [
              77.025362,
              28.450056
            ],
            [
              77.027362,
              28.453144
            ],
            [
              77.028495,
              28.452968
            ],
            [
              77.028314,
              28.451919
            ],
            [
              77.030898,
              28.451504
            ],
            [
              77.032362,
              28.448591
            ],
            [
              77.034093,
              28.454237
            ],
            [
              77.037084,
              28.453689
            ],
            [
              77.038362,
              28.454596
            ],
            [
              77.039844,
              28.453968
            ],
            [
              77.040428,
              28.462034
            ],
            [
              77.039362,
              28.462089
            ],
            [
              77.039159,
              28.463171
            ],
            [
              77.039998,
              28.465332
            ],
            [
              77.041702,
              28.465968
            ],
            [
              77.042063,
              28.466968
            ],
            [
              77.038126,
              28.466732
            ],
            [
              77.038728,
              28.469602
            ],
            [
              77.039884,
              28.469968
            ],
            [
              77.040308,
              28.470968
            ],
            [
              77.039191,
              28.471968
            ],
            [
              77.039921,
              28.473409
            ],
            [
              77.041362,
              28.473359
            ],
            [
              77.043362,
              28.474547
            ],
            [
              77.045445,
              28.476968
            ],
            [
              77.044906,
              28.477968
            ],
            [
              77.042951,
              28.477968
            ],
            [
              77.043924,
              28.479406
            ],
            [
              77.047362,
              28.481634
            ],
            [
              77.049238,
              28.481092
            ],
            [
              77.049408,
              28.482014
            ],
            [
              77.045362,
              28.482263
            ],
            [
              77.044362,
              28.481304
            ],
            [
              77.043362,
              28.482272
            ],
            [
              77.042362,
              28.481325
            ],
            [
              77.037362,
              28.480363
            ],
            [
              77.036362,
              28.479389
            ],
            [
              77.033589,
              28.487195
            ],
            [
              77.031362,
              28.487453
            ],
            [
              77.029901,
              28.488506
            ],
            [
              77.030041,
              28.492289
            ],
            [
              77.031738,
              28.494592
            ],
            [
              77.033475,
              28.494855
            ],
            [
              77.033715,
              28.496615
            ],
            [
              77.034922,
              28.496968
            ],
            [
              77.037673,
              28.499968
            ],
            [
              77.036787,
              28.500968
            ],
            [
              77.039041,
              28.503968
            ],
            [
              77.036035,
              28.50764
            ],
            [
              77.034362,
              28.507474
            ],
            [
              77.030316,
              28.510922
            ],
            [
              77.032029,
              28.512301
            ],
            [
              77.032144,
              28.514186
            ],
            [
              77.034479,
              28.516851
            ],
            [
              77.03447,
              28.51786
            ],
            [
              77.035362,
              28.517968
            ],
            [
              77.036342,
              28.519988
            ],
            [
              77.037362,
              28.519903
            ],
            [
              77.038109,
              28.520968
            ],
            [
              77.037314,
              28.521919
            ],
            [
              77.035362,
              28.521188
            ],
            [
              77.033362,
              28.52222
            ],
            [
              77.032362,
              28.52134
            ],
            [
              77.028825,
              28.521968
            ],
            [
              77.031576,
              28.523754
            ],
            [
              77.030723,
              28.524968
            ],
            [
              77.033416,
              28.527914
            ],
            [
              77.034522,
              28.531127
            ],
            [
              77.033189,
              28.531141
            ],
            [
              77.032849,
              28.529481
            ],
            [
              77.026362,
              28.523565
            ],
            [
              77.023779,
              28.527968
            ],
            [
              77.024362,
              28.528684
            ],
            [
              77.026529,
              28.528968
            ],
            [
              77.023892,
              28.529497
            ],
            [
              77.02269,
              28.531968
            ],
            [
              77.02418,
              28.534786
            ],
            [
              77.022362,
              28.535841
            ],
            [
              77.022177,
              28.535153
            ],
            [
              77.020902,
              28.534968
            ],
            [
              77.022037,
              28.533968
            ],
            [
              77.020362,
              28.531367
            ],
            [
              77.019362,
              28.536295
            ]
          ]
        ],
        "type": "Polygon"
      },
      "type": "Feature"
    }
  ]
}