{
  "type": "FeatureCollection",
  "metadata": {
    "provider_name": "Choudhary Gohana Famous Jalebi",
    "center_lat": 28.45118649,
    "center_lon": 77.03126393,
    "mode": "motorcycle",
    "total_zones": 4,
    "distance_zones": [
      3,
      4,
      5,
      6
    ],
    "generated_at": "2025-12-29T10:52:37.222672Z"
  },
  "features": [
    {
      "properties": {
        "fill-opacity": 0.33,
        "fillColor": "#bf4040",
        "opacity": 0.33,
        "fill": "#bf4040",
        "fillOpacity": 0.33,
        "color": "#bf4040",
        "contour": 3.0,
        "metric": "distance",
        "provider_name": "Choudhary Gohana Famous Jalebi",
        "zone_type": "distance",
        "distance_km": 3,
        "mode": "motorcycle",
        "center_lat": 28.45118649,
        "center_lon": 77.03126393,
        "label": "3km"
      },
      "geometry": {
        "coordinates": [
          [
            [
              77.025263,
              28.464249
            ],
            [
              77.022263,
              28.464571
            ],
            [
              77.021038,
              28.463412
            ],
            [
              77.021088,
              28.459186
            ],
            [
              77.018342,
              28.457186
            ],
            [
              77.019524,
              28.455186
            ],
            [
              77.018263,
              28.455398
            ],
            [
              77.015805,
              28.453186
            ],
            [
              77.017117,
              28.450186
            ],
            [
              77.019015,
              28.449937
            ],
            [
              77.019921,
              28.448186
            ],
            [
              77.017909,
              28.446541
            ],
            [
              77.017655,
              28.444794
            ],
            [
              77.014685,
              28.441186
            ],
            [
              77.016263,
              28.441194
            ],
            [
              77.016688,
              28.442762
            ],
            [
              77.018838,
              28.442761
            ],
            [
              77.018878,
              28.441571
            ],
            [
              77.016292,
              28.441186
            ],
            [
              77.018263,
              28.438975
            ],
            [
              77.019663,
              28.440787
            ],
            [
              77.02144,
              28.44101
            ],
            [
              77.023263,
              28.443669
            ],
            [
              77.028263,
              28.443405
            ],
            [
              77.030263,
              28.445528
            ],
            [
              77.031263,
              28.444516
            ],
            [
              77.033129,
              28.444186
            ],
            [
              77.033263,
              28.441498
            ],
            [
              77.029196,
              28.441254
            ],
            [
              77.026634,
              28.439186
            ],
            [
              77.028263,
              28.437418
            ],
            [
              77.028535,
              28.438915
            ],
            [
              77.029816,
              28.438739
            ],
            [
              77.029971,
              28.437479
            ],
            [
              77.02843,
              28.437186
            ],
            [
              77.030902,
              28.436825
            ],
            [
              77.031192,
              28.435186
            ],
            [
              77.034263,
              28.434374
            ],
            [
              77.035304,
              28.433226
            ],
            [
              77.034644,
              28.431186
            ],
            [
              77.035384,
              28.429065
            ],
            [
              77.033263,
              28.427907
            ],
            [
              77.034263,
              28.426993
            ],
            [
              77.034383,
              28.428067
            ],
            [
              77.036933,
              28.427856
            ],
            [
              77.036961,
              28.426186
            ],
            [
              77.038098,
              28.426021
            ],
            [
              77.038263,
              28.424743
            ],
            [
              77.038872,
              28.425186
            ],
            [
              77.038563,
              28.426887
            ],
            [
              77.039322,
              28.427186
            ],
            [
              77.037564,
              28.427486
            ],
            [
              77.037716,
              28.428733
            ],
            [
              77.041291,
              28.429159
            ],
            [
              77.042263,
              28.431504
            ],
            [
              77.043263,
              28.430721
            ],
            [
              77.045263,
              28.431001
            ],
            [
              77.047354,
              28.433096
            ],
            [
              77.047865,
              28.435186
            ],
            [
              77.047263,
              28.438252
            ],
            [
              77.042263,
              28.439498
            ],
            [
              77.040317,
              28.438133
            ],
            [
              77.039888,
              28.438811
            ],
            [
              77.036987,
              28.43891
            ],
            [
              77.036851,
              28.439598
            ],
            [
              77.039027,
              28.441186
            ],
            [
              77.039263,
              28.443969
            ],
            [
              77.040194,
              28.444255
            ],
            [
              77.042263,
              28.447432
            ],
            [
              77.044696,
              28.447186
            ],
            [
              77.043124,
              28.445325
            ],
            [
              77.043792,
              28.442714
            ],
            [
              77.049263,
              28.442289
            ],
            [
              77.051763,
              28.444186
            ],
            [
              77.051789,
              28.445186
            ],
            [
              77.050005,
              28.446186
            ],
            [
              77.051238,
              28.447212
            ],
            [
              77.051936,
              28.450186
            ],
            [
              77.051034,
              28.456186
            ],
            [
              77.049432,
              28.459354
            ],
            [
              77.04927,
              28.461179
            ],
            [
              77.050771,
              28.461186
            ],
            [
              77.050263,
              28.461588
            ],
            [
              77.050077,
              28.461372
            ],
            [
              77.049243,
              28.461206
            ],
            [
              77.048263,
              28.460615
            ],
            [
              77.046997,
              28.460452
            ],
            [
              77.045873,
              28.459795
            ],
            [
              77.043263,
              28.46178
            ],
            [
              77.041263,
              28.462054
            ],
            [
              77.040263,
              28.460442
            ],
            [
              77.039263,
              28.460254
            ],
            [
              77.036981,
              28.460903
            ],
            [
              77.035263,
              28.462659
            ],
            [
              77.033263,
              28.461637
            ],
            [
              77.032399,
              28.463321
            ],
            [
              77.030263,
              28.462794
            ],
            [
              77.027263,
              28.463564
            ],
            [
              77.026034,
              28.462957
            ],
            [
              77.025263,
              28.464249
            ]
          ]
        ],
        "type": "Polygon"
      },
      "type": "Feature"
    },
    {
      "properties": {
        "fill-opacity": 0.33,
        "fillColor": "#bf4040",
        "opacity": 0.33,
        "fill": "#bf4040",
        "fillOpacity": 0.33,
        "color": "#bf4040",
        "contour": 4.0,
        "metric": "distance",
        "provider_name": "Choudhary Gohana Famous Jalebi",
        "zone_type": "distance",
        "distance_km": 4,
        "mode": "motorcycle",
        "center_lat": 28.45118649,
        "center_lon": 77.03126393,
        "label": "4km"
      },
      "geometry": {
        "coordinates": [
          [
            [
              77.019263,
              28.472261
            ],
            [
              77.018263,
              28.472835
            ],
            [
              77.017671,
              28.472186
            ],
            [
              77.016647,
              28.468802
            ],
            [
              77.012788,
              28.467186
            ],
            [
              77.013322,
              28.465186
            ],
            [
              77.012371,
              28.464078
            ],
            [
              77.012638,
              28.461186
            ],
            [
              77.01134,
              28.460186
            ],
            [
              77.011119,
              28.458186
            ],
            [
              77.00815,
              28.457186
            ],
            [
              77.009056,
              28.455979
            ],
            [
              77.009486,
              28.456963
            ],
            [
              77.010439,
              28.45701
            ],
            [
              77.011754,
              28.456677
            ],
            [
              77.012263,
              28.455366
            ],
            [
              77.01371,
              28.455632
            ],
            [
              77.013263,
              28.454434
            ],
            [
              77.010768,
              28.454186
            ],
            [
              77.010225,
              28.453186
            ],
            [
              77.012044,
              28.451186
            ],
            [
              77.011522,
              28.448928
            ],
            [
              77.009882,
              28.448186
            ],
            [
              77.010111,
              28.445186
            ],
            [
              77.011279,
              28.443202
            ],
            [
              77.015334,
              28.443257
            ],
            [
              77.014342,
              28.443107
            ],
            [
              77.014482,
              28.441968
            ],
            [
              77.012804,
              28.440646
            ],
            [
              77.012352,
              28.439098
            ],
            [
              77.008128,
              28.436186
            ],
            [
              77.009263,
              28.433515
            ],
            [
              77.010936,
              28.434513
            ],
            [
              77.01309,
              28.434186
            ],
            [
              77.011614,
              28.436186
            ],
            [
              77.012869,
              28.437581
            ],
            [
              77.015263,
              28.437804
            ],
            [
              77.016263,
              28.436781
            ],
            [
              77.018593,
              28.436857
            ],
            [
              77.018872,
              28.438186
            ],
            [
              77.022263,
              28.440602
            ],
            [
              77.023275,
              28.439175
            ],
            [
              77.022534,
              28.438186
            ],
            [
              77.023115,
              28.438037
            ],
            [
              77.022838,
              28.436612
            ],
            [
              77.021536,
              28.436459
            ],
            [
              77.021263,
              28.437324
            ],
            [
              77.019651,
              28.436186
            ],
            [
              77.020754,
              28.435677
            ],
            [
              77.021263,
              28.434181
            ],
            [
              77.02156,
              28.435889
            ],
            [
              77.022263,
              28.435987
            ],
            [
              77.024733,
              28.434655
            ],
            [
              77.02464,
              28.431186
            ],
            [
              77.026263,
              28.429352
            ],
            [
              77.028263,
              28.431987
            ],
            [
              77.033564,
              28.432186
            ],
            [
              77.031842,
              28.431608
            ],
            [
              77.030933,
              28.429186
            ],
            [
              77.032366,
              28.428083
            ],
            [
              77.029795,
              28.427718
            ],
            [
              77.026795,
              28.429654
            ],
            [
              77.026875,
              28.427574
            ],
            [
              77.023397,
              28.427052
            ],
            [
              77.02317,
              28.426186
            ],
            [
              77.024784,
              28.425707
            ],
            [
              77.025263,
              28.424288
            ],
            [
              77.025598,
              28.425852
            ],
            [
              77.026263,
              28.425956
            ],
            [
              77.028953,
              28.423186
            ],
            [
              77.031263,
              28.42277
            ],
            [
              77.036553,
              28.422897
            ],
            [
              77.036782,
              28.425186
            ],
            [
              77.037478,
              28.425401
            ],
            [
              77.037586,
              28.423186
            ],
            [
              77.038452,
              28.422186
            ],
            [
              77.037667,
              28.419186
            ],
            [
              77.039844,
              28.417767
            ],
            [
              77.040246,
              28.416168
            ],
            [
              77.041191,
              28.416258
            ],
            [
              77.04339,
              28.418186
            ],
            [
              77.042142,
              28.420308
            ],
            [
              77.043263,
              28.421655
            ],
            [
              77.044525,
              28.421925
            ],
            [
              77.044468,
              28.423186
            ],
            [
              77.045755,
              28.424186
            ],
            [
              77.043263,
              28.426863
            ],
            [
              77.042263,
              28.426805
            ],
            [
              77.041263,
              28.427929
            ],
            [
              77.038263,
              28.427869
            ],
            [
              77.038093,
              28.428356
            ],
            [
              77.041978,
              28.428472
            ],
            [
              77.042263,
              28.42921
            ],
            [
              77.043263,
              28.428916
            ],
            [
              77.04567,
              28.42978
            ],
            [
              77.047263,
              28.431812
            ],
            [
              77.048263,
              28.431197
            ],
            [
              77.048725,
              28.433725
            ],
            [
              77.05083,
              28.435186
            ],
            [
              77.049959,
              28.43849
            ],
            [
              77.051263,
              28.439647
            ],
            [
              77.053521,
              28.439928
            ],
            [
              77.055517,
              28.442186
            ],
            [
              77.054834,
              28.443615
            ],
            [
              77.058263,
              28.444012
            ],
            [
              77.059867,
              28.446186
            ],
            [
              77.057621,
              28.450544
            ],
            [
              77.058046,
              28.454186
            ],
            [
              77.056721,
              28.456643
            ],
            [
              77.055038,
              28.457186
            ],
            [
              77.055819,
              28.45863
            ],
            [
              77.057257,
              28.459186
            ],
            [
              77.054263,
              28.459438
            ],
            [
              77.053263,
              28.460266
            ],
            [
              77.053,
              28.45945
            ],
            [
              77.051366,
              28.459289
            ],
            [
              77.051166,
              28.460089
            ],
            [
              77.055628,
              28.465186
            ],
            [
              77.056969,
              28.468186
            ],
            [
              77.056263,
              28.468756
            ],
            [
              77.056059,
              28.46739
            ],
            [
              77.055263,
              28.467328
            ],
            [
              77.054263,
              28.468245
            ],
            [
              77.049263,
              28.467454
            ],
            [
              77.047283,
              28.468206
            ],
            [
              77.047034,
              28.467415
            ],
            [
              77.045399,
              28.467051
            ],
            [
              77.044263,
              28.464928
            ],
            [
              77.043263,
              28.465726
            ],
            [
              77.037823,
              28.466746
            ],
            [
              77.039308,
              28.47023
            ],
            [
              77.035263,
              28.470165
            ],
            [
              77.034263,
              28.471938
            ],
            [
              77.031263,
              28.469567
            ],
            [
              77.028263,
              28.469517
            ],
            [
              77.027263,
              28.468866
            ],
            [
              77.019263,
              28.472261
            ]
          ]
        ],
        "type": "Polygon"
      },
      "type": "Feature"
    },
    {
      "properties": {
        "fill-opacity": 0.33,
        "fillColor": "#bf4040",
        "opacity": 0.33,
        "fill": "#bf4040",
        "fillOpacity": 0.33,
        "color": "#bf4040",
        "contour": 5.0,
        "metric": "distance",
        "provider_name": "Choudhary Gohana Famous Jalebi",
        "zone_type": "distance",
        "distance_km": 5,
        "mode": "motorcycle",
        "center_lat": 28.45118649,
        "center_lon": 77.03126393,
        "label": "5km"
      },
      "geometry": {
        "coordinates": [
          [
            [
              77.014263,
              28.48128
            ],
            [
              77.012651,
              28.479186
            ],
            [
              77.012352,
              28.476186
            ],
            [
              77.008768,
              28.470681
            ],
            [
              77.007917,
              28.467532
            ],
            [
              77.005263,
              28.466107
            ],
            [
              77.004607,
              28.463842
            ],
            [
              77.002788,
              28.462661
            ],
            [
              77.003409,
              28.460041
            ],
            [
              77.002152,
              28.459297
            ],
            [
              77.000263,
              28.459508
            ],
            [
              76.997812,
              28.457186
            ],
            [
              77.001118,
              28.453186
            ],
            [
              77.001013,
              28.449186
            ],
            [
              77.005183,
              28.449106
            ],
            [
              77.00557,
              28.442186
            ],
            [
              77.006554,
              28.441186
            ],
            [
              77.006317,
              28.440133
            ],
            [
              77.005263,
              28.439958
            ],
            [
              77.001263,
              28.442426
            ],
            [
              77.000306,
              28.442186
            ],
            [
              77.001667,
              28.433186
            ],
            [
              77.002263,
              28.432665
            ],
            [
              77.004263,
              28.433378
            ],
            [
              77.004517,
              28.432186
            ],
            [
              77.0038,
              28.431186
            ],
            [
              77.004588,
              28.429861
            ],
            [
              77.002412,
              28.427186
            ],
            [
              77.003263,
              28.426427
            ],
            [
              77.004145,
              28.427305
            ],
            [
              77.007857,
              28.427186
            ],
            [
              77.0075,
              28.430186
            ],
            [
              77.008263,
              28.43085
            ],
            [
              77.009263,
              28.42996
            ],
            [
              77.01292,
              28.429842
            ],
            [
              77.014933,
              28.428855
            ],
            [
              77.015263,
              28.427432
            ],
            [
              77.018756,
              28.426678
            ],
            [
              77.018268,
              28.423181
            ],
            [
              77.017265,
              28.422186
            ],
            [
              77.02181,
              28.421733
            ],
            [
              77.022263,
              28.419801
            ],
            [
              77.022404,
              28.421046
            ],
            [
              77.023928,
              28.421186
            ],
            [
              77.022578,
              28.423186
            ],
            [
              77.024263,
              28.424835
            ],
            [
              77.02446,
              28.420383
            ],
            [
              77.025263,
              28.420386
            ],
            [
              77.027263,
              28.422765
            ],
            [
              77.032561,
              28.421483
            ],
            [
              77.033852,
              28.418186
            ],
            [
              77.033315,
              28.417186
            ],
            [
              77.035351,
              28.415186
            ],
            [
              77.040503,
              28.413425
            ],
            [
              77.04069,
              28.411613
            ],
            [
              77.042014,
              28.410186
            ],
            [
              77.041918,
              28.409532
            ],
            [
              77.04026,
              28.409186
            ],
            [
              77.043027,
              28.40895
            ],
            [
              77.043263,
              28.40734
            ],
            [
              77.043487,
              28.408963
            ],
            [
              77.04717,
              28.412186
            ],
            [
              77.045226,
              28.414148
            ],
            [
              77.046263,
              28.415893
            ],
            [
              77.047263,
              28.414488
            ],
            [
              77.049263,
              28.415165
            ],
            [
              77.050011,
              28.416186
            ],
            [
              77.049586,
              28.419186
            ],
            [
              77.051418,
              28.42034
            ],
            [
              77.048794,
              28.421717
            ],
            [
              77.04883,
              28.422619
            ],
            [
              77.049741,
              28.422664
            ],
            [
              77.050263,
              28.421258
            ],
            [
              77.051263,
              28.421307
            ],
            [
              77.051851,
              28.422186
            ],
            [
              77.050789,
              28.423186
            ],
            [
              77.052032,
              28.424186
            ],
            [
              77.051645,
              28.425186
            ],
            [
              77.052263,
              28.425887
            ],
            [
              77.053263,
              28.425367
            ],
            [
              77.054664,
              28.427785
            ],
            [
              77.05716,
              28.428289
            ],
            [
              77.057514,
              28.428936
            ],
            [
              77.057306,
              28.432186
            ],
            [
              77.05599,
              28.433913
            ],
            [
              77.058061,
              28.437186
            ],
            [
              77.05696,
              28.437882
            ],
            [
              77.056683,
              28.439186
            ],
            [
              77.055589,
              28.439512
            ],
            [
              77.056262,
              28.442186
            ],
            [
              77.055207,
              28.443242
            ],
            [
              77.058803,
              28.443646
            ],
            [
              77.060949,
              28.4465
            ],
            [
              77.064325,
              28.449125
            ],
            [
              77.065478,
              28.451401
            ],
            [
              77.065483,
              28.452186
            ],
            [
              77.064528,
              28.45245
            ],
            [
              77.065263,
              28.454494
            ],
            [
              77.061958,
              28.457881
            ],
            [
              77.062515,
              28.460186
            ],
            [
              77.061263,
              28.462177
            ],
            [
              77.061082,
              28.460186
            ],
            [
              77.060263,
              28.459504
            ],
            [
              77.059263,
              28.460506
            ],
            [
              77.054547,
              28.460469
            ],
            [
              77.053263,
              28.461048
            ],
            [
              77.051964,
              28.460186
            ],
            [
              77.052236,
              28.461214
            ],
            [
              77.054263,
              28.462884
            ],
            [
              77.056979,
              28.463186
            ],
            [
              77.058322,
              28.471186
            ],
            [
              77.056999,
              28.473451
            ],
            [
              77.058419,
              28.47403
            ],
            [
              77.059,
              28.475186
            ],
            [
              77.054263,
              28.476499
            ],
            [
              77.052705,
              28.476186
            ],
            [
              77.053858,
              28.473186
            ],
            [
              77.051263,
              28.472155
            ],
            [
              77.054314,
              28.470237
            ],
            [
              77.054478,
              28.469186
            ],
            [
              77.052263,
              28.468903
            ],
            [
              77.051875,
              28.469797
            ],
            [
              77.049003,
              28.470186
            ],
            [
              77.049027,
              28.471186
            ],
            [
              77.047263,
              28.470669
            ],
            [
              77.044278,
              28.472186
            ],
            [
              77.045381,
              28.477303
            ],
            [
              77.043113,
              28.477337
            ],
            [
              77.039263,
              28.474644
            ],
            [
              77.038537,
              28.477186
            ],
            [
              77.037002,
              28.478186
            ],
            [
              77.03754,
              28.479186
            ],
            [
              77.035393,
              28.479316
            ],
            [
              77.035263,
              28.480936
            ],
            [
              77.034994,
              28.478455
            ],
            [
              77.030263,
              28.47809
            ],
            [
              77.029263,
              28.477441
            ],
            [
              77.02812,
              28.478043
            ],
            [
              77.026263,
              28.477623
            ],
            [
              77.024263,
              28.47604
            ],
            [
              77.023263,
              28.476558
            ],
            [
              77.022263,
              28.476154
            ],
            [
              77.02139,
              28.478313
            ],
            [
              77.019495,
              28.479418
            ],
            [
              77.016846,
              28.478768
            ],
            [
              77.016263,
              28.480471
            ],
            [
              77.014263,
              28.48128
            ]
          ]
        ],
        "type": "Polygon"
      },
      "type": "Feature"
    },
    {
      "properties": {
        "fill-opacity": 0.33,
        "fillColor": "#bf4040",
        "opacity": 0.33,
        "fill": "#bf4040",
        "fillOpacity": 0.33,
        "color": "#bf4040",
        "contour": 6.0,
        "metric": "distance",
        "provider_name": "Choudhary Gohana Famous Jalebi",
        "zone_type": "distance",
        "distance_km": 6,
        "mode": "motorcycle",
        "center_lat": 28.45118649,
        "center_lon": 77.03126393,
        "label": "6km"
      },
      "geometry": {
        "coordinates": [
          [
            [
              77.011263,
              28.489215
            ],
            [
              77.010088,
              28.486361
            ],
            [
              77.007621,
              28.486186
            ],
            [
              77.008103,
              28.484186
            ],
            [
              77.005527,
              28.482186
            ],
            [
              77.004609,
              28.476186
            ],
            [
              77.002658,
              28.473186
            ],
            [
              77.002694,
              28.469186
            ],
            [
              77.001263,
              28.468067
            ],
            [
              77.000216,
              28.468233
            ],
            [
              76.999656,
              28.467186
            ],
            [
              77.001604,
              28.466527
            ],
            [
              77.002298,
              28.465151
            ],
            [
              77.000263,
              28.463491
            ],
            [
              76.998263,
              28.464537
            ],
            [
              76.997032,
              28.463954
            ],
            [
              76.996263,
              28.465417
            ],
            [
              76.994823,
              28.465186
            ],
            [
              76.992978,
              28.462186
            ],
            [
              76.992834,
              28.460186
            ],
            [
              76.991409,
              28.459041
            ],
            [
              76.98825,
              28.4582
            ],
            [
              76.987714,
              28.457186
            ],
            [
              76.989263,
              28.456052
            ],
            [
              76.990263,
              28.456611
            ],
            [
              76.991259,
              28.455186
            ],
            [
              76.992263,
              28.455184
            ],
            [
              76.995236,
              28.452186
            ],
            [
              76.994571,
              28.451186
            ],
            [
              76.995768,
              28.450186
            ],
            [
              76.994709,
              28.449186
            ],
            [
              76.995265,
              28.448186
            ],
            [
              76.994283,
              28.447167
            ],
            [
              76.994625,
              28.445186
            ],
            [
              76.993735,
              28.441186
            ],
            [
              76.995539,
              28.435186
            ],
            [
              76.994402,
              28.433186
            ],
            [
              76.995034,
              28.430957
            ],
            [
              76.996263,
              28.430912
            ],
            [
              76.997798,
              28.429186
            ],
            [
              76.996263,
              28.427508
            ],
            [
              76.995263,
              28.428387
            ],
            [
              76.995067,
              28.42599
            ],
            [
              76.995263,
              28.425811
            ],
            [
              76.995387,
              28.427063
            ],
            [
              76.997404,
              28.427046
            ],
            [
              76.999846,
              28.429603
            ],
            [
              77.000895,
              28.429186
            ],
            [
              76.997791,
              28.424186
            ],
            [
              76.998251,
              28.422186
            ],
            [
              76.997263,
              28.418946
            ],
            [
              77.002263,
              28.420663
            ],
            [
              77.003263,
              28.42178
            ],
            [
              77.006044,
              28.421967
            ],
            [
              77.006263,
              28.420874
            ],
            [
              77.009263,
              28.420173
            ],
            [
              77.009413,
              28.421037
            ],
            [
              77.011376,
              28.421074
            ],
            [
              77.012263,
              28.42199
            ],
            [
              77.01305,
              28.421186
            ],
            [
              77.012165,
              28.420284
            ],
            [
              77.012195,
              28.417117
            ],
            [
              77.015263,
              28.417019
            ],
            [
              77.016822,
              28.417744
            ],
            [
              77.017263,
              28.415165
            ],
            [
              77.019263,
              28.417885
            ],
            [
              77.021046,
              28.415186
            ],
            [
              77.021263,
              28.412188
            ],
            [
              77.021717,
              28.414732
            ],
            [
              77.022809,
              28.414731
            ],
            [
              77.023263,
              28.413014
            ],
            [
              77.025092,
              28.414186
            ],
            [
              77.023615,
              28.414537
            ],
            [
              77.02351,
              28.415186
            ],
            [
              77.02549,
              28.416186
            ],
            [
              77.025263,
              28.417907
            ],
            [
              77.023921,
              28.416528
            ],
            [
              77.022263,
              28.416505
            ],
            [
              77.021665,
              28.417186
            ],
            [
              77.02271,
              28.418186
            ],
            [
              77.023263,
              28.420569
            ],
            [
              77.025263,
              28.41821
            ],
            [
              77.026359,
              28.418282
            ],
            [
              77.027534,
              28.417186
            ],
            [
              77.027556,
              28.414893
            ],
            [
              77.025705,
              28.414186
            ],
            [
              77.027922,
              28.413845
            ],
            [
              77.029263,
              28.411116
            ],
            [
              77.031363,
              28.412087
            ],
            [
              77.032263,
              28.413797
            ],
            [
              77.03334,
              28.412109
            ],
            [
              77.032182,
              28.410186
            ],
            [
              77.033263,
              28.408651
            ],
            [
              77.037263,
              28.408283
            ],
            [
              77.037168,
              28.407186
            ],
            [
              77.038263,
              28.406073
            ],
            [
              77.040307,
              28.407186
            ],
            [
              77.039931,
              28.408519
            ],
            [
              77.042385,
              28.408307
            ],
            [
              77.042438,
              28.40436
            ],
            [
              77.043723,
              28.403646
            ],
            [
              77.043973,
              28.402186
            ],
            [
              77.043875,
              28.401574
            ],
            [
              77.042055,
              28.401186
            ],
            [
              77.044613,
              28.400535
            ],
            [
              77.045263,
              28.398531
            ],
            [
              77.047333,
              28.400186
            ],
            [
              77.046504,
              28.400427
            ],
            [
              77.046611,
              28.401839
            ],
            [
              77.048473,
              28.402186
            ],
            [
              77.047671,
              28.404593
            ],
            [
              77.046263,
              28.404745
            ],
            [
              77.046017,
              28.405433
            ],
            [
              77.050433,
              28.405017
            ],
            [
              77.049794,
              28.407655
            ],
            [
              77.050956,
              28.407879
            ],
            [
              77.051263,
              28.406747
            ],
            [
              77.052263,
              28.407204
            ],
            [
              77.053263,
              28.408675
            ],
            [
              77.053612,
              28.411838
            ],
            [
              77.056593,
              28.412186
            ],
            [
              77.05559,
              28.413186
            ],
            [
              77.055983,
              28.415466
            ],
            [
              77.058726,
              28.417186
            ],
            [
              77.057263,
              28.41935
            ],
            [
              77.054949,
              28.420186
            ],
            [
              77.056263,
              28.421607
            ],
            [
              77.058332,
              28.422117
            ],
            [
              77.056568,
              28.423186
            ],
            [
              77.057533,
              28.424186
            ],
            [
              77.05726,
              28.425186
            ],
            [
              77.058261,
              28.425189
            ],
            [
              77.059263,
              28.427318
            ],
            [
              77.064468,
              28.428981
            ],
            [
              77.064263,
              28.434153
            ],
            [
              77.061263,
              28.434026
            ],
            [
              77.059884,
              28.436186
            ],
            [
              77.06369,
              28.440186
            ],
            [
              77.062895,
              28.442186
            ],
            [
              77.063248,
              28.447186
            ],
            [
              77.066263,
              28.450093
            ],
            [
              77.070263,
              28.447128
            ],
            [
              77.073674,
              28.448186
            ],
            [
              77.071602,
              28.458186
            ],
            [
              77.070263,
              28.458696
            ],
            [
              77.069263,
              28.458186
            ],
            [
              77.067542,
              28.459464
            ],
            [
              77.066263,
              28.459486
            ],
            [
              77.065263,
              28.461848
            ],
            [
              77.063959,
              28.460881
            ],
            [
              77.061778,
              28.463671
            ],
            [
              77.064263,
              28.46348
            ],
            [
              77.064699,
              28.465622
            ],
            [
              77.060836,
              28.466759
            ],
            [
              77.058856,
              28.469186
            ],
            [
              77.059947,
              28.470503
            ],
            [
              77.061532,
              28.470917
            ],
            [
              77.066048,
              28.476402
            ],
            [
              77.068612,
              28.477535
            ],
            [
              77.068263,
              28.478062
            ],
            [
              77.068055,
              28.477395
            ],
            [
              77.063214,
              28.478137
            ],
            [
              77.063768,
              28.480186
            ],
            [
              77.059263,
              28.481402
            ],
            [
              77.058263,
              28.481462
            ],
            [
              77.055263,
              28.47873
            ],
            [
              77.054263,
              28.479548
            ],
            [
              77.052263,
              28.479039
            ],
            [
              77.049667,
              28.481186
            ],
            [
              77.05149,
              28.483186
            ],
            [
              77.051263,
              28.484446
            ],
            [
              77.049847,
              28.482603
            ],
            [
              77.044263,
              28.481424
            ],
            [
              77.043263,
              28.482415
            ],
            [
              77.042263,
              28.481536
            ],
            [
              77.040263,
              28.481535
            ],
            [
              77.037263,
              28.479597
            ],
            [
              77.03588,
              28.479802
            ],
            [
              77.035263,
              28.481679
            ],
            [
              77.034523,
              28.478927
            ],
            [
              77.033263,
              28.478815
            ],
            [
              77.029263,
              28.480865
            ],
            [
              77.026081,
              28.481004
            ],
            [
              77.025263,
              28.48256
            ],
            [
              77.022076,
              28.483999
            ],
            [
              77.021495,
              28.485418
            ],
            [
              77.019822,
              28.485745
            ],
            [
              77.019263,
              28.488058
            ],
            [
              77.017263,
              28.488019
            ],
            [
              77.015263,
              28.486563
            ],
            [
              77.013263,
              28.488894
            ],
            [
              77.011263,
              28.489215
            ]
          ]
        ],
        "type": "Polygon"
      },
      "type": "Feature"
    }
  ]
}