{
  "type": "FeatureCollection",
  "metadata": {
    "provider_name": "Grandma Khichdi",
    "center_lat": 28.47000906,
    "center_lon": 77.08587439,
    "mode": "motorcycle",
    "total_zones": 4,
    "distance_zones": [
      3,
      4,
      5,
      6
    ],
    "generated_at": "2025-12-26T10:21:25.314611Z"
  },
  "features": [
    {
      "properties": {
        "fill-opacity": 0.33,
        "fillColor": "#bf4040",
        "opacity": 0.33,
        "fill": "#bf4040",
        "fillOpacity": 0.33,
        "color": "#bf4040",
        "contour": 3.0,
        "metric": "distance",
        "provider_name": "Grandma Khichdi",
        "zone_type": "distance",
        "distance_km": 3,
        "mode": "motorcycle",
        "center_lat": 28.47000906,
        "center_lon": 77.08587439,
        "label": "3km"
      },
      "geometry": {
        "coordinates": [
          [
            [
              77.080874,
              28.482039
            ],
            [
              77.080274,
              28.480609
            ],
            [
              77.077874,
              28.479595
            ],
            [
              77.072874,
              28.479342
            ],
            [
              77.068874,
              28.477257
            ],
            [
              77.066814,
              28.477009
            ],
            [
              77.067183,
              28.474699
            ],
            [
              77.063131,
              28.471009
            ],
            [
              77.064874,
              28.470154
            ],
            [
              77.065874,
              28.471123
            ],
            [
              77.067474,
              28.470009
            ],
            [
              77.065368,
              28.466514
            ],
            [
              77.062724,
              28.467009
            ],
            [
              77.062849,
              28.465984
            ],
            [
              77.064492,
              28.465627
            ],
            [
              77.064671,
              28.464212
            ],
            [
              77.063982,
              28.464009
            ],
            [
              77.064806,
              28.46294
            ],
            [
              77.065874,
              28.462129
            ],
            [
              77.066327,
              28.463555
            ],
            [
              77.067334,
              28.463469
            ],
            [
              77.067323,
              28.462559
            ],
            [
              77.065953,
              28.462009
            ],
            [
              77.070356,
              28.45849
            ],
            [
              77.069874,
              28.45569
            ],
            [
              77.070874,
              28.456575
            ],
            [
              77.072874,
              28.455846
            ],
            [
              77.074657,
              28.454792
            ],
            [
              77.074874,
              28.453661
            ],
            [
              77.077874,
              28.456358
            ],
            [
              77.078793,
              28.453009
            ],
            [
              77.080952,
              28.452087
            ],
            [
              77.081874,
              28.450215
            ],
            [
              77.084874,
              28.450703
            ],
            [
              77.090874,
              28.453551
            ],
            [
              77.091303,
              28.454438
            ],
            [
              77.089874,
              28.454604
            ],
            [
              77.089874,
              28.455747
            ],
            [
              77.09143,
              28.454564
            ],
            [
              77.095874,
              28.453834
            ],
            [
              77.096095,
              28.455787
            ],
            [
              77.097874,
              28.456383
            ],
            [
              77.09859,
              28.461293
            ],
            [
              77.101555,
              28.461328
            ],
            [
              77.103478,
              28.464009
            ],
            [
              77.095572,
              28.464707
            ],
            [
              77.095482,
              28.466401
            ],
            [
              77.097072,
              28.467009
            ],
            [
              77.094567,
              28.470702
            ],
            [
              77.094172,
              28.476009
            ],
            [
              77.09479,
              28.478924
            ],
            [
              77.093874,
              28.480146
            ],
            [
              77.091643,
              28.478778
            ],
            [
              77.090942,
              28.479009
            ],
            [
              77.091583,
              28.480009
            ],
            [
              77.091015,
              28.48115
            ],
            [
              77.088874,
              28.480504
            ],
            [
              77.086564,
              28.481318
            ],
            [
              77.083874,
              28.480579
            ],
            [
              77.080874,
              28.482039
            ]
          ]
        ],
        "type": "Polygon"
      },
      "type": "Feature"
    },
    {
      "properties": {
        "fill-opacity": 0.33,
        "fillColor": "#bf4040",
        "opacity": 0.33,
        "fill": "#bf4040",
        "fillOpacity": 0.33,
        "color": "#bf4040",
        "contour": 4.0,
        "metric": "distance",
        "provider_name": "Grandma Khichdi",
        "zone_type": "distance",
        "distance_km": 4,
        "mode": "motorcycle",
        "center_lat": 28.47000906,
        "center_lon": 77.08587439,
        "label": "4km"
      },
      "geometry": {
        "coordinates": [
          [
            [
              77.094874,
              28.487055
            ],
            [
              77.092897,
              28.487032
            ],
            [
              77.092874,
              28.487794
            ],
            [
              77.092805,
              28.48694
            ],
            [
              77.094497,
              28.486009
            ],
            [
              77.093694,
              28.482828
            ],
            [
              77.091874,
              28.483998
            ],
            [
              77.088874,
              28.481868
            ],
            [
              77.080375,
              28.48251
            ],
            [
              77.078058,
              28.483192
            ],
            [
              77.076885,
              28.48502
            ],
            [
              77.072927,
              28.480956
            ],
            [
              77.072002,
              28.48088
            ],
            [
              77.071874,
              28.47999
            ],
            [
              77.070874,
              28.480752
            ],
            [
              77.070749,
              28.480134
            ],
            [
              77.068874,
              28.480517
            ],
            [
              77.068598,
              28.480009
            ],
            [
              77.069387,
              28.479009
            ],
            [
              77.067874,
              28.478665
            ],
            [
              77.067196,
              28.477686
            ],
            [
              77.062549,
              28.477684
            ],
            [
              77.059874,
              28.478463
            ],
            [
              77.058452,
              28.478009
            ],
            [
              77.057371,
              28.474009
            ],
            [
              77.059874,
              28.473394
            ],
            [
              77.060541,
              28.472009
            ],
            [
              77.058451,
              28.469432
            ],
            [
              77.058332,
              28.468009
            ],
            [
              77.062874,
              28.464025
            ],
            [
              77.064068,
              28.462009
            ],
            [
              77.063223,
              28.461009
            ],
            [
              77.064147,
              28.454009
            ],
            [
              77.064026,
              28.450857
            ],
            [
              77.062874,
              28.450362
            ],
            [
              77.063185,
              28.449009
            ],
            [
              77.066874,
              28.45125
            ],
            [
              77.068874,
              28.449164
            ],
            [
              77.069851,
              28.449032
            ],
            [
              77.070874,
              28.449695
            ],
            [
              77.072874,
              28.449611
            ],
            [
              77.073874,
              28.45079
            ],
            [
              77.074874,
              28.448159
            ],
            [
              77.078874,
              28.446262
            ],
            [
              77.080423,
              28.44646
            ],
            [
              77.081874,
              28.449146
            ],
            [
              77.086874,
              28.449474
            ],
            [
              77.08757,
              28.451313
            ],
            [
              77.088874,
              28.451721
            ],
            [
              77.090291,
              28.451426
            ],
            [
              77.090874,
              28.449731
            ],
            [
              77.091874,
              28.450633
            ],
            [
              77.094031,
              28.450851
            ],
            [
              77.093601,
              28.452282
            ],
            [
              77.096552,
              28.45233
            ],
            [
              77.096874,
              28.45324
            ],
            [
              77.0979,
              28.452009
            ],
            [
              77.097874,
              28.449009
            ],
            [
              77.099756,
              28.44889
            ],
            [
              77.099874,
              28.447513
            ],
            [
              77.100191,
              28.449692
            ],
            [
              77.102874,
              28.450483
            ],
            [
              77.101981,
              28.452116
            ],
            [
              77.100209,
              28.453009
            ],
            [
              77.100278,
              28.455605
            ],
            [
              77.101932,
              28.457066
            ],
            [
              77.100874,
              28.457116
            ],
            [
              77.100282,
              28.458009
            ],
            [
              77.100874,
              28.458587
            ],
            [
              77.101874,
              28.458089
            ],
            [
              77.102874,
              28.459578
            ],
            [
              77.104874,
              28.458939
            ],
            [
              77.106056,
              28.461009
            ],
            [
              77.105291,
              28.463009
            ],
            [
              77.107141,
              28.463742
            ],
            [
              77.107406,
              28.466477
            ],
            [
              77.110209,
              28.467009
            ],
            [
              77.109084,
              28.467218
            ],
            [
              77.108874,
              28.470113
            ],
            [
              77.108555,
              28.468327
            ],
            [
              77.107221,
              28.468355
            ],
            [
              77.105874,
              28.469635
            ],
            [
              77.104874,
              28.469192
            ],
            [
              77.101874,
              28.470789
            ],
            [
              77.098982,
              28.474009
            ],
            [
              77.102383,
              28.473009
            ],
            [
              77.102486,
              28.476009
            ],
            [
              77.101223,
              28.478009
            ],
            [
              77.099299,
              28.478434
            ],
            [
              77.097929,
              28.480064
            ],
            [
              77.095123,
              28.480258
            ],
            [
              77.094874,
              28.487055
            ]
          ]
        ],
        "type": "Polygon"
      },
      "type": "Feature"
    },
    {
      "properties": {
        "fill-opacity": 0.33,
        "fillColor": "#bf4040",
        "opacity": 0.33,
        "fill": "#bf4040",
        "fillOpacity": 0.33,
        "color": "#bf4040",
        "contour": 5.0,
        "metric": "distance",
        "provider_name": "Grandma Khichdi",
        "zone_type": "distance",
        "distance_km": 5,
        "mode": "motorcycle",
        "center_lat": 28.47000906,
        "center_lon": 77.08587439,
        "label": "5km"
      },
      "geometry": {
        "coordinates": [
          [
            [
              77.088874,
              28.490317
            ],
            [
              77.086308,
              28.490574
            ],
            [
              77.085983,
              28.487009
            ],
            [
              77.08523,
              28.487364
            ],
            [
              77.081874,
              28.486245
            ],
            [
              77.081443,
              28.488009
            ],
            [
              77.083213,
              28.490009
            ],
            [
              77.081655,
              28.490228
            ],
            [
              77.0778,
              28.487083
            ],
            [
              77.075581,
              28.487009
            ],
            [
              77.075482,
              28.486009
            ],
            [
              77.071714,
              28.482848
            ],
            [
              77.070874,
              28.484617
            ],
            [
              77.069288,
              28.485009
            ],
            [
              77.069825,
              28.486009
            ],
            [
              77.067874,
              28.487291
            ],
            [
              77.066874,
              28.487093
            ],
            [
              77.065874,
              28.488203
            ],
            [
              77.063874,
              28.485635
            ],
            [
              77.061874,
              28.485409
            ],
            [
              77.060756,
              28.486126
            ],
            [
              77.061265,
              28.482009
            ],
            [
              77.058874,
              28.482732
            ],
            [
              77.057728,
              28.481154
            ],
            [
              77.05758,
              28.479303
            ],
            [
              77.053534,
              28.476009
            ],
            [
              77.053588,
              28.474723
            ],
            [
              77.054537,
              28.474009
            ],
            [
              77.047926,
              28.471009
            ],
            [
              77.051874,
              28.469261
            ],
            [
              77.053772,
              28.472111
            ],
            [
              77.055912,
              28.472047
            ],
            [
              77.055206,
              28.470009
            ],
            [
              77.056496,
              28.469009
            ],
            [
              77.056706,
              28.467177
            ],
            [
              77.056045,
              28.467009
            ],
            [
              77.057512,
              28.465646
            ],
            [
              77.057531,
              28.463009
            ],
            [
              77.056874,
              28.462269
            ],
            [
              77.054809,
              28.462009
            ],
            [
              77.055656,
              28.46179
            ],
            [
              77.055874,
              28.460255
            ],
            [
              77.05613,
              28.461752
            ],
            [
              77.059874,
              28.461643
            ],
            [
              77.060442,
              28.461009
            ],
            [
              77.059874,
              28.458854
            ],
            [
              77.057158,
              28.459009
            ],
            [
              77.05832,
              28.457009
            ],
            [
              77.057874,
              28.456295
            ],
            [
              77.055874,
              28.456578
            ],
            [
              77.054945,
              28.456009
            ],
            [
              77.055117,
              28.454009
            ],
            [
              77.056959,
              28.452009
            ],
            [
              77.055895,
              28.450009
            ],
            [
              77.056302,
              28.44658
            ],
            [
              77.05548,
              28.444009
            ],
            [
              77.056592,
              28.443727
            ],
            [
              77.056793,
              28.441927
            ],
            [
              77.059874,
              28.442026
            ],
            [
              77.060301,
              28.443009
            ],
            [
              77.061874,
              28.443428
            ],
            [
              77.063874,
              28.442363
            ],
            [
              77.066553,
              28.44433
            ],
            [
              77.067874,
              28.444383
            ],
            [
              77.068874,
              28.443427
            ],
            [
              77.070449,
              28.444009
            ],
            [
              77.070874,
              28.440794
            ],
            [
              77.072874,
              28.441052
            ],
            [
              77.073874,
              28.442315
            ],
            [
              77.076596,
              28.442009
            ],
            [
              77.077874,
              28.438973
            ],
            [
              77.087874,
              28.4399
            ],
            [
              77.087874,
              28.4428
            ],
            [
              77.085874,
              28.442232
            ],
            [
              77.084237,
              28.444009
            ],
            [
              77.088397,
              28.448009
            ],
            [
              77.087874,
              28.449232
            ],
            [
              77.089874,
              28.449568
            ],
            [
              77.092267,
              28.448402
            ],
            [
              77.091314,
              28.446009
            ],
            [
              77.091801,
              28.444936
            ],
            [
              77.093581,
              28.444716
            ],
            [
              77.093874,
              28.44398
            ],
            [
              77.0951,
              28.444009
            ],
            [
              77.095244,
              28.445638
            ],
            [
              77.098027,
              28.446856
            ],
            [
              77.098454,
              28.448428
            ],
            [
              77.099255,
              28.44839
            ],
            [
              77.102874,
              28.43901
            ],
            [
              77.103933,
              28.440949
            ],
            [
              77.102281,
              28.441415
            ],
            [
              77.102426,
              28.443457
            ],
            [
              77.104057,
              28.442826
            ],
            [
              77.106378,
              28.444009
            ],
            [
              77.106175,
              28.44631
            ],
            [
              77.103874,
              28.447057
            ],
            [
              77.103225,
              28.448658
            ],
            [
              77.112056,
              28.450009
            ],
            [
              77.106462,
              28.450596
            ],
            [
              77.106251,
              28.452631
            ],
            [
              77.107813,
              28.453009
            ],
            [
              77.107779,
              28.453914
            ],
            [
              77.106158,
              28.454292
            ],
            [
              77.106249,
              28.457009
            ],
            [
              77.105306,
              28.458009
            ],
            [
              77.106405,
              28.460009
            ],
            [
              77.105506,
              28.463009
            ],
            [
              77.107291,
              28.463592
            ],
            [
              77.107874,
              28.466437
            ],
            [
              77.113874,
              28.466615
            ],
            [
              77.115736,
              28.463871
            ],
            [
              77.116565,
              28.4637
            ],
            [
              77.116874,
              28.462032
            ],
            [
              77.117874,
              28.462596
            ],
            [
              77.117836,
              28.464009
            ],
            [
              77.116296,
              28.464431
            ],
            [
              77.115107,
              28.467242
            ],
            [
              77.109558,
              28.467693
            ],
            [
              77.109107,
              28.471009
            ],
            [
              77.111232,
              28.473009
            ],
            [
              77.111111,
              28.476009
            ],
            [
              77.110322,
              28.47456
            ],
            [
              77.107581,
              28.474301
            ],
            [
              77.106874,
              28.472901
            ],
            [
              77.104794,
              28.471929
            ],
            [
              77.103643,
              28.473009
            ],
            [
              77.104176,
              28.47731
            ],
            [
              77.099707,
              28.478842
            ],
            [
              77.098501,
              28.480635
            ],
            [
              77.095686,
              28.480821
            ],
            [
              77.096874,
              28.483422
            ],
            [
              77.098874,
              28.481521
            ],
            [
              77.101137,
              28.482009
            ],
            [
              77.099449,
              28.482583
            ],
            [
              77.098874,
              28.484201
            ],
            [
              77.096446,
              28.48458
            ],
            [
              77.095107,
              28.487242
            ],
            [
              77.091195,
              28.48833
            ],
            [
              77.088874,
              28.490317
            ]
          ]
        ],
        "type": "Polygon"
      },
      "type": "Feature"
    },
    {
      "properties": {
        "fill-opacity": 0.33,
        "fillColor": "#bf4040",
        "opacity": 0.33,
        "fill": "#bf4040",
        "fillOpacity": 0.33,
        "color": "#bf4040",
        "contour": 6.0,
        "metric": "distance",
        "provider_name": "Grandma Khichdi",
        "zone_type": "distance",
        "distance_km": 6,
        "mode": "motorcycle",
        "center_lat": 28.47000906,
        "center_lon": 77.08587439,
        "label": "6km"
      },
      "geometry": {
        "coordinates": [
          [
            [
              77.092874,
              28.49622
            ],
            [
              77.090874,
              28.496607
            ],
            [
              77.089794,
              28.496088
            ],
            [
              77.089634,
              28.494248
            ],
            [
              77.088237,
              28.493645
            ],
            [
              77.087085,
              28.495009
            ],
            [
              77.087062,
              28.49582
            ],
            [
              77.088096,
              28.496231
            ],
            [
              77.086874,
              28.496165
            ],
            [
              77.081874,
              28.492425
            ],
            [
              77.080874,
              28.494653
            ],
            [
              77.078874,
              28.493953
            ],
            [
              77.078636,
              28.493246
            ],
            [
              77.077083,
              28.493009
            ],
            [
              77.07806,
              28.489195
            ],
            [
              77.076874,
              28.487899
            ],
            [
              77.076584,
              28.488719
            ],
            [
              77.074385,
              28.48852
            ],
            [
              77.073872,
              28.491009
            ],
            [
              77.072874,
              28.491769
            ],
            [
              77.070874,
              28.491173
            ],
            [
              77.069874,
              28.4923
            ],
            [
              77.067874,
              28.492312
            ],
            [
              77.065874,
              28.491399
            ],
            [
              77.064874,
              28.492182
            ],
            [
              77.062874,
              28.492288
            ],
            [
              77.059617,
              28.491266
            ],
            [
              77.059874,
              28.489553
            ],
            [
              77.061173,
              28.490709
            ],
            [
              77.0626,
              28.490009
            ],
            [
              77.061874,
              28.489198
            ],
            [
              77.060389,
              28.489494
            ],
            [
              77.060797,
              28.488009
            ],
            [
              77.058874,
              28.487461
            ],
            [
              77.057312,
              28.490009
            ],
            [
              77.05837,
              28.492009
            ],
            [
              77.056874,
              28.492251
            ],
            [
              77.055329,
              28.488554
            ],
            [
              77.053173,
              28.486009
            ],
            [
              77.053874,
              28.485925
            ],
            [
              77.055874,
              28.487698
            ],
            [
              77.057255,
              28.48639
            ],
            [
              77.058394,
              28.484009
            ],
            [
              77.057352,
              28.483009
            ],
            [
              77.057211,
              28.479671
            ],
            [
              77.05375,
              28.476885
            ],
            [
              77.052874,
              28.477315
            ],
            [
              77.051874,
              28.47677
            ],
            [
              77.0497,
              28.478182
            ],
            [
              77.048946,
              28.476936
            ],
            [
              77.046842,
              28.477009
            ],
            [
              77.045874,
              28.475152
            ],
            [
              77.044776,
              28.475009
            ],
            [
              77.044459,
              28.473009
            ],
            [
              77.043172,
              28.47171
            ],
            [
              77.039874,
              28.471717
            ],
            [
              77.03948,
              28.470009
            ],
            [
              77.040746,
              28.469009
            ],
            [
              77.039351,
              28.466009
            ],
            [
              77.039874,
              28.465604
            ],
            [
              77.043627,
              28.466009
            ],
            [
              77.044874,
              28.466974
            ],
            [
              77.046212,
              28.465346
            ],
            [
              77.048018,
              28.464864
            ],
            [
              77.048914,
              28.465969
            ],
            [
              77.04806,
              28.466194
            ],
            [
              77.047878,
              28.468009
            ],
            [
              77.048874,
              28.468689
            ],
            [
              77.051874,
              28.468594
            ],
            [
              77.052874,
              28.467612
            ],
            [
              77.055301,
              28.467436
            ],
            [
              77.053247,
              28.463635
            ],
            [
              77.048874,
              28.459711
            ],
            [
              77.047652,
              28.456786
            ],
            [
              77.048485,
              28.448009
            ],
            [
              77.049325,
              28.446009
            ],
            [
              77.048317,
              28.444565
            ],
            [
              77.046828,
              28.444055
            ],
            [
              77.046785,
              28.443009
            ],
            [
              77.048874,
              28.439607
            ],
            [
              77.049427,
              28.440456
            ],
            [
              77.050329,
              28.440009
            ],
            [
              77.048795,
              28.438009
            ],
            [
              77.049931,
              28.435066
            ],
            [
              77.054004,
              28.435879
            ],
            [
              77.05935,
              28.435532
            ],
            [
              77.060455,
              28.437427
            ],
            [
              77.063874,
              28.437391
            ],
            [
              77.065283,
              28.436418
            ],
            [
              77.064794,
              28.433928
            ],
            [
              77.066073,
              28.434009
            ],
            [
              77.066874,
              28.435499
            ],
            [
              77.068874,
              28.434132
            ],
            [
              77.071874,
              28.434269
            ],
            [
              77.074724,
              28.432859
            ],
            [
              77.075961,
              28.432921
            ],
            [
              77.077874,
              28.434366
            ],
            [
              77.078874,
              28.433244
            ],
            [
              77.079874,
              28.433879
            ],
            [
              77.080874,
              28.432923
            ],
            [
              77.081874,
              28.433444
            ],
            [
              77.084762,
              28.433121
            ],
            [
              77.087874,
              28.434304
            ],
            [
              77.089874,
              28.433368
            ],
            [
              77.090874,
              28.431841
            ],
            [
              77.091674,
              28.432209
            ],
            [
              77.091076,
              28.434009
            ],
            [
              77.092021,
              28.435156
            ],
            [
              77.090245,
              28.437009
            ],
            [
              77.091874,
              28.437674
            ],
            [
              77.092779,
              28.435913
            ],
            [
              77.093987,
              28.435895
            ],
            [
              77.094251,
              28.438009
            ],
            [
              77.093152,
              28.439287
            ],
            [
              77.091525,
              28.438358
            ],
            [
              77.090479,
              28.438614
            ],
            [
              77.090483,
              28.4394
            ],
            [
              77.091874,
              28.440669
            ],
            [
              77.093874,
              28.440535
            ],
            [
              77.095811,
              28.442009
            ],
            [
              77.096773,
              28.444009
            ],
            [
              77.095779,
              28.445009
            ],
            [
              77.096652,
              28.44523
            ],
            [
              77.09672,
              28.446163
            ],
            [
              77.09848,
              28.446402
            ],
            [
              77.098874,
              28.448186
            ],
            [
              77.09916,
              28.446295
            ],
            [
              77.099948,
              28.446009
            ],
            [
              77.09982,
              28.442955
            ],
            [
              77.101265,
              28.4414
            ],
            [
              77.10337,
              28.437009
            ],
            [
              77.104874,
              28.431106
            ],
            [
              77.105874,
              28.430348
            ],
            [
              77.107388,
              28.432009
            ],
            [
              77.106829,
              28.433053
            ],
            [
              77.108874,
              28.434334
            ],
            [
              77.1116,
              28.439009
            ],
            [
              77.108874,
              28.439164
            ],
            [
              77.107874,
              28.43828
            ],
            [
              77.10548,
              28.439615
            ],
            [
              77.104214,
              28.441348
            ],
            [
              77.102579,
              28.441714
            ],
            [
              77.102605,
              28.443277
            ],
            [
              77.103874,
              28.442451
            ],
            [
              77.105274,
              28.442608
            ],
            [
              77.106874,
              28.444532
            ],
            [
              77.107574,
              28.444009
            ],
            [
              77.106688,
              28.442823
            ],
            [
              77.108491,
              28.442625
            ],
            [
              77.108874,
              28.441885
            ],
            [
              77.110391,
              28.443492
            ],
            [
              77.112944,
              28.443939
            ],
            [
              77.112479,
              28.448404
            ],
            [
              77.12189,
              28.448992
            ],
            [
              77.115874,
              28.449386
            ],
            [
              77.114874,
              28.450427
            ],
            [
              77.106619,
              28.450754
            ],
            [
              77.106576,
              28.452307
            ],
            [
              77.109317,
              28.455009
            ],
            [
              77.108874,
              28.456428
            ],
            [
              77.106571,
              28.454706
            ],
            [
              77.106489,
              28.457009
            ],
            [
              77.105512,
              28.458009
            ],
            [
              77.105555,
              28.460009
            ],
            [
              77.106564,
              28.461009
            ],
            [
              77.105605,
              28.463009
            ],
            [
              77.107359,
              28.463524
            ],
            [
              77.107679,
              28.466203
            ],
            [
              77.113156,
              28.46629
            ],
            [
              77.116344,
              28.463009
            ],
            [
              77.114487,
              28.462009
            ],
            [
              77.1147,
              28.458835
            ],
            [
              77.116119,
              28.459009
            ],
            [
              77.115204,
              28.460009
            ],
            [
              77.115474,
              28.461408
            ],
            [
              77.117217,
              28.461352
            ],
            [
              77.118621,
              28.458756
            ],
            [
              77.120348,
              28.457483
            ],
            [
              77.120753,
              28.455888
            ],
            [
              77.12157,
              28.455705
            ],
            [
              77.121874,
              28.45426
            ],
            [
              77.122036,
              28.456009
            ],
            [
              77.118519,
              28.461654
            ],
            [
              77.118372,
              28.464009
            ],
            [
              77.119874,
              28.465761
            ],
            [
              77.121859,
              28.463993
            ],
            [
              77.122709,
              28.464009
            ],
            [
              77.121925,
              28.46406
            ],
            [
              77.122095,
              28.464787
            ],
            [
              77.12124,
              28.465375
            ],
            [
              77.121137,
              28.467009
            ],
            [
              77.121874,
              28.467829
            ],
            [
              77.123891,
              28.467992
            ],
            [
              77.123874,
              28.468624
            ],
            [
              77.120874,
              28.470945
            ],
            [
              77.120688,
              28.469009
            ],
            [
              77.1194,
              28.468534
            ],
            [
              77.117874,
              28.4721
            ],
            [
              77.117721,
              28.470009
            ],
            [
              77.118615,
              28.469009
            ],
            [
              77.118448,
              28.466009
            ],
            [
              77.117206,
              28.464677
            ],
            [
              77.114874,
              28.467615
            ],
            [
              77.10966,
              28.467794
            ],
            [
              77.109366,
              28.471009
            ],
            [
              77.111483,
              28.473009
            ],
            [
              77.111441,
              28.476009
            ],
            [
              77.110344,
              28.477009
            ],
            [
              77.110359,
              28.481009
            ],
            [
              77.111047,
              28.482009
            ],
            [
              77.107518,
              28.483653
            ],
            [
              77.10706,
              28.485194
            ],
            [
              77.105874,
              28.48566
            ],
            [
              77.105125,
              28.484009
            ],
            [
              77.104066,
              28.483817
            ],
            [
              77.101468,
              28.484603
            ],
            [
              77.100874,
              28.485524
            ],
            [
              77.099874,
              28.484435
            ],
            [
              77.096874,
              28.484611
            ],
            [
              77.095629,
              28.485764
            ],
            [
              77.095265,
              28.4874
            ],
            [
              77.091532,
              28.488667
            ],
            [
              77.090267,
              28.490009
            ],
            [
              77.092982,
              28.4949
            ],
            [
              77.092874,
              28.49622
            ]
          ]
        ],
        "type": "Polygon"
      },
      "type": "Feature"
    }
  ]
}