{
  "type": "FeatureCollection",
  "metadata": {
    "provider_name": "Domino's Pizza",
    "center_lat": 22.34052,
    "center_lon": 73.17368,
    "mode": "motorcycle",
    "total_zones": 4,
    "distance_zones": [
      3,
      4,
      5,
      6
    ],
    "generated_at": "2025-12-31T05:36:10.462670Z"
  },
  "features": [
    {
      "properties": {
        "fill-opacity": 0.33,
        "fillColor": "#bf4040",
        "opacity": 0.33,
        "fill": "#bf4040",
        "fillOpacity": 0.33,
        "color": "#bf4040",
        "contour": 3.0,
        "metric": "distance",
        "provider_name": "Domino's Pizza",
        "zone_type": "distance",
        "distance_km": 3,
        "mode": "motorcycle",
        "center_lat": 22.34052,
        "center_lon": 73.17368,
        "label": "3km"
      },
      "geometry": {
        "coordinates": [
          [
            [
              73.16668,
              22.361713
            ],
            [
              73.162629,
              22.35752
            ],
            [
              73.162992,
              22.35652
            ],
            [
              73.161397,
              22.35352
            ],
            [
              73.16168,
              22.352944
            ],
            [
              73.16468,
              22.353277
            ],
            [
              73.165121,
              22.352078
            ],
            [
              73.163503,
              22.351696
            ],
            [
              73.16168,
              22.349725
            ],
            [
              73.160309,
              22.350149
            ],
            [
              73.15968,
              22.352051
            ],
            [
              73.157471,
              22.351728
            ],
            [
              73.156346,
              22.35052
            ],
            [
              73.15807,
              22.34991
            ],
            [
              73.159015,
              22.348184
            ],
            [
              73.157789,
              22.34752
            ],
            [
              73.15768,
              22.346569
            ],
            [
              73.15668,
              22.346872
            ],
            [
              73.154366,
              22.345833
            ],
            [
              73.152358,
              22.343841
            ],
            [
              73.151017,
              22.343857
            ],
            [
              73.15068,
              22.345486
            ],
            [
              73.149346,
              22.343853
            ],
            [
              73.148879,
              22.34052
            ],
            [
              73.147445,
              22.33952
            ],
            [
              73.150518,
              22.337358
            ],
            [
              73.153284,
              22.33652
            ],
            [
              73.153268,
              22.335108
            ],
            [
              73.15468,
              22.334122
            ],
            [
              73.15668,
              22.334018
            ],
            [
              73.15768,
              22.332592
            ],
            [
              73.15868,
              22.332848
            ],
            [
              73.159086,
              22.335113
            ],
            [
              73.161335,
              22.33652
            ],
            [
              73.159902,
              22.33752
            ],
            [
              73.16068,
              22.339298
            ],
            [
              73.163474,
              22.339314
            ],
            [
              73.16368,
              22.338194
            ],
            [
              73.164621,
              22.338578
            ],
            [
              73.164879,
              22.337719
            ],
            [
              73.168883,
              22.337723
            ],
            [
              73.169993,
              22.33652
            ],
            [
              73.169109,
              22.33352
            ],
            [
              73.170934,
              22.331774
            ],
            [
              73.170783,
              22.33052
            ],
            [
              73.173231,
              22.327071
            ],
            [
              73.17339,
              22.32552
            ],
            [
              73.175459,
              22.324299
            ],
            [
              73.175506,
              22.322346
            ],
            [
              73.17868,
              22.317622
            ],
            [
              73.178885,
              22.32052
            ],
            [
              73.178225,
              22.321974
            ],
            [
              73.18168,
              22.322234
            ],
            [
              73.18268,
              22.322919
            ],
            [
              73.18468,
              22.32196
            ],
            [
              73.185776,
              22.32352
            ],
            [
              73.186701,
              22.32652
            ],
            [
              73.185873,
              22.326713
            ],
            [
              73.185392,
              22.329232
            ],
            [
              73.18368,
              22.328888
            ],
            [
              73.18311,
              22.32952
            ],
            [
              73.18368,
              22.330104
            ],
            [
              73.185407,
              22.329793
            ],
            [
              73.184302,
              22.331897
            ],
            [
              73.186342,
              22.333857
            ],
            [
              73.18768,
              22.33403
            ],
            [
              73.188619,
              22.33252
            ],
            [
              73.187811,
              22.33152
            ],
            [
              73.191559,
              22.331399
            ],
            [
              73.19168,
              22.330262
            ],
            [
              73.191851,
              22.332348
            ],
            [
              73.19268,
              22.332674
            ],
            [
              73.192545,
              22.334655
            ],
            [
              73.19368,
              22.334795
            ],
            [
              73.197122,
              22.33952
            ],
            [
              73.199255,
              22.34052
            ],
            [
              73.199579,
              22.34152
            ],
            [
              73.196855,
              22.343695
            ],
            [
              73.196882,
              22.34452
            ],
            [
              73.19368,
              22.348273
            ],
            [
              73.191935,
              22.34852
            ],
            [
              73.192385,
              22.34952
            ],
            [
              73.191826,
              22.35052
            ],
            [
              73.188966,
              22.352806
            ],
            [
              73.189323,
              22.35452
            ],
            [
              73.18868,
              22.355357
            ],
            [
              73.18568,
              22.354222
            ],
            [
              73.184977,
              22.35352
            ],
            [
              73.185544,
              22.353384
            ],
            [
              73.185351,
              22.351848
            ],
            [
              73.18368,
              22.35083
            ],
            [
              73.18168,
              22.354478
            ],
            [
              73.18068,
              22.353893
            ],
            [
              73.17968,
              22.354711
            ],
            [
              73.17868,
              22.354128
            ],
            [
              73.175782,
              22.354622
            ],
            [
              73.171859,
              22.357699
            ],
            [
              73.17068,
              22.359563
            ],
            [
              73.16968,
              22.359195
            ],
            [
              73.16668,
              22.361713
            ]
          ]
        ],
        "type": "Polygon"
      },
      "type": "Feature"
    },
    {
      "properties": {
        "fill-opacity": 0.33,
        "fillColor": "#bf4040",
        "opacity": 0.33,
        "fill": "#bf4040",
        "fillOpacity": 0.33,
        "color": "#bf4040",
        "contour": 4.0,
        "metric": "distance",
        "provider_name": "Domino's Pizza",
        "zone_type": "distance",
        "distance_km": 4,
        "mode": "motorcycle",
        "center_lat": 22.34052,
        "center_lon": 73.17368,
        "label": "4km"
      },
      "geometry": {
        "coordinates": [
          [
            [
              73.16468,
              22.369849
            ],
            [
              73.16368,
              22.369708
            ],
            [
              73.163363,
              22.36752
            ],
            [
              73.165188,
              22.367028
            ],
            [
              73.165103,
              22.365096
            ],
            [
              73.16368,
              22.363875
            ],
            [
              73.162822,
              22.36452
            ],
            [
              73.16268,
              22.366002
            ],
            [
              73.16168,
              22.366008
            ],
            [
              73.158787,
              22.36452
            ],
            [
              73.158624,
              22.363464
            ],
            [
              73.159106,
              22.36252
            ],
            [
              73.160397,
              22.362237
            ],
            [
              73.160636,
              22.36052
            ],
            [
              73.158267,
              22.357933
            ],
            [
              73.156894,
              22.357734
            ],
            [
              73.156747,
              22.358587
            ],
            [
              73.155652,
              22.35852
            ],
            [
              73.156523,
              22.358363
            ],
            [
              73.15668,
              22.357421
            ],
            [
              73.160106,
              22.357946
            ],
            [
              73.160056,
              22.355143
            ],
            [
              73.15868,
              22.355871
            ],
            [
              73.153626,
              22.35552
            ],
            [
              73.15368,
              22.354511
            ],
            [
              73.153793,
              22.355406
            ],
            [
              73.157154,
              22.354994
            ],
            [
              73.15768,
              22.353308
            ],
            [
              73.159097,
              22.353937
            ],
            [
              73.159375,
              22.35252
            ],
            [
              73.157284,
              22.351915
            ],
            [
              73.15608,
              22.35052
            ],
            [
              73.157926,
              22.349766
            ],
            [
              73.158903,
              22.348296
            ],
            [
              73.15768,
              22.34799
            ],
            [
              73.15568,
              22.348911
            ],
            [
              73.154107,
              22.347092
            ],
            [
              73.152286,
              22.347126
            ],
            [
              73.150987,
              22.34952
            ],
            [
              73.15268,
              22.351607
            ],
            [
              73.14996,
              22.3518
            ],
            [
              73.14968,
              22.353278
            ],
            [
              73.14768,
              22.353909
            ],
            [
              73.146943,
              22.35252
            ],
            [
              73.148395,
              22.352235
            ],
            [
              73.149242,
              22.34652
            ],
            [
              73.145881,
              22.345721
            ],
            [
              73.14568,
              22.346887
            ],
            [
              73.144813,
              22.346653
            ],
            [
              73.14368,
              22.344769
            ],
            [
              73.14168,
              22.346116
            ],
            [
              73.14068,
              22.34584
            ],
            [
              73.140246,
              22.344086
            ],
            [
              73.141982,
              22.341217
            ],
            [
              73.139436,
              22.33752
            ],
            [
              73.14268,
              22.334916
            ],
            [
              73.144676,
              22.334516
            ],
            [
              73.14538,
              22.33022
            ],
            [
              73.14768,
              22.329207
            ],
            [
              73.14968,
              22.329729
            ],
            [
              73.152354,
              22.329194
            ],
            [
              73.15268,
              22.327624
            ],
            [
              73.155791,
              22.326631
            ],
            [
              73.15868,
              22.324075
            ],
            [
              73.15968,
              22.324114
            ],
            [
              73.158832,
              22.324672
            ],
            [
              73.158845,
              22.325685
            ],
            [
              73.159996,
              22.328203
            ],
            [
              73.161244,
              22.328084
            ],
            [
              73.16268,
              22.325835
            ],
            [
              73.16368,
              22.325654
            ],
            [
              73.164065,
              22.32652
            ],
            [
              73.162903,
              22.326743
            ],
            [
              73.163043,
              22.328157
            ],
            [
              73.163777,
              22.32852
            ],
            [
              73.16368,
              22.329519
            ],
            [
              73.165653,
              22.33052
            ],
            [
              73.166293,
              22.33352
            ],
            [
              73.165156,
              22.33752
            ],
            [
              73.168835,
              22.337675
            ],
            [
              73.170914,
              22.33552
            ],
            [
              73.17068,
              22.334229
            ],
            [
              73.16968,
              22.335217
            ],
            [
              73.168982,
              22.33452
            ],
            [
              73.169213,
              22.333053
            ],
            [
              73.170958,
              22.33152
            ],
            [
              73.170139,
              22.33052
            ],
            [
              73.172941,
              22.327781
            ],
            [
              73.17427,
              22.32411
            ],
            [
              73.175118,
              22.32352
            ],
            [
              73.17408,
              22.32152
            ],
            [
              73.17568,
              22.3211
            ],
            [
              73.177234,
              22.31852
            ],
            [
              73.177441,
              22.316281
            ],
            [
              73.179127,
              22.316967
            ],
            [
              73.18041,
              22.31425
            ],
            [
              73.180579,
              22.311419
            ],
            [
              73.18268,
              22.309898
            ],
            [
              73.18344,
              22.31052
            ],
            [
              73.182305,
              22.311145
            ],
            [
              73.182149,
              22.31252
            ],
            [
              73.183182,
              22.31352
            ],
            [
              73.181058,
              22.31452
            ],
            [
              73.182319,
              22.31552
            ],
            [
              73.18268,
              22.317069
            ],
            [
              73.18368,
              22.316189
            ],
            [
              73.18468,
              22.316326
            ],
            [
              73.185138,
              22.318061
            ],
            [
              73.187129,
              22.317969
            ],
            [
              73.187289,
              22.31691
            ],
            [
              73.185789,
              22.31552
            ],
            [
              73.187257,
              22.315097
            ],
            [
              73.18768,
              22.31419
            ],
            [
              73.18968,
              22.315519
            ],
            [
              73.189004,
              22.315844
            ],
            [
              73.189256,
              22.316943
            ],
            [
              73.191912,
              22.31752
            ],
            [
              73.190717,
              22.31952
            ],
            [
              73.191066,
              22.321134
            ],
            [
              73.192539,
              22.321379
            ],
            [
              73.19268,
              22.320719
            ],
            [
              73.192727,
              22.321567
            ],
            [
              73.191916,
              22.321756
            ],
            [
              73.191917,
              22.32352
            ],
            [
              73.193009,
              22.325191
            ],
            [
              73.194795,
              22.32552
            ],
            [
              73.193856,
              22.325696
            ],
            [
              73.1913,
              22.32852
            ],
            [
              73.19368,
              22.328826
            ],
            [
              73.19468,
              22.327737
            ],
            [
              73.196252,
              22.328092
            ],
            [
              73.196777,
              22.327423
            ],
            [
              73.196999,
              22.33152
            ],
            [
              73.196078,
              22.33252
            ],
            [
              73.197078,
              22.33352
            ],
            [
              73.197291,
              22.335908
            ],
            [
              73.19868,
              22.337161
            ],
            [
              73.19968,
              22.335281
            ],
            [
              73.200258,
              22.337941
            ],
            [
              73.204925,
              22.338275
            ],
            [
              73.204414,
              22.33952
            ],
            [
              73.204865,
              22.343334
            ],
            [
              73.206924,
              22.34452
            ],
            [
              73.205893,
              22.344733
            ],
            [
              73.20568,
              22.345923
            ],
            [
              73.20468,
              22.346452
            ],
            [
              73.20368,
              22.345742
            ],
            [
              73.203807,
              22.347647
            ],
            [
              73.201556,
              22.34852
            ],
            [
              73.202018,
              22.34952
            ],
            [
              73.198847,
              22.352687
            ],
            [
              73.19808,
              22.351119
            ],
            [
              73.196404,
              22.350244
            ],
            [
              73.195922,
              22.35152
            ],
            [
              73.196926,
              22.35252
            ],
            [
              73.196081,
              22.352921
            ],
            [
              73.195966,
              22.355233
            ],
            [
              73.197291,
              22.35552
            ],
            [
              73.195937,
              22.355777
            ],
            [
              73.195465,
              22.35752
            ],
            [
              73.19383,
              22.35767
            ],
            [
              73.19268,
              22.360624
            ],
            [
              73.192256,
              22.358943
            ],
            [
              73.189243,
              22.359083
            ],
            [
              73.189091,
              22.360108
            ],
            [
              73.191373,
              22.36052
            ],
            [
              73.188042,
              22.361882
            ],
            [
              73.187658,
              22.363541
            ],
            [
              73.187473,
              22.36152
            ],
            [
              73.186472,
              22.36052
            ],
            [
              73.187319,
              22.35852
            ],
            [
              73.186093,
              22.357106
            ],
            [
              73.184423,
              22.356776
            ],
            [
              73.18368,
              22.354662
            ],
            [
              73.18268,
              22.355713
            ],
            [
              73.182117,
              22.355082
            ],
            [
              73.179328,
              22.355168
            ],
            [
              73.180174,
              22.358026
            ],
            [
              73.181732,
              22.359468
            ],
            [
              73.181735,
              22.360464
            ],
            [
              73.182184,
              22.36052
            ],
            [
              73.181661,
              22.360538
            ],
            [
              73.181516,
              22.359683
            ],
            [
              73.179188,
              22.360028
            ],
            [
              73.178891,
              22.362308
            ],
            [
              73.180416,
              22.36252
            ],
            [
              73.178614,
              22.362585
            ],
            [
              73.178142,
              22.360058
            ],
            [
              73.174416,
              22.359783
            ],
            [
              73.17368,
              22.358902
            ],
            [
              73.17311,
              22.35952
            ],
            [
              73.173978,
              22.360221
            ],
            [
              73.174037,
              22.362877
            ],
            [
              73.171801,
              22.363641
            ],
            [
              73.17168,
              22.364366
            ],
            [
              73.171534,
              22.363665
            ],
            [
              73.168243,
              22.364083
            ],
            [
              73.16768,
              22.368672
            ],
            [
              73.165541,
              22.368381
            ],
            [
              73.16468,
              22.369849
            ]
          ]
        ],
        "type": "Polygon"
      },
      "type": "Feature"
    },
    {
      "properties": {
        "fill-opacity": 0.33,
        "fillColor": "#bf4040",
        "opacity": 0.33,
        "fill": "#bf4040",
        "fillOpacity": 0.33,
        "color": "#bf4040",
        "contour": 5.0,
        "metric": "distance",
        "provider_name": "Domino's Pizza",
        "zone_type": "distance",
        "distance_km": 5,
        "mode": "motorcycle",
        "center_lat": 22.34052,
        "center_lon": 73.17368,
        "label": "5km"
      },
      "geometry": {
        "coordinates": [
          [
            [
              73.16968,
              22.376688
            ],
            [
              73.16768,
              22.377345
            ],
            [
              73.167515,
              22.37552
            ],
            [
              73.16668,
              22.374716
            ],
            [
              73.165724,
              22.375564
            ],
            [
              73.16476,
              22.375439
            ],
            [
              73.164225,
              22.37452
            ],
            [
              73.16468,
              22.372572
            ],
            [
              73.164737,
              22.373462
            ],
            [
              73.166318,
              22.373158
            ],
            [
              73.166534,
              22.37252
            ],
            [
              73.16468,
              22.370993
            ],
            [
              73.162422,
              22.371262
            ],
            [
              73.162101,
              22.372941
            ],
            [
              73.160382,
              22.375222
            ],
            [
              73.15768,
              22.376501
            ],
            [
              73.157633,
              22.375473
            ],
            [
              73.158485,
              22.375325
            ],
            [
              73.15853,
              22.37437
            ],
            [
              73.161083,
              22.371923
            ],
            [
              73.161328,
              22.370168
            ],
            [
              73.163024,
              22.369864
            ],
            [
              73.163018,
              22.369181
            ],
            [
              73.161533,
              22.368373
            ],
            [
              73.160751,
              22.368591
            ],
            [
              73.160684,
              22.369524
            ],
            [
              73.160672,
              22.369512
            ],
            [
              73.160591,
              22.368608
            ],
            [
              73.15968,
              22.368654
            ],
            [
              73.15668,
              22.371222
            ],
            [
              73.153863,
              22.36852
            ],
            [
              73.153749,
              22.36652
            ],
            [
              73.149839,
              22.365679
            ],
            [
              73.14968,
              22.366843
            ],
            [
              73.148993,
              22.36552
            ],
            [
              73.154106,
              22.364946
            ],
            [
              73.154129,
              22.36407
            ],
            [
              73.15168,
              22.363354
            ],
            [
              73.155001,
              22.363198
            ],
            [
              73.155259,
              22.36394
            ],
            [
              73.156061,
              22.363901
            ],
            [
              73.15723,
              22.36252
            ],
            [
              73.15668,
              22.361923
            ],
            [
              73.155357,
              22.362842
            ],
            [
              73.15532,
              22.36152
            ],
            [
              73.157069,
              22.360909
            ],
            [
              73.157247,
              22.359087
            ],
            [
              73.158155,
              22.359044
            ],
            [
              73.15868,
              22.362045
            ],
            [
              73.15999,
              22.36183
            ],
            [
              73.15997,
              22.360229
            ],
            [
              73.15768,
              22.358069
            ],
            [
              73.157142,
              22.358982
            ],
            [
              73.15168,
              22.35888
            ],
            [
              73.15068,
              22.361742
            ],
            [
              73.150159,
              22.35904
            ],
            [
              73.148946,
              22.358786
            ],
            [
              73.148729,
              22.359569
            ],
            [
              73.147749,
              22.35952
            ],
            [
              73.147235,
              22.35552
            ],
            [
              73.14568,
              22.355247
            ],
            [
              73.14368,
              22.356779
            ],
            [
              73.14268,
              22.355768
            ],
            [
              73.14168,
              22.356591
            ],
            [
              73.141244,
              22.35552
            ],
            [
              73.142374,
              22.35452
            ],
            [
              73.14168,
              22.352621
            ],
            [
              73.14068,
              22.353378
            ],
            [
              73.140504,
              22.352696
            ],
            [
              73.138814,
              22.352654
            ],
            [
              73.13868,
              22.353174
            ],
            [
              73.13768,
              22.351384
            ],
            [
              73.134473,
              22.352726
            ],
            [
              73.133238,
              22.35152
            ],
            [
              73.135347,
              22.351187
            ],
            [
              73.135179,
              22.34902
            ],
            [
              73.132351,
              22.34952
            ],
            [
              73.133421,
              22.345778
            ],
            [
              73.132448,
              22.344751
            ],
            [
              73.132432,
              22.34152
            ],
            [
              73.133967,
              22.33952
            ],
            [
              73.133219,
              22.33798
            ],
            [
              73.129813,
              22.33752
            ],
            [
              73.133297,
              22.335137
            ],
            [
              73.13368,
              22.332822
            ],
            [
              73.13468,
              22.33388
            ],
            [
              73.136853,
              22.334346
            ],
            [
              73.135897,
              22.334737
            ],
            [
              73.136131,
              22.336068
            ],
            [
              73.138226,
              22.336066
            ],
            [
              73.137856,
              22.333343
            ],
            [
              73.135487,
              22.33252
            ],
            [
              73.13796,
              22.3298
            ],
            [
              73.136893,
              22.32652
            ],
            [
              73.14568,
              22.322573
            ],
            [
              73.146314,
              22.321154
            ],
            [
              73.14768,
              22.321397
            ],
            [
              73.149698,
              22.320501
            ],
            [
              73.151801,
              22.321398
            ],
            [
              73.15668,
              22.321381
            ],
            [
              73.15768,
              22.322252
            ],
            [
              73.15968,
              22.320238
            ],
            [
              73.162015,
              22.322184
            ],
            [
              73.162356,
              22.323843
            ],
            [
              73.16468,
              22.323865
            ],
            [
              73.16668,
              22.321728
            ],
            [
              73.168557,
              22.321397
            ],
            [
              73.168412,
              22.319787
            ],
            [
              73.167323,
              22.31952
            ],
            [
              73.1683,
              22.31752
            ],
            [
              73.167022,
              22.31552
            ],
            [
              73.171559,
              22.314399
            ],
            [
              73.172897,
              22.31452
            ],
            [
              73.175014,
              22.31652
            ],
            [
              73.17468,
              22.317688
            ],
            [
              73.17268,
              22.317734
            ],
            [
              73.172041,
              22.31852
            ],
            [
              73.17368,
              22.321031
            ],
            [
              73.175398,
              22.319238
            ],
            [
              73.17691,
              22.31875
            ],
            [
              73.177215,
              22.316055
            ],
            [
              73.178891,
              22.316731
            ],
            [
              73.180063,
              22.31452
            ],
            [
              73.180085,
              22.31152
            ],
            [
              73.182189,
              22.309029
            ],
            [
              73.185113,
              22.30852
            ],
            [
              73.185041,
              22.30752
            ],
            [
              73.187468,
              22.307308
            ],
            [
              73.18968,
              22.305738
            ],
            [
              73.190973,
              22.30652
            ],
            [
              73.190962,
              22.307238
            ],
            [
              73.189088,
              22.307928
            ],
            [
              73.188354,
              22.31052
            ],
            [
              73.188433,
              22.311767
            ],
            [
              73.189653,
              22.31252
            ],
            [
              73.189348,
              22.314851
            ],
            [
              73.19068,
              22.316126
            ],
            [
              73.191388,
              22.31552
            ],
            [
              73.190338,
              22.314861
            ],
            [
              73.190455,
              22.312744
            ],
            [
              73.189818,
              22.31252
            ],
            [
              73.19068,
              22.311344
            ],
            [
              73.191183,
              22.314017
            ],
            [
              73.19268,
              22.314202
            ],
            [
              73.194063,
              22.313136
            ],
            [
              73.19468,
              22.314629
            ],
            [
              73.19468,
              22.312327
            ],
            [
              73.19568,
              22.311324
            ],
            [
              73.19668,
              22.31159
            ],
            [
              73.197552,
              22.31252
            ],
            [
              73.195941,
              22.312781
            ],
            [
              73.196149,
              22.31405
            ],
            [
              73.200073,
              22.31552
            ],
            [
              73.19768,
              22.31839
            ],
            [
              73.196559,
              22.317399
            ],
            [
              73.195427,
              22.31852
            ],
            [
              73.19568,
              22.319493
            ],
            [
              73.19668,
              22.319609
            ],
            [
              73.19768,
              22.3186
            ],
            [
              73.197847,
              22.319352
            ],
            [
              73.198813,
              22.31952
            ],
            [
              73.20168,
              22.322217
            ],
            [
              73.202108,
              22.326091
            ],
            [
              73.204285,
              22.32652
            ],
            [
              73.20068,
              22.329547
            ],
            [
              73.20034,
              22.327859
            ],
            [
              73.197416,
              22.328256
            ],
            [
              73.19727,
              22.33052
            ],
            [
              73.196292,
              22.33152
            ],
            [
              73.197434,
              22.335765
            ],
            [
              73.19868,
              22.33691
            ],
            [
              73.199301,
              22.335141
            ],
            [
              73.200058,
              22.335141
            ],
            [
              73.200276,
              22.33752
            ],
            [
              73.200999,
              22.337839
            ],
            [
              73.201581,
              22.336421
            ],
            [
              73.203173,
              22.336014
            ],
            [
              73.203547,
              22.334387
            ],
            [
              73.20568,
              22.33241
            ],
            [
              73.205871,
              22.334328
            ],
            [
              73.207195,
              22.33452
            ],
            [
              73.20568,
              22.334641
            ],
            [
              73.205259,
              22.33594
            ],
            [
              73.209607,
              22.336447
            ],
            [
              73.20968,
              22.335891
            ],
            [
              73.20968,
              22.336906
            ],
            [
              73.209311,
              22.33752
            ],
            [
              73.210866,
              22.340334
            ],
            [
              73.211776,
              22.340423
            ],
            [
              73.212895,
              22.342304
            ],
            [
              73.214501,
              22.342341
            ],
            [
              73.21468,
              22.341622
            ],
            [
              73.215232,
              22.342967
            ],
            [
              73.216615,
              22.34352
            ],
            [
              73.21468,
              22.346086
            ],
            [
              73.214612,
              22.345587
            ],
            [
              73.213013,
              22.345853
            ],
            [
              73.212837,
              22.347362
            ],
            [
              73.213422,
              22.34752
            ],
            [
              73.21168,
              22.348741
            ],
            [
              73.209481,
              22.345718
            ],
            [
              73.20636,
              22.3452
            ],
            [
              73.206332,
              22.345867
            ],
            [
              73.208086,
              22.34652
            ],
            [
              73.205147,
              22.34752
            ],
            [
              73.206118,
              22.34852
            ],
            [
              73.206032,
              22.35052
            ],
            [
              73.206901,
              22.35152
            ],
            [
              73.206952,
              22.353247
            ],
            [
              73.207751,
              22.35352
            ],
            [
              73.20768,
              22.35471
            ],
            [
              73.20668,
              22.355922
            ],
            [
              73.20568,
              22.355033
            ],
            [
              73.20468,
              22.355198
            ],
            [
              73.202994,
              22.35652
            ],
            [
              73.203659,
              22.35852
            ],
            [
              73.200858,
              22.359698
            ],
            [
              73.20068,
              22.360616
            ],
            [
              73.200481,
              22.359718
            ],
            [
              73.19905,
              22.35989
            ],
            [
              73.19768,
              22.361606
            ],
            [
              73.19668,
              22.360781
            ],
            [
              73.195139,
              22.361979
            ],
            [
              73.19474,
              22.36358
            ],
            [
              73.192931,
              22.363771
            ],
            [
              73.19268,
              22.364533
            ],
            [
              73.191484,
              22.36452
            ],
            [
              73.192537,
              22.364377
            ],
            [
              73.19168,
              22.361968
            ],
            [
              73.19068,
              22.364281
            ],
            [
              73.18968,
              22.36369
            ],
            [
              73.187323,
              22.363876
            ],
            [
              73.187122,
              22.36152
            ],
            [
              73.186122,
              22.36052
            ],
            [
              73.18707,
              22.35852
            ],
            [
              73.185935,
              22.357264
            ],
            [
              73.184267,
              22.356932
            ],
            [
              73.18368,
              22.355058
            ],
            [
              73.18268,
              22.356073
            ],
            [
              73.18168,
              22.355186
            ],
            [
              73.179449,
              22.355289
            ],
            [
              73.180393,
              22.357806
            ],
            [
              73.182351,
              22.359848
            ],
            [
              73.183988,
              22.360211
            ],
            [
              73.184033,
              22.36152
            ],
            [
              73.185139,
              22.36252
            ],
            [
              73.17968,
              22.36343
            ],
            [
              73.178329,
              22.36287
            ],
            [
              73.17768,
              22.360665
            ],
            [
              73.176182,
              22.361022
            ],
            [
              73.176256,
              22.363943
            ],
            [
              73.17868,
              22.366306
            ],
            [
              73.179389,
              22.366229
            ],
            [
              73.179815,
              22.36452
            ],
            [
              73.179919,
              22.36628
            ],
            [
              73.180708,
              22.366492
            ],
            [
              73.180967,
              22.36752
            ],
            [
              73.180662,
              22.367537
            ],
            [
              73.180588,
              22.366611
            ],
            [
              73.179034,
              22.366875
            ],
            [
              73.17868,
              22.368659
            ],
            [
              73.178287,
              22.366912
            ],
            [
              73.177154,
              22.366045
            ],
            [
              73.175257,
              22.366097
            ],
            [
              73.175874,
              22.368714
            ],
            [
              73.174147,
              22.368987
            ],
            [
              73.17368,
              22.371387
            ],
            [
              73.173505,
              22.36952
            ],
            [
              73.17268,
              22.368842
            ],
            [
              73.170911,
              22.37052
            ],
            [
              73.171372,
              22.37252
            ],
            [
              73.169818,
              22.37552
            ],
            [
              73.169779,
              22.37642
            ],
            [
              73.170567,
              22.37652
            ],
            [
              73.16968,
              22.376688
            ]
          ]
        ],
        "type": "Polygon"
      },
      "type": "Feature"
    },
    {
      "properties": {
        "fill-opacity": 0.33,
        "fillColor": "#bf4040",
        "opacity": 0.33,
        "fill": "#bf4040",
        "fillOpacity": 0.33,
        "color": "#bf4040",
        "contour": 6.0,
        "metric": "distance",
        "provider_name": "Domino's Pizza",
        "zone_type": "distance",
        "distance_km": 6,
        "mode": "motorcycle",
        "center_lat": 22.34052,
        "center_lon": 73.17368,
        "label": "6km"
      },
      "geometry": {
        "coordinates": [
          [
            [
              73.16568,
              22.386072
            ],
            [
              73.16541,
              22.383789
            ],
            [
              73.164031,
              22.38352
            ],
            [
              73.16568,
              22.383369
            ],
            [
              73.166386,
              22.38252
            ],
            [
              73.16468,
              22.380634
            ],
            [
              73.162186,
              22.380026
            ],
            [
              73.162134,
              22.38252
            ],
            [
              73.16068,
              22.382989
            ],
            [
              73.160184,
              22.38152
            ],
            [
              73.16137,
              22.38121
            ],
            [
              73.161392,
              22.37952
            ],
            [
              73.15968,
              22.378861
            ],
            [
              73.158811,
              22.380651
            ],
            [
              73.157882,
              22.380722
            ],
            [
              73.15768,
              22.382007
            ],
            [
              73.157388,
              22.38052
            ],
            [
              73.158377,
              22.380217
            ],
            [
              73.158551,
              22.37852
            ],
            [
              73.15768,
              22.377019
            ],
            [
              73.154016,
              22.380856
            ],
            [
              73.150463,
              22.382736
            ],
            [
              73.158091,
              22.374108
            ],
            [
              73.156166,
              22.375006
            ],
            [
              73.155949,
              22.375789
            ],
            [
              73.15368,
              22.375663
            ],
            [
              73.15068,
              22.377525
            ],
            [
              73.14978,
              22.37652
            ],
            [
              73.149675,
              22.374524
            ],
            [
              73.152363,
              22.37152
            ],
            [
              73.151093,
              22.370106
            ],
            [
              73.147396,
              22.368803
            ],
            [
              73.146184,
              22.369024
            ],
            [
              73.145627,
              22.370573
            ],
            [
              73.14168,
              22.370269
            ],
            [
              73.141749,
              22.36852
            ],
            [
              73.143197,
              22.368037
            ],
            [
              73.143143,
              22.36652
            ],
            [
              73.144323,
              22.36552
            ],
            [
              73.145776,
              22.36152
            ],
            [
              73.144929,
              22.36052
            ],
            [
              73.146088,
              22.359928
            ],
            [
              73.146117,
              22.358082
            ],
            [
              73.14468,
              22.358823
            ],
            [
              73.142975,
              22.356225
            ],
            [
              73.14168,
              22.35695
            ],
            [
              73.14068,
              22.355766
            ],
            [
              73.139398,
              22.355801
            ],
            [
              73.140243,
              22.35452
            ],
            [
              73.13968,
              22.353045
            ],
            [
              73.139098,
              22.354938
            ],
            [
              73.13801,
              22.35552
            ],
            [
              73.138796,
              22.356636
            ],
            [
              73.13768,
              22.356813
            ],
            [
              73.13668,
              22.355724
            ],
            [
              73.13568,
              22.356704
            ],
            [
              73.13368,
              22.354752
            ],
            [
              73.13168,
              22.357674
            ],
            [
              73.13068,
              22.355834
            ],
            [
              73.129608,
              22.356591
            ],
            [
              73.12938,
              22.35352
            ],
            [
              73.128148,
              22.352051
            ],
            [
              73.12668,
              22.352697
            ],
            [
              73.123904,
              22.35252
            ],
            [
              73.126308,
              22.352148
            ],
            [
              73.126527,
              22.351367
            ],
            [
              73.128142,
              22.350982
            ],
            [
              73.128587,
              22.349612
            ],
            [
              73.12768,
              22.347792
            ],
            [
              73.125961,
              22.347801
            ],
            [
              73.12568,
              22.349245
            ],
            [
              73.12559,
              22.34743
            ],
            [
              73.12743,
              22.34652
            ],
            [
              73.12668,
              22.345681
            ],
            [
              73.124958,
              22.34552
            ],
            [
              73.12768,
              22.345286
            ],
            [
              73.129137,
              22.345977
            ],
            [
              73.130432,
              22.342767
            ],
            [
              73.129287,
              22.34252
            ],
            [
              73.13068,
              22.341879
            ],
            [
              73.131217,
              22.342982
            ],
            [
              73.132018,
              22.342858
            ],
            [
              73.130722,
              22.34152
            ],
            [
              73.130826,
              22.34052
            ],
            [
              73.133018,
              22.339858
            ],
            [
              73.13314,
              22.33852
            ],
            [
              73.12668,
              22.337924
            ],
            [
              73.12468,
              22.339742
            ],
            [
              73.12415,
              22.338049
            ],
            [
              73.121952,
              22.337792
            ],
            [
              73.12168,
              22.338585
            ],
            [
              73.121451,
              22.337748
            ],
            [
              73.12016,
              22.33752
            ],
            [
              73.120028,
              22.33652
            ],
            [
              73.12468,
              22.33613
            ],
            [
              73.12568,
              22.337157
            ],
            [
              73.127071,
              22.336911
            ],
            [
              73.127151,
              22.336048
            ],
            [
              73.125628,
              22.33452
            ],
            [
              73.12568,
              22.333442
            ],
            [
              73.125755,
              22.334445
            ],
            [
              73.12768,
              22.333391
            ],
            [
              73.12868,
              22.334197
            ],
            [
              73.130083,
              22.333923
            ],
            [
              73.129972,
              22.32752
            ],
            [
              73.133281,
              22.32552
            ],
            [
              73.13268,
              22.324747
            ],
            [
              73.13068,
              22.324667
            ],
            [
              73.130034,
              22.32352
            ],
            [
              73.13268,
              22.32168
            ],
            [
              73.1325,
              22.32052
            ],
            [
              73.133668,
              22.319508
            ],
            [
              73.138626,
              22.317466
            ],
            [
              73.13868,
              22.31664
            ],
            [
              73.138738,
              22.317461
            ],
            [
              73.142404,
              22.318244
            ],
            [
              73.143437,
              22.317277
            ],
            [
              73.14368,
              22.313486
            ],
            [
              73.143898,
              22.315301
            ],
            [
              73.147693,
              22.316506
            ],
            [
              73.14788,
              22.317319
            ],
            [
              73.149294,
              22.317134
            ],
            [
              73.151831,
              22.315368
            ],
            [
              73.154075,
              22.31852
            ],
            [
              73.152382,
              22.320817
            ],
            [
              73.157432,
              22.320767
            ],
            [
              73.15768,
              22.32164
            ],
            [
              73.158862,
              22.319702
            ],
            [
              73.161768,
              22.318608
            ],
            [
              73.16268,
              22.316624
            ],
            [
              73.16468,
              22.317039
            ],
            [
              73.166075,
              22.315915
            ],
            [
              73.16603,
              22.315169
            ],
            [
              73.163897,
              22.31452
            ],
            [
              73.163595,
              22.311604
            ],
            [
              73.162732,
              22.31052
            ],
            [
              73.16568,
              22.307663
            ],
            [
              73.16644,
              22.309759
            ],
            [
              73.168448,
              22.31052
            ],
            [
              73.167584,
              22.311615
            ],
            [
              73.16968,
              22.311828
            ],
            [
              73.170341,
              22.310181
            ],
            [
              73.17568,
              22.310095
            ],
            [
              73.17668,
              22.30942
            ],
            [
              73.17968,
              22.304904
            ],
            [
              73.18068,
              22.305951
            ],
            [
              73.18368,
              22.303717
            ],
            [
              73.185148,
              22.305051
            ],
            [
              73.18768,
              22.305099
            ],
            [
              73.188731,
              22.302571
            ],
            [
              73.189509,
              22.302349
            ],
            [
              73.18968,
              22.300472
            ],
            [
              73.19368,
              22.301319
            ],
            [
              73.19468,
              22.300147
            ],
            [
              73.196103,
              22.30152
            ],
            [
              73.195007,
              22.301847
            ],
            [
              73.195199,
              22.303
            ],
            [
              73.196348,
              22.303188
            ],
            [
              73.19768,
              22.30226
            ],
            [
              73.19868,
              22.302799
            ],
            [
              73.199315,
              22.30352
            ],
            [
              73.198563,
              22.30452
            ],
            [
              73.200042,
              22.30652
            ],
            [
              73.198376,
              22.308216
            ],
            [
              73.19568,
              22.307756
            ],
            [
              73.195209,
              22.30899
            ],
            [
              73.197473,
              22.309313
            ],
            [
              73.19868,
              22.308542
            ],
            [
              73.20068,
              22.311341
            ],
            [
              73.20268,
              22.311218
            ],
            [
              73.204169,
              22.310009
            ],
            [
              73.20468,
              22.30834
            ],
            [
              73.20568,
              22.308338
            ],
            [
              73.206141,
              22.31052
            ],
            [
              73.205532,
              22.31152
            ],
            [
              73.207007,
              22.31352
            ],
            [
              73.206692,
              22.31752
            ],
            [
              73.209528,
              22.31952
            ],
            [
              73.207411,
              22.321788
            ],
            [
              73.210915,
              22.32452
            ],
            [
              73.209986,
              22.324826
            ],
            [
              73.210222,
              22.325977
            ],
            [
              73.211915,
              22.327284
            ],
            [
              73.213806,
              22.32752
            ],
            [
              73.21287,
              22.32771
            ],
            [
              73.21268,
              22.329205
            ],
            [
              73.209208,
              22.329048
            ],
            [
              73.206626,
              22.333573
            ],
            [
              73.20868,
              22.333846
            ],
            [
              73.21068,
              22.33311
            ],
            [
              73.21168,
              22.335077
            ],
            [
              73.21568,
              22.335227
            ],
            [
              73.218816,
              22.33752
            ],
            [
              73.217916,
              22.337756
            ],
            [
              73.218171,
              22.339029
            ],
            [
              73.223343,
              22.33952
            ],
            [
              73.225214,
              22.34152
            ],
            [
              73.223866,
              22.341706
            ],
            [
              73.221756,
              22.34452
            ],
            [
              73.22268,
              22.348303
            ],
            [
              73.22068,
              22.347835
            ],
            [
              73.21968,
              22.348879
            ],
            [
              73.21868,
              22.348137
            ],
            [
              73.21768,
              22.350296
            ],
            [
              73.215738,
              22.348461
            ],
            [
              73.215124,
              22.350964
            ],
            [
              73.21168,
              22.351048
            ],
            [
              73.209005,
              22.346194
            ],
            [
              73.208256,
              22.346096
            ],
            [
              73.20768,
              22.347147
            ],
            [
              73.205451,
              22.347291
            ],
            [
              73.208328,
              22.354871
            ],
            [
              73.20994,
              22.355259
            ],
            [
              73.21068,
              22.357301
            ],
            [
              73.21168,
              22.356417
            ],
            [
              73.212717,
              22.356483
            ],
            [
              73.211857,
              22.356697
            ],
            [
              73.211726,
              22.357566
            ],
            [
              73.207917,
              22.358757
            ],
            [
              73.207767,
              22.359607
            ],
            [
              73.204871,
              22.359711
            ],
            [
              73.20468,
              22.360764
            ],
            [
              73.201825,
              22.360665
            ],
            [
              73.200919,
              22.361759
            ],
            [
              73.199,
              22.361199
            ],
            [
              73.19768,
              22.362246
            ],
            [
              73.19668,
              22.361095
            ],
            [
              73.194905,
              22.363745
            ],
            [
              73.189142,
              22.365982
            ],
            [
              73.18868,
              22.366894
            ],
            [
              73.187778,
              22.36552
            ],
            [
              73.190087,
              22.36452
            ],
            [
              73.18868,
              22.364069
            ],
            [
              73.18768,
              22.364865
            ],
            [
              73.18568,
              22.362776
            ],
            [
              73.18268,
              22.364942
            ],
            [
              73.180352,
              22.365192
            ],
            [
              73.181347,
              22.366852
            ],
            [
              73.183294,
              22.36752
            ],
            [
              73.18168,
              22.368944
            ],
            [
              73.17568,
              22.37096
            ],
            [
              73.174296,
              22.372136
            ],
            [
              73.17468,
              22.374228
            ],
            [
              73.176368,
              22.374208
            ],
            [
              73.176646,
              22.373486
            ],
            [
              73.17768,
              22.3733
            ],
            [
              73.177621,
              22.373578
            ],
            [
              73.17679,
              22.37363
            ],
            [
              73.176786,
              22.374626
            ],
            [
              73.174204,
              22.375044
            ],
            [
              73.174117,
              22.376082
            ],
            [
              73.174841,
              22.37652
            ],
            [
              73.17468,
              22.378272
            ],
            [
              73.174356,
              22.376843
            ],
            [
              73.172485,
              22.375714
            ],
            [
              73.172048,
              22.373151
            ],
            [
              73.171353,
              22.373193
            ],
            [
              73.170217,
              22.37552
            ],
            [
              73.17368,
              22.379189
            ],
            [
              73.17468,
              22.378603
            ],
            [
              73.178224,
              22.37952
            ],
            [
              73.176051,
              22.379891
            ],
            [
              73.17568,
              22.382914
            ],
            [
              73.175291,
              22.380908
            ],
            [
              73.17068,
              22.380764
            ],
            [
              73.170079,
              22.382121
            ],
            [
              73.171727,
              22.382472
            ],
            [
              73.172036,
              22.38352
            ],
            [
              73.171661,
              22.383538
            ],
            [
              73.17153,
              22.382669
            ],
            [
              73.169059,
              22.382899
            ],
            [
              73.168735,
              22.38452
            ],
            [
              73.165924,
              22.384764
            ],
            [
              73.16568,
              22.386072
            ]
          ]
        ],
        "type": "Polygon"
      },
      "type": "Feature"
    }
  ]
}