{
  "type": "FeatureCollection",
  "metadata": {
    "provider_name": "Cupcake Bliss Cakes & Desserts",
    "center_lat": 28.473477,
    "center_lon": 77.079995,
    "mode": "motorcycle",
    "total_zones": 4,
    "distance_zones": [
      3,
      4,
      5,
      6
    ],
    "generated_at": "2025-12-28T15:14:21.913884Z"
  },
  "features": [
    {
      "properties": {
        "fill-opacity": 0.33,
        "fillColor": "#bf4040",
        "opacity": 0.33,
        "fill": "#bf4040",
        "fillOpacity": 0.33,
        "color": "#bf4040",
        "contour": 3.0,
        "metric": "distance",
        "provider_name": "Cupcake Bliss Cakes & Desserts",
        "zone_type": "distance",
        "distance_km": 3,
        "mode": "motorcycle",
        "center_lat": 28.473477,
        "center_lon": 77.079995,
        "label": "3km"
      },
      "geometry": {
        "coordinates": [
          [
            [
              77.080995,
              28.489482
            ],
            [
              77.080901,
              28.48857
            ],
            [
              77.079926,
              28.488545
            ],
            [
              77.071646,
              28.480825
            ],
            [
              77.069995,
              28.479891
            ],
            [
              77.068852,
              28.480477
            ],
            [
              77.068505,
              28.478477
            ],
            [
              77.065995,
              28.478025
            ],
            [
              77.064995,
              28.476922
            ],
            [
              77.063593,
              28.477075
            ],
            [
              77.062995,
              28.478036
            ],
            [
              77.058995,
              28.477685
            ],
            [
              77.057601,
              28.474477
            ],
            [
              77.060534,
              28.473016
            ],
            [
              77.060784,
              28.470687
            ],
            [
              77.059908,
              28.470477
            ],
            [
              77.061032,
              28.470439
            ],
            [
              77.061995,
              28.471289
            ],
            [
              77.062995,
              28.46997
            ],
            [
              77.065995,
              28.471762
            ],
            [
              77.06834,
              28.469822
            ],
            [
              77.068337,
              28.469134
            ],
            [
              77.066708,
              28.468763
            ],
            [
              77.065995,
              28.466843
            ],
            [
              77.061855,
              28.467616
            ],
            [
              77.062656,
              28.467138
            ],
            [
              77.062865,
              28.465347
            ],
            [
              77.067545,
              28.460027
            ],
            [
              77.070451,
              28.458477
            ],
            [
              77.068647,
              28.454477
            ],
            [
              77.069995,
              28.454727
            ],
            [
              77.070675,
              28.455797
            ],
            [
              77.072995,
              28.456073
            ],
            [
              77.075098,
              28.452373
            ],
            [
              77.075941,
              28.45253
            ],
            [
              77.077995,
              28.455287
            ],
            [
              77.078606,
              28.452477
            ],
            [
              77.081777,
              28.451259
            ],
            [
              77.082995,
              28.452484
            ],
            [
              77.086563,
              28.453477
            ],
            [
              77.086995,
              28.454645
            ],
            [
              77.088995,
              28.454657
            ],
            [
              77.090449,
              28.459023
            ],
            [
              77.093332,
              28.458814
            ],
            [
              77.093995,
              28.456791
            ],
            [
              77.095153,
              28.458477
            ],
            [
              77.094601,
              28.46087
            ],
            [
              77.095491,
              28.460973
            ],
            [
              77.095995,
              28.459919
            ],
            [
              77.096261,
              28.46121
            ],
            [
              77.097751,
              28.461477
            ],
            [
              77.099029,
              28.463477
            ],
            [
              77.095494,
              28.463976
            ],
            [
              77.095104,
              28.466586
            ],
            [
              77.093282,
              28.467477
            ],
            [
              77.094706,
              28.467765
            ],
            [
              77.094417,
              28.480054
            ],
            [
              77.095746,
              28.484477
            ],
            [
              77.094995,
              28.485305
            ],
            [
              77.092995,
              28.483823
            ],
            [
              77.091995,
              28.487024
            ],
            [
              77.08696,
              28.483477
            ],
            [
              77.082995,
              28.48299
            ],
            [
              77.081995,
              28.482136
            ],
            [
              77.078995,
              28.483032
            ],
            [
              77.078605,
              28.484866
            ],
            [
              77.081065,
              28.487406
            ],
            [
              77.080995,
              28.489482
            ]
          ]
        ],
        "type": "Polygon"
      },
      "type": "Feature"
    },
    {
      "properties": {
        "fill-opacity": 0.33,
        "fillColor": "#bf4040",
        "opacity": 0.33,
        "fill": "#bf4040",
        "fillOpacity": 0.33,
        "color": "#bf4040",
        "contour": 4.0,
        "metric": "distance",
        "provider_name": "Cupcake Bliss Cakes & Desserts",
        "zone_type": "distance",
        "distance_km": 4,
        "mode": "motorcycle",
        "center_lat": 28.473477,
        "center_lon": 77.079995,
        "label": "4km"
      },
      "geometry": {
        "coordinates": [
          [
            [
              77.086995,
              28.492628
            ],
            [
              77.08323,
              28.492477
            ],
            [
              77.082995,
              28.488948
            ],
            [
              77.082953,
              28.490435
            ],
            [
              77.080995,
              28.490242
            ],
            [
              77.077998,
              28.487473
            ],
            [
              77.075724,
              28.486748
            ],
            [
              77.073995,
              28.48418
            ],
            [
              77.072499,
              28.483972
            ],
            [
              77.071784,
              28.482266
            ],
            [
              77.07115,
              28.482477
            ],
            [
              77.070995,
              28.484248
            ],
            [
              77.0709,
              28.483571
            ],
            [
              77.069995,
              28.483634
            ],
            [
              77.068663,
              28.484477
            ],
            [
              77.069481,
              28.485477
            ],
            [
              77.069016,
              28.486477
            ],
            [
              77.065995,
              28.48793
            ],
            [
              77.063678,
              28.485793
            ],
            [
              77.060615,
              28.485477
            ],
            [
              77.061309,
              28.482162
            ],
            [
              77.058995,
              28.482406
            ],
            [
              77.056699,
              28.478772
            ],
            [
              77.053806,
              28.476665
            ],
            [
              77.053272,
              28.473199
            ],
            [
              77.048491,
              28.471477
            ],
            [
              77.048566,
              28.470477
            ],
            [
              77.051314,
              28.469477
            ],
            [
              77.052934,
              28.471537
            ],
            [
              77.05516,
              28.472642
            ],
            [
              77.055421,
              28.469477
            ],
            [
              77.056714,
              28.468477
            ],
            [
              77.056091,
              28.467477
            ],
            [
              77.058325,
              28.467807
            ],
            [
              77.061867,
              28.464477
            ],
            [
              77.061986,
              28.462477
            ],
            [
              77.063197,
              28.461477
            ],
            [
              77.061279,
              28.460477
            ],
            [
              77.062599,
              28.458477
            ],
            [
              77.062217,
              28.455477
            ],
            [
              77.063595,
              28.452477
            ],
            [
              77.062995,
              28.451495
            ],
            [
              77.061506,
              28.451477
            ],
            [
              77.062738,
              28.449477
            ],
            [
              77.061995,
              28.447641
            ],
            [
              77.065995,
              28.450662
            ],
            [
              77.066899,
              28.450477
            ],
            [
              77.06744,
              28.448922
            ],
            [
              77.070995,
              28.447848
            ],
            [
              77.072995,
              28.448594
            ],
            [
              77.073995,
              28.451126
            ],
            [
              77.074622,
              28.450477
            ],
            [
              77.074279,
              28.448477
            ],
            [
              77.077016,
              28.445498
            ],
            [
              77.081995,
              28.445233
            ],
            [
              77.082112,
              28.448359
            ],
            [
              77.085342,
              28.449129
            ],
            [
              77.089995,
              28.452122
            ],
            [
              77.091995,
              28.451308
            ],
            [
              77.094995,
              28.453219
            ],
            [
              77.096995,
              28.453057
            ],
            [
              77.098995,
              28.451161
            ],
            [
              77.099182,
              28.452289
            ],
            [
              77.099995,
              28.452578
            ],
            [
              77.099537,
              28.456477
            ],
            [
              77.100687,
              28.458785
            ],
            [
              77.102995,
              28.460214
            ],
            [
              77.104995,
              28.460407
            ],
            [
              77.10524,
              28.463477
            ],
            [
              77.107111,
              28.465477
            ],
            [
              77.106995,
              28.466942
            ],
            [
              77.104995,
              28.465146
            ],
            [
              77.101116,
              28.468477
            ],
            [
              77.103443,
              28.470477
            ],
            [
              77.102997,
              28.472479
            ],
            [
              77.100995,
              28.473538
            ],
            [
              77.099657,
              28.479477
            ],
            [
              77.101995,
              28.482123
            ],
            [
              77.104886,
              28.482477
            ],
            [
              77.103402,
              28.482884
            ],
            [
              77.102995,
              28.484092
            ],
            [
              77.100995,
              28.484482
            ],
            [
              77.100812,
              28.483659
            ],
            [
              77.098995,
              28.483367
            ],
            [
              77.097995,
              28.484849
            ],
            [
              77.095555,
              28.485037
            ],
            [
              77.094145,
              28.487627
            ],
            [
              77.090449,
              28.488931
            ],
            [
              77.090066,
              28.491405
            ],
            [
              77.090995,
              28.49164
            ],
            [
              77.088995,
              28.491458
            ],
            [
              77.086995,
              28.492628
            ]
          ]
        ],
        "type": "Polygon"
      },
      "type": "Feature"
    },
    {
      "properties": {
        "fill-opacity": 0.33,
        "fillColor": "#bf4040",
        "opacity": 0.33,
        "fill": "#bf4040",
        "fillOpacity": 0.33,
        "color": "#bf4040",
        "contour": 5.0,
        "metric": "distance",
        "provider_name": "Cupcake Bliss Cakes & Desserts",
        "zone_type": "distance",
        "distance_km": 5,
        "mode": "motorcycle",
        "center_lat": 28.473477,
        "center_lon": 77.079995,
        "label": "5km"
      },
      "geometry": {
        "coordinates": [
          [
            [
              77.088995,
              28.499081
            ],
            [
              77.086163,
              28.495308
            ],
            [
              77.084537,
              28.494934
            ],
            [
              77.081995,
              28.49246
            ],
            [
              77.080995,
              28.494437
            ],
            [
              77.078995,
              28.493921
            ],
            [
              77.078749,
              28.492722
            ],
            [
              77.077311,
              28.492477
            ],
            [
              77.077995,
              28.488466
            ],
            [
              77.073995,
              28.488817
            ],
            [
              77.073563,
              28.491045
            ],
            [
              77.070995,
              28.490763
            ],
            [
              77.069995,
              28.492659
            ],
            [
              77.067833,
              28.492638
            ],
            [
              77.066995,
              28.490887
            ],
            [
              77.064995,
              28.491689
            ],
            [
              77.059827,
              28.491644
            ],
            [
              77.06055,
              28.488477
            ],
            [
              77.061651,
              28.488133
            ],
            [
              77.060995,
              28.485991
            ],
            [
              77.057184,
              28.489477
            ],
            [
              77.057995,
              28.492104
            ],
            [
              77.055979,
              28.491492
            ],
            [
              77.056814,
              28.491296
            ],
            [
              77.056578,
              28.489893
            ],
            [
              77.053369,
              28.486477
            ],
            [
              77.053995,
              28.48635
            ],
            [
              77.055995,
              28.488137
            ],
            [
              77.057385,
              28.486867
            ],
            [
              77.058547,
              28.484477
            ],
            [
              77.05762,
              28.482477
            ],
            [
              77.058306,
              28.481165
            ],
            [
              77.053995,
              28.477057
            ],
            [
              77.050995,
              28.476778
            ],
            [
              77.049995,
              28.478255
            ],
            [
              77.049264,
              28.477207
            ],
            [
              77.046995,
              28.476753
            ],
            [
              77.046378,
              28.475093
            ],
            [
              77.044995,
              28.474855
            ],
            [
              77.044432,
              28.47304
            ],
            [
              77.041995,
              28.470904
            ],
            [
              77.039725,
              28.471477
            ],
            [
              77.039793,
              28.469477
            ],
            [
              77.040772,
              28.469254
            ],
            [
              77.040895,
              28.468477
            ],
            [
              77.039995,
              28.465739
            ],
            [
              77.043042,
              28.465429
            ],
            [
              77.043975,
              28.466496
            ],
            [
              77.045995,
              28.466967
            ],
            [
              77.046652,
              28.466477
            ],
            [
              77.046278,
              28.465477
            ],
            [
              77.048994,
              28.465477
            ],
            [
              77.04803,
              28.465512
            ],
            [
              77.047848,
              28.46833
            ],
            [
              77.048995,
              28.46913
            ],
            [
              77.050995,
              28.469082
            ],
            [
              77.051995,
              28.468067
            ],
            [
              77.055445,
              28.467927
            ],
            [
              77.055368,
              28.466103
            ],
            [
              77.050777,
              28.461694
            ],
            [
              77.049862,
              28.460477
            ],
            [
              77.050264,
              28.459746
            ],
            [
              77.052995,
              28.460962
            ],
            [
              77.054995,
              28.461075
            ],
            [
              77.055995,
              28.460173
            ],
            [
              77.057326,
              28.461145
            ],
            [
              77.060355,
              28.460837
            ],
            [
              77.060367,
              28.459104
            ],
            [
              77.057834,
              28.458637
            ],
            [
              77.057529,
              28.455942
            ],
            [
              77.055995,
              28.456675
            ],
            [
              77.053344,
              28.456477
            ],
            [
              77.054209,
              28.452691
            ],
            [
              77.0552,
              28.452477
            ],
            [
              77.054504,
              28.451477
            ],
            [
              77.055314,
              28.445477
            ],
            [
              77.053825,
              28.444477
            ],
            [
              77.055995,
              28.444242
            ],
            [
              77.056711,
              28.443477
            ],
            [
              77.055083,
              28.441477
            ],
            [
              77.056995,
              28.44093
            ],
            [
              77.059995,
              28.442091
            ],
            [
              77.061247,
              28.441224
            ],
            [
              77.061995,
              28.442579
            ],
            [
              77.065995,
              28.441298
            ],
            [
              77.066393,
              28.443078
            ],
            [
              77.067995,
              28.443833
            ],
            [
              77.069282,
              28.443477
            ],
            [
              77.069924,
              28.439406
            ],
            [
              77.071995,
              28.43918
            ],
            [
              77.074401,
              28.44107
            ],
            [
              77.074078,
              28.442477
            ],
            [
              77.074995,
              28.442568
            ],
            [
              77.077715,
              28.438197
            ],
            [
              77.083995,
              28.438053
            ],
            [
              77.085995,
              28.438683
            ],
            [
              77.086995,
              28.440273
            ],
            [
              77.087674,
              28.440156
            ],
            [
              77.087995,
              28.438808
            ],
            [
              77.089405,
              28.439477
            ],
            [
              77.089124,
              28.441606
            ],
            [
              77.088874,
              28.440597
            ],
            [
              77.087238,
              28.441477
            ],
            [
              77.089247,
              28.443729
            ],
            [
              77.086995,
              28.443792
            ],
            [
              77.086569,
              28.442903
            ],
            [
              77.084995,
              28.44284
            ],
            [
              77.083457,
              28.444477
            ],
            [
              77.086354,
              28.445117
            ],
            [
              77.088995,
              28.449066
            ],
            [
              77.090995,
              28.449888
            ],
            [
              77.093629,
              28.449111
            ],
            [
              77.094017,
              28.446499
            ],
            [
              77.095995,
              28.44662
            ],
            [
              77.096163,
              28.447308
            ],
            [
              77.098995,
              28.448169
            ],
            [
              77.100814,
              28.445477
            ],
            [
              77.100943,
              28.443425
            ],
            [
              77.101881,
              28.443363
            ],
            [
              77.101995,
              28.442624
            ],
            [
              77.10343,
              28.446477
            ],
            [
              77.103126,
              28.447608
            ],
            [
              77.100995,
              28.447893
            ],
            [
              77.100672,
              28.448799
            ],
            [
              77.103995,
              28.44968
            ],
            [
              77.105995,
              28.449332
            ],
            [
              77.106322,
              28.450149
            ],
            [
              77.107913,
              28.450477
            ],
            [
              77.105995,
              28.451455
            ],
            [
              77.105621,
              28.45085
            ],
            [
              77.103995,
              28.450797
            ],
            [
              77.10051,
              28.453477
            ],
            [
              77.10098,
              28.455491
            ],
            [
              77.102995,
              28.45716
            ],
            [
              77.104504,
              28.456986
            ],
            [
              77.104995,
              28.45532
            ],
            [
              77.105995,
              28.45525
            ],
            [
              77.106084,
              28.456566
            ],
            [
              77.104334,
              28.458477
            ],
            [
              77.105382,
              28.459477
            ],
            [
              77.105564,
              28.463477
            ],
            [
              77.107382,
              28.465089
            ],
            [
              77.108875,
              28.468357
            ],
            [
              77.108727,
              28.469209
            ],
            [
              77.107795,
              28.469477
            ],
            [
              77.107129,
              28.473477
            ],
            [
              77.106264,
              28.473746
            ],
            [
              77.106211,
              28.476693
            ],
            [
              77.104556,
              28.476038
            ],
            [
              77.100645,
              28.479127
            ],
            [
              77.100522,
              28.480477
            ],
            [
              77.10138,
              28.480862
            ],
            [
              77.101743,
              28.479225
            ],
            [
              77.102995,
              28.479258
            ],
            [
              77.105995,
              28.479826
            ],
            [
              77.106995,
              28.480681
            ],
            [
              77.107995,
              28.479749
            ],
            [
              77.109995,
              28.481045
            ],
            [
              77.114751,
              28.481477
            ],
            [
              77.108588,
              28.48307
            ],
            [
              77.107995,
              28.487632
            ],
            [
              77.105995,
              28.486689
            ],
            [
              77.104995,
              28.488271
            ],
            [
              77.103995,
              28.488219
            ],
            [
              77.103189,
              28.485477
            ],
            [
              77.100995,
              28.48528
            ],
            [
              77.099995,
              28.483978
            ],
            [
              77.098995,
              28.483958
            ],
            [
              77.097995,
              28.485091
            ],
            [
              77.095778,
              28.48526
            ],
            [
              77.09436,
              28.487842
            ],
            [
              77.090546,
              28.489477
            ],
            [
              77.093348,
              28.49583
            ],
            [
              77.090112,
              28.497594
            ],
            [
              77.088995,
              28.499081
            ]
          ]
        ],
        "type": "Polygon"
      },
      "type": "Feature"
    },
    {
      "properties": {
        "fill-opacity": 0.33,
        "fillColor": "#bf4040",
        "opacity": 0.33,
        "fill": "#bf4040",
        "fillOpacity": 0.33,
        "color": "#bf4040",
        "contour": 6.0,
        "metric": "distance",
        "provider_name": "Cupcake Bliss Cakes & Desserts",
        "zone_type": "distance",
        "distance_km": 6,
        "mode": "motorcycle",
        "center_lat": 28.473477,
        "center_lon": 77.079995,
        "label": "6km"
      },
      "geometry": {
        "coordinates": [
          [
            [
              77.088995,
              28.505049
            ],
            [
              77.085731,
              28.50474
            ],
            [
              77.085995,
              28.50124
            ],
            [
              77.086995,
              28.500763
            ],
            [
              77.087995,
              28.501332
            ],
            [
              77.088655,
              28.500477
            ],
            [
              77.087995,
              28.499734
            ],
            [
              77.086609,
              28.499862
            ],
            [
              77.086681,
              28.498477
            ],
            [
              77.085295,
              28.496176
            ],
            [
              77.080995,
              28.49954
            ],
            [
              77.078793,
              28.498679
            ],
            [
              77.078411,
              28.49706
            ],
            [
              77.076636,
              28.496835
            ],
            [
              77.075995,
              28.49578
            ],
            [
              77.074626,
              28.496108
            ],
            [
              77.072995,
              28.498313
            ],
            [
              77.072673,
              28.496799
            ],
            [
              77.070741,
              28.496477
            ],
            [
              77.069346,
              28.493477
            ],
            [
              77.067022,
              28.492477
            ],
            [
              77.066995,
              28.491106
            ],
            [
              77.065732,
              28.491214
            ],
            [
              77.065321,
              28.492477
            ],
            [
              77.063432,
              28.492914
            ],
            [
              77.063509,
              28.493962
            ],
            [
              77.065373,
              28.494477
            ],
            [
              77.063224,
              28.495477
            ],
            [
              77.064165,
              28.496477
            ],
            [
              77.064485,
              28.498967
            ],
            [
              77.058995,
              28.498937
            ],
            [
              77.056995,
              28.496731
            ],
            [
              77.055192,
              28.497674
            ],
            [
              77.054995,
              28.498875
            ],
            [
              77.054116,
              28.498477
            ],
            [
              77.054376,
              28.496477
            ],
            [
              77.05745,
              28.494932
            ],
            [
              77.057382,
              28.494089
            ],
            [
              77.055995,
              28.493889
            ],
            [
              77.053995,
              28.49517
            ],
            [
              77.050171,
              28.494477
            ],
            [
              77.048831,
              28.493477
            ],
            [
              77.055995,
              28.493163
            ],
            [
              77.056616,
              28.492477
            ],
            [
              77.055563,
              28.491477
            ],
            [
              77.056306,
              28.490165
            ],
            [
              77.052874,
              28.488597
            ],
            [
              77.049672,
              28.485799
            ],
            [
              77.049882,
              28.483477
            ],
            [
              77.048506,
              28.481965
            ],
            [
              77.044823,
              28.481477
            ],
            [
              77.04647,
              28.479952
            ],
            [
              77.045764,
              28.478477
            ],
            [
              77.040995,
              28.477498
            ],
            [
              77.040715,
              28.476756
            ],
            [
              77.033976,
              28.474477
            ],
            [
              77.033903,
              28.471385
            ],
            [
              77.037376,
              28.469477
            ],
            [
              77.036181,
              28.46729
            ],
            [
              77.030995,
              28.462993
            ],
            [
              77.031432,
              28.461477
            ],
            [
              77.034995,
              28.460896
            ],
            [
              77.036129,
              28.461477
            ],
            [
              77.036995,
              28.463506
            ],
            [
              77.037447,
              28.461929
            ],
            [
              77.038815,
              28.461656
            ],
            [
              77.038995,
              28.462246
            ],
            [
              77.039912,
              28.458394
            ],
            [
              77.042995,
              28.459063
            ],
            [
              77.045995,
              28.457981
            ],
            [
              77.043176,
              28.453477
            ],
            [
              77.043615,
              28.453097
            ],
            [
              77.046112,
              28.453359
            ],
            [
              77.045961,
              28.454477
            ],
            [
              77.048086,
              28.456568
            ],
            [
              77.048567,
              28.455049
            ],
            [
              77.050072,
              28.454477
            ],
            [
              77.049368,
              28.454103
            ],
            [
              77.049189,
              28.452282
            ],
            [
              77.04698,
              28.450491
            ],
            [
              77.047731,
              28.450213
            ],
            [
              77.047163,
              28.448477
            ],
            [
              77.047945,
              28.447477
            ],
            [
              77.047146,
              28.446477
            ],
            [
              77.048183,
              28.445477
            ],
            [
              77.047663,
              28.442808
            ],
            [
              77.04598,
              28.442462
            ],
            [
              77.048756,
              28.439477
            ],
            [
              77.048117,
              28.436599
            ],
            [
              77.048995,
              28.435978
            ],
            [
              77.049311,
              28.433793
            ],
            [
              77.057995,
              28.434513
            ],
            [
              77.059995,
              28.433767
            ],
            [
              77.060995,
              28.436704
            ],
            [
              77.063995,
              28.436234
            ],
            [
              77.064665,
              28.434147
            ],
            [
              77.066995,
              28.432977
            ],
            [
              77.067167,
              28.433649
            ],
            [
              77.066459,
              28.434477
            ],
            [
              77.066886,
              28.435585
            ],
            [
              77.069995,
              28.433103
            ],
            [
              77.076313,
              28.432158
            ],
            [
              77.076995,
              28.432912
            ],
            [
              77.077995,
              28.43199
            ],
            [
              77.0788,
              28.432671
            ],
            [
              77.081116,
              28.432598
            ],
            [
              77.083082,
              28.431564
            ],
            [
              77.085995,
              28.432237
            ],
            [
              77.087995,
              28.433831
            ],
            [
              77.090995,
              28.430364
            ],
            [
              77.091339,
              28.432132
            ],
            [
              77.092138,
              28.432477
            ],
            [
              77.091262,
              28.433477
            ],
            [
              77.092432,
              28.435039
            ],
            [
              77.094381,
              28.435477
            ],
            [
              77.094656,
              28.437477
            ],
            [
              77.093372,
              28.438854
            ],
            [
              77.090473,
              28.439477
            ],
            [
              77.091995,
              28.441067
            ],
            [
              77.094995,
              28.439105
            ],
            [
              77.095443,
              28.439477
            ],
            [
              77.097165,
              28.443306
            ],
            [
              77.096944,
              28.445426
            ],
            [
              77.095869,
              28.445477
            ],
            [
              77.09696,
              28.445511
            ],
            [
              77.096889,
              28.446582
            ],
            [
              77.098643,
              28.446828
            ],
            [
              77.099105,
              28.447587
            ],
            [
              77.099117,
              28.446477
            ],
            [
              77.100267,
              28.445477
            ],
            [
              77.100239,
              28.443477
            ],
            [
              77.101505,
              28.441987
            ],
            [
              77.101469,
              28.440477
            ],
            [
              77.103791,
              28.436477
            ],
            [
              77.103962,
              28.434444
            ],
            [
              77.104995,
              28.434047
            ],
            [
              77.107224,
              28.438477
            ],
            [
              77.105995,
              28.439025
            ],
            [
              77.105174,
              28.440656
            ],
            [
              77.103595,
              28.441077
            ],
            [
              77.10266,
              28.442811
            ],
            [
              77.105292,
              28.443179
            ],
            [
              77.107015,
              28.444456
            ],
            [
              77.109995,
              28.443687
            ],
            [
              77.111184,
              28.444666
            ],
            [
              77.110995,
              28.44545
            ],
            [
              77.110908,
              28.444563
            ],
            [
              77.109292,
              28.444774
            ],
            [
              77.108995,
              28.447005
            ],
            [
              77.105576,
              28.447058
            ],
            [
              77.105572,
              28.447899
            ],
            [
              77.107328,
              28.448477
            ],
            [
              77.106683,
              28.449788
            ],
            [
              77.110428,
              28.44991
            ],
            [
              77.111797,
              28.448477
            ],
            [
              77.111724,
              28.447747
            ],
            [
              77.110511,
              28.447477
            ],
            [
              77.111995,
              28.447337
            ],
            [
              77.114995,
              28.449245
            ],
            [
              77.117928,
              28.449477
            ],
            [
              77.112995,
              28.449806
            ],
            [
              77.111995,
              28.450852
            ],
            [
              77.106679,
              28.451161
            ],
            [
              77.109163,
              28.454308
            ],
            [
              77.109256,
              28.455477
            ],
            [
              77.106601,
              28.454083
            ],
            [
              77.106531,
              28.456477
            ],
            [
              77.104597,
              28.458477
            ],
            [
              77.105615,
              28.459477
            ],
            [
              77.105694,
              28.463477
            ],
            [
              77.107233,
              28.464238
            ],
            [
              77.107995,
              28.466823
            ],
            [
              77.108995,
              28.46605
            ],
            [
              77.11461,
              28.466092
            ],
            [
              77.11585,
              28.465332
            ],
            [
              77.115995,
              28.464314
            ],
            [
              77.116067,
              28.465477
            ],
            [
              77.114995,
              28.466673
            ],
            [
              77.109995,
              28.466894
            ],
            [
              77.109456,
              28.467477
            ],
            [
              77.109404,
              28.470477
            ],
            [
              77.111205,
              28.473477
            ],
            [
              77.110995,
              28.476278
            ],
            [
              77.110057,
              28.476539
            ],
            [
              77.110196,
              28.478477
            ],
            [
              77.112192,
              28.479477
            ],
            [
              77.111273,
              28.480477
            ],
            [
              77.113995,
              28.480961
            ],
            [
              77.114995,
              28.480082
            ],
            [
              77.115995,
              28.480539
            ],
            [
              77.117995,
              28.480076
            ],
            [
              77.120995,
              28.478221
            ],
            [
              77.122995,
              28.478393
            ],
            [
              77.123132,
              28.47934
            ],
            [
              77.123921,
              28.479477
            ],
            [
              77.121985,
              28.480467
            ],
            [
              77.122499,
              28.482477
            ],
            [
              77.118995,
              28.482514
            ],
            [
              77.117995,
              28.480869
            ],
            [
              77.116995,
              28.481913
            ],
            [
              77.112995,
              28.482015
            ],
            [
              77.111995,
              28.483018
            ],
            [
              77.108742,
              28.483224
            ],
            [
              77.108995,
              28.485007
            ],
            [
              77.111041,
              28.484477
            ],
            [
              77.111302,
              28.487477
            ],
            [
              77.11038,
              28.488477
            ],
            [
              77.110523,
              28.489948
            ],
            [
              77.113073,
              28.490398
            ],
            [
              77.11312,
              28.491602
            ],
            [
              77.112995,
              28.492234
            ],
            [
              77.112739,
              28.490732
            ],
            [
              77.111447,
              28.490929
            ],
            [
              77.111243,
              28.492228
            ],
            [
              77.112744,
              28.492477
            ],
            [
              77.111995,
              28.493117
            ],
            [
              77.109995,
              28.491619
            ],
            [
              77.106995,
              28.495156
            ],
            [
              77.10405,
              28.493477
            ],
            [
              77.104914,
              28.491557
            ],
            [
              77.103162,
              28.490309
            ],
            [
              77.101995,
              28.491097
            ],
            [
              77.100995,
              28.490016
            ],
            [
              77.099995,
              28.490896
            ],
            [
              77.098995,
              28.489814
            ],
            [
              77.096854,
              28.489617
            ],
            [
              77.097741,
              28.488223
            ],
            [
              77.096995,
              28.486669
            ],
            [
              77.094887,
              28.487369
            ],
            [
              77.094754,
              28.488236
            ],
            [
              77.092928,
              28.48841
            ],
            [
              77.092861,
              28.489343
            ],
            [
              77.09098,
              28.489462
            ],
            [
              77.091336,
              28.490135
            ],
            [
              77.09319,
              28.490477
            ],
            [
              77.09343,
              28.494041
            ],
            [
              77.09542,
              28.496051
            ],
            [
              77.096795,
              28.496277
            ],
            [
              77.096995,
              28.495713
            ],
            [
              77.097147,
              28.497477
            ],
            [
              77.094344,
              28.497826
            ],
            [
              77.093995,
              28.498524
            ],
            [
              77.090548,
              28.49803
            ],
            [
              77.090315,
              28.499477
            ],
            [
              77.092272,
              28.501477
            ],
            [
              77.092251,
              28.502733
            ],
            [
              77.090526,
              28.503008
            ],
            [
              77.088995,
              28.505049
            ]
          ]
        ],
        "type": "Polygon"
      },
      "type": "Feature"
    }
  ]
}