{
  "type": "FeatureCollection",
  "metadata": {
    "provider_name": "Spicy Shawarma",
    "center_lat": 17.44604859,
    "center_lon": 78.39236907,
    "mode": "motorcycle",
    "total_zones": 4,
    "distance_zones": [
      3,
      4,
      5,
      6
    ],
    "generated_at": "2025-12-30T06:54:55.301390Z"
  },
  "features": [
    {
      "properties": {
        "fill-opacity": 0.33,
        "fillColor": "#bf4040",
        "opacity": 0.33,
        "fill": "#bf4040",
        "fillOpacity": 0.33,
        "color": "#bf4040",
        "contour": 3.0,
        "metric": "distance",
        "provider_name": "Spicy Shawarma",
        "zone_type": "distance",
        "distance_km": 3,
        "mode": "motorcycle",
        "center_lat": 17.44604859,
        "center_lon": 78.39236907,
        "label": "3km"
      },
      "geometry": {
        "coordinates": [
          [
            [
              78.398369,
              17.468239
            ],
            [
              78.397127,
              17.46729
            ],
            [
              78.397934,
              17.466048
            ],
            [
              78.397731,
              17.463686
            ],
            [
              78.392369,
              17.463262
            ],
            [
              78.391369,
              17.462288
            ],
            [
              78.38754,
              17.462219
            ],
            [
              78.38739,
              17.463069
            ],
            [
              78.386776,
              17.463048
            ],
            [
              78.387307,
              17.462986
            ],
            [
              78.387289,
              17.462048
            ],
            [
              78.388227,
              17.461048
            ],
            [
              78.386899,
              17.460048
            ],
            [
              78.387861,
              17.459048
            ],
            [
              78.387369,
              17.458573
            ],
            [
              78.385674,
              17.460048
            ],
            [
              78.385623,
              17.462794
            ],
            [
              78.386242,
              17.463048
            ],
            [
              78.385369,
              17.464467
            ],
            [
              78.385004,
              17.463412
            ],
            [
              78.383345,
              17.463048
            ],
            [
              78.382369,
              17.462222
            ],
            [
              78.382369,
              17.460924
            ],
            [
              78.381385,
              17.461065
            ],
            [
              78.381212,
              17.460205
            ],
            [
              78.380302,
              17.460048
            ],
            [
              78.381244,
              17.459924
            ],
            [
              78.380979,
              17.457048
            ],
            [
              78.379369,
              17.454392
            ],
            [
              78.377648,
              17.456048
            ],
            [
              78.377439,
              17.460119
            ],
            [
              78.37649,
              17.460169
            ],
            [
              78.376369,
              17.460786
            ],
            [
              78.376286,
              17.460048
            ],
            [
              78.377189,
              17.459869
            ],
            [
              78.376852,
              17.457565
            ],
            [
              78.374669,
              17.457348
            ],
            [
              78.374369,
              17.458023
            ],
            [
              78.372845,
              17.458048
            ],
            [
              78.372313,
              17.454992
            ],
            [
              78.375044,
              17.454724
            ],
            [
              78.376203,
              17.450883
            ],
            [
              78.377369,
              17.4508
            ],
            [
              78.377981,
              17.452436
            ],
            [
              78.37888,
              17.452048
            ],
            [
              78.379026,
              17.449048
            ],
            [
              78.377069,
              17.447048
            ],
            [
              78.377186,
              17.440865
            ],
            [
              78.378039,
              17.439718
            ],
            [
              78.380152,
              17.438832
            ],
            [
              78.381369,
              17.439677
            ],
            [
              78.382369,
              17.438668
            ],
            [
              78.385369,
              17.438553
            ],
            [
              78.387876,
              17.436048
            ],
            [
              78.387949,
              17.433048
            ],
            [
              78.387369,
              17.432361
            ],
            [
              78.383612,
              17.434291
            ],
            [
              78.382369,
              17.436068
            ],
            [
              78.381742,
              17.435675
            ],
            [
              78.382138,
              17.433048
            ],
            [
              78.383562,
              17.431048
            ],
            [
              78.382323,
              17.430093
            ],
            [
              78.382316,
              17.429048
            ],
            [
              78.383369,
              17.428368
            ],
            [
              78.383662,
              17.429755
            ],
            [
              78.385929,
              17.431487
            ],
            [
              78.387369,
              17.430605
            ],
            [
              78.38904,
              17.431048
            ],
            [
              78.389369,
              17.435493
            ],
            [
              78.390702,
              17.435381
            ],
            [
              78.391717,
              17.434397
            ],
            [
              78.392369,
              17.432136
            ],
            [
              78.394369,
              17.433524
            ],
            [
              78.395458,
              17.433048
            ],
            [
              78.395369,
              17.431631
            ],
            [
              78.398369,
              17.432291
            ],
            [
              78.401212,
              17.429892
            ],
            [
              78.403068,
              17.429748
            ],
            [
              78.403406,
              17.429011
            ],
            [
              78.404981,
              17.429436
            ],
            [
              78.404907,
              17.43151
            ],
            [
              78.406369,
              17.432158
            ],
            [
              78.407035,
              17.430715
            ],
            [
              78.408369,
              17.429914
            ],
            [
              78.409724,
              17.430048
            ],
            [
              78.409184,
              17.433048
            ],
            [
              78.410382,
              17.435048
            ],
            [
              78.409786,
              17.436048
            ],
            [
              78.406855,
              17.435535
            ],
            [
              78.406758,
              17.436659
            ],
            [
              78.408003,
              17.438048
            ],
            [
              78.407418,
              17.439098
            ],
            [
              78.405433,
              17.440112
            ],
            [
              78.405231,
              17.440911
            ],
            [
              78.402061,
              17.441741
            ],
            [
              78.401921,
              17.443048
            ],
            [
              78.402857,
              17.444048
            ],
            [
              78.403369,
              17.447613
            ],
            [
              78.404369,
              17.446683
            ],
            [
              78.405747,
              17.447426
            ],
            [
              78.406369,
              17.444725
            ],
            [
              78.408369,
              17.444863
            ],
            [
              78.40864,
              17.445777
            ],
            [
              78.41196,
              17.446048
            ],
            [
              78.414486,
              17.449048
            ],
            [
              78.414216,
              17.453048
            ],
            [
              78.413052,
              17.456048
            ],
            [
              78.410276,
              17.457956
            ],
            [
              78.408369,
              17.458099
            ],
            [
              78.406369,
              17.456771
            ],
            [
              78.405029,
              17.458708
            ],
            [
              78.403461,
              17.459141
            ],
            [
              78.403396,
              17.460076
            ],
            [
              78.400866,
              17.460546
            ],
            [
              78.398753,
              17.463048
            ],
            [
              78.398369,
              17.468239
            ]
          ]
        ],
        "type": "Polygon"
      },
      "type": "Feature"
    },
    {
      "properties": {
        "fill-opacity": 0.33,
        "fillColor": "#bf4040",
        "opacity": 0.33,
        "fill": "#bf4040",
        "fillOpacity": 0.33,
        "color": "#bf4040",
        "contour": 4.0,
        "metric": "distance",
        "provider_name": "Spicy Shawarma",
        "zone_type": "distance",
        "distance_km": 4,
        "mode": "motorcycle",
        "center_lat": 17.44604859,
        "center_lon": 78.39236907,
        "label": "4km"
      },
      "geometry": {
        "coordinates": [
          [
            [
              78.387369,
              17.473132
            ],
            [
              78.386854,
              17.470563
            ],
            [
              78.385369,
              17.468774
            ],
            [
              78.384522,
              17.471202
            ],
            [
              78.381902,
              17.472048
            ],
            [
              78.381766,
              17.471048
            ],
            [
              78.383047,
              17.470726
            ],
            [
              78.383833,
              17.468584
            ],
            [
              78.378306,
              17.468111
            ],
            [
              78.376579,
              17.466048
            ],
            [
              78.377227,
              17.465048
            ],
            [
              78.376675,
              17.464742
            ],
            [
              78.376124,
              17.465048
            ],
            [
              78.376103,
              17.467314
            ],
            [
              78.376786,
              17.468048
            ],
            [
              78.376369,
              17.469342
            ],
            [
              78.371532,
              17.466048
            ],
            [
              78.370737,
              17.465048
            ],
            [
              78.373369,
              17.464799
            ],
            [
              78.374058,
              17.464048
            ],
            [
              78.372172,
              17.463048
            ],
            [
              78.372002,
              17.461048
            ],
            [
              78.373205,
              17.459048
            ],
            [
              78.367369,
              17.459208
            ],
            [
              78.366369,
              17.461282
            ],
            [
              78.364199,
              17.460048
            ],
            [
              78.365147,
              17.458048
            ],
            [
              78.364757,
              17.456437
            ],
            [
              78.366801,
              17.455048
            ],
            [
              78.366381,
              17.45306
            ],
            [
              78.368369,
              17.451531
            ],
            [
              78.369369,
              17.452298
            ],
            [
              78.372429,
              17.449987
            ],
            [
              78.373197,
              17.454048
            ],
            [
              78.374369,
              17.454527
            ],
            [
              78.375648,
              17.453327
            ],
            [
              78.375897,
              17.450576
            ],
            [
              78.377793,
              17.450624
            ],
            [
              78.378123,
              17.452293
            ],
            [
              78.378707,
              17.452048
            ],
            [
              78.378548,
              17.448869
            ],
            [
              78.373916,
              17.444048
            ],
            [
              78.373575,
              17.441048
            ],
            [
              78.375995,
              17.439048
            ],
            [
              78.373838,
              17.437048
            ],
            [
              78.373701,
              17.435048
            ],
            [
              78.374369,
              17.433948
            ],
            [
              78.376369,
              17.434823
            ],
            [
              78.377904,
              17.433583
            ],
            [
              78.377984,
              17.430433
            ],
            [
              78.376254,
              17.430048
            ],
            [
              78.377972,
              17.429652
            ],
            [
              78.378326,
              17.428048
            ],
            [
              78.379347,
              17.428027
            ],
            [
              78.380146,
              17.425826
            ],
            [
              78.382369,
              17.425844
            ],
            [
              78.383995,
              17.427421
            ],
            [
              78.385664,
              17.427753
            ],
            [
              78.385664,
              17.428343
            ],
            [
              78.383899,
              17.429048
            ],
            [
              78.386104,
              17.431313
            ],
            [
              78.388369,
              17.430392
            ],
            [
              78.391369,
              17.431594
            ],
            [
              78.392369,
              17.430101
            ],
            [
              78.394988,
              17.429667
            ],
            [
              78.395369,
              17.427915
            ],
            [
              78.397369,
              17.427661
            ],
            [
              78.398369,
              17.428761
            ],
            [
              78.399369,
              17.426588
            ],
            [
              78.401174,
              17.425854
            ],
            [
              78.40161,
              17.426807
            ],
            [
              78.404369,
              17.426688
            ],
            [
              78.406369,
              17.424833
            ],
            [
              78.407856,
              17.425535
            ],
            [
              78.410369,
              17.42321
            ],
            [
              78.410864,
              17.425048
            ],
            [
              78.410141,
              17.427048
            ],
            [
              78.41082,
              17.429048
            ],
            [
              78.413838,
              17.428518
            ],
            [
              78.415369,
              17.426886
            ],
            [
              78.416457,
              17.42696
            ],
            [
              78.417273,
              17.429048
            ],
            [
              78.416559,
              17.430048
            ],
            [
              78.417241,
              17.431048
            ],
            [
              78.414965,
              17.432048
            ],
            [
              78.416369,
              17.432626
            ],
            [
              78.417369,
              17.431287
            ],
            [
              78.418369,
              17.432014
            ],
            [
              78.418681,
              17.435048
            ],
            [
              78.415682,
              17.439048
            ],
            [
              78.415369,
              17.441194
            ],
            [
              78.414369,
              17.441478
            ],
            [
              78.412687,
              17.440729
            ],
            [
              78.412369,
              17.43988
            ],
            [
              78.410108,
              17.440788
            ],
            [
              78.410567,
              17.444247
            ],
            [
              78.409369,
              17.444241
            ],
            [
              78.40895,
              17.445048
            ],
            [
              78.410369,
              17.44545
            ],
            [
              78.410935,
              17.444615
            ],
            [
              78.412369,
              17.444435
            ],
            [
              78.413369,
              17.445666
            ],
            [
              78.415369,
              17.445677
            ],
            [
              78.418369,
              17.442812
            ],
            [
              78.421104,
              17.444048
            ],
            [
              78.422073,
              17.445048
            ],
            [
              78.420759,
              17.448048
            ],
            [
              78.419369,
              17.448497
            ],
            [
              78.419037,
              17.449379
            ],
            [
              78.423264,
              17.454048
            ],
            [
              78.420965,
              17.456048
            ],
            [
              78.421388,
              17.458029
            ],
            [
              78.420701,
              17.45838
            ],
            [
              78.417132,
              17.458285
            ],
            [
              78.415826,
              17.456591
            ],
            [
              78.414988,
              17.456668
            ],
            [
              78.41687,
              17.459547
            ],
            [
              78.418403,
              17.460048
            ],
            [
              78.415921,
              17.4616
            ],
            [
              78.415036,
              17.463048
            ],
            [
              78.411362,
              17.463054
            ],
            [
              78.411266,
              17.46215
            ],
            [
              78.409369,
              17.461404
            ],
            [
              78.409183,
              17.459863
            ],
            [
              78.410188,
              17.459048
            ],
            [
              78.409369,
              17.458558
            ],
            [
              78.408757,
              17.459436
            ],
            [
              78.404369,
              17.459654
            ],
            [
              78.403369,
              17.460739
            ],
            [
              78.401265,
              17.460944
            ],
            [
              78.399369,
              17.463185
            ],
            [
              78.399369,
              17.465263
            ],
            [
              78.403369,
              17.466765
            ],
            [
              78.401764,
              17.467443
            ],
            [
              78.401893,
              17.468524
            ],
            [
              78.404912,
              17.469048
            ],
            [
              78.401888,
              17.469567
            ],
            [
              78.401369,
              17.472612
            ],
            [
              78.400369,
              17.472648
            ],
            [
              78.400337,
              17.472017
            ],
            [
              78.401214,
              17.471894
            ],
            [
              78.401124,
              17.470048
            ],
            [
              78.399369,
              17.468458
            ],
            [
              78.398369,
              17.469467
            ],
            [
              78.393918,
              17.469597
            ],
            [
              78.392704,
              17.470384
            ],
            [
              78.392369,
              17.471985
            ],
            [
              78.389369,
              17.470814
            ],
            [
              78.389265,
              17.469945
            ],
            [
              78.390978,
              17.469658
            ],
            [
              78.391168,
              17.468848
            ],
            [
              78.393021,
              17.468048
            ],
            [
              78.392369,
              17.467179
            ],
            [
              78.390369,
              17.46718
            ],
            [
              78.39033,
              17.467048
            ],
            [
              78.391165,
              17.466844
            ],
            [
              78.391369,
              17.465288
            ],
            [
              78.394188,
              17.464048
            ],
            [
              78.391369,
              17.462893
            ],
            [
              78.388053,
              17.462733
            ],
            [
              78.387417,
              17.464097
            ],
            [
              78.385852,
              17.465048
            ],
            [
              78.386795,
              17.466048
            ],
            [
              78.386892,
              17.470525
            ],
            [
              78.388129,
              17.471048
            ],
            [
              78.387369,
              17.473132
            ]
          ]
        ],
        "type": "Polygon"
      },
      "type": "Feature"
    },
    {
      "properties": {
        "fill-opacity": 0.33,
        "fillColor": "#bf4040",
        "opacity": 0.33,
        "fill": "#bf4040",
        "fillOpacity": 0.33,
        "color": "#bf4040",
        "contour": 5.0,
        "metric": "distance",
        "provider_name": "Spicy Shawarma",
        "zone_type": "distance",
        "distance_km": 5,
        "mode": "motorcycle",
        "center_lat": 17.44604859,
        "center_lon": 78.39236907,
        "label": "5km"
      },
      "geometry": {
        "coordinates": [
          [
            [
              78.389369,
              17.481455
            ],
            [
              78.388709,
              17.480048
            ],
            [
              78.390065,
              17.479744
            ],
            [
              78.389874,
              17.478543
            ],
            [
              78.38763,
              17.47831
            ],
            [
              78.387369,
              17.479179
            ],
            [
              78.386369,
              17.479063
            ],
            [
              78.386205,
              17.478212
            ],
            [
              78.383369,
              17.47752
            ],
            [
              78.382369,
              17.475431
            ],
            [
              78.377967,
              17.476647
            ],
            [
              78.376083,
              17.478048
            ],
            [
              78.375685,
              17.476048
            ],
            [
              78.376267,
              17.475946
            ],
            [
              78.376586,
              17.473831
            ],
            [
              78.373149,
              17.472268
            ],
            [
              78.371369,
              17.469875
            ],
            [
              78.370517,
              17.471048
            ],
            [
              78.370939,
              17.472048
            ],
            [
              78.370335,
              17.472081
            ],
            [
              78.370194,
              17.469048
            ],
            [
              78.37083,
              17.467586
            ],
            [
              78.367738,
              17.467418
            ],
            [
              78.365369,
              17.469827
            ],
            [
              78.365369,
              17.467798
            ],
            [
              78.364369,
              17.468312
            ],
            [
              78.362184,
              17.466233
            ],
            [
              78.361015,
              17.466048
            ],
            [
              78.360884,
              17.465048
            ],
            [
              78.361796,
              17.464048
            ],
            [
              78.360258,
              17.462048
            ],
            [
              78.362782,
              17.460462
            ],
            [
              78.362842,
              17.457575
            ],
            [
              78.360369,
              17.457336
            ],
            [
              78.359369,
              17.458257
            ],
            [
              78.357574,
              17.458253
            ],
            [
              78.357325,
              17.459092
            ],
            [
              78.35727,
              17.458048
            ],
            [
              78.358891,
              17.457571
            ],
            [
              78.359302,
              17.454982
            ],
            [
              78.360289,
              17.453968
            ],
            [
              78.36291,
              17.45359
            ],
            [
              78.363369,
              17.447801
            ],
            [
              78.365369,
              17.448602
            ],
            [
              78.365725,
              17.449692
            ],
            [
              78.367093,
              17.449773
            ],
            [
              78.368047,
              17.448726
            ],
            [
              78.368588,
              17.446048
            ],
            [
              78.37004,
              17.44572
            ],
            [
              78.370069,
              17.444048
            ],
            [
              78.369369,
              17.443378
            ],
            [
              78.367869,
              17.443549
            ],
            [
              78.366369,
              17.445496
            ],
            [
              78.365369,
              17.443953
            ],
            [
              78.367369,
              17.44177
            ],
            [
              78.368375,
              17.439055
            ],
            [
              78.370862,
              17.439542
            ],
            [
              78.369763,
              17.436442
            ],
            [
              78.371369,
              17.436651
            ],
            [
              78.371923,
              17.434603
            ],
            [
              78.37375,
              17.434048
            ],
            [
              78.373143,
              17.431273
            ],
            [
              78.372147,
              17.431048
            ],
            [
              78.372369,
              17.429503
            ],
            [
              78.373827,
              17.429506
            ],
            [
              78.378239,
              17.424919
            ],
            [
              78.382369,
              17.425491
            ],
            [
              78.384129,
              17.427287
            ],
            [
              78.385797,
              17.42762
            ],
            [
              78.385797,
              17.428476
            ],
            [
              78.384049,
              17.429048
            ],
            [
              78.386179,
              17.431238
            ],
            [
              78.388369,
              17.430304
            ],
            [
              78.391369,
              17.431401
            ],
            [
              78.392042,
              17.429721
            ],
            [
              78.394827,
              17.429048
            ],
            [
              78.394782,
              17.427635
            ],
            [
              78.392947,
              17.426048
            ],
            [
              78.392342,
              17.423022
            ],
            [
              78.394163,
              17.422843
            ],
            [
              78.394369,
              17.421878
            ],
            [
              78.395107,
              17.421787
            ],
            [
              78.397369,
              17.422445
            ],
            [
              78.398369,
              17.418181
            ],
            [
              78.398924,
              17.421048
            ],
            [
              78.400369,
              17.422134
            ],
            [
              78.401369,
              17.420943
            ],
            [
              78.403369,
              17.421222
            ],
            [
              78.405369,
              17.422632
            ],
            [
              78.407189,
              17.420868
            ],
            [
              78.41054,
              17.42022
            ],
            [
              78.411046,
              17.41837
            ],
            [
              78.410331,
              17.41601
            ],
            [
              78.412204,
              17.416213
            ],
            [
              78.413369,
              17.417512
            ],
            [
              78.416029,
              17.417048
            ],
            [
              78.411957,
              17.420636
            ],
            [
              78.412012,
              17.422404
            ],
            [
              78.414864,
              17.425552
            ],
            [
              78.421819,
              17.426048
            ],
            [
              78.424369,
              17.428968
            ],
            [
              78.425369,
              17.428841
            ],
            [
              78.426541,
              17.430048
            ],
            [
              78.425382,
              17.433061
            ],
            [
              78.425634,
              17.435782
            ],
            [
              78.426304,
              17.436048
            ],
            [
              78.42371,
              17.436389
            ],
            [
              78.422455,
              17.439135
            ],
            [
              78.420775,
              17.439455
            ],
            [
              78.419603,
              17.441048
            ],
            [
              78.420369,
              17.441757
            ],
            [
              78.422574,
              17.441843
            ],
            [
              78.42291,
              17.443506
            ],
            [
              78.424383,
              17.444062
            ],
            [
              78.423943,
              17.446474
            ],
            [
              78.427369,
              17.44777
            ],
            [
              78.428946,
              17.451048
            ],
            [
              78.431619,
              17.452798
            ],
            [
              78.432369,
              17.454293
            ],
            [
              78.43156,
              17.45524
            ],
            [
              78.429871,
              17.45555
            ],
            [
              78.430417,
              17.458048
            ],
            [
              78.428467,
              17.459147
            ],
            [
              78.428369,
              17.460124
            ],
            [
              78.426074,
              17.462048
            ],
            [
              78.424521,
              17.462201
            ],
            [
              78.42438,
              17.46306
            ],
            [
              78.42254,
              17.46322
            ],
            [
              78.422413,
              17.465092
            ],
            [
              78.421456,
              17.466135
            ],
            [
              78.419369,
              17.466074
            ],
            [
              78.418369,
              17.467232
            ],
            [
              78.417952,
              17.466465
            ],
            [
              78.416145,
              17.466271
            ],
            [
              78.416062,
              17.465048
            ],
            [
              78.416991,
              17.464048
            ],
            [
              78.416369,
              17.462463
            ],
            [
              78.415369,
              17.463533
            ],
            [
              78.411369,
              17.463658
            ],
            [
              78.410369,
              17.462712
            ],
            [
              78.408848,
              17.462569
            ],
            [
              78.408203,
              17.460048
            ],
            [
              78.405369,
              17.46388
            ],
            [
              78.404369,
              17.463922
            ],
            [
              78.40385,
              17.461567
            ],
            [
              78.401369,
              17.461473
            ],
            [
              78.400721,
              17.464048
            ],
            [
              78.402369,
              17.465553
            ],
            [
              78.405646,
              17.465771
            ],
            [
              78.405779,
              17.467048
            ],
            [
              78.406873,
              17.468048
            ],
            [
              78.406078,
              17.469338
            ],
            [
              78.409369,
              17.469395
            ],
            [
              78.413369,
              17.467683
            ],
            [
              78.414962,
              17.469048
            ],
            [
              78.412758,
              17.469437
            ],
            [
              78.412369,
              17.472574
            ],
            [
              78.409895,
              17.471048
            ],
            [
              78.404369,
              17.470418
            ],
            [
              78.404026,
              17.471391
            ],
            [
              78.405932,
              17.472048
            ],
            [
              78.402993,
              17.472672
            ],
            [
              78.402369,
              17.475361
            ],
            [
              78.401369,
              17.474487
            ],
            [
              78.399369,
              17.475454
            ],
            [
              78.398746,
              17.473671
            ],
            [
              78.397964,
              17.473644
            ],
            [
              78.397369,
              17.479033
            ],
            [
              78.397066,
              17.471048
            ],
            [
              78.39757,
              17.470847
            ],
            [
              78.397963,
              17.472454
            ],
            [
              78.399369,
              17.472587
            ],
            [
              78.400685,
              17.471365
            ],
            [
              78.400799,
              17.470048
            ],
            [
              78.399369,
              17.468677
            ],
            [
              78.398369,
              17.469681
            ],
            [
              78.3941,
              17.469779
            ],
            [
              78.392893,
              17.471048
            ],
            [
              78.395674,
              17.476048
            ],
            [
              78.395544,
              17.478224
            ],
            [
              78.394369,
              17.4803
            ],
            [
              78.393369,
              17.479956
            ],
            [
              78.392454,
              17.479048
            ],
            [
              78.393178,
              17.478858
            ],
            [
              78.393127,
              17.47629
            ],
            [
              78.390862,
              17.476541
            ],
            [
              78.39049,
              17.480169
            ],
            [
              78.3896,
              17.48028
            ],
            [
              78.389369,
              17.481455
            ]
          ]
        ],
        "type": "Polygon"
      },
      "type": "Feature"
    },
    {
      "properties": {
        "fill-opacity": 0.33,
        "fillColor": "#bf4040",
        "opacity": 0.33,
        "fill": "#bf4040",
        "fillOpacity": 0.33,
        "color": "#bf4040",
        "contour": 6.0,
        "metric": "distance",
        "provider_name": "Spicy Shawarma",
        "zone_type": "distance",
        "distance_km": 6,
        "mode": "motorcycle",
        "center_lat": 17.44604859,
        "center_lon": 78.39236907,
        "label": "6km"
      },
      "geometry": {
        "coordinates": [
          [
            [
              78.392369,
              17.489853
            ],
            [
              78.388369,
              17.48785
            ],
            [
              78.387369,
              17.488397
            ],
            [
              78.386525,
              17.486892
            ],
            [
              78.385369,
              17.487523
            ],
            [
              78.384303,
              17.487048
            ],
            [
              78.384092,
              17.485048
            ],
            [
              78.386058,
              17.483048
            ],
            [
              78.388887,
              17.482048
            ],
            [
              78.387103,
              17.481314
            ],
            [
              78.38671,
              17.479707
            ],
            [
              78.385369,
              17.478575
            ],
            [
              78.381369,
              17.480638
            ],
            [
              78.380096,
              17.479775
            ],
            [
              78.380369,
              17.482501
            ],
            [
              78.378649,
              17.482048
            ],
            [
              78.377675,
              17.481048
            ],
            [
              78.378039,
              17.480048
            ],
            [
              78.377369,
              17.479905
            ],
            [
              78.376369,
              17.482144
            ],
            [
              78.37439,
              17.481027
            ],
            [
              78.374103,
              17.481782
            ],
            [
              78.370369,
              17.481418
            ],
            [
              78.370145,
              17.480272
            ],
            [
              78.369065,
              17.480048
            ],
            [
              78.370369,
              17.478998
            ],
            [
              78.370777,
              17.48064
            ],
            [
              78.371835,
              17.480514
            ],
            [
              78.372144,
              17.477823
            ],
            [
              78.373669,
              17.477349
            ],
            [
              78.375616,
              17.475296
            ],
            [
              78.375369,
              17.474633
            ],
            [
              78.372369,
              17.474725
            ],
            [
              78.371369,
              17.473522
            ],
            [
              78.369928,
              17.474608
            ],
            [
              78.368369,
              17.473273
            ],
            [
              78.365369,
              17.473557
            ],
            [
              78.364083,
              17.475048
            ],
            [
              78.364183,
              17.477048
            ],
            [
              78.36218,
              17.478048
            ],
            [
              78.359349,
              17.474068
            ],
            [
              78.358848,
              17.472048
            ],
            [
              78.356834,
              17.470048
            ],
            [
              78.358459,
              17.468048
            ],
            [
              78.358293,
              17.467048
            ],
            [
              78.353096,
              17.466048
            ],
            [
              78.353369,
              17.46481
            ],
            [
              78.354369,
              17.465738
            ],
            [
              78.357763,
              17.465442
            ],
            [
              78.357784,
              17.464632
            ],
            [
              78.356174,
              17.464048
            ],
            [
              78.358135,
              17.462048
            ],
            [
              78.357831,
              17.460585
            ],
            [
              78.354096,
              17.460776
            ],
            [
              78.352369,
              17.462638
            ],
            [
              78.350369,
              17.463447
            ],
            [
              78.34863,
              17.463048
            ],
            [
              78.349236,
              17.462916
            ],
            [
              78.350453,
              17.457048
            ],
            [
              78.352034,
              17.456714
            ],
            [
              78.352369,
              17.454503
            ],
            [
              78.352645,
              17.455772
            ],
            [
              78.353369,
              17.455839
            ],
            [
              78.356027,
              17.453707
            ],
            [
              78.358369,
              17.453564
            ],
            [
              78.359369,
              17.45453
            ],
            [
              78.360369,
              17.453516
            ],
            [
              78.362551,
              17.45323
            ],
            [
              78.362369,
              17.448304
            ],
            [
              78.360769,
              17.444048
            ],
            [
              78.361322,
              17.440002
            ],
            [
              78.363369,
              17.439072
            ],
            [
              78.364369,
              17.440056
            ],
            [
              78.364414,
              17.439048
            ],
            [
              78.363369,
              17.43904
            ],
            [
              78.362156,
              17.437048
            ],
            [
              78.362177,
              17.43524
            ],
            [
              78.361369,
              17.434972
            ],
            [
              78.362422,
              17.434995
            ],
            [
              78.364232,
              17.437184
            ],
            [
              78.365299,
              17.436048
            ],
            [
              78.365615,
              17.428048
            ],
            [
              78.366443,
              17.427974
            ],
            [
              78.368369,
              17.429749
            ],
            [
              78.369369,
              17.428715
            ],
            [
              78.371689,
              17.428369
            ],
            [
              78.371822,
              17.427048
            ],
            [
              78.370997,
              17.426048
            ],
            [
              78.371105,
              17.421048
            ],
            [
              78.372164,
              17.421048
            ],
            [
              78.371445,
              17.421125
            ],
            [
              78.371708,
              17.425048
            ],
            [
              78.373369,
              17.425809
            ],
            [
              78.374369,
              17.425794
            ],
            [
              78.376369,
              17.423899
            ],
            [
              78.377369,
              17.425717
            ],
            [
              78.380189,
              17.422869
            ],
            [
              78.384055,
              17.421735
            ],
            [
              78.384369,
              17.420925
            ],
            [
              78.38521,
              17.421048
            ],
            [
              78.384523,
              17.421203
            ],
            [
              78.384439,
              17.422118
            ],
            [
              78.382844,
              17.422524
            ],
            [
              78.381595,
              17.424275
            ],
            [
              78.379809,
              17.425048
            ],
            [
              78.382369,
              17.425355
            ],
            [
              78.384193,
              17.427224
            ],
            [
              78.38586,
              17.427557
            ],
            [
              78.38586,
              17.428539
            ],
            [
              78.384126,
              17.429048
            ],
            [
              78.386221,
              17.431196
            ],
            [
              78.388369,
              17.430252
            ],
            [
              78.391369,
              17.431309
            ],
            [
              78.391927,
              17.429606
            ],
            [
              78.394683,
              17.429048
            ],
            [
              78.394624,
              17.427793
            ],
            [
              78.393044,
              17.427372
            ],
            [
              78.390897,
              17.424048
            ],
            [
              78.391896,
              17.422575
            ],
            [
              78.393862,
              17.422048
            ],
            [
              78.394167,
              17.419048
            ],
            [
              78.394991,
              17.418048
            ],
            [
              78.393631,
              17.416048
            ],
            [
              78.394337,
              17.413017
            ],
            [
              78.395185,
              17.413048
            ],
            [
              78.395369,
              17.414357
            ],
            [
              78.397369,
              17.414718
            ],
            [
              78.397947,
              17.413627
            ],
            [
              78.399605,
              17.413812
            ],
            [
              78.400369,
              17.416624
            ],
            [
              78.401369,
              17.415707
            ],
            [
              78.402983,
              17.415663
            ],
            [
              78.403867,
              17.413048
            ],
            [
              78.403369,
              17.411792
            ],
            [
              78.405369,
              17.411469
            ],
            [
              78.406212,
              17.409891
            ],
            [
              78.412369,
              17.408877
            ],
            [
              78.414713,
              17.411703
            ],
            [
              78.418239,
              17.413048
            ],
            [
              78.419398,
              17.415048
            ],
            [
              78.42051,
              17.415189
            ],
            [
              78.422236,
              17.413915
            ],
            [
              78.424148,
              17.414048
            ],
            [
              78.422546,
              17.414225
            ],
            [
              78.421369,
              17.416329
            ],
            [
              78.419369,
              17.416428
            ],
            [
              78.418369,
              17.417477
            ],
            [
              78.416369,
              17.417541
            ],
            [
              78.414076,
              17.418756
            ],
            [
              78.412114,
              17.420794
            ],
            [
              78.412136,
              17.42228
            ],
            [
              78.415083,
              17.425334
            ],
            [
              78.418369,
              17.425417
            ],
            [
              78.419369,
              17.424561
            ],
            [
              78.421369,
              17.424595
            ],
            [
              78.422369,
              17.423656
            ],
            [
              78.427095,
              17.422774
            ],
            [
              78.427322,
              17.422001
            ],
            [
              78.428369,
              17.421898
            ],
            [
              78.428657,
              17.424048
            ],
            [
              78.427902,
              17.426048
            ],
            [
              78.430369,
              17.42594
            ],
            [
              78.432369,
              17.428257
            ],
            [
              78.434588,
              17.428048
            ],
            [
              78.435763,
              17.430048
            ],
            [
              78.433943,
              17.431623
            ],
            [
              78.430507,
              17.437186
            ],
            [
              78.427982,
              17.437661
            ],
            [
              78.426369,
              17.43908
            ],
            [
              78.425947,
              17.437048
            ],
            [
              78.424369,
              17.436897
            ],
            [
              78.423088,
              17.437767
            ],
            [
              78.422894,
              17.439573
            ],
            [
              78.421369,
              17.439691
            ],
            [
              78.42017,
              17.441247
            ],
            [
              78.422903,
              17.441513
            ],
            [
              78.423159,
              17.443258
            ],
            [
              78.424742,
              17.443675
            ],
            [
              78.425369,
              17.444771
            ],
            [
              78.428369,
              17.44373
            ],
            [
              78.42961,
              17.445048
            ],
            [
              78.429839,
              17.446577
            ],
            [
              78.432369,
              17.447785
            ],
            [
              78.436083,
              17.447763
            ],
            [
              78.436369,
              17.44709
            ],
            [
              78.436479,
              17.447938
            ],
            [
              78.438101,
              17.448048
            ],
            [
              78.436369,
              17.448202
            ],
            [
              78.435369,
              17.449429
            ],
            [
              78.432832,
              17.450048
            ],
            [
              78.433071,
              17.452346
            ],
            [
              78.435369,
              17.452463
            ],
            [
              78.436007,
              17.453687
            ],
            [
              78.435059,
              17.455048
            ],
            [
              78.435381,
              17.457048
            ],
            [
              78.433409,
              17.459088
            ],
            [
              78.433444,
              17.462124
            ],
            [
              78.430663,
              17.463342
            ],
            [
              78.430301,
              17.465116
            ],
            [
              78.429578,
              17.465048
            ],
            [
              78.430301,
              17.464981
            ],
            [
              78.430221,
              17.463048
            ],
            [
              78.430077,
              17.461048
            ],
            [
              78.429369,
              17.460503
            ],
            [
              78.428694,
              17.461373
            ],
            [
              78.423053,
              17.463732
            ],
            [
              78.422998,
              17.465677
            ],
            [
              78.421908,
              17.467048
            ],
            [
              78.423807,
              17.46861
            ],
            [
              78.423905,
              17.470048
            ],
            [
              78.421369,
              17.473718
            ],
            [
              78.419019,
              17.474398
            ],
            [
              78.418159,
              17.473838
            ],
            [
              78.418846,
              17.475048
            ],
            [
              78.418369,
              17.476285
            ],
            [
              78.418259,
              17.475158
            ],
            [
              78.416751,
              17.47543
            ],
            [
              78.41676,
              17.480048
            ],
            [
              78.416369,
              17.480194
            ],
            [
              78.416207,
              17.47921
            ],
            [
              78.41526,
              17.479157
            ],
            [
              78.413369,
              17.477375
            ],
            [
              78.40922,
              17.477197
            ],
            [
              78.409117,
              17.475796
            ],
            [
              78.409992,
              17.475048
            ],
            [
              78.409369,
              17.474435
            ],
            [
              78.408615,
              17.475295
            ],
            [
              78.405565,
              17.475244
            ],
            [
              78.405298,
              17.476119
            ],
            [
              78.403369,
              17.47423
            ],
            [
              78.403246,
              17.475926
            ],
            [
              78.402369,
              17.475938
            ],
            [
              78.401369,
              17.474689
            ],
            [
              78.400369,
              17.475682
            ],
            [
              78.398951,
              17.475466
            ],
            [
              78.398369,
              17.473684
            ],
            [
              78.397999,
              17.480418
            ],
            [
              78.401717,
              17.480048
            ],
            [
              78.400369,
              17.481391
            ],
            [
              78.397369,
              17.481485
            ],
            [
              78.39678,
              17.471048
            ],
            [
              78.397761,
              17.470655
            ],
            [
              78.398116,
              17.4723
            ],
            [
              78.399369,
              17.472398
            ],
            [
              78.400583,
              17.471263
            ],
            [
              78.400669,
              17.470048
            ],
            [
              78.399369,
              17.468778
            ],
            [
              78.398369,
              17.469779
            ],
            [
              78.394177,
              17.469857
            ],
            [
              78.393046,
              17.471048
            ],
            [
              78.395959,
              17.476048
            ],
            [
              78.395756,
              17.480048
            ],
            [
              78.394109,
              17.482048
            ],
            [
              78.395339,
              17.483048
            ],
            [
              78.394262,
              17.484941
            ],
            [
              78.39248,
              17.48616
            ],
            [
              78.392369,
              17.489853
            ]
          ]
        ],
        "type": "Polygon"
      },
      "type": "Feature"
    }
  ]
}