{
  "type": "FeatureCollection",
  "metadata": {
    "provider_name": "The Broasted King",
    "center_lat": 17.3583748,
    "center_lon": 78.5182237,
    "mode": "motorcycle",
    "total_zones": 4,
    "distance_zones": [
      3,
      4,
      5,
      6
    ],
    "generated_at": "2025-12-26T09:35:52.039146Z"
  },
  "features": [
    {
      "properties": {
        "fill-opacity": 0.33,
        "fillColor": "#bf4040",
        "opacity": 0.33,
        "fill": "#bf4040",
        "fillOpacity": 0.33,
        "color": "#bf4040",
        "contour": 3.0,
        "metric": "distance",
        "provider_name": "The Broasted King",
        "zone_type": "distance",
        "distance_km": 3,
        "mode": "motorcycle",
        "center_lat": 17.3583748,
        "center_lon": 78.5182237,
        "label": "3km"
      },
      "geometry": {
        "coordinates": [
          [
            [
              78.522223,
              17.37646
            ],
            [
              78.519223,
              17.376575
            ],
            [
              78.518866,
              17.375732
            ],
            [
              78.516478,
              17.374629
            ],
            [
              78.515223,
              17.375692
            ],
            [
              78.514223,
              17.37561
            ],
            [
              78.509057,
              17.372374
            ],
            [
              78.509923,
              17.370374
            ],
            [
              78.509436,
              17.370162
            ],
            [
              78.508223,
              17.370115
            ],
            [
              78.507223,
              17.371055
            ],
            [
              78.504223,
              17.370792
            ],
            [
              78.503223,
              17.37175
            ],
            [
              78.502223,
              17.370588
            ],
            [
              78.50055,
              17.370701
            ],
            [
              78.499223,
              17.372081
            ],
            [
              78.498552,
              17.369374
            ],
            [
              78.500698,
              17.368849
            ],
            [
              78.500654,
              17.367944
            ],
            [
              78.498654,
              17.367805
            ],
            [
              78.497223,
              17.369582
            ],
            [
              78.493747,
              17.366851
            ],
            [
              78.495054,
              17.363374
            ],
            [
              78.493116,
              17.362374
            ],
            [
              78.492778,
              17.361374
            ],
            [
              78.494223,
              17.359819
            ],
            [
              78.497559,
              17.358374
            ],
            [
              78.4988,
              17.356374
            ],
            [
              78.501483,
              17.354634
            ],
            [
              78.501454,
              17.353144
            ],
            [
              78.499188,
              17.351374
            ],
            [
              78.498771,
              17.349374
            ],
            [
              78.501194,
              17.347345
            ],
            [
              78.503951,
              17.346102
            ],
            [
              78.504223,
              17.345356
            ],
            [
              78.506223,
              17.346335
            ],
            [
              78.508223,
              17.344196
            ],
            [
              78.509748,
              17.34585
            ],
            [
              78.511223,
              17.346157
            ],
            [
              78.512902,
              17.344053
            ],
            [
              78.514223,
              17.343961
            ],
            [
              78.514958,
              17.343109
            ],
            [
              78.519863,
              17.342015
            ],
            [
              78.520223,
              17.341231
            ],
            [
              78.523223,
              17.340922
            ],
            [
              78.525223,
              17.341947
            ],
            [
              78.527223,
              17.341835
            ],
            [
              78.529223,
              17.344005
            ],
            [
              78.533392,
              17.344206
            ],
            [
              78.534997,
              17.345601
            ],
            [
              78.538271,
              17.346326
            ],
            [
              78.540223,
              17.348232
            ],
            [
              78.543452,
              17.349374
            ],
            [
              78.541346,
              17.352374
            ],
            [
              78.541422,
              17.353176
            ],
            [
              78.542286,
              17.353374
            ],
            [
              78.543182,
              17.357374
            ],
            [
              78.541794,
              17.360374
            ],
            [
              78.540491,
              17.360643
            ],
            [
              78.54045,
              17.362147
            ],
            [
              78.541285,
              17.362374
            ],
            [
              78.540433,
              17.362584
            ],
            [
              78.540223,
              17.363843
            ],
            [
              78.537309,
              17.36546
            ],
            [
              78.537223,
              17.366505
            ],
            [
              78.536021,
              17.367374
            ],
            [
              78.53726,
              17.368374
            ],
            [
              78.535748,
              17.368899
            ],
            [
              78.535679,
              17.370374
            ],
            [
              78.532223,
              17.374017
            ],
            [
              78.531869,
              17.375374
            ],
            [
              78.528522,
              17.375374
            ],
            [
              78.527223,
              17.374584
            ],
            [
              78.526223,
              17.375404
            ],
            [
              78.523286,
              17.375437
            ],
            [
              78.522223,
              17.37646
            ]
          ]
        ],
        "type": "Polygon"
      },
      "type": "Feature"
    },
    {
      "properties": {
        "fill-opacity": 0.33,
        "fillColor": "#bf4040",
        "opacity": 0.33,
        "fill": "#bf4040",
        "fillOpacity": 0.33,
        "color": "#bf4040",
        "contour": 4.0,
        "metric": "distance",
        "provider_name": "The Broasted King",
        "zone_type": "distance",
        "distance_km": 4,
        "mode": "motorcycle",
        "center_lat": 17.3583748,
        "center_lon": 78.5182237,
        "label": "4km"
      },
      "geometry": {
        "coordinates": [
          [
            [
              78.513223,
              17.382454
            ],
            [
              78.51238,
              17.382374
            ],
            [
              78.512223,
              17.381289
            ],
            [
              78.510223,
              17.381434
            ],
            [
              78.510178,
              17.380374
            ],
            [
              78.511056,
              17.380207
            ],
            [
              78.511068,
              17.378374
            ],
            [
              78.508861,
              17.375737
            ],
            [
              78.505703,
              17.376374
            ],
            [
              78.504079,
              17.374519
            ],
            [
              78.500345,
              17.373496
            ],
            [
              78.49852,
              17.376671
            ],
            [
              78.497123,
              17.376474
            ],
            [
              78.497528,
              17.371069
            ],
            [
              78.495223,
              17.369858
            ],
            [
              78.491223,
              17.370573
            ],
            [
              78.490223,
              17.369588
            ],
            [
              78.484438,
              17.368374
            ],
            [
              78.486118,
              17.364374
            ],
            [
              78.483699,
              17.362374
            ],
            [
              78.483734,
              17.361374
            ],
            [
              78.486223,
              17.357943
            ],
            [
              78.487223,
              17.35793
            ],
            [
              78.487525,
              17.355374
            ],
            [
              78.490223,
              17.354021
            ],
            [
              78.491223,
              17.354765
            ],
            [
              78.492227,
              17.354374
            ],
            [
              78.490936,
              17.350662
            ],
            [
              78.490213,
              17.350374
            ],
            [
              78.4916,
              17.348751
            ],
            [
              78.491338,
              17.346374
            ],
            [
              78.492223,
              17.345351
            ],
            [
              78.494933,
              17.343084
            ],
            [
              78.498223,
              17.343059
            ],
            [
              78.500392,
              17.341543
            ],
            [
              78.500123,
              17.339274
            ],
            [
              78.501223,
              17.338571
            ],
            [
              78.502223,
              17.339718
            ],
            [
              78.503626,
              17.338971
            ],
            [
              78.508223,
              17.340107
            ],
            [
              78.509223,
              17.339211
            ],
            [
              78.512113,
              17.339374
            ],
            [
              78.510493,
              17.339644
            ],
            [
              78.510692,
              17.340906
            ],
            [
              78.51184,
              17.341757
            ],
            [
              78.517223,
              17.342437
            ],
            [
              78.517612,
              17.341763
            ],
            [
              78.519223,
              17.3416
            ],
            [
              78.520223,
              17.34069
            ],
            [
              78.522223,
              17.340756
            ],
            [
              78.523223,
              17.339889
            ],
            [
              78.527223,
              17.339984
            ],
            [
              78.528223,
              17.339345
            ],
            [
              78.529223,
              17.340175
            ],
            [
              78.531424,
              17.337173
            ],
            [
              78.535763,
              17.338374
            ],
            [
              78.538223,
              17.340844
            ],
            [
              78.540223,
              17.340433
            ],
            [
              78.542223,
              17.341602
            ],
            [
              78.543188,
              17.34341
            ],
            [
              78.545223,
              17.343848
            ],
            [
              78.547223,
              17.343316
            ],
            [
              78.547502,
              17.344095
            ],
            [
              78.549229,
              17.344368
            ],
            [
              78.549334,
              17.345264
            ],
            [
              78.550823,
              17.346374
            ],
            [
              78.550688,
              17.347374
            ],
            [
              78.548556,
              17.348707
            ],
            [
              78.547239,
              17.35139
            ],
            [
              78.546223,
              17.351419
            ],
            [
              78.546024,
              17.350573
            ],
            [
              78.543223,
              17.350876
            ],
            [
              78.541756,
              17.352374
            ],
            [
              78.543912,
              17.353374
            ],
            [
              78.542986,
              17.354611
            ],
            [
              78.545678,
              17.356374
            ],
            [
              78.544813,
              17.357374
            ],
            [
              78.544888,
              17.360374
            ],
            [
              78.544026,
              17.361374
            ],
            [
              78.544039,
              17.363374
            ],
            [
              78.545529,
              17.367374
            ],
            [
              78.544489,
              17.369374
            ],
            [
              78.544934,
              17.372374
            ],
            [
              78.544211,
              17.373362
            ],
            [
              78.542223,
              17.374127
            ],
            [
              78.538223,
              17.378613
            ],
            [
              78.535223,
              17.377271
            ],
            [
              78.528223,
              17.375868
            ],
            [
              78.527223,
              17.374933
            ],
            [
              78.526223,
              17.375882
            ],
            [
              78.524223,
              17.375911
            ],
            [
              78.523223,
              17.376853
            ],
            [
              78.521223,
              17.376888
            ],
            [
              78.517319,
              17.37847
            ],
            [
              78.513223,
              17.382454
            ]
          ]
        ],
        "type": "Polygon"
      },
      "type": "Feature"
    },
    {
      "properties": {
        "fill-opacity": 0.33,
        "fillColor": "#bf4040",
        "opacity": 0.33,
        "fill": "#bf4040",
        "fillOpacity": 0.33,
        "color": "#bf4040",
        "contour": 5.0,
        "metric": "distance",
        "provider_name": "The Broasted King",
        "zone_type": "distance",
        "distance_km": 5,
        "mode": "motorcycle",
        "center_lat": 17.3583748,
        "center_lon": 78.5182237,
        "label": "5km"
      },
      "geometry": {
        "coordinates": [
          [
            [
              78.506223,
              17.387586
            ],
            [
              78.505892,
              17.385705
            ],
            [
              78.504173,
              17.385374
            ],
            [
              78.504622,
              17.383374
            ],
            [
              78.509629,
              17.38278
            ],
            [
              78.509712,
              17.380374
            ],
            [
              78.510743,
              17.379374
            ],
            [
              78.510521,
              17.377077
            ],
            [
              78.508223,
              17.376025
            ],
            [
              78.507223,
              17.377031
            ],
            [
              78.505223,
              17.377186
            ],
            [
              78.503223,
              17.376332
            ],
            [
              78.502281,
              17.378374
            ],
            [
              78.501223,
              17.378651
            ],
            [
              78.496223,
              17.37685
            ],
            [
              78.495223,
              17.377765
            ],
            [
              78.492223,
              17.37771
            ],
            [
              78.491658,
              17.377374
            ],
            [
              78.49215,
              17.376374
            ],
            [
              78.49441,
              17.375374
            ],
            [
              78.493587,
              17.374374
            ],
            [
              78.494373,
              17.370374
            ],
            [
              78.494102,
              17.371253
            ],
            [
              78.492058,
              17.371209
            ],
            [
              78.490223,
              17.370084
            ],
            [
              78.488223,
              17.369902
            ],
            [
              78.486472,
              17.371623
            ],
            [
              78.485223,
              17.371702
            ],
            [
              78.482223,
              17.369705
            ],
            [
              78.481223,
              17.37062
            ],
            [
              78.480223,
              17.369618
            ],
            [
              78.477174,
              17.369374
            ],
            [
              78.479046,
              17.368197
            ],
            [
              78.479042,
              17.365374
            ],
            [
              78.479854,
              17.364374
            ],
            [
              78.478996,
              17.362602
            ],
            [
              78.477358,
              17.362509
            ],
            [
              78.477223,
              17.363443
            ],
            [
              78.477146,
              17.361451
            ],
            [
              78.475787,
              17.361374
            ],
            [
              78.479223,
              17.356953
            ],
            [
              78.479808,
              17.35779
            ],
            [
              78.481223,
              17.357842
            ],
            [
              78.481873,
              17.356024
            ],
            [
              78.483627,
              17.355374
            ],
            [
              78.488223,
              17.347957
            ],
            [
              78.488223,
              17.347222
            ],
            [
              78.485223,
              17.347342
            ],
            [
              78.485121,
              17.345272
            ],
            [
              78.485975,
              17.343374
            ],
            [
              78.487062,
              17.343213
            ],
            [
              78.487223,
              17.342322
            ],
            [
              78.489992,
              17.342143
            ],
            [
              78.490223,
              17.340841
            ],
            [
              78.493485,
              17.340374
            ],
            [
              78.494,
              17.338374
            ],
            [
              78.495071,
              17.337374
            ],
            [
              78.492812,
              17.333963
            ],
            [
              78.495462,
              17.333135
            ],
            [
              78.497223,
              17.334224
            ],
            [
              78.498223,
              17.333574
            ],
            [
              78.498571,
              17.335027
            ],
            [
              78.499939,
              17.335091
            ],
            [
              78.500553,
              17.333704
            ],
            [
              78.501474,
              17.333374
            ],
            [
              78.500223,
              17.331003
            ],
            [
              78.503223,
              17.331237
            ],
            [
              78.504305,
              17.332292
            ],
            [
              78.506938,
              17.33266
            ],
            [
              78.507099,
              17.333374
            ],
            [
              78.505517,
              17.333668
            ],
            [
              78.506223,
              17.335201
            ],
            [
              78.507697,
              17.334848
            ],
            [
              78.507643,
              17.332794
            ],
            [
              78.510223,
              17.332031
            ],
            [
              78.510126,
              17.333471
            ],
            [
              78.511223,
              17.333615
            ],
            [
              78.511328,
              17.335374
            ],
            [
              78.510332,
              17.336483
            ],
            [
              78.507936,
              17.336088
            ],
            [
              78.507427,
              17.337374
            ],
            [
              78.507898,
              17.337699
            ],
            [
              78.511223,
              17.338849
            ],
            [
              78.512223,
              17.337585
            ],
            [
              78.516223,
              17.337888
            ],
            [
              78.518223,
              17.33689
            ],
            [
              78.517462,
              17.338374
            ],
            [
              78.518223,
              17.339043
            ],
            [
              78.519901,
              17.339052
            ],
            [
              78.520223,
              17.338437
            ],
            [
              78.52073,
              17.339374
            ],
            [
              78.522223,
              17.339865
            ],
            [
              78.523223,
              17.339219
            ],
            [
              78.527223,
              17.339511
            ],
            [
              78.528223,
              17.338646
            ],
            [
              78.529223,
              17.339819
            ],
            [
              78.529646,
              17.338951
            ],
            [
              78.528859,
              17.338374
            ],
            [
              78.529825,
              17.337374
            ],
            [
              78.529223,
              17.335237
            ],
            [
              78.532223,
              17.33189
            ],
            [
              78.534223,
              17.331895
            ],
            [
              78.536377,
              17.33322
            ],
            [
              78.538223,
              17.335952
            ],
            [
              78.540223,
              17.336116
            ],
            [
              78.539929,
              17.337669
            ],
            [
              78.546099,
              17.33825
            ],
            [
              78.547223,
              17.339168
            ],
            [
              78.548071,
              17.338222
            ],
            [
              78.549605,
              17.337993
            ],
            [
              78.552296,
              17.341374
            ],
            [
              78.550803,
              17.343374
            ],
            [
              78.55542,
              17.344177
            ],
            [
              78.554349,
              17.348249
            ],
            [
              78.556131,
              17.349374
            ],
            [
              78.555182,
              17.350333
            ],
            [
              78.555223,
              17.351972
            ],
            [
              78.554223,
              17.352211
            ],
            [
              78.551805,
              17.350792
            ],
            [
              78.549987,
              17.350611
            ],
            [
              78.550819,
              17.349374
            ],
            [
              78.549223,
              17.349013
            ],
            [
              78.546463,
              17.354374
            ],
            [
              78.553021,
              17.365374
            ],
            [
              78.552479,
              17.370374
            ],
            [
              78.551715,
              17.371374
            ],
            [
              78.553961,
              17.374374
            ],
            [
              78.553713,
              17.375374
            ],
            [
              78.550223,
              17.377134
            ],
            [
              78.549901,
              17.378053
            ],
            [
              78.543223,
              17.382416
            ],
            [
              78.542223,
              17.382387
            ],
            [
              78.541984,
              17.381614
            ],
            [
              78.538223,
              17.381758
            ],
            [
              78.535586,
              17.379012
            ],
            [
              78.533926,
              17.378671
            ],
            [
              78.532499,
              17.377098
            ],
            [
              78.531223,
              17.377029
            ],
            [
              78.530223,
              17.376054
            ],
            [
              78.528223,
              17.376038
            ],
            [
              78.527223,
              17.375068
            ],
            [
              78.526223,
              17.376044
            ],
            [
              78.524223,
              17.376058
            ],
            [
              78.523223,
              17.377032
            ],
            [
              78.521223,
              17.377047
            ],
            [
              78.517532,
              17.378683
            ],
            [
              78.510512,
              17.385664
            ],
            [
              78.50681,
              17.385961
            ],
            [
              78.506223,
              17.387586
            ]
          ]
        ],
        "type": "Polygon"
      },
      "type": "Feature"
    },
    {
      "properties": {
        "fill-opacity": 0.33,
        "fillColor": "#bf4040",
        "opacity": 0.33,
        "fill": "#bf4040",
        "fillOpacity": 0.33,
        "color": "#bf4040",
        "contour": 6.0,
        "metric": "distance",
        "provider_name": "The Broasted King",
        "zone_type": "distance",
        "distance_km": 6,
        "mode": "motorcycle",
        "center_lat": 17.3583748,
        "center_lon": 78.5182237,
        "label": "6km"
      },
      "geometry": {
        "coordinates": [
          [
            [
              78.510223,
              17.390524
            ],
            [
              78.509838,
              17.38976
            ],
            [
              78.507223,
              17.389622
            ],
            [
              78.505999,
              17.390599
            ],
            [
              78.504839,
              17.389374
            ],
            [
              78.505745,
              17.387374
            ],
            [
              78.505531,
              17.386067
            ],
            [
              78.501893,
              17.385704
            ],
            [
              78.498223,
              17.380077
            ],
            [
              78.497223,
              17.380901
            ],
            [
              78.496223,
              17.380649
            ],
            [
              78.49589,
              17.379708
            ],
            [
              78.494666,
              17.379818
            ],
            [
              78.494377,
              17.381221
            ],
            [
              78.495314,
              17.381374
            ],
            [
              78.496306,
              17.383374
            ],
            [
              78.494223,
              17.385165
            ],
            [
              78.492223,
              17.384172
            ],
            [
              78.488904,
              17.384693
            ],
            [
              78.488057,
              17.38254
            ],
            [
              78.488937,
              17.381374
            ],
            [
              78.488223,
              17.380663
            ],
            [
              78.485715,
              17.380374
            ],
            [
              78.487223,
              17.380248
            ],
            [
              78.487935,
              17.379374
            ],
            [
              78.483897,
              17.374374
            ],
            [
              78.485906,
              17.374057
            ],
            [
              78.488329,
              17.37148
            ],
            [
              78.488223,
              17.371035
            ],
            [
              78.487192,
              17.371343
            ],
            [
              78.487187,
              17.372338
            ],
            [
              78.485223,
              17.372265
            ],
            [
              78.482223,
              17.370153
            ],
            [
              78.481223,
              17.371121
            ],
            [
              78.480223,
              17.37007
            ],
            [
              78.477223,
              17.369946
            ],
            [
              78.476979,
              17.36913
            ],
            [
              78.478872,
              17.367374
            ],
            [
              78.478002,
              17.365374
            ],
            [
              78.478667,
              17.362931
            ],
            [
              78.477223,
              17.363696
            ],
            [
              78.476695,
              17.361902
            ],
            [
              78.474223,
              17.361512
            ],
            [
              78.474007,
              17.360591
            ],
            [
              78.47122,
              17.360374
            ],
            [
              78.473142,
              17.360293
            ],
            [
              78.472231,
              17.354374
            ],
            [
              78.475223,
              17.352464
            ],
            [
              78.475275,
              17.350426
            ],
            [
              78.477223,
              17.349094
            ],
            [
              78.479223,
              17.348804
            ],
            [
              78.480309,
              17.34946
            ],
            [
              78.48172,
              17.347871
            ],
            [
              78.481116,
              17.346374
            ],
            [
              78.483019,
              17.34217
            ],
            [
              78.484223,
              17.342943
            ],
            [
              78.486223,
              17.342816
            ],
            [
              78.487223,
              17.341762
            ],
            [
              78.489223,
              17.341652
            ],
            [
              78.48975,
              17.338901
            ],
            [
              78.491525,
              17.338374
            ],
            [
              78.490417,
              17.335181
            ],
            [
              78.486073,
              17.333374
            ],
            [
              78.485125,
              17.329472
            ],
            [
              78.484357,
              17.329374
            ],
            [
              78.486223,
              17.328355
            ],
            [
              78.487223,
              17.328552
            ],
            [
              78.491223,
              17.325629
            ],
            [
              78.494223,
              17.327744
            ],
            [
              78.498223,
              17.324574
            ],
            [
              78.50094,
              17.327658
            ],
            [
              78.50239,
              17.327541
            ],
            [
              78.502158,
              17.326309
            ],
            [
              78.504223,
              17.326077
            ],
            [
              78.504604,
              17.327994
            ],
            [
              78.507244,
              17.329374
            ],
            [
              78.506466,
              17.329617
            ],
            [
              78.506377,
              17.331221
            ],
            [
              78.507223,
              17.331437
            ],
            [
              78.507873,
              17.330024
            ],
            [
              78.510223,
              17.330621
            ],
            [
              78.511885,
              17.328374
            ],
            [
              78.512994,
              17.328145
            ],
            [
              78.513111,
              17.325374
            ],
            [
              78.514223,
              17.32452
            ],
            [
              78.517223,
              17.327771
            ],
            [
              78.517223,
              17.331219
            ],
            [
              78.515802,
              17.333374
            ],
            [
              78.517226,
              17.335371
            ],
            [
              78.521223,
              17.336967
            ],
            [
              78.52201,
              17.336374
            ],
            [
              78.522114,
              17.334484
            ],
            [
              78.521223,
              17.334366
            ],
            [
              78.522223,
              17.334147
            ],
            [
              78.522437,
              17.336374
            ],
            [
              78.524223,
              17.337109
            ],
            [
              78.525223,
              17.336119
            ],
            [
              78.527223,
              17.335813
            ],
            [
              78.527561,
              17.333374
            ],
            [
              78.526657,
              17.332374
            ],
            [
              78.527741,
              17.331374
            ],
            [
              78.528,
              17.328374
            ],
            [
              78.528855,
              17.328006
            ],
            [
              78.530223,
              17.324298
            ],
            [
              78.532223,
              17.323896
            ],
            [
              78.534223,
              17.32464
            ],
            [
              78.536223,
              17.326645
            ],
            [
              78.536015,
              17.328582
            ],
            [
              78.538223,
              17.328142
            ],
            [
              78.541223,
              17.329936
            ],
            [
              78.542223,
              17.331653
            ],
            [
              78.544157,
              17.331441
            ],
            [
              78.545223,
              17.332334
            ],
            [
              78.546281,
              17.331316
            ],
            [
              78.548562,
              17.333035
            ],
            [
              78.548654,
              17.334374
            ],
            [
              78.550003,
              17.335594
            ],
            [
              78.551219,
              17.334374
            ],
            [
              78.550031,
              17.332374
            ],
            [
              78.552601,
              17.331752
            ],
            [
              78.553223,
              17.329928
            ],
            [
              78.556631,
              17.333374
            ],
            [
              78.556515,
              17.335083
            ],
            [
              78.557223,
              17.335938
            ],
            [
              78.556354,
              17.336505
            ],
            [
              78.556262,
              17.338413
            ],
            [
              78.555414,
              17.338565
            ],
            [
              78.553714,
              17.340865
            ],
            [
              78.55375,
              17.341848
            ],
            [
              78.556223,
              17.342133
            ],
            [
              78.557223,
              17.341209
            ],
            [
              78.560314,
              17.341374
            ],
            [
              78.558223,
              17.341627
            ],
            [
              78.556788,
              17.342939
            ],
            [
              78.554871,
              17.346374
            ],
            [
              78.554928,
              17.347669
            ],
            [
              78.558473,
              17.348124
            ],
            [
              78.55961,
              17.351987
            ],
            [
              78.562738,
              17.351374
            ],
            [
              78.563494,
              17.352374
            ],
            [
              78.561368,
              17.357374
            ],
            [
              78.560223,
              17.358493
            ],
            [
              78.55934,
              17.357258
            ],
            [
              78.557532,
              17.357683
            ],
            [
              78.557223,
              17.360639
            ],
            [
              78.556223,
              17.359884
            ],
            [
              78.554795,
              17.360946
            ],
            [
              78.555911,
              17.362374
            ],
            [
              78.554833,
              17.363374
            ],
            [
              78.555822,
              17.364374
            ],
            [
              78.555614,
              17.368374
            ],
            [
              78.556577,
              17.369374
            ],
            [
              78.555537,
              17.371374
            ],
            [
              78.557388,
              17.37321
            ],
            [
              78.557598,
              17.374999
            ],
            [
              78.559064,
              17.375534
            ],
            [
              78.560623,
              17.377374
            ],
            [
              78.559223,
              17.378513
            ],
            [
              78.558531,
              17.380374
            ],
            [
              78.557275,
              17.380426
            ],
            [
              78.557223,
              17.381078
            ],
            [
              78.556817,
              17.379781
            ],
            [
              78.555223,
              17.380481
            ],
            [
              78.554223,
              17.37952
            ],
            [
              78.553483,
              17.379635
            ],
            [
              78.553223,
              17.380637
            ],
            [
              78.552885,
              17.378713
            ],
            [
              78.552223,
              17.378564
            ],
            [
              78.551223,
              17.37979
            ],
            [
              78.549223,
              17.379568
            ],
            [
              78.548223,
              17.380844
            ],
            [
              78.546649,
              17.3808
            ],
            [
              78.546223,
              17.382766
            ],
            [
              78.542223,
              17.382878
            ],
            [
              78.541223,
              17.381953
            ],
            [
              78.538223,
              17.381993
            ],
            [
              78.532418,
              17.377179
            ],
            [
              78.531223,
              17.377118
            ],
            [
              78.530223,
              17.376132
            ],
            [
              78.528223,
              17.376123
            ],
            [
              78.527223,
              17.37514
            ],
            [
              78.526223,
              17.376126
            ],
            [
              78.521223,
              17.377128
            ],
            [
              78.517034,
              17.379185
            ],
            [
              78.510974,
              17.385125
            ],
            [
              78.511223,
              17.386131
            ],
            [
              78.511884,
              17.386035
            ],
            [
              78.511918,
              17.385069
            ],
            [
              78.514339,
              17.385259
            ],
            [
              78.5144,
              17.386198
            ],
            [
              78.513766,
              17.388374
            ],
            [
              78.51149,
              17.388641
            ],
            [
              78.510223,
              17.390524
            ]
          ]
        ],
        "type": "Polygon"
      },
      "type": "Feature"
    }
  ]
}