{
  "type": "FeatureCollection",
  "metadata": {
    "provider_name": "Radha Multi Foods",
    "center_lat": 17.359315,
    "center_lon": 78.4047718,
    "mode": "motorcycle",
    "total_zones": 4,
    "distance_zones": [
      3,
      4,
      5,
      6
    ],
    "generated_at": "2025-12-26T06:36:58.069866Z"
  },
  "features": [
    {
      "properties": {
        "fill-opacity": 0.33,
        "fillColor": "#bf4040",
        "opacity": 0.33,
        "fill": "#bf4040",
        "fillOpacity": 0.33,
        "color": "#bf4040",
        "contour": 3.0,
        "metric": "distance",
        "provider_name": "Radha Multi Foods",
        "zone_type": "distance",
        "distance_km": 3,
        "mode": "motorcycle",
        "center_lat": 17.359315,
        "center_lon": 78.4047718,
        "label": "3km"
      },
      "geometry": {
        "coordinates": [
          [
            [
              78.405771,
              17.376315
            ],
            [
              78.402459,
              17.374315
            ],
            [
              78.402714,
              17.373257
            ],
            [
              78.404273,
              17.372816
            ],
            [
              78.404389,
              17.371315
            ],
            [
              78.402485,
              17.370601
            ],
            [
              78.402106,
              17.368979
            ],
            [
              78.401191,
              17.369315
            ],
            [
              78.400771,
              17.371738
            ],
            [
              78.399771,
              17.370757
            ],
            [
              78.390337,
              17.370315
            ],
            [
              78.3893,
              17.369315
            ],
            [
              78.390678,
              17.367315
            ],
            [
              78.385771,
              17.364553
            ],
            [
              78.383746,
              17.36234
            ],
            [
              78.383741,
              17.360284
            ],
            [
              78.383998,
              17.361088
            ],
            [
              78.385771,
              17.361045
            ],
            [
              78.386391,
              17.359694
            ],
            [
              78.38616,
              17.358926
            ],
            [
              78.382577,
              17.357315
            ],
            [
              78.382771,
              17.356383
            ],
            [
              78.388771,
              17.353633
            ],
            [
              78.389175,
              17.359315
            ],
            [
              78.390771,
              17.360807
            ],
            [
              78.392235,
              17.360315
            ],
            [
              78.390308,
              17.359778
            ],
            [
              78.390398,
              17.357315
            ],
            [
              78.39323,
              17.356773
            ],
            [
              78.393156,
              17.355315
            ],
            [
              78.390145,
              17.353941
            ],
            [
              78.390089,
              17.350315
            ],
            [
              78.391154,
              17.349315
            ],
            [
              78.389094,
              17.348315
            ],
            [
              78.388098,
              17.345315
            ],
            [
              78.39154,
              17.344083
            ],
            [
              78.391771,
              17.342773
            ],
            [
              78.393919,
              17.344315
            ],
            [
              78.394213,
              17.347315
            ],
            [
              78.395451,
              17.348635
            ],
            [
              78.397081,
              17.348624
            ],
            [
              78.398771,
              17.346862
            ],
            [
              78.400852,
              17.347234
            ],
            [
              78.401877,
              17.351209
            ],
            [
              78.40597,
              17.353115
            ],
            [
              78.41011,
              17.358976
            ],
            [
              78.410106,
              17.36165
            ],
            [
              78.408771,
              17.363022
            ],
            [
              78.407581,
              17.363124
            ],
            [
              78.407235,
              17.364778
            ],
            [
              78.406039,
              17.365315
            ],
            [
              78.407943,
              17.369486
            ],
            [
              78.405504,
              17.369315
            ],
            [
              78.406274,
              17.372812
            ],
            [
              78.409043,
              17.373315
            ],
            [
              78.406229,
              17.373772
            ],
            [
              78.405771,
              17.376315
            ]
          ]
        ],
        "type": "Polygon"
      },
      "type": "Feature"
    },
    {
      "properties": {
        "fill-opacity": 0.33,
        "fillColor": "#bf4040",
        "opacity": 0.33,
        "fill": "#bf4040",
        "fillOpacity": 0.33,
        "color": "#bf4040",
        "contour": 4.0,
        "metric": "distance",
        "provider_name": "Radha Multi Foods",
        "zone_type": "distance",
        "distance_km": 4,
        "mode": "motorcycle",
        "center_lat": 17.359315,
        "center_lon": 78.4047718,
        "label": "4km"
      },
      "geometry": {
        "coordinates": [
          [
            [
              78.397771,
              17.378265
            ],
            [
              78.395771,
              17.37756
            ],
            [
              78.395771,
              17.376128
            ],
            [
              78.394771,
              17.375803
            ],
            [
              78.393771,
              17.376419
            ],
            [
              78.392898,
              17.376315
            ],
            [
              78.3937,
              17.376243
            ],
            [
              78.393728,
              17.374271
            ],
            [
              78.394988,
              17.372315
            ],
            [
              78.397771,
              17.372055
            ],
            [
              78.398771,
              17.372993
            ],
            [
              78.400173,
              17.371716
            ],
            [
              78.399771,
              17.370957
            ],
            [
              78.386771,
              17.370714
            ],
            [
              78.385771,
              17.371625
            ],
            [
              78.384771,
              17.370641
            ],
            [
              78.383771,
              17.372458
            ],
            [
              78.383417,
              17.371669
            ],
            [
              78.381674,
              17.371315
            ],
            [
              78.38237,
              17.370315
            ],
            [
              78.380324,
              17.369315
            ],
            [
              78.380406,
              17.364315
            ],
            [
              78.381956,
              17.361499
            ],
            [
              78.382831,
              17.361374
            ],
            [
              78.382812,
              17.360315
            ],
            [
              78.384489,
              17.359315
            ],
            [
              78.383261,
              17.358805
            ],
            [
              78.382197,
              17.36074
            ],
            [
              78.380771,
              17.361262
            ],
            [
              78.377437,
              17.360649
            ],
            [
              78.379316,
              17.355315
            ],
            [
              78.374782,
              17.351315
            ],
            [
              78.376771,
              17.350305
            ],
            [
              78.378771,
              17.350919
            ],
            [
              78.380771,
              17.34928
            ],
            [
              78.382771,
              17.350024
            ],
            [
              78.383543,
              17.348086
            ],
            [
              78.38525,
              17.347794
            ],
            [
              78.385577,
              17.347315
            ],
            [
              78.383502,
              17.345584
            ],
            [
              78.383487,
              17.344315
            ],
            [
              78.387137,
              17.341315
            ],
            [
              78.386766,
              17.34031
            ],
            [
              78.387667,
              17.34021
            ],
            [
              78.387771,
              17.338765
            ],
            [
              78.389066,
              17.338315
            ],
            [
              78.389049,
              17.336315
            ],
            [
              78.391487,
              17.33403
            ],
            [
              78.393331,
              17.334755
            ],
            [
              78.394639,
              17.336447
            ],
            [
              78.394538,
              17.337315
            ],
            [
              78.392303,
              17.338847
            ],
            [
              78.392371,
              17.339715
            ],
            [
              78.393201,
              17.339744
            ],
            [
              78.393771,
              17.338548
            ],
            [
              78.395771,
              17.338729
            ],
            [
              78.396306,
              17.34078
            ],
            [
              78.398771,
              17.341117
            ],
            [
              78.398293,
              17.346793
            ],
            [
              78.400989,
              17.347097
            ],
            [
              78.401128,
              17.349315
            ],
            [
              78.402343,
              17.351315
            ],
            [
              78.403771,
              17.351574
            ],
            [
              78.404391,
              17.352695
            ],
            [
              78.407071,
              17.354015
            ],
            [
              78.407381,
              17.355704
            ],
            [
              78.41042,
              17.359315
            ],
            [
              78.410244,
              17.361787
            ],
            [
              78.408771,
              17.363088
            ],
            [
              78.407623,
              17.363166
            ],
            [
              78.407304,
              17.364848
            ],
            [
              78.406349,
              17.365315
            ],
            [
              78.408336,
              17.369315
            ],
            [
              78.407158,
              17.370315
            ],
            [
              78.407771,
              17.370927
            ],
            [
              78.408338,
              17.369881
            ],
            [
              78.408974,
              17.370112
            ],
            [
              78.409114,
              17.371315
            ],
            [
              78.406771,
              17.371742
            ],
            [
              78.406487,
              17.372599
            ],
            [
              78.411189,
              17.372732
            ],
            [
              78.411859,
              17.370227
            ],
            [
              78.412181,
              17.371904
            ],
            [
              78.413308,
              17.372778
            ],
            [
              78.416771,
              17.37316
            ],
            [
              78.417065,
              17.374021
            ],
            [
              78.418233,
              17.374315
            ],
            [
              78.415771,
              17.375121
            ],
            [
              78.415251,
              17.376315
            ],
            [
              78.413771,
              17.376851
            ],
            [
              78.413516,
              17.37557
            ],
            [
              78.411771,
              17.375448
            ],
            [
              78.410771,
              17.374507
            ],
            [
              78.407292,
              17.375835
            ],
            [
              78.406771,
              17.3768
            ],
            [
              78.398799,
              17.376342
            ],
            [
              78.397771,
              17.378265
            ]
          ]
        ],
        "type": "Polygon"
      },
      "type": "Feature"
    },
    {
      "properties": {
        "fill-opacity": 0.33,
        "fillColor": "#bf4040",
        "opacity": 0.33,
        "fill": "#bf4040",
        "fillOpacity": 0.33,
        "color": "#bf4040",
        "contour": 5.0,
        "metric": "distance",
        "provider_name": "Radha Multi Foods",
        "zone_type": "distance",
        "distance_km": 5,
        "mode": "motorcycle",
        "center_lat": 17.359315,
        "center_lon": 78.4047718,
        "label": "5km"
      },
      "geometry": {
        "coordinates": [
          [
            [
              78.395771,
              17.385774
            ],
            [
              78.395655,
              17.384315
            ],
            [
              78.396543,
              17.383315
            ],
            [
              78.39623,
              17.380856
            ],
            [
              78.395244,
              17.380787
            ],
            [
              78.394771,
              17.382429
            ],
            [
              78.391657,
              17.382429
            ],
            [
              78.39222,
              17.381315
            ],
            [
              78.389771,
              17.37888
            ],
            [
              78.386771,
              17.380093
            ],
            [
              78.385162,
              17.378315
            ],
            [
              78.385266,
              17.37682
            ],
            [
              78.383412,
              17.376315
            ],
            [
              78.385426,
              17.375969
            ],
            [
              78.385755,
              17.374298
            ],
            [
              78.386771,
              17.374547
            ],
            [
              78.387771,
              17.373137
            ],
            [
              78.388924,
              17.373161
            ],
            [
              78.389771,
              17.374939
            ],
            [
              78.392225,
              17.374768
            ],
            [
              78.392339,
              17.373315
            ],
            [
              78.391035,
              17.371051
            ],
            [
              78.386771,
              17.370939
            ],
            [
              78.385771,
              17.371906
            ],
            [
              78.384771,
              17.370912
            ],
            [
              78.38413,
              17.372674
            ],
            [
              78.382771,
              17.371827
            ],
            [
              78.382006,
              17.373549
            ],
            [
              78.380771,
              17.373681
            ],
            [
              78.379555,
              17.37353
            ],
            [
              78.377771,
              17.371669
            ],
            [
              78.376771,
              17.372398
            ],
            [
              78.373644,
              17.372442
            ],
            [
              78.371833,
              17.371253
            ],
            [
              78.371374,
              17.370315
            ],
            [
              78.373523,
              17.367315
            ],
            [
              78.372248,
              17.366315
            ],
            [
              78.375361,
              17.365904
            ],
            [
              78.377306,
              17.363315
            ],
            [
              78.37923,
              17.362773
            ],
            [
              78.378771,
              17.361817
            ],
            [
              78.375771,
              17.362055
            ],
            [
              78.3734,
              17.361315
            ],
            [
              78.375082,
              17.360625
            ],
            [
              78.375317,
              17.35786
            ],
            [
              78.37689,
              17.357433
            ],
            [
              78.376878,
              17.356421
            ],
            [
              78.377819,
              17.356266
            ],
            [
              78.376771,
              17.3559
            ],
            [
              78.376771,
              17.354113
            ],
            [
              78.374771,
              17.355756
            ],
            [
              78.373771,
              17.355747
            ],
            [
              78.373369,
              17.353315
            ],
            [
              78.371771,
              17.350914
            ],
            [
              78.368587,
              17.35113
            ],
            [
              78.367771,
              17.351902
            ],
            [
              78.365712,
              17.351315
            ],
            [
              78.367453,
              17.350996
            ],
            [
              78.367771,
              17.350036
            ],
            [
              78.373361,
              17.348904
            ],
            [
              78.373307,
              17.347779
            ],
            [
              78.371771,
              17.347344
            ],
            [
              78.370274,
              17.345315
            ],
            [
              78.370771,
              17.344229
            ],
            [
              78.37346,
              17.344003
            ],
            [
              78.373458,
              17.342001
            ],
            [
              78.375746,
              17.34334
            ],
            [
              78.376771,
              17.342949
            ],
            [
              78.378147,
              17.343939
            ],
            [
              78.381585,
              17.344501
            ],
            [
              78.382771,
              17.345486
            ],
            [
              78.382873,
              17.344315
            ],
            [
              78.386052,
              17.341595
            ],
            [
              78.387262,
              17.339315
            ],
            [
              78.386393,
              17.338315
            ],
            [
              78.386434,
              17.334652
            ],
            [
              78.385605,
              17.334315
            ],
            [
              78.386561,
              17.333105
            ],
            [
              78.38819,
              17.332733
            ],
            [
              78.38757,
              17.331113
            ],
            [
              78.390771,
              17.330938
            ],
            [
              78.391771,
              17.331883
            ],
            [
              78.392771,
              17.330968
            ],
            [
              78.394771,
              17.331028
            ],
            [
              78.396771,
              17.332031
            ],
            [
              78.398975,
              17.330111
            ],
            [
              78.399771,
              17.330237
            ],
            [
              78.400095,
              17.331315
            ],
            [
              78.398296,
              17.33184
            ],
            [
              78.397771,
              17.335314
            ],
            [
              78.398092,
              17.338315
            ],
            [
              78.398921,
              17.339464
            ],
            [
              78.397603,
              17.339483
            ],
            [
              78.39719,
              17.337896
            ],
            [
              78.396191,
              17.338315
            ],
            [
              78.396497,
              17.340589
            ],
            [
              78.399212,
              17.341315
            ],
            [
              78.398448,
              17.346638
            ],
            [
              78.401126,
              17.34696
            ],
            [
              78.401303,
              17.349315
            ],
            [
              78.402471,
              17.351315
            ],
            [
              78.406161,
              17.352925
            ],
            [
              78.40746,
              17.355626
            ],
            [
              78.410619,
              17.359315
            ],
            [
              78.410622,
              17.362165
            ],
            [
              78.409715,
              17.362258
            ],
            [
              78.409614,
              17.363157
            ],
            [
              78.40765,
              17.363193
            ],
            [
              78.407393,
              17.364936
            ],
            [
              78.406474,
              17.365315
            ],
            [
              78.409375,
              17.371315
            ],
            [
              78.406572,
              17.372514
            ],
            [
              78.411028,
              17.372571
            ],
            [
              78.411215,
              17.366315
            ],
            [
              78.413771,
              17.362069
            ],
            [
              78.414771,
              17.362297
            ],
            [
              78.416355,
              17.364315
            ],
            [
              78.417771,
              17.364879
            ],
            [
              78.417661,
              17.367425
            ],
            [
              78.419667,
              17.368315
            ],
            [
              78.419919,
              17.370167
            ],
            [
              78.421201,
              17.370315
            ],
            [
              78.421892,
              17.371315
            ],
            [
              78.421052,
              17.372315
            ],
            [
              78.422918,
              17.374315
            ],
            [
              78.422977,
              17.377108
            ],
            [
              78.424219,
              17.377315
            ],
            [
              78.421184,
              17.378727
            ],
            [
              78.421771,
              17.382287
            ],
            [
              78.418771,
              17.381087
            ],
            [
              78.417579,
              17.379507
            ],
            [
              78.413503,
              17.379583
            ],
            [
              78.413026,
              17.37606
            ],
            [
              78.409771,
              17.374904
            ],
            [
              78.406771,
              17.376975
            ],
            [
              78.402606,
              17.377315
            ],
            [
              78.405753,
              17.380315
            ],
            [
              78.404771,
              17.381694
            ],
            [
              78.402936,
              17.382479
            ],
            [
              78.402289,
              17.380797
            ],
            [
              78.400771,
              17.380659
            ],
            [
              78.399021,
              17.382315
            ],
            [
              78.398771,
              17.385234
            ],
            [
              78.398676,
              17.38441
            ],
            [
              78.395999,
              17.384542
            ],
            [
              78.395771,
              17.385774
            ]
          ]
        ],
        "type": "Polygon"
      },
      "type": "Feature"
    },
    {
      "properties": {
        "fill-opacity": 0.33,
        "fillColor": "#bf4040",
        "opacity": 0.33,
        "fill": "#bf4040",
        "fillOpacity": 0.33,
        "color": "#bf4040",
        "contour": 6.0,
        "metric": "distance",
        "provider_name": "Radha Multi Foods",
        "zone_type": "distance",
        "distance_km": 6,
        "mode": "motorcycle",
        "center_lat": 17.359315,
        "center_lon": 78.4047718,
        "label": "6km"
      },
      "geometry": {
        "coordinates": [
          [
            [
              78.422771,
              17.391234
            ],
            [
              78.422343,
              17.388742
            ],
            [
              78.421073,
              17.388617
            ],
            [
              78.420771,
              17.389436
            ],
            [
              78.420497,
              17.388589
            ],
            [
              78.418771,
              17.388818
            ],
            [
              78.414655,
              17.386315
            ],
            [
              78.414878,
              17.385315
            ],
            [
              78.413714,
              17.383315
            ],
            [
              78.415672,
              17.381216
            ],
            [
              78.417186,
              17.380729
            ],
            [
              78.416771,
              17.379825
            ],
            [
              78.41341,
              17.379953
            ],
            [
              78.412316,
              17.380859
            ],
            [
              78.411771,
              17.384328
            ],
            [
              78.410771,
              17.383215
            ],
            [
              78.409771,
              17.383367
            ],
            [
              78.408771,
              17.388061
            ],
            [
              78.405771,
              17.390971
            ],
            [
              78.402771,
              17.390781
            ],
            [
              78.401771,
              17.389898
            ],
            [
              78.400771,
              17.390589
            ],
            [
              78.397554,
              17.389315
            ],
            [
              78.39734,
              17.388315
            ],
            [
              78.398483,
              17.388027
            ],
            [
              78.398639,
              17.387315
            ],
            [
              78.397771,
              17.386759
            ],
            [
              78.396771,
              17.388235
            ],
            [
              78.395287,
              17.386315
            ],
            [
              78.39524,
              17.384315
            ],
            [
              78.396207,
              17.383315
            ],
            [
              78.395771,
              17.380875
            ],
            [
              78.395125,
              17.382668
            ],
            [
              78.391582,
              17.383315
            ],
            [
              78.392204,
              17.384315
            ],
            [
              78.391174,
              17.384717
            ],
            [
              78.388771,
              17.383592
            ],
            [
              78.386512,
              17.383574
            ],
            [
              78.384771,
              17.380796
            ],
            [
              78.383657,
              17.382315
            ],
            [
              78.380771,
              17.383348
            ],
            [
              78.379242,
              17.380844
            ],
            [
              78.376771,
              17.37981
            ],
            [
              78.378112,
              17.376974
            ],
            [
              78.37495,
              17.376493
            ],
            [
              78.374327,
              17.377315
            ],
            [
              78.374234,
              17.376315
            ],
            [
              78.375376,
              17.374919
            ],
            [
              78.376771,
              17.376088
            ],
            [
              78.381366,
              17.374909
            ],
            [
              78.384771,
              17.375779
            ],
            [
              78.385434,
              17.373977
            ],
            [
              78.386771,
              17.37383
            ],
            [
              78.387771,
              17.372766
            ],
            [
              78.389148,
              17.372938
            ],
            [
              78.389506,
              17.37458
            ],
            [
              78.391771,
              17.374726
            ],
            [
              78.392133,
              17.373315
            ],
            [
              78.39096,
              17.371125
            ],
            [
              78.386771,
              17.371042
            ],
            [
              78.385771,
              17.372025
            ],
            [
              78.384771,
              17.371028
            ],
            [
              78.384228,
              17.372771
            ],
            [
              78.382541,
              17.372084
            ],
            [
              78.381771,
              17.373921
            ],
            [
              78.379771,
              17.373911
            ],
            [
              78.377771,
              17.371922
            ],
            [
              78.376771,
              17.372836
            ],
            [
              78.373771,
              17.372836
            ],
            [
              78.372771,
              17.373785
            ],
            [
              78.370771,
              17.372751
            ],
            [
              78.369771,
              17.373692
            ],
            [
              78.36763,
              17.373456
            ],
            [
              78.370298,
              17.371315
            ],
            [
              78.370301,
              17.369315
            ],
            [
              78.371297,
              17.368315
            ],
            [
              78.370664,
              17.366208
            ],
            [
              78.375228,
              17.365315
            ],
            [
              78.374771,
              17.362678
            ],
            [
              78.373771,
              17.363595
            ],
            [
              78.37161,
              17.363315
            ],
            [
              78.371627,
              17.36217
            ],
            [
              78.373142,
              17.361685
            ],
            [
              78.373448,
              17.360315
            ],
            [
              78.373359,
              17.356727
            ],
            [
              78.37257,
              17.355516
            ],
            [
              78.373145,
              17.353315
            ],
            [
              78.370477,
              17.351021
            ],
            [
              78.370001,
              17.357544
            ],
            [
              78.368771,
              17.356916
            ],
            [
              78.365322,
              17.357764
            ],
            [
              78.363775,
              17.353311
            ],
            [
              78.362675,
              17.353411
            ],
            [
              78.361042,
              17.351044
            ],
            [
              78.360415,
              17.350958
            ],
            [
              78.359885,
              17.352428
            ],
            [
              78.358771,
              17.352553
            ],
            [
              78.358741,
              17.352285
            ],
            [
              78.359262,
              17.351805
            ],
            [
              78.359244,
              17.350842
            ],
            [
              78.357771,
              17.349433
            ],
            [
              78.357698,
              17.348241
            ],
            [
              78.359095,
              17.347991
            ],
            [
              78.360771,
              17.349037
            ],
            [
              78.361515,
              17.348315
            ],
            [
              78.361482,
              17.346315
            ],
            [
              78.36267,
              17.346213
            ],
            [
              78.362771,
              17.345625
            ],
            [
              78.36337,
              17.346315
            ],
            [
              78.362028,
              17.348315
            ],
            [
              78.363669,
              17.349315
            ],
            [
              78.363386,
              17.3507
            ],
            [
              78.367077,
              17.35062
            ],
            [
              78.366079,
              17.349006
            ],
            [
              78.364771,
              17.3493
            ],
            [
              78.36395,
              17.348315
            ],
            [
              78.365034,
              17.346315
            ],
            [
              78.367056,
              17.345599
            ],
            [
              78.367261,
              17.344315
            ],
            [
              78.368431,
              17.343315
            ],
            [
              78.36672,
              17.342315
            ],
            [
              78.368426,
              17.340315
            ],
            [
              78.367472,
              17.339315
            ],
            [
              78.369383,
              17.337926
            ],
            [
              78.369651,
              17.336315
            ],
            [
              78.370494,
              17.336038
            ],
            [
              78.370771,
              17.333427
            ],
            [
              78.372771,
              17.333648
            ],
            [
              78.376281,
              17.338805
            ],
            [
              78.377379,
              17.338922
            ],
            [
              78.377771,
              17.337522
            ],
            [
              78.378448,
              17.337638
            ],
            [
              78.380771,
              17.338355
            ],
            [
              78.382107,
              17.339979
            ],
            [
              78.383771,
              17.34063
            ],
            [
              78.384771,
              17.339515
            ],
            [
              78.386816,
              17.339315
            ],
            [
              78.385829,
              17.339257
            ],
            [
              78.386274,
              17.335315
            ],
            [
              78.385229,
              17.334315
            ],
            [
              78.386376,
              17.332919
            ],
            [
              78.388029,
              17.332572
            ],
            [
              78.387379,
              17.330922
            ],
            [
              78.390771,
              17.330699
            ],
            [
              78.391771,
              17.331677
            ],
            [
              78.392771,
              17.33071
            ],
            [
              78.394771,
              17.330731
            ],
            [
              78.396771,
              17.331732
            ],
            [
              78.398083,
              17.330626
            ],
            [
              78.397771,
              17.329746
            ],
            [
              78.392771,
              17.329496
            ],
            [
              78.394258,
              17.328802
            ],
            [
              78.394741,
              17.327284
            ],
            [
              78.395822,
              17.327264
            ],
            [
              78.396771,
              17.32893
            ],
            [
              78.397702,
              17.327245
            ],
            [
              78.400771,
              17.326961
            ],
            [
              78.401815,
              17.327271
            ],
            [
              78.401924,
              17.328162
            ],
            [
              78.403841,
              17.328245
            ],
            [
              78.404771,
              17.329111
            ],
            [
              78.406771,
              17.329278
            ],
            [
              78.406805,
              17.33028
            ],
            [
              78.408453,
              17.330315
            ],
            [
              78.407868,
              17.335315
            ],
            [
              78.401771,
              17.338984
            ],
            [
              78.399771,
              17.337658
            ],
            [
              78.399441,
              17.335645
            ],
            [
              78.398771,
              17.335305
            ],
            [
              78.398367,
              17.338315
            ],
            [
              78.399634,
              17.339315
            ],
            [
              78.397771,
              17.339887
            ],
            [
              78.396771,
              17.337948
            ],
            [
              78.396479,
              17.340315
            ],
            [
              78.399565,
              17.341315
            ],
            [
              78.399519,
              17.343315
            ],
            [
              78.398489,
              17.344315
            ],
            [
              78.398527,
              17.346559
            ],
            [
              78.401263,
              17.346823
            ],
            [
              78.401477,
              17.349315
            ],
            [
              78.402541,
              17.351315
            ],
            [
              78.406256,
              17.35283
            ],
            [
              78.408229,
              17.354856
            ],
            [
              78.409667,
              17.358419
            ],
            [
              78.410643,
              17.358315
            ],
            [
              78.410771,
              17.357384
            ],
            [
              78.410994,
              17.358092
            ],
            [
              78.41243,
              17.357973
            ],
            [
              78.412771,
              17.357061
            ],
            [
              78.415713,
              17.358373
            ],
            [
              78.416771,
              17.356915
            ],
            [
              78.419771,
              17.357616
            ],
            [
              78.42075,
              17.358336
            ],
            [
              78.420618,
              17.361468
            ],
            [
              78.422771,
              17.36025
            ],
            [
              78.425464,
              17.363315
            ],
            [
              78.425291,
              17.365315
            ],
            [
              78.426458,
              17.366315
            ],
            [
              78.425571,
              17.367114
            ],
            [
              78.425652,
              17.368434
            ],
            [
              78.428945,
              17.369315
            ],
            [
              78.429771,
              17.37367
            ],
            [
              78.42835,
              17.371736
            ],
            [
              78.426771,
              17.371633
            ],
            [
              78.426117,
              17.372315
            ],
            [
              78.428289,
              17.373315
            ],
            [
              78.427164,
              17.374315
            ],
            [
              78.427473,
              17.376613
            ],
            [
              78.430369,
              17.377315
            ],
            [
              78.430608,
              17.379315
            ],
            [
              78.429771,
              17.381048
            ],
            [
              78.425771,
              17.384331
            ],
            [
              78.425112,
              17.377974
            ],
            [
              78.423771,
              17.37789
            ],
            [
              78.421491,
              17.379315
            ],
            [
              78.423498,
              17.382315
            ],
            [
              78.423771,
              17.385197
            ],
            [
              78.426334,
              17.387315
            ],
            [
              78.423625,
              17.388168
            ],
            [
              78.423966,
              17.389509
            ],
            [
              78.422771,
              17.391234
            ]
          ]
        ],
        "type": "Polygon"
      },
      "type": "Feature"
    }
  ]
}