{
  "type": "FeatureCollection",
  "metadata": {
    "provider_name": "Abida! kitchen",
    "center_lat": 17.42609599906934,
    "center_lon": 78.45285312682459,
    "mode": "motorcycle",
    "total_zones": 4,
    "distance_zones": [
      3,
      4,
      5,
      6
    ],
    "generated_at": "2025-12-28T11:10:36.040705Z"
  },
  "features": [
    {
      "properties": {
        "fill-opacity": 0.33,
        "fillColor": "#bf4040",
        "opacity": 0.33,
        "fill": "#bf4040",
        "fillOpacity": 0.33,
        "color": "#bf4040",
        "contour": 3.0,
        "metric": "distance",
        "provider_name": "Abida! kitchen",
        "zone_type": "distance",
        "distance_km": 3,
        "mode": "motorcycle",
        "center_lat": 17.42609599906934,
        "center_lon": 78.45285312682459,
        "label": "3km"
      },
      "geometry": {
        "coordinates": [
          [
            [
              78.438853,
              17.447201
            ],
            [
              78.437957,
              17.4472
            ],
            [
              78.437853,
              17.448076
            ],
            [
              78.437621,
              17.447096
            ],
            [
              78.438646,
              17.446889
            ],
            [
              78.438412,
              17.444536
            ],
            [
              78.434931,
              17.444096
            ],
            [
              78.436255,
              17.441096
            ],
            [
              78.432168,
              17.439781
            ],
            [
              78.431915,
              17.439096
            ],
            [
              78.433436,
              17.437096
            ],
            [
              78.431572,
              17.436096
            ],
            [
              78.433661,
              17.435096
            ],
            [
              78.433061,
              17.433887
            ],
            [
              78.427605,
              17.430096
            ],
            [
              78.427853,
              17.429078
            ],
            [
              78.429912,
              17.429155
            ],
            [
              78.428539,
              17.428096
            ],
            [
              78.429227,
              17.426096
            ],
            [
              78.431236,
              17.425479
            ],
            [
              78.431215,
              17.424733
            ],
            [
              78.427853,
              17.424331
            ],
            [
              78.426655,
              17.423096
            ],
            [
              78.428853,
              17.4219
            ],
            [
              78.432853,
              17.421636
            ],
            [
              78.433928,
              17.42217
            ],
            [
              78.435423,
              17.421096
            ],
            [
              78.436992,
              17.418235
            ],
            [
              78.43701,
              17.415096
            ],
            [
              78.438195,
              17.413096
            ],
            [
              78.443853,
              17.412811
            ],
            [
              78.446853,
              17.410984
            ],
            [
              78.449255,
              17.411498
            ],
            [
              78.448909,
              17.408152
            ],
            [
              78.451751,
              17.406994
            ],
            [
              78.451853,
              17.406037
            ],
            [
              78.452207,
              17.407742
            ],
            [
              78.455244,
              17.408705
            ],
            [
              78.455713,
              17.410235
            ],
            [
              78.456853,
              17.4106
            ],
            [
              78.457305,
              17.410096
            ],
            [
              78.455553,
              17.407096
            ],
            [
              78.457464,
              17.404707
            ],
            [
              78.458853,
              17.404667
            ],
            [
              78.460853,
              17.406543
            ],
            [
              78.462853,
              17.403421
            ],
            [
              78.46534,
              17.403608
            ],
            [
              78.465601,
              17.405096
            ],
            [
              78.464853,
              17.40688
            ],
            [
              78.463916,
              17.407096
            ],
            [
              78.465853,
              17.407239
            ],
            [
              78.468411,
              17.410537
            ],
            [
              78.470876,
              17.411096
            ],
            [
              78.467853,
              17.412223
            ],
            [
              78.465853,
              17.410455
            ],
            [
              78.465252,
              17.411096
            ],
            [
              78.466094,
              17.413096
            ],
            [
              78.466853,
              17.413812
            ],
            [
              78.470859,
              17.414096
            ],
            [
              78.467853,
              17.414349
            ],
            [
              78.466407,
              17.415649
            ],
            [
              78.465014,
              17.418096
            ],
            [
              78.465786,
              17.420096
            ],
            [
              78.464975,
              17.423096
            ],
            [
              78.462533,
              17.424776
            ],
            [
              78.462164,
              17.427096
            ],
            [
              78.461077,
              17.428096
            ],
            [
              78.461932,
              17.429016
            ],
            [
              78.462083,
              17.432866
            ],
            [
              78.463863,
              17.433096
            ],
            [
              78.463952,
              17.436195
            ],
            [
              78.462853,
              17.437339
            ],
            [
              78.460697,
              17.43794
            ],
            [
              78.458853,
              17.439819
            ],
            [
              78.458622,
              17.441096
            ],
            [
              78.45995,
              17.442192
            ],
            [
              78.461988,
              17.44196
            ],
            [
              78.462283,
              17.444665
            ],
            [
              78.463148,
              17.445096
            ],
            [
              78.46141,
              17.445653
            ],
            [
              78.458853,
              17.445209
            ],
            [
              78.456853,
              17.446533
            ],
            [
              78.456383,
              17.442565
            ],
            [
              78.454853,
              17.442298
            ],
            [
              78.453853,
              17.443943
            ],
            [
              78.452493,
              17.443455
            ],
            [
              78.453257,
              17.442096
            ],
            [
              78.453052,
              17.439896
            ],
            [
              78.451853,
              17.438537
            ],
            [
              78.450853,
              17.440699
            ],
            [
              78.448853,
              17.439267
            ],
            [
              78.448281,
              17.440096
            ],
            [
              78.449141,
              17.441096
            ],
            [
              78.446853,
              17.442002
            ],
            [
              78.44289,
              17.445133
            ],
            [
              78.439141,
              17.446384
            ],
            [
              78.438853,
              17.447201
            ]
          ]
        ],
        "type": "Polygon"
      },
      "type": "Feature"
    },
    {
      "properties": {
        "fill-opacity": 0.33,
        "fillColor": "#bf4040",
        "opacity": 0.33,
        "fill": "#bf4040",
        "fillOpacity": 0.33,
        "color": "#bf4040",
        "contour": 4.0,
        "metric": "distance",
        "provider_name": "Abida! kitchen",
        "zone_type": "distance",
        "distance_km": 4,
        "mode": "motorcycle",
        "center_lat": 17.42609599906934,
        "center_lon": 78.45285312682459,
        "label": "4km"
      },
      "geometry": {
        "coordinates": [
          [
            [
              78.433853,
              17.456178
            ],
            [
              78.431941,
              17.452007
            ],
            [
              78.428864,
              17.450096
            ],
            [
              78.428766,
              17.449096
            ],
            [
              78.430492,
              17.447096
            ],
            [
              78.426853,
              17.446413
            ],
            [
              78.426423,
              17.445525
            ],
            [
              78.426853,
              17.443374
            ],
            [
              78.428791,
              17.443096
            ],
            [
              78.427853,
              17.442096
            ],
            [
              78.428371,
              17.441096
            ],
            [
              78.431277,
              17.44152
            ],
            [
              78.431222,
              17.438726
            ],
            [
              78.429543,
              17.439405
            ],
            [
              78.428853,
              17.437726
            ],
            [
              78.426853,
              17.439479
            ],
            [
              78.425338,
              17.439096
            ],
            [
              78.425246,
              17.437096
            ],
            [
              78.423253,
              17.437096
            ],
            [
              78.423061,
              17.436096
            ],
            [
              78.42479,
              17.434033
            ],
            [
              78.425577,
              17.434096
            ],
            [
              78.425923,
              17.435166
            ],
            [
              78.426606,
              17.433096
            ],
            [
              78.424853,
              17.430751
            ],
            [
              78.422775,
              17.431018
            ],
            [
              78.420853,
              17.432569
            ],
            [
              78.418948,
              17.430096
            ],
            [
              78.422199,
              17.427096
            ],
            [
              78.422174,
              17.426096
            ],
            [
              78.420058,
              17.425301
            ],
            [
              78.419132,
              17.425374
            ],
            [
              78.418853,
              17.426238
            ],
            [
              78.417956,
              17.426096
            ],
            [
              78.418699,
              17.425942
            ],
            [
              78.418853,
              17.424994
            ],
            [
              78.420853,
              17.424847
            ],
            [
              78.421853,
              17.42379
            ],
            [
              78.423853,
              17.423689
            ],
            [
              78.426198,
              17.422441
            ],
            [
              78.428488,
              17.420096
            ],
            [
              78.428468,
              17.41748
            ],
            [
              78.427091,
              17.417096
            ],
            [
              78.430744,
              17.416987
            ],
            [
              78.43074,
              17.414983
            ],
            [
              78.432404,
              17.414647
            ],
            [
              78.43269,
              17.412933
            ],
            [
              78.433853,
              17.411845
            ],
            [
              78.435253,
              17.412496
            ],
            [
              78.435646,
              17.410888
            ],
            [
              78.436853,
              17.409937
            ],
            [
              78.438111,
              17.411096
            ],
            [
              78.437881,
              17.412096
            ],
            [
              78.442672,
              17.412096
            ],
            [
              78.441662,
              17.410286
            ],
            [
              78.440566,
              17.410096
            ],
            [
              78.440988,
              17.409096
            ],
            [
              78.43994,
              17.407096
            ],
            [
              78.44161,
              17.406853
            ],
            [
              78.441853,
              17.405839
            ],
            [
              78.448853,
              17.405609
            ],
            [
              78.449853,
              17.406569
            ],
            [
              78.450853,
              17.406455
            ],
            [
              78.451437,
              17.40368
            ],
            [
              78.452853,
              17.402555
            ],
            [
              78.45361,
              17.403096
            ],
            [
              78.453628,
              17.40532
            ],
            [
              78.455853,
              17.405487
            ],
            [
              78.455853,
              17.404277
            ],
            [
              78.454698,
              17.404096
            ],
            [
              78.455511,
              17.403096
            ],
            [
              78.455159,
              17.402096
            ],
            [
              78.459649,
              17.397892
            ],
            [
              78.462853,
              17.396474
            ],
            [
              78.464769,
              17.39818
            ],
            [
              78.465853,
              17.39699
            ],
            [
              78.466853,
              17.397294
            ],
            [
              78.467853,
              17.401475
            ],
            [
              78.469997,
              17.40024
            ],
            [
              78.470853,
              17.397834
            ],
            [
              78.47207,
              17.398096
            ],
            [
              78.472471,
              17.399096
            ],
            [
              78.471467,
              17.400096
            ],
            [
              78.472231,
              17.400474
            ],
            [
              78.472853,
              17.399622
            ],
            [
              78.473965,
              17.401096
            ],
            [
              78.473651,
              17.401894
            ],
            [
              78.472853,
              17.403127
            ],
            [
              78.470526,
              17.403096
            ],
            [
              78.470222,
              17.405096
            ],
            [
              78.468853,
              17.405154
            ],
            [
              78.468356,
              17.406593
            ],
            [
              78.468853,
              17.407472
            ],
            [
              78.472853,
              17.406631
            ],
            [
              78.474641,
              17.408096
            ],
            [
              78.474018,
              17.409096
            ],
            [
              78.472853,
              17.408808
            ],
            [
              78.47235,
              17.409593
            ],
            [
              78.471187,
              17.41443
            ],
            [
              78.467853,
              17.414668
            ],
            [
              78.466585,
              17.415828
            ],
            [
              78.465397,
              17.418096
            ],
            [
              78.466345,
              17.420096
            ],
            [
              78.465425,
              17.421096
            ],
            [
              78.465385,
              17.423096
            ],
            [
              78.463095,
              17.425096
            ],
            [
              78.461825,
              17.428096
            ],
            [
              78.462656,
              17.431292
            ],
            [
              78.464455,
              17.433096
            ],
            [
              78.464453,
              17.436495
            ],
            [
              78.467836,
              17.437096
            ],
            [
              78.467806,
              17.438096
            ],
            [
              78.468853,
              17.43841
            ],
            [
              78.468937,
              17.44018
            ],
            [
              78.467773,
              17.442096
            ],
            [
              78.466485,
              17.442728
            ],
            [
              78.466406,
              17.444096
            ],
            [
              78.470709,
              17.44324
            ],
            [
              78.472388,
              17.444096
            ],
            [
              78.470046,
              17.447096
            ],
            [
              78.469098,
              17.447341
            ],
            [
              78.468853,
              17.448731
            ],
            [
              78.466853,
              17.448215
            ],
            [
              78.463853,
              17.449407
            ],
            [
              78.455039,
              17.449282
            ],
            [
              78.45483,
              17.450119
            ],
            [
              78.454853,
              17.448551
            ],
            [
              78.455853,
              17.448914
            ],
            [
              78.456579,
              17.448096
            ],
            [
              78.454176,
              17.447772
            ],
            [
              78.45408,
              17.447096
            ],
            [
              78.456182,
              17.444425
            ],
            [
              78.455853,
              17.442658
            ],
            [
              78.454571,
              17.442814
            ],
            [
              78.453172,
              17.446415
            ],
            [
              78.452217,
              17.447096
            ],
            [
              78.451853,
              17.449407
            ],
            [
              78.448853,
              17.449335
            ],
            [
              78.447853,
              17.450201
            ],
            [
              78.446159,
              17.44979
            ],
            [
              78.443509,
              17.447439
            ],
            [
              78.443118,
              17.44583
            ],
            [
              78.441853,
              17.445914
            ],
            [
              78.439708,
              17.44724
            ],
            [
              78.440584,
              17.449096
            ],
            [
              78.439824,
              17.450096
            ],
            [
              78.440924,
              17.451024
            ],
            [
              78.440875,
              17.452096
            ],
            [
              78.43641,
              17.451653
            ],
            [
              78.436044,
              17.453287
            ],
            [
              78.433853,
              17.456178
            ]
          ]
        ],
        "type": "Polygon"
      },
      "type": "Feature"
    },
    {
      "properties": {
        "fill-opacity": 0.33,
        "fillColor": "#bf4040",
        "opacity": 0.33,
        "fill": "#bf4040",
        "fillOpacity": 0.33,
        "color": "#bf4040",
        "contour": 5.0,
        "metric": "distance",
        "provider_name": "Abida! kitchen",
        "zone_type": "distance",
        "distance_km": 5,
        "mode": "motorcycle",
        "center_lat": 17.42609599906934,
        "center_lon": 78.45285312682459,
        "label": "5km"
      },
      "geometry": {
        "coordinates": [
          [
            [
              78.430853,
              17.464141
            ],
            [
              78.430107,
              17.464096
            ],
            [
              78.43077,
              17.464013
            ],
            [
              78.430722,
              17.463096
            ],
            [
              78.429721,
              17.462096
            ],
            [
              78.429576,
              17.460372
            ],
            [
              78.427356,
              17.458096
            ],
            [
              78.42755,
              17.456096
            ],
            [
              78.428981,
              17.455096
            ],
            [
              78.423157,
              17.454096
            ],
            [
              78.420474,
              17.451474
            ],
            [
              78.421798,
              17.450096
            ],
            [
              78.419074,
              17.448096
            ],
            [
              78.419853,
              17.445888
            ],
            [
              78.422059,
              17.446301
            ],
            [
              78.422963,
              17.445096
            ],
            [
              78.422486,
              17.444096
            ],
            [
              78.423701,
              17.443096
            ],
            [
              78.422853,
              17.442351
            ],
            [
              78.419853,
              17.443023
            ],
            [
              78.417576,
              17.441096
            ],
            [
              78.416671,
              17.439277
            ],
            [
              78.414915,
              17.439158
            ],
            [
              78.414831,
              17.440096
            ],
            [
              78.414853,
              17.438853
            ],
            [
              78.415359,
              17.438096
            ],
            [
              78.415267,
              17.437096
            ],
            [
              78.414317,
              17.436096
            ],
            [
              78.417248,
              17.434491
            ],
            [
              78.416327,
              17.433096
            ],
            [
              78.418606,
              17.431096
            ],
            [
              78.416853,
              17.430349
            ],
            [
              78.415876,
              17.431096
            ],
            [
              78.411853,
              17.431018
            ],
            [
              78.410248,
              17.430096
            ],
            [
              78.411281,
              17.429096
            ],
            [
              78.410764,
              17.427096
            ],
            [
              78.412687,
              17.424096
            ],
            [
              78.412574,
              17.423374
            ],
            [
              78.410799,
              17.423149
            ],
            [
              78.410853,
              17.421953
            ],
            [
              78.410944,
              17.423005
            ],
            [
              78.412993,
              17.422955
            ],
            [
              78.415853,
              17.425659
            ],
            [
              78.417853,
              17.425598
            ],
            [
              78.418853,
              17.424569
            ],
            [
              78.420853,
              17.424525
            ],
            [
              78.421853,
              17.423505
            ],
            [
              78.423853,
              17.423468
            ],
            [
              78.42608,
              17.422323
            ],
            [
              78.428124,
              17.420367
            ],
            [
              78.428194,
              17.418754
            ],
            [
              78.425703,
              17.417245
            ],
            [
              78.423853,
              17.414411
            ],
            [
              78.422853,
              17.415299
            ],
            [
              78.420969,
              17.415212
            ],
            [
              78.420358,
              17.416096
            ],
            [
              78.420054,
              17.415096
            ],
            [
              78.422506,
              17.412096
            ],
            [
              78.421853,
              17.410923
            ],
            [
              78.423853,
              17.409669
            ],
            [
              78.425853,
              17.411064
            ],
            [
              78.426049,
              17.412899
            ],
            [
              78.43101,
              17.411939
            ],
            [
              78.430525,
              17.414096
            ],
            [
              78.431853,
              17.41423
            ],
            [
              78.431944,
              17.412187
            ],
            [
              78.432804,
              17.412096
            ],
            [
              78.433103,
              17.411096
            ],
            [
              78.432261,
              17.409096
            ],
            [
              78.433853,
              17.406846
            ],
            [
              78.437853,
              17.405754
            ],
            [
              78.438853,
              17.404717
            ],
            [
              78.440853,
              17.406596
            ],
            [
              78.442853,
              17.403515
            ],
            [
              78.443629,
              17.405319
            ],
            [
              78.448088,
              17.405096
            ],
            [
              78.446705,
              17.403096
            ],
            [
              78.446964,
              17.402096
            ],
            [
              78.448853,
              17.400312
            ],
            [
              78.449245,
              17.402703
            ],
            [
              78.450591,
              17.402096
            ],
            [
              78.450381,
              17.400567
            ],
            [
              78.449017,
              17.400096
            ],
            [
              78.448491,
              17.399096
            ],
            [
              78.449041,
              17.398096
            ],
            [
              78.449853,
              17.397378
            ],
            [
              78.452853,
              17.397791
            ],
            [
              78.453853,
              17.396231
            ],
            [
              78.45599,
              17.396233
            ],
            [
              78.45663,
              17.392873
            ],
            [
              78.458925,
              17.391096
            ],
            [
              78.458371,
              17.390096
            ],
            [
              78.459853,
              17.388444
            ],
            [
              78.462853,
              17.387576
            ],
            [
              78.463862,
              17.388086
            ],
            [
              78.464414,
              17.390534
            ],
            [
              78.468119,
              17.390829
            ],
            [
              78.467201,
              17.394096
            ],
            [
              78.467853,
              17.395791
            ],
            [
              78.470074,
              17.395096
            ],
            [
              78.468645,
              17.391888
            ],
            [
              78.469004,
              17.390096
            ],
            [
              78.470632,
              17.389875
            ],
            [
              78.470854,
              17.389094
            ],
            [
              78.470912,
              17.390155
            ],
            [
              78.470141,
              17.390383
            ],
            [
              78.470587,
              17.392361
            ],
            [
              78.472853,
              17.391978
            ],
            [
              78.474853,
              17.392877
            ],
            [
              78.475853,
              17.392254
            ],
            [
              78.476853,
              17.392693
            ],
            [
              78.478853,
              17.396818
            ],
            [
              78.480853,
              17.398589
            ],
            [
              78.482345,
              17.398096
            ],
            [
              78.481853,
              17.400787
            ],
            [
              78.479853,
              17.400563
            ],
            [
              78.478853,
              17.401648
            ],
            [
              78.476979,
              17.402096
            ],
            [
              78.476833,
              17.403096
            ],
            [
              78.477853,
              17.405156
            ],
            [
              78.479853,
              17.403338
            ],
            [
              78.481615,
              17.404096
            ],
            [
              78.481702,
              17.406096
            ],
            [
              78.482624,
              17.407096
            ],
            [
              78.480265,
              17.407508
            ],
            [
              78.480922,
              17.410165
            ],
            [
              78.479559,
              17.411096
            ],
            [
              78.481527,
              17.412096
            ],
            [
              78.480125,
              17.412368
            ],
            [
              78.479853,
              17.415813
            ],
            [
              78.475215,
              17.409733
            ],
            [
              78.472853,
              17.409575
            ],
            [
              78.471497,
              17.412096
            ],
            [
              78.471298,
              17.41454
            ],
            [
              78.467853,
              17.414796
            ],
            [
              78.466662,
              17.415905
            ],
            [
              78.465539,
              17.418096
            ],
            [
              78.466516,
              17.420096
            ],
            [
              78.465553,
              17.421096
            ],
            [
              78.465534,
              17.423096
            ],
            [
              78.463421,
              17.425096
            ],
            [
              78.462343,
              17.428096
            ],
            [
              78.46344,
              17.430508
            ],
            [
              78.464931,
              17.431017
            ],
            [
              78.465201,
              17.433748
            ],
            [
              78.465958,
              17.434096
            ],
            [
              78.465853,
              17.435747
            ],
            [
              78.46563,
              17.434318
            ],
            [
              78.464853,
              17.434263
            ],
            [
              78.464603,
              17.436346
            ],
            [
              78.466853,
              17.436181
            ],
            [
              78.47021,
              17.437738
            ],
            [
              78.472853,
              17.437883
            ],
            [
              78.473912,
              17.437036
            ],
            [
              78.475273,
              17.438096
            ],
            [
              78.475382,
              17.439096
            ],
            [
              78.474457,
              17.440096
            ],
            [
              78.474853,
              17.441799
            ],
            [
              78.475882,
              17.442125
            ],
            [
              78.475608,
              17.441096
            ],
            [
              78.476635,
              17.440878
            ],
            [
              78.476853,
              17.439751
            ],
            [
              78.477239,
              17.441709
            ],
            [
              78.477853,
              17.44188
            ],
            [
              78.478525,
              17.441768
            ],
            [
              78.478847,
              17.440096
            ],
            [
              78.47971,
              17.440096
            ],
            [
              78.479541,
              17.442407
            ],
            [
              78.48169,
              17.443096
            ],
            [
              78.478855,
              17.447098
            ],
            [
              78.475853,
              17.449291
            ],
            [
              78.473853,
              17.448367
            ],
            [
              78.472853,
              17.450224
            ],
            [
              78.467307,
              17.45055
            ],
            [
              78.465853,
              17.451861
            ],
            [
              78.464853,
              17.449538
            ],
            [
              78.455804,
              17.450047
            ],
            [
              78.454946,
              17.452189
            ],
            [
              78.452853,
              17.452373
            ],
            [
              78.452099,
              17.453096
            ],
            [
              78.452853,
              17.453963
            ],
            [
              78.4543,
              17.454096
            ],
            [
              78.450387,
              17.45463
            ],
            [
              78.449984,
              17.455964
            ],
            [
              78.450853,
              17.456208
            ],
            [
              78.449853,
              17.456236
            ],
            [
              78.448853,
              17.455304
            ],
            [
              78.446853,
              17.455677
            ],
            [
              78.445853,
              17.454439
            ],
            [
              78.442853,
              17.455502
            ],
            [
              78.440853,
              17.454754
            ],
            [
              78.438036,
              17.454912
            ],
            [
              78.438061,
              17.454096
            ],
            [
              78.439392,
              17.453096
            ],
            [
              78.436891,
              17.453058
            ],
            [
              78.436853,
              17.452022
            ],
            [
              78.436853,
              17.453221
            ],
            [
              78.437415,
              17.455096
            ],
            [
              78.438909,
              17.456039
            ],
            [
              78.438833,
              17.457096
            ],
            [
              78.437853,
              17.458111
            ],
            [
              78.434439,
              17.457682
            ],
            [
              78.432891,
              17.460096
            ],
            [
              78.433863,
              17.462106
            ],
            [
              78.431206,
              17.462448
            ],
            [
              78.430853,
              17.464141
            ]
          ]
        ],
        "type": "Polygon"
      },
      "type": "Feature"
    },
    {
      "properties": {
        "fill-opacity": 0.33,
        "fillColor": "#bf4040",
        "opacity": 0.33,
        "fill": "#bf4040",
        "fillOpacity": 0.33,
        "color": "#bf4040",
        "contour": 6.0,
        "metric": "distance",
        "provider_name": "Abida! kitchen",
        "zone_type": "distance",
        "distance_km": 6,
        "mode": "motorcycle",
        "center_lat": 17.42609599906934,
        "center_lon": 78.45285312682459,
        "label": "6km"
      },
      "geometry": {
        "coordinates": [
          [
            [
              78.425853,
              17.47237
            ],
            [
              78.424377,
              17.469096
            ],
            [
              78.426526,
              17.465769
            ],
            [
              78.428889,
              17.465132
            ],
            [
              78.428965,
              17.463208
            ],
            [
              78.429865,
              17.463096
            ],
            [
              78.429244,
              17.462704
            ],
            [
              78.429165,
              17.460783
            ],
            [
              78.427853,
              17.461386
            ],
            [
              78.422853,
              17.461131
            ],
            [
              78.422672,
              17.460276
            ],
            [
              78.420512,
              17.460096
            ],
            [
              78.419853,
              17.458922
            ],
            [
              78.418148,
              17.458096
            ],
            [
              78.417768,
              17.45618
            ],
            [
              78.41535,
              17.454598
            ],
            [
              78.415049,
              17.454096
            ],
            [
              78.417052,
              17.452096
            ],
            [
              78.415444,
              17.451504
            ],
            [
              78.415306,
              17.449642
            ],
            [
              78.412577,
              17.446096
            ],
            [
              78.412771,
              17.445014
            ],
            [
              78.416288,
              17.444531
            ],
            [
              78.417381,
              17.442096
            ],
            [
              78.4162,
              17.439748
            ],
            [
              78.414853,
              17.440642
            ],
            [
              78.414262,
              17.440096
            ],
            [
              78.414239,
              17.438096
            ],
            [
              78.412857,
              17.4351
            ],
            [
              78.414603,
              17.434846
            ],
            [
              78.414678,
              17.434096
            ],
            [
              78.413393,
              17.433635
            ],
            [
              78.412618,
              17.434331
            ],
            [
              78.412838,
              17.435081
            ],
            [
              78.408477,
              17.43372
            ],
            [
              78.402853,
              17.434173
            ],
            [
              78.403802,
              17.427096
            ],
            [
              78.404853,
              17.42583
            ],
            [
              78.40607,
              17.425878
            ],
            [
              78.405171,
              17.423777
            ],
            [
              78.403853,
              17.42455
            ],
            [
              78.403094,
              17.424096
            ],
            [
              78.403631,
              17.423096
            ],
            [
              78.40534,
              17.422583
            ],
            [
              78.406853,
              17.420758
            ],
            [
              78.41079,
              17.420096
            ],
            [
              78.411345,
              17.419096
            ],
            [
              78.409056,
              17.415096
            ],
            [
              78.413631,
              17.414874
            ],
            [
              78.415911,
              17.413154
            ],
            [
              78.416743,
              17.410096
            ],
            [
              78.416588,
              17.40936
            ],
            [
              78.415184,
              17.409096
            ],
            [
              78.416261,
              17.408096
            ],
            [
              78.416105,
              17.407096
            ],
            [
              78.418715,
              17.405096
            ],
            [
              78.419853,
              17.404753
            ],
            [
              78.421853,
              17.405592
            ],
            [
              78.422146,
              17.407096
            ],
            [
              78.423853,
              17.407396
            ],
            [
              78.426766,
              17.406009
            ],
            [
              78.427853,
              17.406843
            ],
            [
              78.430572,
              17.405815
            ],
            [
              78.431853,
              17.403925
            ],
            [
              78.435853,
              17.403773
            ],
            [
              78.436674,
              17.405274
            ],
            [
              78.439825,
              17.404123
            ],
            [
              78.439816,
              17.405132
            ],
            [
              78.440849,
              17.405099
            ],
            [
              78.440853,
              17.406139
            ],
            [
              78.440853,
              17.405069
            ],
            [
              78.439614,
              17.403335
            ],
            [
              78.439574,
              17.402096
            ],
            [
              78.443853,
              17.401512
            ],
            [
              78.444853,
              17.402541
            ],
            [
              78.445383,
              17.400626
            ],
            [
              78.448188,
              17.400096
            ],
            [
              78.444246,
              17.399702
            ],
            [
              78.442326,
              17.398622
            ],
            [
              78.442549,
              17.396399
            ],
            [
              78.440964,
              17.395096
            ],
            [
              78.442853,
              17.39413
            ],
            [
              78.444853,
              17.39519
            ],
            [
              78.445853,
              17.393676
            ],
            [
              78.446454,
              17.394494
            ],
            [
              78.447853,
              17.394678
            ],
            [
              78.448337,
              17.394096
            ],
            [
              78.447373,
              17.393096
            ],
            [
              78.447485,
              17.392096
            ],
            [
              78.449853,
              17.388933
            ],
            [
              78.452853,
              17.391325
            ],
            [
              78.453212,
              17.389096
            ],
            [
              78.45238,
              17.388096
            ],
            [
              78.453709,
              17.385952
            ],
            [
              78.456853,
              17.384918
            ],
            [
              78.458538,
              17.385096
            ],
            [
              78.458853,
              17.386152
            ],
            [
              78.459045,
              17.384096
            ],
            [
              78.460853,
              17.383711
            ],
            [
              78.461853,
              17.382599
            ],
            [
              78.462853,
              17.3835
            ],
            [
              78.464305,
              17.382643
            ],
            [
              78.464853,
              17.384217
            ],
            [
              78.465853,
              17.383334
            ],
            [
              78.468098,
              17.384851
            ],
            [
              78.469555,
              17.384798
            ],
            [
              78.472853,
              17.382235
            ],
            [
              78.473853,
              17.382994
            ],
            [
              78.474672,
              17.382914
            ],
            [
              78.474853,
              17.381836
            ],
            [
              78.475853,
              17.382062
            ],
            [
              78.476803,
              17.385145
            ],
            [
              78.480663,
              17.385285
            ],
            [
              78.480307,
              17.387096
            ],
            [
              78.481551,
              17.389397
            ],
            [
              78.482914,
              17.390096
            ],
            [
              78.48263,
              17.391096
            ],
            [
              78.484853,
              17.391384
            ],
            [
              78.485919,
              17.393029
            ],
            [
              78.487853,
              17.393081
            ],
            [
              78.489693,
              17.396096
            ],
            [
              78.487597,
              17.398096
            ],
            [
              78.488242,
              17.400707
            ],
            [
              78.489853,
              17.400632
            ],
            [
              78.489912,
              17.401155
            ],
            [
              78.486968,
              17.404096
            ],
            [
              78.487477,
              17.406471
            ],
            [
              78.488383,
              17.407096
            ],
            [
              78.487395,
              17.408096
            ],
            [
              78.489853,
              17.408364
            ],
            [
              78.490463,
              17.409096
            ],
            [
              78.488226,
              17.412096
            ],
            [
              78.486698,
              17.416096
            ],
            [
              78.484491,
              17.416096
            ],
            [
              78.485618,
              17.414096
            ],
            [
              78.484259,
              17.411689
            ],
            [
              78.480381,
              17.413096
            ],
            [
              78.480482,
              17.415466
            ],
            [
              78.48501,
              17.419938
            ],
            [
              78.485678,
              17.422096
            ],
            [
              78.485024,
              17.422267
            ],
            [
              78.478502,
              17.415446
            ],
            [
              78.476101,
              17.410847
            ],
            [
              78.474853,
              17.409753
            ],
            [
              78.472853,
              17.409753
            ],
            [
              78.47159,
              17.412096
            ],
            [
              78.471353,
              17.414596
            ],
            [
              78.467853,
              17.414865
            ],
            [
              78.466704,
              17.415947
            ],
            [
              78.466392,
              17.417635
            ],
            [
              78.465614,
              17.418096
            ],
            [
              78.466601,
              17.420096
            ],
            [
              78.465622,
              17.421096
            ],
            [
              78.465611,
              17.423096
            ],
            [
              78.463551,
              17.425096
            ],
            [
              78.462515,
              17.428096
            ],
            [
              78.463598,
              17.43035
            ],
            [
              78.465207,
              17.430741
            ],
            [
              78.465423,
              17.433096
            ],
            [
              78.467603,
              17.436345
            ],
            [
              78.471853,
              17.436898
            ],
            [
              78.474853,
              17.435304
            ],
            [
              78.478853,
              17.435774
            ],
            [
              78.479112,
              17.438096
            ],
            [
              78.477458,
              17.438701
            ],
            [
              78.477554,
              17.441395
            ],
            [
              78.480853,
              17.437672
            ],
            [
              78.481363,
              17.439585
            ],
            [
              78.484043,
              17.440096
            ],
            [
              78.482971,
              17.441214
            ],
            [
              78.481285,
              17.441528
            ],
            [
              78.481351,
              17.442597
            ],
            [
              78.489853,
              17.443223
            ],
            [
              78.485237,
              17.44348
            ],
            [
              78.485116,
              17.445096
            ],
            [
              78.482188,
              17.447431
            ],
            [
              78.481902,
              17.449145
            ],
            [
              78.480021,
              17.450264
            ],
            [
              78.4799,
              17.451143
            ],
            [
              78.478091,
              17.451334
            ],
            [
              78.477942,
              17.452185
            ],
            [
              78.475853,
              17.452499
            ],
            [
              78.475379,
              17.450096
            ],
            [
              78.473853,
              17.448674
            ],
            [
              78.472853,
              17.45063
            ],
            [
              78.467565,
              17.450808
            ],
            [
              78.465853,
              17.4532
            ],
            [
              78.464853,
              17.449738
            ],
            [
              78.461853,
              17.450292
            ],
            [
              78.457853,
              17.449799
            ],
            [
              78.455853,
              17.450573
            ],
            [
              78.455211,
              17.452454
            ],
            [
              78.452423,
              17.453096
            ],
            [
              78.457123,
              17.453825
            ],
            [
              78.456091,
              17.457333
            ],
            [
              78.455015,
              17.457258
            ],
            [
              78.452982,
              17.462225
            ],
            [
              78.450853,
              17.461774
            ],
            [
              78.448853,
              17.465071
            ],
            [
              78.447685,
              17.462263
            ],
            [
              78.446067,
              17.462096
            ],
            [
              78.449165,
              17.459407
            ],
            [
              78.448853,
              17.45784
            ],
            [
              78.445853,
              17.458069
            ],
            [
              78.443342,
              17.461096
            ],
            [
              78.442384,
              17.459564
            ],
            [
              78.441379,
              17.459622
            ],
            [
              78.440853,
              17.461243
            ],
            [
              78.439853,
              17.457572
            ],
            [
              78.438234,
              17.459096
            ],
            [
              78.437853,
              17.461452
            ],
            [
              78.436674,
              17.461274
            ],
            [
              78.436513,
              17.459096
            ],
            [
              78.434853,
              17.457673
            ],
            [
              78.433362,
              17.460096
            ],
            [
              78.434347,
              17.461096
            ],
            [
              78.434333,
              17.462575
            ],
            [
              78.431811,
              17.463054
            ],
            [
              78.43097,
              17.465096
            ],
            [
              78.430432,
              17.467096
            ],
            [
              78.431818,
              17.468096
            ],
            [
              78.430864,
              17.470107
            ],
            [
              78.428908,
              17.470151
            ],
            [
              78.428747,
              17.47099
            ],
            [
              78.426164,
              17.471407
            ],
            [
              78.425853,
              17.47237
            ]
          ]
        ],
        "type": "Polygon"
      },
      "type": "Feature"
    }
  ]
}