{
  "type": "FeatureCollection",
  "metadata": {
    "provider_name": "Maggi Magic",
    "center_lat": 17.4418403034,
    "center_lon": 78.3631353027,
    "mode": "motorcycle",
    "total_zones": 4,
    "distance_zones": [
      3,
      4,
      5,
      6
    ],
    "generated_at": "2025-12-26T09:05:24.319913Z"
  },
  "features": [
    {
      "properties": {
        "fill-opacity": 0.33,
        "fillColor": "#bf4040",
        "opacity": 0.33,
        "fill": "#bf4040",
        "fillOpacity": 0.33,
        "color": "#bf4040",
        "contour": 3.0,
        "metric": "distance",
        "provider_name": "Maggi Magic",
        "zone_type": "distance",
        "distance_km": 3,
        "mode": "motorcycle",
        "center_lat": 17.4418403034,
        "center_lon": 78.3631353027,
        "label": "3km"
      },
      "geometry": {
        "coordinates": [
          [
            [
              78.367135,
              17.466155
            ],
            [
              78.363202,
              17.46284
            ],
            [
              78.364746,
              17.462451
            ],
            [
              78.364596,
              17.461379
            ],
            [
              78.363643,
              17.461348
            ],
            [
              78.363135,
              17.462809
            ],
            [
              78.361818,
              17.462156
            ],
            [
              78.36175,
              17.46084
            ],
            [
              78.363784,
              17.45984
            ],
            [
              78.362135,
              17.457453
            ],
            [
              78.358722,
              17.458427
            ],
            [
              78.358135,
              17.459734
            ],
            [
              78.354355,
              17.46006
            ],
            [
              78.354178,
              17.460883
            ],
            [
              78.353234,
              17.46084
            ],
            [
              78.353299,
              17.45984
            ],
            [
              78.354339,
              17.459044
            ],
            [
              78.354204,
              17.45784
            ],
            [
              78.357135,
              17.457939
            ],
            [
              78.358723,
              17.45684
            ],
            [
              78.357637,
              17.454337
            ],
            [
              78.355934,
              17.45384
            ],
            [
              78.358135,
              17.45357
            ],
            [
              78.358667,
              17.454308
            ],
            [
              78.360135,
              17.454436
            ],
            [
              78.36162,
              17.453355
            ],
            [
              78.362135,
              17.45449
            ],
            [
              78.362543,
              17.45384
            ],
            [
              78.361417,
              17.452557
            ],
            [
              78.359135,
              17.451376
            ],
            [
              78.353135,
              17.45121
            ],
            [
              78.351183,
              17.452888
            ],
            [
              78.348842,
              17.453132
            ],
            [
              78.348204,
              17.45184
            ],
            [
              78.350573,
              17.451278
            ],
            [
              78.350135,
              17.450009
            ],
            [
              78.348558,
              17.450263
            ],
            [
              78.348018,
              17.451723
            ],
            [
              78.345803,
              17.451508
            ],
            [
              78.345183,
              17.451888
            ],
            [
              78.344534,
              17.45184
            ],
            [
              78.345094,
              17.451799
            ],
            [
              78.345135,
              17.448995
            ],
            [
              78.346213,
              17.44884
            ],
            [
              78.344875,
              17.4481
            ],
            [
              78.345135,
              17.445342
            ],
            [
              78.346135,
              17.444566
            ],
            [
              78.347135,
              17.445574
            ],
            [
              78.347807,
              17.44484
            ],
            [
              78.346606,
              17.44284
            ],
            [
              78.348201,
              17.441774
            ],
            [
              78.346276,
              17.44084
            ],
            [
              78.347846,
              17.439551
            ],
            [
              78.347926,
              17.438049
            ],
            [
              78.347033,
              17.436941
            ],
            [
              78.347135,
              17.435946
            ],
            [
              78.34731,
              17.436665
            ],
            [
              78.349135,
              17.436768
            ],
            [
              78.351135,
              17.435146
            ],
            [
              78.354135,
              17.434297
            ],
            [
              78.356135,
              17.436238
            ],
            [
              78.359553,
              17.434258
            ],
            [
              78.359488,
              17.43284
            ],
            [
              78.358516,
              17.43184
            ],
            [
              78.358663,
              17.42884
            ],
            [
              78.357593,
              17.42784
            ],
            [
              78.357683,
              17.42484
            ],
            [
              78.356709,
              17.42384
            ],
            [
              78.356733,
              17.419438
            ],
            [
              78.358135,
              17.417705
            ],
            [
              78.359642,
              17.41884
            ],
            [
              78.358395,
              17.4191
            ],
            [
              78.357629,
              17.420334
            ],
            [
              78.357372,
              17.42284
            ],
            [
              78.358412,
              17.42384
            ],
            [
              78.358598,
              17.42684
            ],
            [
              78.359664,
              17.42784
            ],
            [
              78.359728,
              17.43084
            ],
            [
              78.364135,
              17.436928
            ],
            [
              78.364338,
              17.436043
            ],
            [
              78.365892,
              17.43584
            ],
            [
              78.366452,
              17.430157
            ],
            [
              78.365983,
              17.42784
            ],
            [
              78.367284,
              17.429691
            ],
            [
              78.368868,
              17.429573
            ],
            [
              78.369135,
              17.428723
            ],
            [
              78.370135,
              17.42946
            ],
            [
              78.371685,
              17.42839
            ],
            [
              78.371803,
              17.426172
            ],
            [
              78.37105,
              17.425925
            ],
            [
              78.370864,
              17.42484
            ],
            [
              78.371135,
              17.421918
            ],
            [
              78.372135,
              17.42169
            ],
            [
              78.371406,
              17.42484
            ],
            [
              78.372886,
              17.42584
            ],
            [
              78.372547,
              17.42784
            ],
            [
              78.373135,
              17.428868
            ],
            [
              78.374592,
              17.42584
            ],
            [
              78.376135,
              17.424818
            ],
            [
              78.376267,
              17.425707
            ],
            [
              78.378893,
              17.425598
            ],
            [
              78.380081,
              17.423786
            ],
            [
              78.381041,
              17.423746
            ],
            [
              78.381128,
              17.422833
            ],
            [
              78.381959,
              17.42284
            ],
            [
              78.381184,
              17.422889
            ],
            [
              78.381207,
              17.423912
            ],
            [
              78.379638,
              17.425343
            ],
            [
              78.379135,
              17.429128
            ],
            [
              78.378135,
              17.429351
            ],
            [
              78.378116,
              17.428821
            ],
            [
              78.378968,
              17.428673
            ],
            [
              78.378969,
              17.42784
            ],
            [
              78.378135,
              17.42618
            ],
            [
              78.375629,
              17.42884
            ],
            [
              78.375784,
              17.433191
            ],
            [
              78.37824,
              17.43384
            ],
            [
              78.377201,
              17.43484
            ],
            [
              78.377581,
              17.43584
            ],
            [
              78.376526,
              17.436231
            ],
            [
              78.376782,
              17.438193
            ],
            [
              78.378576,
              17.438281
            ],
            [
              78.379135,
              17.436912
            ],
            [
              78.380935,
              17.43664
            ],
            [
              78.382135,
              17.435362
            ],
            [
              78.382531,
              17.43784
            ],
            [
              78.381135,
              17.440309
            ],
            [
              78.377954,
              17.441659
            ],
            [
              78.377135,
              17.446515
            ],
            [
              78.374135,
              17.443934
            ],
            [
              78.374106,
              17.44484
            ],
            [
              78.372135,
              17.446445
            ],
            [
              78.370691,
              17.446284
            ],
            [
              78.369146,
              17.443829
            ],
            [
              78.368087,
              17.44484
            ],
            [
              78.369727,
              17.447248
            ],
            [
              78.372458,
              17.44784
            ],
            [
              78.372456,
              17.44984
            ],
            [
              78.370512,
              17.45184
            ],
            [
              78.371339,
              17.45284
            ],
            [
              78.371403,
              17.454572
            ],
            [
              78.372216,
              17.454921
            ],
            [
              78.371646,
              17.45684
            ],
            [
              78.373748,
              17.45784
            ],
            [
              78.370135,
              17.463203
            ],
            [
              78.368135,
              17.462325
            ],
            [
              78.367135,
              17.466155
            ]
          ]
        ],
        "type": "Polygon"
      },
      "type": "Feature"
    },
    {
      "properties": {
        "fill-opacity": 0.33,
        "fillColor": "#bf4040",
        "opacity": 0.33,
        "fill": "#bf4040",
        "fillOpacity": 0.33,
        "color": "#bf4040",
        "contour": 4.0,
        "metric": "distance",
        "provider_name": "Maggi Magic",
        "zone_type": "distance",
        "distance_km": 4,
        "mode": "motorcycle",
        "center_lat": 17.4418403034,
        "center_lon": 78.3631353027,
        "label": "4km"
      },
      "geometry": {
        "coordinates": [
          [
            [
              78.364135,
              17.474281
            ],
            [
              78.362135,
              17.472565
            ],
            [
              78.362271,
              17.47084
            ],
            [
              78.360922,
              17.469053
            ],
            [
              78.361227,
              17.467748
            ],
            [
              78.359135,
              17.467268
            ],
            [
              78.358135,
              17.466162
            ],
            [
              78.355797,
              17.46584
            ],
            [
              78.357696,
              17.46484
            ],
            [
              78.357479,
              17.460496
            ],
            [
              78.355097,
              17.460802
            ],
            [
              78.352627,
              17.465332
            ],
            [
              78.35061,
              17.46684
            ],
            [
              78.347135,
              17.465767
            ],
            [
              78.346135,
              17.46424
            ],
            [
              78.344814,
              17.46484
            ],
            [
              78.34539,
              17.462095
            ],
            [
              78.347597,
              17.459302
            ],
            [
              78.348135,
              17.456099
            ],
            [
              78.349135,
              17.455767
            ],
            [
              78.350135,
              17.456672
            ],
            [
              78.351549,
              17.456254
            ],
            [
              78.351578,
              17.453397
            ],
            [
              78.346135,
              17.454234
            ],
            [
              78.345135,
              17.452348
            ],
            [
              78.340261,
              17.456966
            ],
            [
              78.339372,
              17.457077
            ],
            [
              78.339187,
              17.457892
            ],
            [
              78.338228,
              17.45784
            ],
            [
              78.33897,
              17.45684
            ],
            [
              78.338135,
              17.455094
            ],
            [
              78.340135,
              17.455184
            ],
            [
              78.344576,
              17.450281
            ],
            [
              78.342856,
              17.448119
            ],
            [
              78.342583,
              17.446392
            ],
            [
              78.340036,
              17.445938
            ],
            [
              78.340872,
              17.445577
            ],
            [
              78.340889,
              17.444086
            ],
            [
              78.338445,
              17.44384
            ],
            [
              78.340769,
              17.443474
            ],
            [
              78.341135,
              17.44177
            ],
            [
              78.341606,
              17.443368
            ],
            [
              78.342542,
              17.443247
            ],
            [
              78.342346,
              17.44084
            ],
            [
              78.345135,
              17.440206
            ],
            [
              78.345603,
              17.439371
            ],
            [
              78.341202,
              17.43884
            ],
            [
              78.344135,
              17.438612
            ],
            [
              78.344848,
              17.43784
            ],
            [
              78.342578,
              17.435396
            ],
            [
              78.340897,
              17.43484
            ],
            [
              78.342064,
              17.431769
            ],
            [
              78.343477,
              17.433497
            ],
            [
              78.344905,
              17.43284
            ],
            [
              78.343864,
              17.431111
            ],
            [
              78.343037,
              17.430938
            ],
            [
              78.343024,
              17.428951
            ],
            [
              78.342135,
              17.428346
            ],
            [
              78.343936,
              17.42884
            ],
            [
              78.343913,
              17.430062
            ],
            [
              78.345135,
              17.430276
            ],
            [
              78.348135,
              17.433435
            ],
            [
              78.349601,
              17.433306
            ],
            [
              78.351135,
              17.431481
            ],
            [
              78.351584,
              17.432391
            ],
            [
              78.352722,
              17.432427
            ],
            [
              78.353135,
              17.430884
            ],
            [
              78.353808,
              17.431167
            ],
            [
              78.354435,
              17.43384
            ],
            [
              78.356135,
              17.436125
            ],
            [
              78.359198,
              17.433903
            ],
            [
              78.356135,
              17.421347
            ],
            [
              78.354642,
              17.421347
            ],
            [
              78.35426,
              17.42284
            ],
            [
              78.353135,
              17.423215
            ],
            [
              78.35157,
              17.42284
            ],
            [
              78.352568,
              17.422273
            ],
            [
              78.352428,
              17.421547
            ],
            [
              78.350135,
              17.422221
            ],
            [
              78.348785,
              17.42084
            ],
            [
              78.350023,
              17.420728
            ],
            [
              78.350135,
              17.41851
            ],
            [
              78.351135,
              17.418733
            ],
            [
              78.35145,
              17.41784
            ],
            [
              78.353598,
              17.417303
            ],
            [
              78.35363,
              17.416344
            ],
            [
              78.352312,
              17.41584
            ],
            [
              78.352151,
              17.41484
            ],
            [
              78.353818,
              17.414523
            ],
            [
              78.355135,
              17.409972
            ],
            [
              78.355293,
              17.410681
            ],
            [
              78.356319,
              17.41084
            ],
            [
              78.355465,
              17.41117
            ],
            [
              78.355687,
              17.412288
            ],
            [
              78.360151,
              17.412824
            ],
            [
              78.359485,
              17.41484
            ],
            [
              78.359775,
              17.417199
            ],
            [
              78.364135,
              17.416502
            ],
            [
              78.365135,
              17.417341
            ],
            [
              78.368838,
              17.41784
            ],
            [
              78.367068,
              17.41984
            ],
            [
              78.364465,
              17.42017
            ],
            [
              78.364135,
              17.421758
            ],
            [
              78.363188,
              17.42084
            ],
            [
              78.363815,
              17.42052
            ],
            [
              78.363863,
              17.41884
            ],
            [
              78.363135,
              17.418314
            ],
            [
              78.362582,
              17.421287
            ],
            [
              78.360135,
              17.421189
            ],
            [
              78.359135,
              17.419354
            ],
            [
              78.357849,
              17.420554
            ],
            [
              78.357718,
              17.42284
            ],
            [
              78.35876,
              17.42384
            ],
            [
              78.359,
              17.42684
            ],
            [
              78.360082,
              17.42784
            ],
            [
              78.3601,
              17.43084
            ],
            [
              78.361135,
              17.432053
            ],
            [
              78.36193,
              17.43084
            ],
            [
              78.360506,
              17.42984
            ],
            [
              78.36131,
              17.428015
            ],
            [
              78.363135,
              17.428402
            ],
            [
              78.36234,
              17.42984
            ],
            [
              78.363135,
              17.430558
            ],
            [
              78.364553,
              17.429258
            ],
            [
              78.365135,
              17.427377
            ],
            [
              78.366359,
              17.427616
            ],
            [
              78.368135,
              17.429413
            ],
            [
              78.369135,
              17.428392
            ],
            [
              78.370135,
              17.429222
            ],
            [
              78.371442,
              17.428147
            ],
            [
              78.371607,
              17.42684
            ],
            [
              78.370556,
              17.42484
            ],
            [
              78.37058,
              17.42084
            ],
            [
              78.371732,
              17.418437
            ],
            [
              78.372718,
              17.41884
            ],
            [
              78.371858,
              17.425117
            ],
            [
              78.375135,
              17.425282
            ],
            [
              78.376135,
              17.424524
            ],
            [
              78.378135,
              17.425408
            ],
            [
              78.385135,
              17.419529
            ],
            [
              78.386635,
              17.41934
            ],
            [
              78.388135,
              17.417769
            ],
            [
              78.389659,
              17.41784
            ],
            [
              78.388307,
              17.420012
            ],
            [
              78.384731,
              17.421436
            ],
            [
              78.379719,
              17.42584
            ],
            [
              78.380135,
              17.427805
            ],
            [
              78.382135,
              17.427881
            ],
            [
              78.383481,
              17.429186
            ],
            [
              78.382686,
              17.43284
            ],
            [
              78.381495,
              17.4332
            ],
            [
              78.381461,
              17.434166
            ],
            [
              78.37969,
              17.434395
            ],
            [
              78.379809,
              17.436166
            ],
            [
              78.387135,
              17.430653
            ],
            [
              78.390256,
              17.43184
            ],
            [
              78.388476,
              17.432181
            ],
            [
              78.38756,
              17.43784
            ],
            [
              78.38551,
              17.43984
            ],
            [
              78.386517,
              17.44184
            ],
            [
              78.386112,
              17.445817
            ],
            [
              78.385135,
              17.446851
            ],
            [
              78.38342,
              17.446125
            ],
            [
              78.383135,
              17.446928
            ],
            [
              78.381438,
              17.445537
            ],
            [
              78.379135,
              17.445313
            ],
            [
              78.378495,
              17.44348
            ],
            [
              78.377873,
              17.443578
            ],
            [
              78.377938,
              17.446036
            ],
            [
              78.379622,
              17.447353
            ],
            [
              78.380135,
              17.449059
            ],
            [
              78.382653,
              17.44984
            ],
            [
              78.383059,
              17.45284
            ],
            [
              78.377673,
              17.456378
            ],
            [
              78.377248,
              17.460953
            ],
            [
              78.376437,
              17.461142
            ],
            [
              78.376135,
              17.462266
            ],
            [
              78.37543,
              17.46084
            ],
            [
              78.376705,
              17.45941
            ],
            [
              78.37655,
              17.457424
            ],
            [
              78.375757,
              17.457462
            ],
            [
              78.372794,
              17.46084
            ],
            [
              78.372673,
              17.46284
            ],
            [
              78.371578,
              17.46384
            ],
            [
              78.372135,
              17.4645
            ],
            [
              78.375135,
              17.464464
            ],
            [
              78.374713,
              17.46584
            ],
            [
              78.375729,
              17.46784
            ],
            [
              78.375252,
              17.46884
            ],
            [
              78.371135,
              17.468418
            ],
            [
              78.370888,
              17.467086
            ],
            [
              78.368135,
              17.46728
            ],
            [
              78.366667,
              17.46884
            ],
            [
              78.364135,
              17.474281
            ]
          ]
        ],
        "type": "Polygon"
      },
      "type": "Feature"
    },
    {
      "properties": {
        "fill-opacity": 0.33,
        "fillColor": "#bf4040",
        "opacity": 0.33,
        "fill": "#bf4040",
        "fillOpacity": 0.33,
        "color": "#bf4040",
        "contour": 5.0,
        "metric": "distance",
        "provider_name": "Maggi Magic",
        "zone_type": "distance",
        "distance_km": 5,
        "mode": "motorcycle",
        "center_lat": 17.4418403034,
        "center_lon": 78.3631353027,
        "label": "5km"
      },
      "geometry": {
        "coordinates": [
          [
            [
              78.361135,
              17.481898
            ],
            [
              78.360221,
              17.481926
            ],
            [
              78.360135,
              17.482577
            ],
            [
              78.358001,
              17.47984
            ],
            [
              78.356796,
              17.47584
            ],
            [
              78.355454,
              17.47484
            ],
            [
              78.355595,
              17.47384
            ],
            [
              78.354456,
              17.472519
            ],
            [
              78.353135,
              17.473851
            ],
            [
              78.351561,
              17.472414
            ],
            [
              78.350975,
              17.47068
            ],
            [
              78.349135,
              17.474897
            ],
            [
              78.345894,
              17.47208
            ],
            [
              78.345754,
              17.470221
            ],
            [
              78.344294,
              17.469999
            ],
            [
              78.344135,
              17.470648
            ],
            [
              78.342135,
              17.465287
            ],
            [
              78.340724,
              17.46525
            ],
            [
              78.338717,
              17.463258
            ],
            [
              78.337555,
              17.46326
            ],
            [
              78.336135,
              17.464471
            ],
            [
              78.335992,
              17.463982
            ],
            [
              78.334524,
              17.464229
            ],
            [
              78.333314,
              17.465019
            ],
            [
              78.333135,
              17.466124
            ],
            [
              78.332836,
              17.460138
            ],
            [
              78.331911,
              17.45984
            ],
            [
              78.331701,
              17.45884
            ],
            [
              78.333135,
              17.458996
            ],
            [
              78.335135,
              17.460544
            ],
            [
              78.336521,
              17.460226
            ],
            [
              78.33859,
              17.45684
            ],
            [
              78.336622,
              17.45384
            ],
            [
              78.336951,
              17.450656
            ],
            [
              78.340135,
              17.452448
            ],
            [
              78.34097,
              17.450675
            ],
            [
              78.3444,
              17.450105
            ],
            [
              78.342252,
              17.446723
            ],
            [
              78.339733,
              17.446242
            ],
            [
              78.34042,
              17.444554
            ],
            [
              78.335834,
              17.44414
            ],
            [
              78.335498,
              17.441476
            ],
            [
              78.332095,
              17.43888
            ],
            [
              78.338741,
              17.437446
            ],
            [
              78.338135,
              17.436193
            ],
            [
              78.335017,
              17.435957
            ],
            [
              78.335135,
              17.434786
            ],
            [
              78.336135,
              17.434689
            ],
            [
              78.337135,
              17.435586
            ],
            [
              78.337758,
              17.43484
            ],
            [
              78.33685,
              17.431125
            ],
            [
              78.336096,
              17.430879
            ],
            [
              78.335791,
              17.42984
            ],
            [
              78.336201,
              17.429906
            ],
            [
              78.33625,
              17.430725
            ],
            [
              78.340135,
              17.43147
            ],
            [
              78.340268,
              17.431973
            ],
            [
              78.339135,
              17.431998
            ],
            [
              78.338452,
              17.43284
            ],
            [
              78.340491,
              17.433196
            ],
            [
              78.34261,
              17.431315
            ],
            [
              78.342372,
              17.429603
            ],
            [
              78.340534,
              17.42784
            ],
            [
              78.340262,
              17.42584
            ],
            [
              78.341769,
              17.425474
            ],
            [
              78.343837,
              17.422542
            ],
            [
              78.3454,
              17.422105
            ],
            [
              78.345833,
              17.420538
            ],
            [
              78.349497,
              17.420202
            ],
            [
              78.349511,
              17.419464
            ],
            [
              78.348283,
              17.41884
            ],
            [
              78.348725,
              17.41684
            ],
            [
              78.348135,
              17.416199
            ],
            [
              78.346135,
              17.418608
            ],
            [
              78.343446,
              17.41784
            ],
            [
              78.345049,
              17.414754
            ],
            [
              78.347649,
              17.413354
            ],
            [
              78.349135,
              17.409241
            ],
            [
              78.349438,
              17.410536
            ],
            [
              78.351681,
              17.41084
            ],
            [
              78.350479,
              17.412184
            ],
            [
              78.350658,
              17.413317
            ],
            [
              78.352135,
              17.414341
            ],
            [
              78.353443,
              17.414148
            ],
            [
              78.353639,
              17.41284
            ],
            [
              78.352242,
              17.41184
            ],
            [
              78.352212,
              17.41084
            ],
            [
              78.354516,
              17.410221
            ],
            [
              78.354702,
              17.40884
            ],
            [
              78.353719,
              17.40784
            ],
            [
              78.35378,
              17.40384
            ],
            [
              78.352883,
              17.40284
            ],
            [
              78.353135,
              17.401163
            ],
            [
              78.353397,
              17.402577
            ],
            [
              78.354428,
              17.40284
            ],
            [
              78.355827,
              17.40484
            ],
            [
              78.355832,
              17.406143
            ],
            [
              78.356522,
              17.406227
            ],
            [
              78.358135,
              17.404537
            ],
            [
              78.358664,
              17.408311
            ],
            [
              78.360632,
              17.408337
            ],
            [
              78.361832,
              17.407537
            ],
            [
              78.362135,
              17.406193
            ],
            [
              78.362377,
              17.407597
            ],
            [
              78.363163,
              17.40784
            ],
            [
              78.363135,
              17.409009
            ],
            [
              78.361135,
              17.409078
            ],
            [
              78.35858,
              17.41084
            ],
            [
              78.3588,
              17.412174
            ],
            [
              78.360759,
              17.41284
            ],
            [
              78.359741,
              17.41484
            ],
            [
              78.359901,
              17.417073
            ],
            [
              78.361135,
              17.417204
            ],
            [
              78.36389,
              17.41584
            ],
            [
              78.364135,
              17.412626
            ],
            [
              78.367135,
              17.411422
            ],
            [
              78.369135,
              17.41553
            ],
            [
              78.372135,
              17.416449
            ],
            [
              78.372455,
              17.41752
            ],
            [
              78.374135,
              17.418524
            ],
            [
              78.378155,
              17.41884
            ],
            [
              78.37789,
              17.419595
            ],
            [
              78.376135,
              17.419404
            ],
            [
              78.375135,
              17.420269
            ],
            [
              78.373135,
              17.419186
            ],
            [
              78.372806,
              17.42284
            ],
            [
              78.371826,
              17.42384
            ],
            [
              78.372135,
              17.425127
            ],
            [
              78.375135,
              17.425146
            ],
            [
              78.376135,
              17.42423
            ],
            [
              78.378135,
              17.425124
            ],
            [
              78.380451,
              17.422156
            ],
            [
              78.383379,
              17.421084
            ],
            [
              78.385135,
              17.41875
            ],
            [
              78.386421,
              17.419126
            ],
            [
              78.38874,
              17.41684
            ],
            [
              78.387715,
              17.414259
            ],
            [
              78.386253,
              17.413958
            ],
            [
              78.385773,
              17.41484
            ],
            [
              78.386079,
              17.413784
            ],
            [
              78.388135,
              17.412115
            ],
            [
              78.391916,
              17.41384
            ],
            [
              78.391199,
              17.413904
            ],
            [
              78.391302,
              17.41484
            ],
            [
              78.392135,
              17.415437
            ],
            [
              78.395135,
              17.411731
            ],
            [
              78.396307,
              17.411668
            ],
            [
              78.396521,
              17.412454
            ],
            [
              78.396143,
              17.413848
            ],
            [
              78.394646,
              17.41484
            ],
            [
              78.395135,
              17.417137
            ],
            [
              78.393135,
              17.417178
            ],
            [
              78.392135,
              17.418236
            ],
            [
              78.390779,
              17.417484
            ],
            [
              78.391466,
              17.422171
            ],
            [
              78.389135,
              17.424008
            ],
            [
              78.387967,
              17.423008
            ],
            [
              78.387135,
              17.420408
            ],
            [
              78.384884,
              17.421589
            ],
            [
              78.383568,
              17.423273
            ],
            [
              78.381916,
              17.423621
            ],
            [
              78.380733,
              17.425242
            ],
            [
              78.382392,
              17.425582
            ],
            [
              78.38179,
              17.427185
            ],
            [
              78.384135,
              17.426413
            ],
            [
              78.385401,
              17.427574
            ],
            [
              78.384625,
              17.42984
            ],
            [
              78.385797,
              17.431178
            ],
            [
              78.388135,
              17.430294
            ],
            [
              78.389135,
              17.431311
            ],
            [
              78.392304,
              17.43167
            ],
            [
              78.395135,
              17.434598
            ],
            [
              78.396135,
              17.433672
            ],
            [
              78.397891,
              17.43384
            ],
            [
              78.396654,
              17.434359
            ],
            [
              78.396368,
              17.43684
            ],
            [
              78.395135,
              17.438044
            ],
            [
              78.393135,
              17.437312
            ],
            [
              78.392135,
              17.435899
            ],
            [
              78.391502,
              17.432472
            ],
            [
              78.389737,
              17.432442
            ],
            [
              78.388613,
              17.43384
            ],
            [
              78.38892,
              17.436054
            ],
            [
              78.39006,
              17.43684
            ],
            [
              78.39041,
              17.439565
            ],
            [
              78.390135,
              17.441854
            ],
            [
              78.388135,
              17.441261
            ],
            [
              78.388888,
              17.44584
            ],
            [
              78.388038,
              17.44784
            ],
            [
              78.388884,
              17.44884
            ],
            [
              78.387796,
              17.45084
            ],
            [
              78.392409,
              17.45184
            ],
            [
              78.387547,
              17.45784
            ],
            [
              78.384807,
              17.457512
            ],
            [
              78.385598,
              17.45884
            ],
            [
              78.385135,
              17.462217
            ],
            [
              78.383053,
              17.460921
            ],
            [
              78.380552,
              17.456423
            ],
            [
              78.379001,
              17.455706
            ],
            [
              78.377734,
              17.45784
            ],
            [
              78.378747,
              17.45984
            ],
            [
              78.377672,
              17.46084
            ],
            [
              78.378363,
              17.46184
            ],
            [
              78.37749,
              17.464195
            ],
            [
              78.375943,
              17.46484
            ],
            [
              78.376135,
              17.466613
            ],
            [
              78.376983,
              17.466991
            ],
            [
              78.37764,
              17.46884
            ],
            [
              78.377135,
              17.470333
            ],
            [
              78.370537,
              17.469438
            ],
            [
              78.370135,
              17.468351
            ],
            [
              78.369571,
              17.46984
            ],
            [
              78.370423,
              17.47284
            ],
            [
              78.371135,
              17.473652
            ],
            [
              78.373076,
              17.47384
            ],
            [
              78.372714,
              17.474419
            ],
            [
              78.370135,
              17.476969
            ],
            [
              78.367135,
              17.476179
            ],
            [
              78.366631,
              17.47884
            ],
            [
              78.363135,
              17.481318
            ],
            [
              78.362135,
              17.480262
            ],
            [
              78.361135,
              17.481898
            ]
          ]
        ],
        "type": "Polygon"
      },
      "type": "Feature"
    },
    {
      "properties": {
        "fill-opacity": 0.33,
        "fillColor": "#bf4040",
        "opacity": 0.33,
        "fill": "#bf4040",
        "fillOpacity": 0.33,
        "color": "#bf4040",
        "contour": 6.0,
        "metric": "distance",
        "provider_name": "Maggi Magic",
        "zone_type": "distance",
        "distance_km": 6,
        "mode": "motorcycle",
        "center_lat": 17.4418403034,
        "center_lon": 78.3631353027,
        "label": "6km"
      },
      "geometry": {
        "coordinates": [
          [
            [
              78.357135,
              17.488978
            ],
            [
              78.354901,
              17.489073
            ],
            [
              78.35428,
              17.48784
            ],
            [
              78.355121,
              17.48684
            ],
            [
              78.354863,
              17.48584
            ],
            [
              78.355833,
              17.485538
            ],
            [
              78.356135,
              17.484138
            ],
            [
              78.356903,
              17.48384
            ],
            [
              78.352111,
              17.482864
            ],
            [
              78.350362,
              17.483067
            ],
            [
              78.350135,
              17.483757
            ],
            [
              78.349973,
              17.483002
            ],
            [
              78.348152,
              17.48284
            ],
            [
              78.348289,
              17.481686
            ],
            [
              78.345903,
              17.481072
            ],
            [
              78.34626,
              17.47984
            ],
            [
              78.345135,
              17.479047
            ],
            [
              78.342496,
              17.47884
            ],
            [
              78.343393,
              17.47684
            ],
            [
              78.344632,
              17.476337
            ],
            [
              78.344791,
              17.47484
            ],
            [
              78.343413,
              17.47384
            ],
            [
              78.343135,
              17.472718
            ],
            [
              78.341252,
              17.472957
            ],
            [
              78.341135,
              17.473544
            ],
            [
              78.340135,
              17.473171
            ],
            [
              78.338908,
              17.47084
            ],
            [
              78.339475,
              17.469499
            ],
            [
              78.335135,
              17.468385
            ],
            [
              78.334135,
              17.471622
            ],
            [
              78.332135,
              17.47265
            ],
            [
              78.330135,
              17.471778
            ],
            [
              78.328301,
              17.472006
            ],
            [
              78.328162,
              17.472867
            ],
            [
              78.327522,
              17.47284
            ],
            [
              78.328039,
              17.471744
            ],
            [
              78.328794,
              17.471499
            ],
            [
              78.328709,
              17.470265
            ],
            [
              78.32731,
              17.470015
            ],
            [
              78.32719,
              17.470895
            ],
            [
              78.326472,
              17.47084
            ],
            [
              78.327033,
              17.470738
            ],
            [
              78.327043,
              17.468748
            ],
            [
              78.328818,
              17.46684
            ],
            [
              78.326039,
              17.464935
            ],
            [
              78.326942,
              17.46384
            ],
            [
              78.326122,
              17.46284
            ],
            [
              78.327711,
              17.462416
            ],
            [
              78.328746,
              17.45984
            ],
            [
              78.327135,
              17.459115
            ],
            [
              78.326222,
              17.460927
            ],
            [
              78.325135,
              17.460841
            ],
            [
              78.324991,
              17.459984
            ],
            [
              78.323016,
              17.45884
            ],
            [
              78.325135,
              17.458044
            ],
            [
              78.326041,
              17.45684
            ],
            [
              78.325135,
              17.455997
            ],
            [
              78.323152,
              17.45584
            ],
            [
              78.323992,
              17.455697
            ],
            [
              78.324135,
              17.454232
            ],
            [
              78.324306,
              17.455669
            ],
            [
              78.325729,
              17.455434
            ],
            [
              78.326135,
              17.454655
            ],
            [
              78.328717,
              17.454422
            ],
            [
              78.330135,
              17.451796
            ],
            [
              78.332702,
              17.454272
            ],
            [
              78.334135,
              17.454286
            ],
            [
              78.335135,
              17.452734
            ],
            [
              78.336135,
              17.453585
            ],
            [
              78.337135,
              17.450242
            ],
            [
              78.340135,
              17.452218
            ],
            [
              78.340755,
              17.45046
            ],
            [
              78.344325,
              17.45003
            ],
            [
              78.342135,
              17.447233
            ],
            [
              78.339965,
              17.447009
            ],
            [
              78.338413,
              17.444562
            ],
            [
              78.335135,
              17.444088
            ],
            [
              78.332003,
              17.445972
            ],
            [
              78.330013,
              17.445962
            ],
            [
              78.325135,
              17.444163
            ],
            [
              78.324077,
              17.441782
            ],
            [
              78.325106,
              17.43884
            ],
            [
              78.327001,
              17.438706
            ],
            [
              78.328934,
              17.436639
            ],
            [
              78.334135,
              17.435491
            ],
            [
              78.335135,
              17.434007
            ],
            [
              78.337402,
              17.435107
            ],
            [
              78.337402,
              17.433572
            ],
            [
              78.336168,
              17.43284
            ],
            [
              78.336443,
              17.431532
            ],
            [
              78.335675,
              17.43138
            ],
            [
              78.335135,
              17.432653
            ],
            [
              78.334828,
              17.43084
            ],
            [
              78.332014,
              17.42684
            ],
            [
              78.333949,
              17.42584
            ],
            [
              78.333604,
              17.424309
            ],
            [
              78.334574,
              17.423279
            ],
            [
              78.335906,
              17.418611
            ],
            [
              78.338135,
              17.418889
            ],
            [
              78.337536,
              17.41784
            ],
            [
              78.339135,
              17.416611
            ],
            [
              78.340135,
              17.417571
            ],
            [
              78.341856,
              17.41584
            ],
            [
              78.33995,
              17.41384
            ],
            [
              78.339979,
              17.412684
            ],
            [
              78.341135,
              17.411995
            ],
            [
              78.341364,
              17.41384
            ],
            [
              78.343135,
              17.415481
            ],
            [
              78.343855,
              17.41484
            ],
            [
              78.34333,
              17.413035
            ],
            [
              78.346135,
              17.412367
            ],
            [
              78.346683,
              17.413291
            ],
            [
              78.347422,
              17.413127
            ],
            [
              78.348587,
              17.41084
            ],
            [
              78.348783,
              17.408488
            ],
            [
              78.349554,
              17.408421
            ],
            [
              78.350135,
              17.410303
            ],
            [
              78.354214,
              17.409919
            ],
            [
              78.354183,
              17.408791
            ],
            [
              78.353315,
              17.40866
            ],
            [
              78.351845,
              17.405129
            ],
            [
              78.350248,
              17.40484
            ],
            [
              78.352659,
              17.404364
            ],
            [
              78.352527,
              17.403448
            ],
            [
              78.350135,
              17.402645
            ],
            [
              78.349135,
              17.401163
            ],
            [
              78.344878,
              17.40084
            ],
            [
              78.346793,
              17.400498
            ],
            [
              78.348135,
              17.398727
            ],
            [
              78.349135,
              17.398617
            ],
            [
              78.350135,
              17.399555
            ],
            [
              78.352519,
              17.399224
            ],
            [
              78.352135,
              17.392232
            ],
            [
              78.353488,
              17.394487
            ],
            [
              78.356126,
              17.39484
            ],
            [
              78.35365,
              17.396355
            ],
            [
              78.353736,
              17.398238
            ],
            [
              78.355585,
              17.39829
            ],
            [
              78.356119,
              17.396824
            ],
            [
              78.359649,
              17.397325
            ],
            [
              78.35841,
              17.39984
            ],
            [
              78.360552,
              17.40284
            ],
            [
              78.36056,
              17.40484
            ],
            [
              78.360135,
              17.405265
            ],
            [
              78.358792,
              17.404497
            ],
            [
              78.358859,
              17.408116
            ],
            [
              78.360135,
              17.408252
            ],
            [
              78.36144,
              17.407145
            ],
            [
              78.364824,
              17.400529
            ],
            [
              78.368618,
              17.40184
            ],
            [
              78.368455,
              17.40384
            ],
            [
              78.367991,
              17.402984
            ],
            [
              78.366576,
              17.403281
            ],
            [
              78.366632,
              17.40484
            ],
            [
              78.365555,
              17.40684
            ],
            [
              78.366135,
              17.407425
            ],
            [
              78.368135,
              17.407254
            ],
            [
              78.369135,
              17.406184
            ],
            [
              78.371299,
              17.408004
            ],
            [
              78.364135,
              17.408326
            ],
            [
              78.363775,
              17.409199
            ],
            [
              78.367433,
              17.409542
            ],
            [
              78.368135,
              17.412384
            ],
            [
              78.371135,
              17.409294
            ],
            [
              78.372135,
              17.409316
            ],
            [
              78.372581,
              17.40984
            ],
            [
              78.371373,
              17.410078
            ],
            [
              78.371336,
              17.41084
            ],
            [
              78.372272,
              17.41184
            ],
            [
              78.372909,
              17.41684
            ],
            [
              78.374135,
              17.41711
            ],
            [
              78.375565,
              17.41641
            ],
            [
              78.375863,
              17.418112
            ],
            [
              78.377135,
              17.417125
            ],
            [
              78.379135,
              17.417464
            ],
            [
              78.380135,
              17.416761
            ],
            [
              78.381441,
              17.41684
            ],
            [
              78.382135,
              17.41785
            ],
            [
              78.383135,
              17.417439
            ],
            [
              78.381555,
              17.414419
            ],
            [
              78.379203,
              17.41384
            ],
            [
              78.380631,
              17.413336
            ],
            [
              78.381473,
              17.411178
            ],
            [
              78.381128,
              17.409833
            ],
            [
              78.38289,
              17.409595
            ],
            [
              78.383092,
              17.407797
            ],
            [
              78.38581,
              17.407515
            ],
            [
              78.386135,
              17.40514
            ],
            [
              78.388185,
              17.40579
            ],
            [
              78.389135,
              17.407475
            ],
            [
              78.390403,
              17.406572
            ],
            [
              78.393135,
              17.409503
            ],
            [
              78.393829,
              17.40884
            ],
            [
              78.392949,
              17.408025
            ],
            [
              78.393135,
              17.407151
            ],
            [
              78.395105,
              17.40687
            ],
            [
              78.396135,
              17.41011
            ],
            [
              78.397935,
              17.40884
            ],
            [
              78.398013,
              17.40784
            ],
            [
              78.403635,
              17.40634
            ],
            [
              78.403578,
              17.40784
            ],
            [
              78.402543,
              17.40884
            ],
            [
              78.402863,
              17.41084
            ],
            [
              78.401237,
              17.412942
            ],
            [
              78.399475,
              17.41318
            ],
            [
              78.399242,
              17.41384
            ],
            [
              78.399581,
              17.416393
            ],
            [
              78.401538,
              17.416437
            ],
            [
              78.402828,
              17.41884
            ],
            [
              78.398836,
              17.420541
            ],
            [
              78.398121,
              17.42284
            ],
            [
              78.399156,
              17.423819
            ],
            [
              78.401292,
              17.42384
            ],
            [
              78.402082,
              17.42484
            ],
            [
              78.401398,
              17.42584
            ],
            [
              78.403515,
              17.42684
            ],
            [
              78.403392,
              17.42784
            ],
            [
              78.405189,
              17.42784
            ],
            [
              78.40374,
              17.43184
            ],
            [
              78.405181,
              17.43284
            ],
            [
              78.40345,
              17.433155
            ],
            [
              78.402243,
              17.435948
            ],
            [
              78.400135,
              17.438089
            ],
            [
              78.399135,
              17.43828
            ],
            [
              78.399094,
              17.437799
            ],
            [
              78.399882,
              17.43684
            ],
            [
              78.398798,
              17.436503
            ],
            [
              78.395135,
              17.442687
            ],
            [
              78.394733,
              17.441242
            ],
            [
              78.393676,
              17.441381
            ],
            [
              78.39351,
              17.442464
            ],
            [
              78.395007,
              17.44284
            ],
            [
              78.394135,
              17.444807
            ],
            [
              78.391917,
              17.446622
            ],
            [
              78.391948,
              17.448027
            ],
            [
              78.394135,
              17.449238
            ],
            [
              78.395203,
              17.44684
            ],
            [
              78.397135,
              17.451369
            ],
            [
              78.398135,
              17.450469
            ],
            [
              78.401894,
              17.45084
            ],
            [
              78.400135,
              17.453716
            ],
            [
              78.397135,
              17.455977
            ],
            [
              78.396135,
              17.455607
            ],
            [
              78.392135,
              17.45819
            ],
            [
              78.389135,
              17.458282
            ],
            [
              78.388135,
              17.460256
            ],
            [
              78.386883,
              17.460092
            ],
            [
              78.387695,
              17.45884
            ],
            [
              78.387135,
              17.458355
            ],
            [
              78.385813,
              17.459518
            ],
            [
              78.385742,
              17.462232
            ],
            [
              78.387552,
              17.46284
            ],
            [
              78.386414,
              17.46484
            ],
            [
              78.386222,
              17.469753
            ],
            [
              78.387164,
              17.469811
            ],
            [
              78.387135,
              17.470887
            ],
            [
              78.386969,
              17.470006
            ],
            [
              78.386039,
              17.469936
            ],
            [
              78.385135,
              17.469228
            ],
            [
              78.384135,
              17.470723
            ],
            [
              78.383892,
              17.469083
            ],
            [
              78.382569,
              17.46884
            ],
            [
              78.38229,
              17.46584
            ],
            [
              78.384722,
              17.46484
            ],
            [
              78.383555,
              17.46342
            ],
            [
              78.382135,
              17.463238
            ],
            [
              78.381397,
              17.464102
            ],
            [
              78.379627,
              17.464332
            ],
            [
              78.37905,
              17.46684
            ],
            [
              78.37977,
              17.46784
            ],
            [
              78.379725,
              17.47084
            ],
            [
              78.377476,
              17.47384
            ],
            [
              78.378135,
              17.474593
            ],
            [
              78.380098,
              17.47484
            ],
            [
              78.37926,
              17.474965
            ],
            [
              78.379272,
              17.475977
            ],
            [
              78.377121,
              17.477854
            ],
            [
              78.375135,
              17.476743
            ],
            [
              78.374135,
              17.478467
            ],
            [
              78.373135,
              17.477372
            ],
            [
              78.370791,
              17.477496
            ],
            [
              78.370537,
              17.47984
            ],
            [
              78.371135,
              17.480616
            ],
            [
              78.373135,
              17.479725
            ],
            [
              78.37448,
              17.47984
            ],
            [
              78.37323,
              17.479935
            ],
            [
              78.373203,
              17.480908
            ],
            [
              78.371493,
              17.481198
            ],
            [
              78.371135,
              17.482072
            ],
            [
              78.369956,
              17.482018
            ],
            [
              78.369135,
              17.480202
            ],
            [
              78.367135,
              17.482265
            ],
            [
              78.360878,
              17.482583
            ],
            [
              78.360842,
              17.48484
            ],
            [
              78.357347,
              17.48784
            ],
            [
              78.357135,
              17.488978
            ]
          ]
        ],
        "type": "Polygon"
      },
      "type": "Feature"
    }
  ]
}