{
  "type": "FeatureCollection",
  "metadata": {
    "provider_name": "Crown Point",
    "center_lat": 18.676117,
    "center_lon": 73.835412,
    "mode": "motorcycle",
    "total_zones": 4,
    "distance_zones": [
      3,
      4,
      5,
      6
    ],
    "generated_at": "2025-12-24T07:00:19.851046Z"
  },
  "features": [
    {
      "properties": {
        "fill-opacity": 0.33,
        "fillColor": "#bf4040",
        "opacity": 0.33,
        "fill": "#bf4040",
        "fillOpacity": 0.33,
        "color": "#bf4040",
        "contour": 3.0,
        "metric": "distance",
        "provider_name": "Crown Point",
        "zone_type": "distance",
        "distance_km": 3,
        "mode": "motorcycle",
        "center_lat": 18.676117,
        "center_lon": 73.835412,
        "label": "3km"
      },
      "geometry": {
        "coordinates": [
          [
            [
              73.833412,
              18.689561
            ],
            [
              73.831412,
              18.688627
            ],
            [
              73.830412,
              18.689548
            ],
            [
              73.82817,
              18.689358
            ],
            [
              73.827412,
              18.686544
            ],
            [
              73.825412,
              18.686599
            ],
            [
              73.824412,
              18.687539
            ],
            [
              73.821412,
              18.686472
            ],
            [
              73.818412,
              18.688127
            ],
            [
              73.819234,
              18.686117
            ],
            [
              73.817412,
              18.682866
            ],
            [
              73.815412,
              18.685365
            ],
            [
              73.812415,
              18.684117
            ],
            [
              73.812985,
              18.682117
            ],
            [
              73.8153,
              18.680117
            ],
            [
              73.814584,
              18.679117
            ],
            [
              73.819412,
              18.674487
            ],
            [
              73.819696,
              18.672117
            ],
            [
              73.822307,
              18.669117
            ],
            [
              73.821412,
              18.667354
            ],
            [
              73.82038,
              18.668148
            ],
            [
              73.818412,
              18.667049
            ],
            [
              73.818296,
              18.664232
            ],
            [
              73.817519,
              18.664117
            ],
            [
              73.817329,
              18.662117
            ],
            [
              73.818412,
              18.660782
            ],
            [
              73.820105,
              18.66081
            ],
            [
              73.820412,
              18.659355
            ],
            [
              73.82348,
              18.661185
            ],
            [
              73.825559,
              18.659264
            ],
            [
              73.824483,
              18.657117
            ],
            [
              73.825412,
              18.65565
            ],
            [
              73.828412,
              18.657586
            ],
            [
              73.829207,
              18.656912
            ],
            [
              73.830249,
              18.657117
            ],
            [
              73.829746,
              18.660117
            ],
            [
              73.831785,
              18.660743
            ],
            [
              73.831992,
              18.662117
            ],
            [
              73.832691,
              18.662396
            ],
            [
              73.83397,
              18.661117
            ],
            [
              73.834067,
              18.656117
            ],
            [
              73.833412,
              18.655204
            ],
            [
              73.831625,
              18.655117
            ],
            [
              73.832292,
              18.654997
            ],
            [
              73.832412,
              18.651824
            ],
            [
              73.832717,
              18.652811
            ],
            [
              73.835153,
              18.652858
            ],
            [
              73.835412,
              18.652285
            ],
            [
              73.835478,
              18.653117
            ],
            [
              73.834641,
              18.654117
            ],
            [
              73.835412,
              18.656732
            ],
            [
              73.839101,
              18.655806
            ],
            [
              73.839412,
              18.65466
            ],
            [
              73.840412,
              18.654545
            ],
            [
              73.840907,
              18.655117
            ],
            [
              73.837826,
              18.657117
            ],
            [
              73.838412,
              18.657762
            ],
            [
              73.841233,
              18.658117
            ],
            [
              73.841256,
              18.661272
            ],
            [
              73.844105,
              18.66181
            ],
            [
              73.845412,
              18.660973
            ],
            [
              73.847656,
              18.661117
            ],
            [
              73.846105,
              18.66181
            ],
            [
              73.846077,
              18.663782
            ],
            [
              73.844609,
              18.664314
            ],
            [
              73.843412,
              18.666483
            ],
            [
              73.841365,
              18.66607
            ],
            [
              73.841034,
              18.669117
            ],
            [
              73.842045,
              18.670117
            ],
            [
              73.840844,
              18.671549
            ],
            [
              73.839189,
              18.671894
            ],
            [
              73.839121,
              18.675407
            ],
            [
              73.843412,
              18.674617
            ],
            [
              73.844147,
              18.678381
            ],
            [
              73.844895,
              18.678117
            ],
            [
              73.845091,
              18.676796
            ],
            [
              73.846412,
              18.676605
            ],
            [
              73.848756,
              18.678461
            ],
            [
              73.848816,
              18.677712
            ],
            [
              73.848071,
              18.677457
            ],
            [
              73.849002,
              18.676117
            ],
            [
              73.848129,
              18.674117
            ],
            [
              73.848412,
              18.670918
            ],
            [
              73.8506,
              18.673117
            ],
            [
              73.849744,
              18.673449
            ],
            [
              73.850009,
              18.676519
            ],
            [
              73.851121,
              18.676117
            ],
            [
              73.851412,
              18.673971
            ],
            [
              73.854412,
              18.674003
            ],
            [
              73.856167,
              18.676117
            ],
            [
              73.854601,
              18.678117
            ],
            [
              73.856412,
              18.678948
            ],
            [
              73.857204,
              18.678909
            ],
            [
              73.857412,
              18.677836
            ],
            [
              73.85843,
              18.678117
            ],
            [
              73.857471,
              18.678176
            ],
            [
              73.857505,
              18.67921
            ],
            [
              73.856461,
              18.680166
            ],
            [
              73.854412,
              18.679415
            ],
            [
              73.85299,
              18.679695
            ],
            [
              73.854423,
              18.683128
            ],
            [
              73.852036,
              18.683741
            ],
            [
              73.850537,
              18.685242
            ],
            [
              73.847297,
              18.685002
            ],
            [
              73.848129,
              18.686117
            ],
            [
              73.847412,
              18.687538
            ],
            [
              73.846412,
              18.687861
            ],
            [
              73.844412,
              18.685781
            ],
            [
              73.844101,
              18.686806
            ],
            [
              73.841412,
              18.686613
            ],
            [
              73.840412,
              18.687652
            ],
            [
              73.837412,
              18.687696
            ],
            [
              73.836412,
              18.688691
            ],
            [
              73.834412,
              18.688649
            ],
            [
              73.833412,
              18.689561
            ]
          ]
        ],
        "type": "Polygon"
      },
      "type": "Feature"
    },
    {
      "properties": {
        "fill-opacity": 0.33,
        "fillColor": "#bf4040",
        "opacity": 0.33,
        "fill": "#bf4040",
        "fillOpacity": 0.33,
        "color": "#bf4040",
        "contour": 4.0,
        "metric": "distance",
        "provider_name": "Crown Point",
        "zone_type": "distance",
        "distance_km": 4,
        "mode": "motorcycle",
        "center_lat": 18.676117,
        "center_lon": 73.835412,
        "label": "4km"
      },
      "geometry": {
        "coordinates": [
          [
            [
              73.847412,
              18.696462
            ],
            [
              73.844828,
              18.694117
            ],
            [
              73.843901,
              18.691627
            ],
            [
              73.841382,
              18.691146
            ],
            [
              73.843412,
              18.690905
            ],
            [
              73.844412,
              18.689897
            ],
            [
              73.845412,
              18.690775
            ],
            [
              73.845989,
              18.690117
            ],
            [
              73.84476,
              18.687768
            ],
            [
              73.842412,
              18.686764
            ],
            [
              73.832412,
              18.689768
            ],
            [
              73.831412,
              18.688788
            ],
            [
              73.830412,
              18.689754
            ],
            [
              73.828004,
              18.689524
            ],
            [
              73.827412,
              18.686753
            ],
            [
              73.825412,
              18.686776
            ],
            [
              73.824412,
              18.68775
            ],
            [
              73.822412,
              18.686716
            ],
            [
              73.821123,
              18.686828
            ],
            [
              73.820013,
              18.688515
            ],
            [
              73.822474,
              18.689054
            ],
            [
              73.822644,
              18.692884
            ],
            [
              73.823414,
              18.693117
            ],
            [
              73.821047,
              18.693752
            ],
            [
              73.821743,
              18.695117
            ],
            [
              73.821412,
              18.696408
            ],
            [
              73.82017,
              18.695359
            ],
            [
              73.818389,
              18.695117
            ],
            [
              73.817773,
              18.692117
            ],
            [
              73.816412,
              18.691901
            ],
            [
              73.815026,
              18.689502
            ],
            [
              73.813829,
              18.689534
            ],
            [
              73.812412,
              18.692223
            ],
            [
              73.808412,
              18.690638
            ],
            [
              73.806412,
              18.688994
            ],
            [
              73.805412,
              18.689331
            ],
            [
              73.804071,
              18.688117
            ],
            [
              73.805297,
              18.686117
            ],
            [
              73.804232,
              18.685296
            ],
            [
              73.804412,
              18.683164
            ],
            [
              73.808511,
              18.679216
            ],
            [
              73.807501,
              18.679206
            ],
            [
              73.806783,
              18.678117
            ],
            [
              73.807154,
              18.675859
            ],
            [
              73.809649,
              18.676354
            ],
            [
              73.811412,
              18.675885
            ],
            [
              73.811928,
              18.674117
            ],
            [
              73.812945,
              18.67365
            ],
            [
              73.813412,
              18.671843
            ],
            [
              73.814444,
              18.671117
            ],
            [
              73.81421,
              18.669117
            ],
            [
              73.815412,
              18.668176
            ],
            [
              73.817626,
              18.669902
            ],
            [
              73.819184,
              18.669117
            ],
            [
              73.817549,
              18.668117
            ],
            [
              73.81763,
              18.664898
            ],
            [
              73.815412,
              18.664792
            ],
            [
              73.813412,
              18.663552
            ],
            [
              73.808328,
              18.664201
            ],
            [
              73.809018,
              18.661723
            ],
            [
              73.813412,
              18.656563
            ],
            [
              73.814412,
              18.656908
            ],
            [
              73.81827,
              18.655975
            ],
            [
              73.819412,
              18.654458
            ],
            [
              73.819807,
              18.655721
            ],
            [
              73.822825,
              18.65553
            ],
            [
              73.822861,
              18.653668
            ],
            [
              73.820615,
              18.65332
            ],
            [
              73.820412,
              18.653834
            ],
            [
              73.81913,
              18.653117
            ],
            [
              73.821086,
              18.652791
            ],
            [
              73.820821,
              18.650117
            ],
            [
              73.822412,
              18.647743
            ],
            [
              73.824412,
              18.647195
            ],
            [
              73.827412,
              18.648669
            ],
            [
              73.828704,
              18.648409
            ],
            [
              73.826548,
              18.646117
            ],
            [
              73.826619,
              18.645117
            ],
            [
              73.828412,
              18.644448
            ],
            [
              73.831412,
              18.645229
            ],
            [
              73.832412,
              18.646485
            ],
            [
              73.833412,
              18.645199
            ],
            [
              73.83431,
              18.646218
            ],
            [
              73.837412,
              18.645941
            ],
            [
              73.837623,
              18.646906
            ],
            [
              73.839628,
              18.647117
            ],
            [
              73.838722,
              18.647427
            ],
            [
              73.839412,
              18.648811
            ],
            [
              73.841042,
              18.648747
            ],
            [
              73.842412,
              18.647297
            ],
            [
              73.843656,
              18.647872
            ],
            [
              73.843104,
              18.649117
            ],
            [
              73.844078,
              18.650117
            ],
            [
              73.843821,
              18.651707
            ],
            [
              73.84516,
              18.651865
            ],
            [
              73.845412,
              18.650296
            ],
            [
              73.848146,
              18.653117
            ],
            [
              73.849412,
              18.656653
            ],
            [
              73.844007,
              18.656712
            ],
            [
              73.842071,
              18.658776
            ],
            [
              73.841859,
              18.661117
            ],
            [
              73.843412,
              18.661522
            ],
            [
              73.845412,
              18.660578
            ],
            [
              73.84896,
              18.660568
            ],
            [
              73.848747,
              18.663781
            ],
            [
              73.851423,
              18.664105
            ],
            [
              73.851547,
              18.665117
            ],
            [
              73.850656,
              18.665361
            ],
            [
              73.850651,
              18.666117
            ],
            [
              73.851412,
              18.666906
            ],
            [
              73.853291,
              18.666996
            ],
            [
              73.853412,
              18.66609
            ],
            [
              73.853508,
              18.66702
            ],
            [
              73.85492,
              18.668117
            ],
            [
              73.853912,
              18.668617
            ],
            [
              73.853964,
              18.669564
            ],
            [
              73.855632,
              18.669896
            ],
            [
              73.856412,
              18.670856
            ],
            [
              73.857412,
              18.668981
            ],
            [
              73.858412,
              18.670908
            ],
            [
              73.862234,
              18.671117
            ],
            [
              73.863953,
              18.672117
            ],
            [
              73.864342,
              18.673117
            ],
            [
              73.863339,
              18.673189
            ],
            [
              73.863208,
              18.67232
            ],
            [
              73.86093,
              18.672635
            ],
            [
              73.859022,
              18.675506
            ],
            [
              73.859843,
              18.675548
            ],
            [
              73.860412,
              18.674299
            ],
            [
              73.862514,
              18.674014
            ],
            [
              73.86316,
              18.676368
            ],
            [
              73.866451,
              18.678077
            ],
            [
              73.867089,
              18.679117
            ],
            [
              73.863412,
              18.679684
            ],
            [
              73.862738,
              18.679117
            ],
            [
              73.863264,
              18.678969
            ],
            [
              73.862869,
              18.677659
            ],
            [
              73.861412,
              18.677516
            ],
            [
              73.860412,
              18.678545
            ],
            [
              73.858086,
              18.678791
            ],
            [
              73.856889,
              18.680594
            ],
            [
              73.853153,
              18.679858
            ],
            [
              73.854933,
              18.682117
            ],
            [
              73.854748,
              18.683453
            ],
            [
              73.852068,
              18.684773
            ],
            [
              73.851699,
              18.687404
            ],
            [
              73.850412,
              18.686546
            ],
            [
              73.849034,
              18.687739
            ],
            [
              73.848675,
              18.68938
            ],
            [
              73.847412,
              18.688601
            ],
            [
              73.846876,
              18.689117
            ],
            [
              73.847228,
              18.6923
            ],
            [
              73.848062,
              18.693117
            ],
            [
              73.847412,
              18.696462
            ]
          ]
        ],
        "type": "Polygon"
      },
      "type": "Feature"
    },
    {
      "properties": {
        "fill-opacity": 0.33,
        "fillColor": "#bf4040",
        "opacity": 0.33,
        "fill": "#bf4040",
        "fillOpacity": 0.33,
        "color": "#bf4040",
        "contour": 5.0,
        "metric": "distance",
        "provider_name": "Crown Point",
        "zone_type": "distance",
        "distance_km": 5,
        "mode": "motorcycle",
        "center_lat": 18.676117,
        "center_lon": 73.835412,
        "label": "5km"
      },
      "geometry": {
        "coordinates": [
          [
            [
              73.848412,
              18.705283
            ],
            [
              73.847371,
              18.705117
            ],
            [
              73.84708,
              18.703448
            ],
            [
              73.845275,
              18.703117
            ],
            [
              73.847052,
              18.702757
            ],
            [
              73.847122,
              18.701117
            ],
            [
              73.846412,
              18.700455
            ],
            [
              73.845412,
              18.701386
            ],
            [
              73.843769,
              18.701474
            ],
            [
              73.843687,
              18.703117
            ],
            [
              73.842412,
              18.703201
            ],
            [
              73.842434,
              18.703094
            ],
            [
              73.843335,
              18.70304
            ],
            [
              73.84312,
              18.701408
            ],
            [
              73.841592,
              18.701117
            ],
            [
              73.844889,
              18.700594
            ],
            [
              73.844105,
              18.699117
            ],
            [
              73.844797,
              18.696731
            ],
            [
              73.842412,
              18.695495
            ],
            [
              73.840412,
              18.695368
            ],
            [
              73.83978,
              18.695485
            ],
            [
              73.839412,
              18.697156
            ],
            [
              73.838129,
              18.6954
            ],
            [
              73.837866,
              18.694117
            ],
            [
              73.839577,
              18.692282
            ],
            [
              73.840425,
              18.692104
            ],
            [
              73.840594,
              18.692934
            ],
            [
              73.841435,
              18.693093
            ],
            [
              73.840636,
              18.693341
            ],
            [
              73.840614,
              18.694117
            ],
            [
              73.841412,
              18.694783
            ],
            [
              73.843761,
              18.693466
            ],
            [
              73.843694,
              18.691834
            ],
            [
              73.841004,
              18.691524
            ],
            [
              73.841071,
              18.690776
            ],
            [
              73.843412,
              18.690557
            ],
            [
              73.844412,
              18.689555
            ],
            [
              73.845666,
              18.690371
            ],
            [
              73.845642,
              18.688886
            ],
            [
              73.842412,
              18.686856
            ],
            [
              73.832412,
              18.689858
            ],
            [
              73.831412,
              18.688869
            ],
            [
              73.830412,
              18.68985
            ],
            [
              73.827932,
              18.689596
            ],
            [
              73.827412,
              18.68685
            ],
            [
              73.825412,
              18.686862
            ],
            [
              73.824412,
              18.687848
            ],
            [
              73.82121,
              18.686915
            ],
            [
              73.820162,
              18.688366
            ],
            [
              73.822761,
              18.688767
            ],
            [
              73.822956,
              18.692117
            ],
            [
              73.82403,
              18.694498
            ],
            [
              73.825729,
              18.693799
            ],
            [
              73.826412,
              18.695826
            ],
            [
              73.828412,
              18.693623
            ],
            [
              73.829864,
              18.694664
            ],
            [
              73.828412,
              18.697024
            ],
            [
              73.828123,
              18.696406
            ],
            [
              73.826933,
              18.696638
            ],
            [
              73.826701,
              18.699117
            ],
            [
              73.825632,
              18.700117
            ],
            [
              73.825572,
              18.701956
            ],
            [
              73.826219,
              18.702117
            ],
            [
              73.824593,
              18.702298
            ],
            [
              73.824411,
              18.703116
            ],
            [
              73.824232,
              18.701117
            ],
            [
              73.822926,
              18.700631
            ],
            [
              73.822587,
              18.702941
            ],
            [
              73.823203,
              18.703117
            ],
            [
              73.822412,
              18.704078
            ],
            [
              73.820416,
              18.702117
            ],
            [
              73.822066,
              18.701771
            ],
            [
              73.82212,
              18.700117
            ],
            [
              73.821412,
              18.699454
            ],
            [
              73.820412,
              18.702115
            ],
            [
              73.818399,
              18.702129
            ],
            [
              73.818278,
              18.699983
            ],
            [
              73.81919,
              18.699117
            ],
            [
              73.819064,
              18.698464
            ],
            [
              73.817662,
              18.698117
            ],
            [
              73.819113,
              18.697818
            ],
            [
              73.819442,
              18.696117
            ],
            [
              73.815176,
              18.695352
            ],
            [
              73.817873,
              18.694117
            ],
            [
              73.816412,
              18.692581
            ],
            [
              73.815137,
              18.693392
            ],
            [
              73.814981,
              18.692117
            ],
            [
              73.815813,
              18.691117
            ],
            [
              73.814412,
              18.689656
            ],
            [
              73.812961,
              18.691117
            ],
            [
              73.812432,
              18.696137
            ],
            [
              73.81064,
              18.696345
            ],
            [
              73.810412,
              18.69758
            ],
            [
              73.8102,
              18.695117
            ],
            [
              73.809229,
              18.694299
            ],
            [
              73.809083,
              18.692117
            ],
            [
              73.808412,
              18.691603
            ],
            [
              73.807785,
              18.694117
            ],
            [
              73.806729,
              18.695117
            ],
            [
              73.806609,
              18.697117
            ],
            [
              73.805703,
              18.697408
            ],
            [
              73.805412,
              18.698674
            ],
            [
              73.804425,
              18.698117
            ],
            [
              73.80522,
              18.697925
            ],
            [
              73.806151,
              18.696117
            ],
            [
              73.805412,
              18.695231
            ],
            [
              73.804306,
              18.696117
            ],
            [
              73.804128,
              18.693117
            ],
            [
              73.805129,
              18.692117
            ],
            [
              73.803703,
              18.689825
            ],
            [
              73.80213,
              18.689835
            ],
            [
              73.800824,
              18.691529
            ],
            [
              73.7993,
              18.692005
            ],
            [
              73.798412,
              18.693855
            ],
            [
              73.796191,
              18.693117
            ],
            [
              73.797094,
              18.689799
            ],
            [
              73.799814,
              18.688519
            ],
            [
              73.798706,
              18.685117
            ],
            [
              73.799412,
              18.684417
            ],
            [
              73.799548,
              18.68498
            ],
            [
              73.801412,
              18.684882
            ],
            [
              73.803412,
              18.68379
            ],
            [
              73.804092,
              18.681797
            ],
            [
              73.805985,
              18.680117
            ],
            [
              73.80432,
              18.679209
            ],
            [
              73.804133,
              18.677117
            ],
            [
              73.802933,
              18.675595
            ],
            [
              73.801804,
              18.675509
            ],
            [
              73.801412,
              18.67705
            ],
            [
              73.798544,
              18.675117
            ],
            [
              73.799211,
              18.670916
            ],
            [
              73.800412,
              18.670153
            ],
            [
              73.802943,
              18.672585
            ],
            [
              73.804106,
              18.672117
            ],
            [
              73.803557,
              18.667971
            ],
            [
              73.801262,
              18.668266
            ],
            [
              73.798866,
              18.666117
            ],
            [
              73.800412,
              18.663759
            ],
            [
              73.802412,
              18.664846
            ],
            [
              73.803878,
              18.664583
            ],
            [
              73.803101,
              18.660806
            ],
            [
              73.80471,
              18.659415
            ],
            [
              73.804966,
              18.657671
            ],
            [
              73.807904,
              18.655609
            ],
            [
              73.808135,
              18.652393
            ],
            [
              73.807209,
              18.652117
            ],
            [
              73.808378,
              18.651083
            ],
            [
              73.808692,
              18.649397
            ],
            [
              73.809412,
              18.64911
            ],
            [
              73.80969,
              18.649839
            ],
            [
              73.812412,
              18.6507
            ],
            [
              73.813296,
              18.648117
            ],
            [
              73.817612,
              18.646317
            ],
            [
              73.817719,
              18.645117
            ],
            [
              73.820132,
              18.643117
            ],
            [
              73.822412,
              18.639122
            ],
            [
              73.823412,
              18.639489
            ],
            [
              73.824412,
              18.638868
            ],
            [
              73.826412,
              18.640818
            ],
            [
              73.827412,
              18.639208
            ],
            [
              73.831412,
              18.63883
            ],
            [
              73.833137,
              18.639117
            ],
            [
              73.833347,
              18.640181
            ],
            [
              73.834412,
              18.639625
            ],
            [
              73.839647,
              18.639881
            ],
            [
              73.842412,
              18.642026
            ],
            [
              73.842616,
              18.642912
            ],
            [
              73.844434,
              18.643094
            ],
            [
              73.843493,
              18.644198
            ],
            [
              73.843987,
              18.646541
            ],
            [
              73.845676,
              18.646852
            ],
            [
              73.846666,
              18.647862
            ],
            [
              73.848019,
              18.651509
            ],
            [
              73.849269,
              18.652117
            ],
            [
              73.849571,
              18.653957
            ],
            [
              73.853412,
              18.656676
            ],
            [
              73.853595,
              18.657933
            ],
            [
              73.854758,
              18.658117
            ],
            [
              73.853412,
              18.660816
            ],
            [
              73.853104,
              18.659424
            ],
            [
              73.851924,
              18.659629
            ],
            [
              73.851984,
              18.660544
            ],
            [
              73.853358,
              18.661117
            ],
            [
              73.852882,
              18.661587
            ],
            [
              73.851412,
              18.661521
            ],
            [
              73.848936,
              18.663117
            ],
            [
              73.853712,
              18.664817
            ],
            [
              73.854076,
              18.666452
            ],
            [
              73.855704,
              18.666824
            ],
            [
              73.855697,
              18.668402
            ],
            [
              73.854126,
              18.668831
            ],
            [
              73.854144,
              18.669384
            ],
            [
              73.855811,
              18.669717
            ],
            [
              73.856412,
              18.670542
            ],
            [
              73.857412,
              18.66858
            ],
            [
              73.858412,
              18.670558
            ],
            [
              73.861412,
              18.670595
            ],
            [
              73.862786,
              18.669491
            ],
            [
              73.863412,
              18.66742
            ],
            [
              73.864071,
              18.667457
            ],
            [
              73.863877,
              18.671117
            ],
            [
              73.864412,
              18.67164
            ],
            [
              73.865245,
              18.670117
            ],
            [
              73.865338,
              18.66819
            ],
            [
              73.864751,
              18.668117
            ],
            [
              73.865962,
              18.668117
            ],
            [
              73.86576,
              18.669768
            ],
            [
              73.867608,
              18.66992
            ],
            [
              73.869884,
              18.672117
            ],
            [
              73.868412,
              18.672583
            ],
            [
              73.867871,
              18.671657
            ],
            [
              73.866412,
              18.671516
            ],
            [
              73.864854,
              18.673559
            ],
            [
              73.862935,
              18.67364
            ],
            [
              73.863094,
              18.675434
            ],
            [
              73.864799,
              18.675504
            ],
            [
              73.865015,
              18.67372
            ],
            [
              73.866655,
              18.673873
            ],
            [
              73.866836,
              18.676117
            ],
            [
              73.865894,
              18.677117
            ],
            [
              73.867412,
              18.678625
            ],
            [
              73.868789,
              18.678494
            ],
            [
              73.869412,
              18.676246
            ],
            [
              73.869582,
              18.676946
            ],
            [
              73.871033,
              18.676738
            ],
            [
              73.871412,
              18.673924
            ],
            [
              73.871761,
              18.675767
            ],
            [
              73.873159,
              18.675864
            ],
            [
              73.87353,
              18.675117
            ],
            [
              73.876274,
              18.677117
            ],
            [
              73.875207,
              18.679117
            ],
            [
              73.873744,
              18.679449
            ],
            [
              73.873572,
              18.680956
            ],
            [
              73.874267,
              18.681117
            ],
            [
              73.873412,
              18.681931
            ],
            [
              73.872412,
              18.681581
            ],
            [
              73.87188,
              18.678648
            ],
            [
              73.870011,
              18.679716
            ],
            [
              73.869952,
              18.681576
            ],
            [
              73.871511,
              18.683117
            ],
            [
              73.8708,
              18.683505
            ],
            [
              73.870412,
              18.686045
            ],
            [
              73.869898,
              18.68263
            ],
            [
              73.867412,
              18.683376
            ],
            [
              73.866412,
              18.684442
            ],
            [
              73.865993,
              18.682117
            ],
            [
              73.864781,
              18.680747
            ],
            [
              73.862092,
              18.680436
            ],
            [
              73.862412,
              18.677725
            ],
            [
              73.860412,
              18.678753
            ],
            [
              73.858193,
              18.678898
            ],
            [
              73.859063,
              18.680117
            ],
            [
              73.858412,
              18.681574
            ],
            [
              73.857412,
              18.681751
            ],
            [
              73.856756,
              18.680772
            ],
            [
              73.853225,
              18.67993
            ],
            [
              73.855088,
              18.682117
            ],
            [
              73.854857,
              18.683562
            ],
            [
              73.852185,
              18.68489
            ],
            [
              73.851836,
              18.687542
            ],
            [
              73.850412,
              18.686753
            ],
            [
              73.849171,
              18.687876
            ],
            [
              73.848827,
              18.689532
            ],
            [
              73.847063,
              18.689117
            ],
            [
              73.847412,
              18.690693
            ],
            [
              73.849774,
              18.691117
            ],
            [
              73.848929,
              18.694599
            ],
            [
              73.852223,
              18.694928
            ],
            [
              73.852412,
              18.694282
            ],
            [
              73.85376,
              18.695117
            ],
            [
              73.851684,
              18.69539
            ],
            [
              73.851705,
              18.696823
            ],
            [
              73.852479,
              18.697117
            ],
            [
              73.850759,
              18.697464
            ],
            [
              73.850412,
              18.698223
            ],
            [
              73.849131,
              18.698117
            ],
            [
              73.848866,
              18.696662
            ],
            [
              73.848051,
              18.696756
            ],
            [
              73.847685,
              18.699117
            ],
            [
              73.848648,
              18.700117
            ],
            [
              73.848586,
              18.702117
            ],
            [
              73.847727,
              18.702433
            ],
            [
              73.847478,
              18.70505
            ],
            [
              73.848387,
              18.705092
            ],
            [
              73.848422,
              18.705117
            ],
            [
              73.848412,
              18.705283
            ]
          ]
        ],
        "type": "Polygon"
      },
      "type": "Feature"
    },
    {
      "properties": {
        "fill-opacity": 0.33,
        "fillColor": "#bf4040",
        "opacity": 0.33,
        "fill": "#bf4040",
        "fillOpacity": 0.33,
        "color": "#bf4040",
        "contour": 6.0,
        "metric": "distance",
        "provider_name": "Crown Point",
        "zone_type": "distance",
        "distance_km": 6,
        "mode": "motorcycle",
        "center_lat": 18.676117,
        "center_lon": 73.835412,
        "label": "6km"
      },
      "geometry": {
        "coordinates": [
          [
            [
              73.848412,
              18.714409
            ],
            [
              73.847412,
              18.713957
            ],
            [
              73.847203,
              18.712325
            ],
            [
              73.846017,
              18.711117
            ],
            [
              73.84779,
              18.710117
            ],
            [
              73.847855,
              18.706117
            ],
            [
              73.846718,
              18.70381
            ],
            [
              73.843075,
              18.70378
            ],
            [
              73.843337,
              18.709192
            ],
            [
              73.844659,
              18.710117
            ],
            [
              73.842412,
              18.710303
            ],
            [
              73.841679,
              18.708117
            ],
            [
              73.841965,
              18.705117
            ],
            [
              73.841004,
              18.703709
            ],
            [
              73.842723,
              18.701806
            ],
            [
              73.840412,
              18.701582
            ],
            [
              73.839808,
              18.702117
            ],
            [
              73.839412,
              18.707831
            ],
            [
              73.8382,
              18.706328
            ],
            [
              73.835738,
              18.705117
            ],
            [
              73.836274,
              18.704979
            ],
            [
              73.836081,
              18.703447
            ],
            [
              73.834393,
              18.703117
            ],
            [
              73.836913,
              18.702618
            ],
            [
              73.837154,
              18.699117
            ],
            [
              73.832412,
              18.695526
            ],
            [
              73.830412,
              18.697564
            ],
            [
              73.828412,
              18.697612
            ],
            [
              73.827134,
              18.696839
            ],
            [
              73.826996,
              18.699117
            ],
            [
              73.825973,
              18.700117
            ],
            [
              73.826092,
              18.701436
            ],
            [
              73.827412,
              18.702667
            ],
            [
              73.828088,
              18.702117
            ],
            [
              73.827106,
              18.701422
            ],
            [
              73.827412,
              18.700893
            ],
            [
              73.828412,
              18.700833
            ],
            [
              73.829636,
              18.701893
            ],
            [
              73.82879,
              18.705117
            ],
            [
              73.830557,
              18.706971
            ],
            [
              73.83063,
              18.708898
            ],
            [
              73.831621,
              18.709117
            ],
            [
              73.831412,
              18.709807
            ],
            [
              73.830344,
              18.709184
            ],
            [
              73.829956,
              18.707572
            ],
            [
              73.828412,
              18.70645
            ],
            [
              73.826731,
              18.707117
            ],
            [
              73.826818,
              18.70871
            ],
            [
              73.828474,
              18.709117
            ],
            [
              73.827584,
              18.710289
            ],
            [
              73.826205,
              18.709323
            ],
            [
              73.824933,
              18.706595
            ],
            [
              73.823412,
              18.706522
            ],
            [
              73.822984,
              18.707544
            ],
            [
              73.82468,
              18.707848
            ],
            [
              73.824709,
              18.710414
            ],
            [
              73.823412,
              18.711943
            ],
            [
              73.821412,
              18.712712
            ],
            [
              73.821154,
              18.710374
            ],
            [
              73.819571,
              18.710117
            ],
            [
              73.821923,
              18.709628
            ],
            [
              73.820825,
              18.706703
            ],
            [
              73.819964,
              18.706669
            ],
            [
              73.819412,
              18.70835
            ],
            [
              73.817987,
              18.705541
            ],
            [
              73.816823,
              18.705528
            ],
            [
              73.816554,
              18.706975
            ],
            [
              73.817239,
              18.707117
            ],
            [
              73.816218,
              18.70731
            ],
            [
              73.815122,
              18.705406
            ],
            [
              73.813645,
              18.705117
            ],
            [
              73.81595,
              18.704655
            ],
            [
              73.81605,
              18.703479
            ],
            [
              73.8146,
              18.703117
            ],
            [
              73.817795,
              18.7025
            ],
            [
              73.817911,
              18.699617
            ],
            [
              73.816105,
              18.699423
            ],
            [
              73.815944,
              18.698117
            ],
            [
              73.818893,
              18.697117
            ],
            [
              73.818663,
              18.695866
            ],
            [
              73.815007,
              18.695522
            ],
            [
              73.815007,
              18.694712
            ],
            [
              73.817727,
              18.694117
            ],
            [
              73.816412,
              18.692768
            ],
            [
              73.814992,
              18.693536
            ],
            [
              73.814774,
              18.692117
            ],
            [
              73.815698,
              18.691117
            ],
            [
              73.814412,
              18.689801
            ],
            [
              73.813101,
              18.691117
            ],
            [
              73.812919,
              18.696117
            ],
            [
              73.810924,
              18.697117
            ],
            [
              73.81072,
              18.702117
            ],
            [
              73.808866,
              18.702571
            ],
            [
              73.808412,
              18.704139
            ],
            [
              73.807037,
              18.701491
            ],
            [
              73.804412,
              18.700535
            ],
            [
              73.80316,
              18.701368
            ],
            [
              73.803018,
              18.699723
            ],
            [
              73.803965,
              18.699117
            ],
            [
              73.803412,
              18.69858
            ],
            [
              73.802027,
              18.699501
            ],
            [
              73.801412,
              18.697419
            ],
            [
              73.798736,
              18.698117
            ],
            [
              73.798691,
              18.699837
            ],
            [
              73.799459,
              18.700069
            ],
            [
              73.799412,
              18.701017
            ],
            [
              73.799273,
              18.700255
            ],
            [
              73.797412,
              18.699387
            ],
            [
              73.796082,
              18.701117
            ],
            [
              73.795744,
              18.699784
            ],
            [
              73.794673,
              18.699117
            ],
            [
              73.796734,
              18.698439
            ],
            [
              73.797037,
              18.696117
            ],
            [
              73.796412,
              18.695526
            ],
            [
              73.792665,
              18.697117
            ],
            [
              73.792775,
              18.697753
            ],
            [
              73.794264,
              18.698117
            ],
            [
              73.794156,
              18.699117
            ],
            [
              73.789318,
              18.69921
            ],
            [
              73.789412,
              18.695158
            ],
            [
              73.791412,
              18.692809
            ],
            [
              73.792929,
              18.693599
            ],
            [
              73.793874,
              18.693117
            ],
            [
              73.793568,
              18.68896
            ],
            [
              73.792279,
              18.687249
            ],
            [
              73.79138,
              18.687117
            ],
            [
              73.791607,
              18.684312
            ],
            [
              73.793171,
              18.683876
            ],
            [
              73.794069,
              18.682117
            ],
            [
              73.794639,
              18.682889
            ],
            [
              73.796052,
              18.682757
            ],
            [
              73.796307,
              18.681117
            ],
            [
              73.796117,
              18.679117
            ],
            [
              73.794857,
              18.677672
            ],
            [
              73.793618,
              18.678117
            ],
            [
              73.793283,
              18.680117
            ],
            [
              73.792164,
              18.677364
            ],
            [
              73.790364,
              18.677164
            ],
            [
              73.789809,
              18.676117
            ],
            [
              73.791833,
              18.674117
            ],
            [
              73.789993,
              18.668698
            ],
            [
              73.791879,
              18.666584
            ],
            [
              73.792107,
              18.664812
            ],
            [
              73.794412,
              18.661387
            ],
            [
              73.795412,
              18.661803
            ],
            [
              73.797097,
              18.659802
            ],
            [
              73.798412,
              18.659826
            ],
            [
              73.79919,
              18.658895
            ],
            [
              73.800412,
              18.659829
            ],
            [
              73.802794,
              18.657499
            ],
            [
              73.802412,
              18.655487
            ],
            [
              73.800412,
              18.6573
            ],
            [
              73.798569,
              18.657274
            ],
            [
              73.798412,
              18.658127
            ],
            [
              73.798017,
              18.657511
            ],
            [
              73.799412,
              18.654514
            ],
            [
              73.799719,
              18.655809
            ],
            [
              73.80089,
              18.655595
            ],
            [
              73.800888,
              18.654641
            ],
            [
              73.799542,
              18.654117
            ],
            [
              73.799952,
              18.653657
            ],
            [
              73.801724,
              18.653429
            ],
            [
              73.80286,
              18.652117
            ],
            [
              73.80221,
              18.648915
            ],
            [
              73.80273,
              18.647117
            ],
            [
              73.801263,
              18.646117
            ],
            [
              73.801412,
              18.64426
            ],
            [
              73.801543,
              18.644985
            ],
            [
              73.802412,
              18.644961
            ],
            [
              73.80383,
              18.644117
            ],
            [
              73.806895,
              18.6456
            ],
            [
              73.806895,
              18.643633
            ],
            [
              73.804801,
              18.643117
            ],
            [
              73.80433,
              18.642117
            ],
            [
              73.806412,
              18.640579
            ],
            [
              73.808412,
              18.641097
            ],
            [
              73.809744,
              18.646117
            ],
            [
              73.811412,
              18.647986
            ],
            [
              73.813416,
              18.647121
            ],
            [
              73.814412,
              18.644117
            ],
            [
              73.815412,
              18.644506
            ],
            [
              73.816189,
              18.643894
            ],
            [
              73.816096,
              18.641432
            ],
            [
              73.814638,
              18.641117
            ],
            [
              73.815412,
              18.64015
            ],
            [
              73.817412,
              18.641808
            ],
            [
              73.81823,
              18.639935
            ],
            [
              73.81984,
              18.640545
            ],
            [
              73.818916,
              18.637612
            ],
            [
              73.816044,
              18.637117
            ],
            [
              73.816072,
              18.635117
            ],
            [
              73.817412,
              18.634351
            ],
            [
              73.817603,
              18.633117
            ],
            [
              73.819076,
              18.632781
            ],
            [
              73.819412,
              18.630639
            ],
            [
              73.820068,
              18.63146
            ],
            [
              73.822412,
              18.631223
            ],
            [
              73.823412,
              18.631775
            ],
            [
              73.823744,
              18.635117
            ],
            [
              73.821976,
              18.635681
            ],
            [
              73.822412,
              18.637657
            ],
            [
              73.823787,
              18.637492
            ],
            [
              73.825068,
              18.636117
            ],
            [
              73.825412,
              18.631392
            ],
            [
              73.826412,
              18.632474
            ],
            [
              73.82754,
              18.632117
            ],
            [
              73.827686,
              18.633117
            ],
            [
              73.826695,
              18.6334
            ],
            [
              73.826635,
              18.634117
            ],
            [
              73.827412,
              18.634852
            ],
            [
              73.829412,
              18.632766
            ],
            [
              73.830322,
              18.634206
            ],
            [
              73.830845,
              18.63355
            ],
            [
              73.833412,
              18.63378
            ],
            [
              73.83367,
              18.634858
            ],
            [
              73.837492,
              18.636036
            ],
            [
              73.836721,
              18.636426
            ],
            [
              73.836628,
              18.6379
            ],
            [
              73.841613,
              18.638915
            ],
            [
              73.840905,
              18.640117
            ],
            [
              73.84193,
              18.641598
            ],
            [
              73.845029,
              18.643117
            ],
            [
              73.844267,
              18.646261
            ],
            [
              73.847381,
              18.647147
            ],
            [
              73.847303,
              18.649117
            ],
            [
              73.848159,
              18.649369
            ],
            [
              73.848412,
              18.651235
            ],
            [
              73.849569,
              18.651117
            ],
            [
              73.849719,
              18.648809
            ],
            [
              73.847613,
              18.647117
            ],
            [
              73.849367,
              18.645117
            ],
            [
              73.850412,
              18.644515
            ],
            [
              73.850827,
              18.646701
            ],
            [
              73.853732,
              18.647117
            ],
            [
              73.853951,
              18.648117
            ],
            [
              73.853155,
              18.649117
            ],
            [
              73.855412,
              18.649839
            ],
            [
              73.856413,
              18.651117
            ],
            [
              73.854778,
              18.652117
            ],
            [
              73.856632,
              18.652896
            ],
            [
              73.856623,
              18.654117
            ],
            [
              73.857754,
              18.655117
            ],
            [
              73.856821,
              18.656117
            ],
            [
              73.858652,
              18.656876
            ],
            [
              73.858755,
              18.658117
            ],
            [
              73.856028,
              18.659733
            ],
            [
              73.855692,
              18.661397
            ],
            [
              73.853645,
              18.66335
            ],
            [
              73.851412,
              18.661743
            ],
            [
              73.849089,
              18.663117
            ],
            [
              73.853842,
              18.664686
            ],
            [
              73.854188,
              18.66634
            ],
            [
              73.855838,
              18.66669
            ],
            [
              73.855836,
              18.668541
            ],
            [
              73.85422,
              18.669308
            ],
            [
              73.856412,
              18.670415
            ],
            [
              73.857412,
              18.668433
            ],
            [
              73.858412,
              18.670423
            ],
            [
              73.861412,
              18.67044
            ],
            [
              73.863938,
              18.667117
            ],
            [
              73.862987,
              18.666117
            ],
            [
              73.863278,
              18.664983
            ],
            [
              73.864412,
              18.664933
            ],
            [
              73.865074,
              18.667455
            ],
            [
              73.866904,
              18.668117
            ],
            [
              73.866111,
              18.669417
            ],
            [
              73.867802,
              18.669726
            ],
            [
              73.869412,
              18.671563
            ],
            [
              73.871707,
              18.671821
            ],
            [
              73.872412,
              18.67556
            ],
            [
              73.87376,
              18.674465
            ],
            [
              73.874412,
              18.672722
            ],
            [
              73.875412,
              18.674071
            ],
            [
              73.876172,
              18.673877
            ],
            [
              73.877251,
              18.672117
            ],
            [
              73.877257,
              18.671271
            ],
            [
              73.876387,
              18.671117
            ],
            [
              73.877022,
              18.670727
            ],
            [
              73.878412,
              18.671214
            ],
            [
              73.878834,
              18.672695
            ],
            [
              73.880412,
              18.673894
            ],
            [
              73.882171,
              18.673876
            ],
            [
              73.882459,
              18.673069
            ],
            [
              73.883412,
              18.674404
            ],
            [
              73.884412,
              18.673551
            ],
            [
              73.88526,
              18.674117
            ],
            [
              73.884412,
              18.67577
            ],
            [
              73.881914,
              18.676619
            ],
            [
              73.881699,
              18.677829
            ],
            [
              73.882505,
              18.678117
            ],
            [
              73.881635,
              18.67834
            ],
            [
              73.880536,
              18.680241
            ],
            [
              73.878775,
              18.68048
            ],
            [
              73.878634,
              18.683339
            ],
            [
              73.876975,
              18.68368
            ],
            [
              73.875412,
              18.685469
            ],
            [
              73.872412,
              18.685421
            ],
            [
              73.871412,
              18.686597
            ],
            [
              73.868412,
              18.686554
            ],
            [
              73.866013,
              18.684515
            ],
            [
              73.865779,
              18.682117
            ],
            [
              73.864649,
              18.680879
            ],
            [
              73.861973,
              18.680555
            ],
            [
              73.862412,
              18.677835
            ],
            [
              73.859242,
              18.678947
            ],
            [
              73.858412,
              18.681832
            ],
            [
              73.854412,
              18.679891
            ],
            [
              73.853266,
              18.679971
            ],
            [
              73.855167,
              18.682117
            ],
            [
              73.854914,
              18.683619
            ],
            [
              73.852242,
              18.684947
            ],
            [
              73.851901,
              18.687606
            ],
            [
              73.850412,
              18.68685
            ],
            [
              73.849235,
              18.68794
            ],
            [
              73.848896,
              18.689601
            ],
            [
              73.847153,
              18.689117
            ],
            [
              73.847412,
              18.690482
            ],
            [
              73.850022,
              18.691117
            ],
            [
              73.849816,
              18.692521
            ],
            [
              73.849039,
              18.692744
            ],
            [
              73.849131,
              18.694397
            ],
            [
              73.851741,
              18.694446
            ],
            [
              73.85112,
              18.692825
            ],
            [
              73.854153,
              18.692117
            ],
            [
              73.852319,
              18.691117
            ],
            [
              73.853245,
              18.69095
            ],
            [
              73.854562,
              18.690966
            ],
            [
              73.856412,
              18.693706
            ],
            [
              73.858412,
              18.691388
            ],
            [
              73.862246,
              18.693282
            ],
            [
              73.861736,
              18.695117
            ],
            [
              73.860572,
              18.696117
            ],
            [
              73.860551,
              18.696977
            ],
            [
              73.861335,
              18.697117
            ],
            [
              73.859687,
              18.697392
            ],
            [
              73.859412,
              18.698509
            ],
            [
              73.859201,
              18.696117
            ],
            [
              73.858412,
              18.695446
            ],
            [
              73.856025,
              18.69573
            ],
            [
              73.856412,
              18.69841
            ],
            [
              73.855207,
              18.698321
            ],
            [
              73.854781,
              18.695747
            ],
            [
              73.852412,
              18.69565
            ],
            [
              73.852102,
              18.696426
            ],
            [
              73.853731,
              18.696797
            ],
            [
              73.853731,
              18.697436
            ],
            [
              73.848165,
              18.69887
            ],
            [
              73.849063,
              18.700117
            ],
            [
              73.849049,
              18.702117
            ],
            [
              73.848092,
              18.702797
            ],
            [
              73.849157,
              18.705117
            ],
            [
              73.848989,
              18.706539
            ],
            [
              73.851576,
              18.708117
            ],
            [
              73.85045,
              18.711117
            ],
            [
              73.849412,
              18.710447
            ],
            [
              73.848747,
              18.711117
            ],
            [
              73.848412,
              18.714409
            ]
          ]
        ],
        "type": "Polygon"
      },
      "type": "Feature"
    }
  ]
}