{
  "type": "FeatureCollection",
  "metadata": {
    "provider_name": "Bff - Best Fresh Fries",
    "center_lat": 17.504557,
    "center_lon": 78.359216,
    "mode": "motorcycle",
    "total_zones": 4,
    "distance_zones": [
      3,
      4,
      5,
      6
    ],
    "generated_at": "2025-12-24T07:08:20.526048Z"
  },
  "features": [
    {
      "properties": {
        "fill-opacity": 0.33,
        "fillColor": "#bf4040",
        "opacity": 0.33,
        "fill": "#bf4040",
        "fillOpacity": 0.33,
        "color": "#bf4040",
        "contour": 3.0,
        "metric": "distance",
        "provider_name": "Bff - Best Fresh Fries",
        "zone_type": "distance",
        "distance_km": 3,
        "mode": "motorcycle",
        "center_lat": 17.504557,
        "center_lon": 78.359216,
        "label": "3km"
      },
      "geometry": {
        "coordinates": [
          [
            [
              78.354216,
              17.526759
            ],
            [
              78.353022,
              17.52375
            ],
            [
              78.35123,
              17.523557
            ],
            [
              78.351886,
              17.522557
            ],
            [
              78.348871,
              17.520557
            ],
            [
              78.348644,
              17.519128
            ],
            [
              78.347819,
              17.51916
            ],
            [
              78.348133,
              17.520557
            ],
            [
              78.346303,
              17.522644
            ],
            [
              78.343178,
              17.522595
            ],
            [
              78.342062,
              17.52071
            ],
            [
              78.338056,
              17.518557
            ],
            [
              78.336341,
              17.516557
            ],
            [
              78.338412,
              17.514753
            ],
            [
              78.340601,
              17.510942
            ],
            [
              78.339033,
              17.508374
            ],
            [
              78.340725,
              17.508066
            ],
            [
              78.341102,
              17.506443
            ],
            [
              78.342898,
              17.505557
            ],
            [
              78.341986,
              17.504557
            ],
            [
              78.342102,
              17.501557
            ],
            [
              78.340216,
              17.500966
            ],
            [
              78.339216,
              17.501382
            ],
            [
              78.337123,
              17.499557
            ],
            [
              78.338216,
              17.49763
            ],
            [
              78.340837,
              17.497178
            ],
            [
              78.341216,
              17.496425
            ],
            [
              78.341575,
              17.497198
            ],
            [
              78.343689,
              17.49703
            ],
            [
              78.344216,
              17.495805
            ],
            [
              78.345418,
              17.495557
            ],
            [
              78.344649,
              17.494557
            ],
            [
              78.346037,
              17.492378
            ],
            [
              78.348216,
              17.490577
            ],
            [
              78.351216,
              17.492642
            ],
            [
              78.355216,
              17.488496
            ],
            [
              78.355296,
              17.490476
            ],
            [
              78.356289,
              17.49063
            ],
            [
              78.357954,
              17.486295
            ],
            [
              78.362216,
              17.486385
            ],
            [
              78.36439,
              17.488382
            ],
            [
              78.364767,
              17.490005
            ],
            [
              78.368652,
              17.490557
            ],
            [
              78.371082,
              17.493557
            ],
            [
              78.371007,
              17.494765
            ],
            [
              78.372828,
              17.494944
            ],
            [
              78.373436,
              17.496336
            ],
            [
              78.374914,
              17.496557
            ],
            [
              78.374216,
              17.497362
            ],
            [
              78.374101,
              17.496671
            ],
            [
              78.372583,
              17.496924
            ],
            [
              78.372272,
              17.499557
            ],
            [
              78.371216,
              17.499818
            ],
            [
              78.369664,
              17.497108
            ],
            [
              78.367833,
              17.497174
            ],
            [
              78.367487,
              17.500557
            ],
            [
              78.368899,
              17.503873
            ],
            [
              78.374216,
              17.503162
            ],
            [
              78.374611,
              17.506557
            ],
            [
              78.375566,
              17.506907
            ],
            [
              78.376832,
              17.505557
            ],
            [
              78.376937,
              17.503557
            ],
            [
              78.375986,
              17.502557
            ],
            [
              78.376216,
              17.500481
            ],
            [
              78.376543,
              17.50223
            ],
            [
              78.377405,
              17.502557
            ],
            [
              78.377732,
              17.50504
            ],
            [
              78.380368,
              17.504404
            ],
            [
              78.382216,
              17.50578
            ],
            [
              78.384132,
              17.50564
            ],
            [
              78.384527,
              17.506557
            ],
            [
              78.383468,
              17.507809
            ],
            [
              78.381216,
              17.50816
            ],
            [
              78.380761,
              17.507011
            ],
            [
              78.379771,
              17.507112
            ],
            [
              78.379638,
              17.509134
            ],
            [
              78.380794,
              17.510557
            ],
            [
              78.379513,
              17.510854
            ],
            [
              78.379588,
              17.512929
            ],
            [
              78.379216,
              17.513398
            ],
            [
              78.376081,
              17.512422
            ],
            [
              78.374216,
              17.513341
            ],
            [
              78.374216,
              17.515775
            ],
            [
              78.371216,
              17.518175
            ],
            [
              78.370216,
              17.517979
            ],
            [
              78.36971,
              17.516062
            ],
            [
              78.368216,
              17.515891
            ],
            [
              78.367216,
              17.514922
            ],
            [
              78.364216,
              17.515118
            ],
            [
              78.361216,
              17.517115
            ],
            [
              78.360216,
              17.516167
            ],
            [
              78.358932,
              17.516273
            ],
            [
              78.35852,
              17.517861
            ],
            [
              78.356706,
              17.518557
            ],
            [
              78.357079,
              17.52242
            ],
            [
              78.356377,
              17.525557
            ],
            [
              78.354216,
              17.526759
            ]
          ]
        ],
        "type": "Polygon"
      },
      "type": "Feature"
    },
    {
      "properties": {
        "fill-opacity": 0.33,
        "fillColor": "#bf4040",
        "opacity": 0.33,
        "fill": "#bf4040",
        "fillOpacity": 0.33,
        "color": "#bf4040",
        "contour": 4.0,
        "metric": "distance",
        "provider_name": "Bff - Best Fresh Fries",
        "zone_type": "distance",
        "distance_km": 4,
        "mode": "motorcycle",
        "center_lat": 17.504557,
        "center_lon": 78.359216,
        "label": "4km"
      },
      "geometry": {
        "coordinates": [
          [
            [
              78.357216,
              17.534826
            ],
            [
              78.356216,
              17.534668
            ],
            [
              78.354216,
              17.531981
            ],
            [
              78.353216,
              17.532885
            ],
            [
              78.352216,
              17.532692
            ],
            [
              78.349397,
              17.529557
            ],
            [
              78.351216,
              17.527493
            ],
            [
              78.352216,
              17.52741
            ],
            [
              78.352537,
              17.524235
            ],
            [
              78.350013,
              17.526354
            ],
            [
              78.349503,
              17.527844
            ],
            [
              78.348216,
              17.525902
            ],
            [
              78.346216,
              17.526674
            ],
            [
              78.343491,
              17.526557
            ],
            [
              78.342032,
              17.524557
            ],
            [
              78.340672,
              17.5241
            ],
            [
              78.340792,
              17.522557
            ],
            [
              78.341709,
              17.521557
            ],
            [
              78.34053,
              17.520242
            ],
            [
              78.333805,
              17.517557
            ],
            [
              78.334216,
              17.516125
            ],
            [
              78.335563,
              17.515904
            ],
            [
              78.335787,
              17.514557
            ],
            [
              78.333948,
              17.512557
            ],
            [
              78.334105,
              17.509557
            ],
            [
              78.334891,
              17.509232
            ],
            [
              78.334694,
              17.507557
            ],
            [
              78.336661,
              17.504557
            ],
            [
              78.336455,
              17.503557
            ],
            [
              78.337858,
              17.502557
            ],
            [
              78.337562,
              17.501211
            ],
            [
              78.335216,
              17.501125
            ],
            [
              78.334776,
              17.499557
            ],
            [
              78.339112,
              17.496557
            ],
            [
              78.33532,
              17.495557
            ],
            [
              78.337216,
              17.493341
            ],
            [
              78.339527,
              17.492868
            ],
            [
              78.340216,
              17.490376
            ],
            [
              78.343216,
              17.489804
            ],
            [
              78.346962,
              17.487303
            ],
            [
              78.348031,
              17.485557
            ],
            [
              78.347521,
              17.484557
            ],
            [
              78.348077,
              17.483557
            ],
            [
              78.349433,
              17.483339
            ],
            [
              78.350216,
              17.484557
            ],
            [
              78.351195,
              17.482536
            ],
            [
              78.354216,
              17.482561
            ],
            [
              78.355216,
              17.485235
            ],
            [
              78.356007,
              17.483557
            ],
            [
              78.359216,
              17.48439
            ],
            [
              78.360177,
              17.482518
            ],
            [
              78.361794,
              17.482978
            ],
            [
              78.362951,
              17.486557
            ],
            [
              78.364599,
              17.488173
            ],
            [
              78.365216,
              17.489987
            ],
            [
              78.368591,
              17.489932
            ],
            [
              78.368985,
              17.487787
            ],
            [
              78.367679,
              17.487557
            ],
            [
              78.369216,
              17.486648
            ],
            [
              78.371481,
              17.489557
            ],
            [
              78.37169,
              17.491557
            ],
            [
              78.374137,
              17.495635
            ],
            [
              78.377153,
              17.495494
            ],
            [
              78.377216,
              17.494915
            ],
            [
              78.379802,
              17.49797
            ],
            [
              78.383742,
              17.499557
            ],
            [
              78.381216,
              17.501843
            ],
            [
              78.378706,
              17.501557
            ],
            [
              78.378416,
              17.500356
            ],
            [
              78.377216,
              17.50086
            ],
            [
              78.377081,
              17.501691
            ],
            [
              78.378095,
              17.501677
            ],
            [
              78.37806,
              17.504713
            ],
            [
              78.379216,
              17.503749
            ],
            [
              78.383216,
              17.503851
            ],
            [
              78.385216,
              17.504072
            ],
            [
              78.386216,
              17.505277
            ],
            [
              78.387982,
              17.504323
            ],
            [
              78.388216,
              17.503094
            ],
            [
              78.388818,
              17.504954
            ],
            [
              78.389944,
              17.505557
            ],
            [
              78.388502,
              17.505843
            ],
            [
              78.388216,
              17.507702
            ],
            [
              78.387216,
              17.507396
            ],
            [
              78.386164,
              17.508505
            ],
            [
              78.386308,
              17.510649
            ],
            [
              78.384815,
              17.511156
            ],
            [
              78.384216,
              17.513115
            ],
            [
              78.383216,
              17.512382
            ],
            [
              78.382777,
              17.514118
            ],
            [
              78.381893,
              17.514557
            ],
            [
              78.38153,
              17.517871
            ],
            [
              78.379832,
              17.518173
            ],
            [
              78.379216,
              17.519499
            ],
            [
              78.377814,
              17.520155
            ],
            [
              78.377216,
              17.522121
            ],
            [
              78.375916,
              17.522257
            ],
            [
              78.375216,
              17.523803
            ],
            [
              78.374696,
              17.521076
            ],
            [
              78.372216,
              17.519974
            ],
            [
              78.370835,
              17.520176
            ],
            [
              78.370536,
              17.521877
            ],
            [
              78.368216,
              17.52369
            ],
            [
              78.367981,
              17.522322
            ],
            [
              78.369653,
              17.520994
            ],
            [
              78.369603,
              17.520169
            ],
            [
              78.368803,
              17.520144
            ],
            [
              78.367486,
              17.521827
            ],
            [
              78.36513,
              17.521642
            ],
            [
              78.36692,
              17.520557
            ],
            [
              78.364989,
              17.519783
            ],
            [
              78.366015,
              17.518356
            ],
            [
              78.369216,
              17.518126
            ],
            [
              78.369692,
              17.517557
            ],
            [
              78.369499,
              17.516273
            ],
            [
              78.367216,
              17.515168
            ],
            [
              78.364216,
              17.515252
            ],
            [
              78.361216,
              17.51725
            ],
            [
              78.360216,
              17.516276
            ],
            [
              78.359017,
              17.516358
            ],
            [
              78.358648,
              17.517989
            ],
            [
              78.356996,
              17.518337
            ],
            [
              78.356941,
              17.519831
            ],
            [
              78.358216,
              17.520163
            ],
            [
              78.359216,
              17.519274
            ],
            [
              78.360369,
              17.519403
            ],
            [
              78.360741,
              17.521031
            ],
            [
              78.362336,
              17.521436
            ],
            [
              78.362269,
              17.522557
            ],
            [
              78.359621,
              17.523557
            ],
            [
              78.361555,
              17.529557
            ],
            [
              78.359445,
              17.529786
            ],
            [
              78.359216,
              17.530595
            ],
            [
              78.356884,
              17.531225
            ],
            [
              78.358052,
              17.534557
            ],
            [
              78.357216,
              17.534826
            ]
          ]
        ],
        "type": "Polygon"
      },
      "type": "Feature"
    },
    {
      "properties": {
        "fill-opacity": 0.33,
        "fillColor": "#bf4040",
        "opacity": 0.33,
        "fill": "#bf4040",
        "fillOpacity": 0.33,
        "color": "#bf4040",
        "contour": 5.0,
        "metric": "distance",
        "provider_name": "Bff - Best Fresh Fries",
        "zone_type": "distance",
        "distance_km": 5,
        "mode": "motorcycle",
        "center_lat": 17.504557,
        "center_lon": 78.359216,
        "label": "5km"
      },
      "geometry": {
        "coordinates": [
          [
            [
              78.359216,
              17.543303
            ],
            [
              78.357742,
              17.54003
            ],
            [
              78.356216,
              17.54046
            ],
            [
              78.354282,
              17.53949
            ],
            [
              78.350449,
              17.539557
            ],
            [
              78.350321,
              17.537557
            ],
            [
              78.351305,
              17.536557
            ],
            [
              78.348991,
              17.535557
            ],
            [
              78.348898,
              17.533239
            ],
            [
              78.349768,
              17.532557
            ],
            [
              78.349216,
              17.531841
            ],
            [
              78.348477,
              17.532818
            ],
            [
              78.345216,
              17.532733
            ],
            [
              78.344643,
              17.531129
            ],
            [
              78.341216,
              17.529854
            ],
            [
              78.340359,
              17.530557
            ],
            [
              78.340457,
              17.531798
            ],
            [
              78.338844,
              17.531557
            ],
            [
              78.338764,
              17.530008
            ],
            [
              78.337527,
              17.529557
            ],
            [
              78.338934,
              17.528275
            ],
            [
              78.338676,
              17.527096
            ],
            [
              78.334214,
              17.526558
            ],
            [
              78.337686,
              17.526027
            ],
            [
              78.339009,
              17.52235
            ],
            [
              78.340216,
              17.523147
            ],
            [
              78.341546,
              17.521557
            ],
            [
              78.336446,
              17.518326
            ],
            [
              78.333586,
              17.517557
            ],
            [
              78.333913,
              17.516254
            ],
            [
              78.33557,
              17.515202
            ],
            [
              78.333638,
              17.512557
            ],
            [
              78.333686,
              17.509557
            ],
            [
              78.334664,
              17.508557
            ],
            [
              78.332833,
              17.506557
            ],
            [
              78.333781,
              17.503122
            ],
            [
              78.334587,
              17.502557
            ],
            [
              78.333955,
              17.497557
            ],
            [
              78.333216,
              17.496932
            ],
            [
              78.330216,
              17.496781
            ],
            [
              78.329216,
              17.495242
            ],
            [
              78.325841,
              17.494557
            ],
            [
              78.32741,
              17.492557
            ],
            [
              78.329815,
              17.491156
            ],
            [
              78.331216,
              17.488995
            ],
            [
              78.335216,
              17.49121
            ],
            [
              78.335757,
              17.490016
            ],
            [
              78.33397,
              17.489803
            ],
            [
              78.333777,
              17.488557
            ],
            [
              78.337216,
              17.488512
            ],
            [
              78.337536,
              17.489236
            ],
            [
              78.339216,
              17.489481
            ],
            [
              78.341615,
              17.488956
            ],
            [
              78.341824,
              17.487165
            ],
            [
              78.343216,
              17.485761
            ],
            [
              78.345216,
              17.487067
            ],
            [
              78.346532,
              17.486873
            ],
            [
              78.347533,
              17.485239
            ],
            [
              78.3442,
              17.484557
            ],
            [
              78.344199,
              17.483557
            ],
            [
              78.345216,
              17.481352
            ],
            [
              78.34632,
              17.481661
            ],
            [
              78.347184,
              17.478525
            ],
            [
              78.348636,
              17.477977
            ],
            [
              78.349216,
              17.476459
            ],
            [
              78.349359,
              17.477413
            ],
            [
              78.351216,
              17.47797
            ],
            [
              78.351533,
              17.47924
            ],
            [
              78.353089,
              17.479557
            ],
            [
              78.3549,
              17.482872
            ],
            [
              78.358216,
              17.48309
            ],
            [
              78.359216,
              17.481112
            ],
            [
              78.360216,
              17.480679
            ],
            [
              78.360299,
              17.476557
            ],
            [
              78.364216,
              17.473767
            ],
            [
              78.366886,
              17.478557
            ],
            [
              78.364975,
              17.481557
            ],
            [
              78.363736,
              17.482077
            ],
            [
              78.36386,
              17.482912
            ],
            [
              78.365626,
              17.482967
            ],
            [
              78.366216,
              17.481721
            ],
            [
              78.371592,
              17.482557
            ],
            [
              78.371216,
              17.483242
            ],
            [
              78.371099,
              17.482674
            ],
            [
              78.368706,
              17.483047
            ],
            [
              78.368216,
              17.484867
            ],
            [
              78.367696,
              17.483076
            ],
            [
              78.366785,
              17.483126
            ],
            [
              78.36667,
              17.486011
            ],
            [
              78.365216,
              17.483968
            ],
            [
              78.363849,
              17.48519
            ],
            [
              78.363579,
              17.486557
            ],
            [
              78.365024,
              17.489748
            ],
            [
              78.368456,
              17.489797
            ],
            [
              78.368526,
              17.488246
            ],
            [
              78.366896,
              17.487876
            ],
            [
              78.366741,
              17.486082
            ],
            [
              78.36894,
              17.485832
            ],
            [
              78.370969,
              17.486804
            ],
            [
              78.371216,
              17.488057
            ],
            [
              78.374216,
              17.488326
            ],
            [
              78.375216,
              17.491207
            ],
            [
              78.376216,
              17.490314
            ],
            [
              78.37793,
              17.490271
            ],
            [
              78.378216,
              17.488985
            ],
            [
              78.379216,
              17.489182
            ],
            [
              78.379622,
              17.489557
            ],
            [
              78.378726,
              17.490557
            ],
            [
              78.376502,
              17.491557
            ],
            [
              78.379216,
              17.495875
            ],
            [
              78.380216,
              17.495427
            ],
            [
              78.381216,
              17.495988
            ],
            [
              78.382216,
              17.493513
            ],
            [
              78.384216,
              17.492995
            ],
            [
              78.387049,
              17.494557
            ],
            [
              78.387506,
              17.496557
            ],
            [
              78.388887,
              17.497885
            ],
            [
              78.392688,
              17.497557
            ],
            [
              78.391679,
              17.50002
            ],
            [
              78.389605,
              17.501557
            ],
            [
              78.391703,
              17.502069
            ],
            [
              78.39093,
              17.504842
            ],
            [
              78.395216,
              17.505204
            ],
            [
              78.396216,
              17.504308
            ],
            [
              78.397216,
              17.50536
            ],
            [
              78.399225,
              17.505557
            ],
            [
              78.397461,
              17.505802
            ],
            [
              78.397216,
              17.508038
            ],
            [
              78.396357,
              17.508698
            ],
            [
              78.393216,
              17.508837
            ],
            [
              78.389404,
              17.511745
            ],
            [
              78.389362,
              17.514703
            ],
            [
              78.387594,
              17.514935
            ],
            [
              78.387216,
              17.516077
            ],
            [
              78.386019,
              17.516557
            ],
            [
              78.38637,
              17.517557
            ],
            [
              78.383601,
              17.522557
            ],
            [
              78.380216,
              17.520826
            ],
            [
              78.378857,
              17.521198
            ],
            [
              78.378608,
              17.522557
            ],
            [
              78.379657,
              17.525115
            ],
            [
              78.380426,
              17.526346
            ],
            [
              78.381417,
              17.526557
            ],
            [
              78.378114,
              17.527455
            ],
            [
              78.376549,
              17.53089
            ],
            [
              78.375216,
              17.531761
            ],
            [
              78.374848,
              17.529924
            ],
            [
              78.373949,
              17.529557
            ],
            [
              78.373216,
              17.525992
            ],
            [
              78.371216,
              17.527953
            ],
            [
              78.370151,
              17.527492
            ],
            [
              78.369216,
              17.528999
            ],
            [
              78.36578,
              17.529122
            ],
            [
              78.365633,
              17.531139
            ],
            [
              78.367725,
              17.531557
            ],
            [
              78.366366,
              17.531707
            ],
            [
              78.365216,
              17.534108
            ],
            [
              78.363669,
              17.531104
            ],
            [
              78.361773,
              17.532114
            ],
            [
              78.361733,
              17.533039
            ],
            [
              78.363959,
              17.533557
            ],
            [
              78.361698,
              17.534039
            ],
            [
              78.361411,
              17.536362
            ],
            [
              78.362216,
              17.536608
            ],
            [
              78.36047,
              17.536811
            ],
            [
              78.359689,
              17.538557
            ],
            [
              78.363353,
              17.540557
            ],
            [
              78.362216,
              17.541403
            ],
            [
              78.359859,
              17.5412
            ],
            [
              78.359216,
              17.543303
            ]
          ]
        ],
        "type": "Polygon"
      },
      "type": "Feature"
    },
    {
      "properties": {
        "fill-opacity": 0.33,
        "fillColor": "#bf4040",
        "opacity": 0.33,
        "fill": "#bf4040",
        "fillOpacity": 0.33,
        "color": "#bf4040",
        "contour": 6.0,
        "metric": "distance",
        "provider_name": "Bff - Best Fresh Fries",
        "zone_type": "distance",
        "distance_km": 6,
        "mode": "motorcycle",
        "center_lat": 17.504557,
        "center_lon": 78.359216,
        "label": "6km"
      },
      "geometry": {
        "coordinates": [
          [
            [
              78.363216,
              17.548913
            ],
            [
              78.361715,
              17.549057
            ],
            [
              78.361064,
              17.546709
            ],
            [
              78.359216,
              17.545966
            ],
            [
              78.358409,
              17.546557
            ],
            [
              78.35936,
              17.547557
            ],
            [
              78.359273,
              17.548614
            ],
            [
              78.358986,
              17.547786
            ],
            [
              78.357216,
              17.547717
            ],
            [
              78.356216,
              17.546795
            ],
            [
              78.355216,
              17.547916
            ],
            [
              78.353182,
              17.54659
            ],
            [
              78.352804,
              17.544969
            ],
            [
              78.351216,
              17.543892
            ],
            [
              78.350265,
              17.544557
            ],
            [
              78.350194,
              17.546535
            ],
            [
              78.349216,
              17.546396
            ],
            [
              78.348864,
              17.544908
            ],
            [
              78.347216,
              17.543849
            ],
            [
              78.345893,
              17.544234
            ],
            [
              78.345593,
              17.545934
            ],
            [
              78.343177,
              17.545557
            ],
            [
              78.343487,
              17.542557
            ],
            [
              78.344997,
              17.541557
            ],
            [
              78.344971,
              17.539801
            ],
            [
              78.343873,
              17.539557
            ],
            [
              78.344627,
              17.537557
            ],
            [
              78.349723,
              17.536557
            ],
            [
              78.348652,
              17.535557
            ],
            [
              78.34863,
              17.533142
            ],
            [
              78.341216,
              17.533996
            ],
            [
              78.338873,
              17.532214
            ],
            [
              78.340711,
              17.535062
            ],
            [
              78.343572,
              17.535557
            ],
            [
              78.339729,
              17.53607
            ],
            [
              78.339602,
              17.53717
            ],
            [
              78.3407,
              17.537557
            ],
            [
              78.340915,
              17.538557
            ],
            [
              78.340216,
              17.539195
            ],
            [
              78.339933,
              17.537839
            ],
            [
              78.339095,
              17.537677
            ],
            [
              78.337647,
              17.535125
            ],
            [
              78.336759,
              17.5351
            ],
            [
              78.336216,
              17.536292
            ],
            [
              78.334939,
              17.536833
            ],
            [
              78.332216,
              17.53466
            ],
            [
              78.331096,
              17.532557
            ],
            [
              78.332216,
              17.529976
            ],
            [
              78.333216,
              17.530479
            ],
            [
              78.335753,
              17.529557
            ],
            [
              78.334216,
              17.528021
            ],
            [
              78.33289,
              17.528882
            ],
            [
              78.332592,
              17.52718
            ],
            [
              78.330955,
              17.526817
            ],
            [
              78.330955,
              17.526296
            ],
            [
              78.332768,
              17.525109
            ],
            [
              78.334216,
              17.526056
            ],
            [
              78.337216,
              17.525991
            ],
            [
              78.338821,
              17.522162
            ],
            [
              78.340216,
              17.522928
            ],
            [
              78.341464,
              17.521557
            ],
            [
              78.336216,
              17.518302
            ],
            [
              78.333729,
              17.518043
            ],
            [
              78.333811,
              17.516152
            ],
            [
              78.335472,
              17.515557
            ],
            [
              78.335397,
              17.514375
            ],
            [
              78.333513,
              17.512557
            ],
            [
              78.333536,
              17.509557
            ],
            [
              78.334525,
              17.508557
            ],
            [
              78.332216,
              17.505767
            ],
            [
              78.329796,
              17.506557
            ],
            [
              78.329068,
              17.504704
            ],
            [
              78.330716,
              17.504057
            ],
            [
              78.329914,
              17.502557
            ],
            [
              78.331963,
              17.500304
            ],
            [
              78.334216,
              17.500086
            ],
            [
              78.334453,
              17.499319
            ],
            [
              78.33348,
              17.497292
            ],
            [
              78.330216,
              17.49712
            ],
            [
              78.329216,
              17.496011
            ],
            [
              78.326897,
              17.500238
            ],
            [
              78.324216,
              17.500478
            ],
            [
              78.320571,
              17.498201
            ],
            [
              78.320574,
              17.496198
            ],
            [
              78.318216,
              17.496611
            ],
            [
              78.316497,
              17.495557
            ],
            [
              78.316525,
              17.494866
            ],
            [
              78.321216,
              17.490603
            ],
            [
              78.322216,
              17.48748
            ],
            [
              78.325325,
              17.486557
            ],
            [
              78.32844,
              17.482781
            ],
            [
              78.332216,
              17.482299
            ],
            [
              78.334332,
              17.484557
            ],
            [
              78.335356,
              17.487416
            ],
            [
              78.338953,
              17.487294
            ],
            [
              78.339933,
              17.485557
            ],
            [
              78.340004,
              17.483557
            ],
            [
              78.338073,
              17.482557
            ],
            [
              78.341068,
              17.480557
            ],
            [
              78.340108,
              17.479557
            ],
            [
              78.340861,
              17.477557
            ],
            [
              78.346216,
              17.4759
            ],
            [
              78.348133,
              17.474557
            ],
            [
              78.345564,
              17.472557
            ],
            [
              78.345651,
              17.471557
            ],
            [
              78.346216,
              17.46977
            ],
            [
              78.348798,
              17.469139
            ],
            [
              78.349077,
              17.467418
            ],
            [
              78.351808,
              17.469557
            ],
            [
              78.351792,
              17.470557
            ],
            [
              78.353498,
              17.471274
            ],
            [
              78.354698,
              17.473557
            ],
            [
              78.357216,
              17.474238
            ],
            [
              78.358719,
              17.47106
            ],
            [
              78.361216,
              17.469445
            ],
            [
              78.362216,
              17.470379
            ],
            [
              78.36436,
              17.470701
            ],
            [
              78.365049,
              17.466557
            ],
            [
              78.366427,
              17.466768
            ],
            [
              78.367216,
              17.465546
            ],
            [
              78.369452,
              17.46832
            ],
            [
              78.369216,
              17.472445
            ],
            [
              78.370216,
              17.47145
            ],
            [
              78.370796,
              17.472976
            ],
            [
              78.372204,
              17.473557
            ],
            [
              78.370447,
              17.477557
            ],
            [
              78.370785,
              17.480987
            ],
            [
              78.376598,
              17.478939
            ],
            [
              78.378216,
              17.477397
            ],
            [
              78.379135,
              17.477557
            ],
            [
              78.379216,
              17.482417
            ],
            [
              78.380315,
              17.482457
            ],
            [
              78.381456,
              17.484316
            ],
            [
              78.384031,
              17.484372
            ],
            [
              78.384216,
              17.48374
            ],
            [
              78.388216,
              17.485617
            ],
            [
              78.389296,
              17.489557
            ],
            [
              78.387521,
              17.489862
            ],
            [
              78.386069,
              17.49241
            ],
            [
              78.387153,
              17.49362
            ],
            [
              78.388216,
              17.492761
            ],
            [
              78.389216,
              17.492983
            ],
            [
              78.392216,
              17.496852
            ],
            [
              78.395518,
              17.494859
            ],
            [
              78.401425,
              17.494557
            ],
            [
              78.400787,
              17.496128
            ],
            [
              78.397511,
              17.498557
            ],
            [
              78.398216,
              17.499401
            ],
            [
              78.399671,
              17.499557
            ],
            [
              78.398216,
              17.500823
            ],
            [
              78.398191,
              17.503557
            ],
            [
              78.397379,
              17.504557
            ],
            [
              78.399216,
              17.504717
            ],
            [
              78.399935,
              17.505557
            ],
            [
              78.398018,
              17.506359
            ],
            [
              78.397676,
              17.509557
            ],
            [
              78.398381,
              17.515391
            ],
            [
              78.399251,
              17.515521
            ],
            [
              78.399216,
              17.516136
            ],
            [
              78.398216,
              17.516933
            ],
            [
              78.396216,
              17.516646
            ],
            [
              78.3947,
              17.515557
            ],
            [
              78.395216,
              17.514797
            ],
            [
              78.395307,
              17.515465
            ],
            [
              78.396825,
              17.515166
            ],
            [
              78.39678,
              17.510557
            ],
            [
              78.395216,
              17.509049
            ],
            [
              78.393216,
              17.509138
            ],
            [
              78.389728,
              17.512557
            ],
            [
              78.394002,
              17.513557
            ],
            [
              78.393949,
              17.516557
            ],
            [
              78.391558,
              17.517557
            ],
            [
              78.393321,
              17.519451
            ],
            [
              78.393216,
              17.521106
            ],
            [
              78.390709,
              17.524557
            ],
            [
              78.388216,
              17.525081
            ],
            [
              78.386216,
              17.523939
            ],
            [
              78.384216,
              17.524969
            ],
            [
              78.382942,
              17.52383
            ],
            [
              78.382527,
              17.522245
            ],
            [
              78.381216,
              17.522121
            ],
            [
              78.380216,
              17.521134
            ],
            [
              78.378982,
              17.521323
            ],
            [
              78.378948,
              17.522824
            ],
            [
              78.3809,
              17.525872
            ],
            [
              78.384482,
              17.52629
            ],
            [
              78.38381,
              17.527962
            ],
            [
              78.384691,
              17.528032
            ],
            [
              78.386303,
              17.526469
            ],
            [
              78.387463,
              17.526557
            ],
            [
              78.387216,
              17.528153
            ],
            [
              78.386216,
              17.527702
            ],
            [
              78.385512,
              17.528557
            ],
            [
              78.38681,
              17.529557
            ],
            [
              78.386216,
              17.532413
            ],
            [
              78.386061,
              17.531711
            ],
            [
              78.384196,
              17.531557
            ],
            [
              78.384682,
              17.52909
            ],
            [
              78.382216,
              17.529958
            ],
            [
              78.381216,
              17.529016
            ],
            [
              78.379604,
              17.531557
            ],
            [
              78.38053,
              17.532557
            ],
            [
              78.380315,
              17.534656
            ],
            [
              78.375216,
              17.533028
            ],
            [
              78.37247,
              17.534557
            ],
            [
              78.372458,
              17.536315
            ],
            [
              78.373261,
              17.536511
            ],
            [
              78.373363,
              17.537557
            ],
            [
              78.3732,
              17.537572
            ],
            [
              78.373109,
              17.53745
            ],
            [
              78.372965,
              17.536807
            ],
            [
              78.371216,
              17.536006
            ],
            [
              78.367434,
              17.536775
            ],
            [
              78.367498,
              17.539274
            ],
            [
              78.369241,
              17.539532
            ],
            [
              78.370439,
              17.543333
            ],
            [
              78.371308,
              17.543557
            ],
            [
              78.368216,
              17.543242
            ],
            [
              78.367337,
              17.546557
            ],
            [
              78.366216,
              17.546463
            ],
            [
              78.365806,
              17.547557
            ],
            [
              78.363216,
              17.548913
            ]
          ]
        ],
        "type": "Polygon"
      },
      "type": "Feature"
    }
  ]
}