{
  "type": "FeatureCollection",
  "metadata": {
    "provider_name": "Maa Annapurna",
    "center_lat": 22.57397695,
    "center_lon": 88.40944804,
    "mode": "motorcycle",
    "total_zones": 4,
    "distance_zones": [
      3,
      4,
      5,
      6
    ],
    "generated_at": "2025-12-29T06:54:24.411163Z"
  },
  "features": [
    {
      "properties": {
        "fill-opacity": 0.33,
        "fillColor": "#bf4040",
        "opacity": 0.33,
        "fill": "#bf4040",
        "fillOpacity": 0.33,
        "color": "#bf4040",
        "contour": 3.0,
        "metric": "distance",
        "provider_name": "Maa Annapurna",
        "zone_type": "distance",
        "distance_km": 3,
        "mode": "motorcycle",
        "center_lat": 22.57397695,
        "center_lon": 88.40944804,
        "label": "3km"
      },
      "geometry": {
        "coordinates": [
          [
            [
              88.402448,
              22.595092
            ],
            [
              88.39937,
              22.595054
            ],
            [
              88.395412,
              22.592012
            ],
            [
              88.396242,
              22.589182
            ],
            [
              88.395359,
              22.587977
            ],
            [
              88.397122,
              22.587651
            ],
            [
              88.39723,
              22.586977
            ],
            [
              88.396448,
              22.586173
            ],
            [
              88.394041,
              22.585977
            ],
            [
              88.396448,
              22.58578
            ],
            [
              88.399039,
              22.583976
            ],
            [
              88.396448,
              22.582185
            ],
            [
              88.393734,
              22.58269
            ],
            [
              88.390675,
              22.579976
            ],
            [
              88.393337,
              22.576976
            ],
            [
              88.391448,
              22.576493
            ],
            [
              88.390448,
              22.577965
            ],
            [
              88.387448,
              22.575393
            ],
            [
              88.385448,
              22.575413
            ],
            [
              88.383397,
              22.573976
            ],
            [
              88.384448,
              22.570887
            ],
            [
              88.385448,
              22.569977
            ],
            [
              88.386603,
              22.570132
            ],
            [
              88.386033,
              22.568976
            ],
            [
              88.387448,
              22.567144
            ],
            [
              88.388901,
              22.566977
            ],
            [
              88.390448,
              22.565417
            ],
            [
              88.391946,
              22.565475
            ],
            [
              88.393448,
              22.563693
            ],
            [
              88.394694,
              22.564223
            ],
            [
              88.396448,
              22.562206
            ],
            [
              88.398417,
              22.562946
            ],
            [
              88.399407,
              22.559977
            ],
            [
              88.40654,
              22.558069
            ],
            [
              88.407459,
              22.556976
            ],
            [
              88.411286,
              22.556815
            ],
            [
              88.411324,
              22.5541
            ],
            [
              88.410448,
              22.553725
            ],
            [
              88.411488,
              22.553936
            ],
            [
              88.412448,
              22.554804
            ],
            [
              88.413181,
              22.55471
            ],
            [
              88.413448,
              22.553623
            ],
            [
              88.415177,
              22.554247
            ],
            [
              88.416397,
              22.556976
            ],
            [
              88.416892,
              22.558976
            ],
            [
              88.415207,
              22.560736
            ],
            [
              88.416229,
              22.563977
            ],
            [
              88.420547,
              22.569877
            ],
            [
              88.423109,
              22.576315
            ],
            [
              88.424021,
              22.577403
            ],
            [
              88.425448,
              22.577654
            ],
            [
              88.428448,
              22.575627
            ],
            [
              88.430509,
              22.575976
            ],
            [
              88.430068,
              22.578977
            ],
            [
              88.428942,
              22.579976
            ],
            [
              88.430598,
              22.580826
            ],
            [
              88.431128,
              22.581976
            ],
            [
              88.428013,
              22.581542
            ],
            [
              88.425987,
              22.583976
            ],
            [
              88.425575,
              22.585977
            ],
            [
              88.426312,
              22.587977
            ],
            [
              88.422448,
              22.588992
            ],
            [
              88.421448,
              22.587601
            ],
            [
              88.420448,
              22.588762
            ],
            [
              88.419828,
              22.584596
            ],
            [
              88.414494,
              22.585023
            ],
            [
              88.414498,
              22.586026
            ],
            [
              88.412756,
              22.586977
            ],
            [
              88.413111,
              22.59064
            ],
            [
              88.408027,
              22.591555
            ],
            [
              88.406077,
              22.592977
            ],
            [
              88.405448,
              22.594482
            ],
            [
              88.402448,
              22.595092
            ]
          ]
        ],
        "type": "Polygon"
      },
      "type": "Feature"
    },
    {
      "properties": {
        "fill-opacity": 0.33,
        "fillColor": "#bf4040",
        "opacity": 0.33,
        "fill": "#bf4040",
        "fillOpacity": 0.33,
        "color": "#bf4040",
        "contour": 4.0,
        "metric": "distance",
        "provider_name": "Maa Annapurna",
        "zone_type": "distance",
        "distance_km": 4,
        "mode": "motorcycle",
        "center_lat": 22.57397695,
        "center_lon": 88.40944804,
        "label": "4km"
      },
      "geometry": {
        "coordinates": [
          [
            [
              88.409448,
              22.6
            ],
            [
              88.404118,
              22.598306
            ],
            [
              88.402619,
              22.596805
            ],
            [
              88.400703,
              22.596721
            ],
            [
              88.400465,
              22.595959
            ],
            [
              88.399448,
              22.596139
            ],
            [
              88.398448,
              22.595144
            ],
            [
              88.397009,
              22.595415
            ],
            [
              88.395448,
              22.594062
            ],
            [
              88.393952,
              22.594472
            ],
            [
              88.392448,
              22.592463
            ],
            [
              88.391042,
              22.592571
            ],
            [
              88.390448,
              22.593395
            ],
            [
              88.388621,
              22.592977
            ],
            [
              88.389448,
              22.590976
            ],
            [
              88.387491,
              22.589977
            ],
            [
              88.388843,
              22.586977
            ],
            [
              88.388448,
              22.586362
            ],
            [
              88.385839,
              22.583585
            ],
            [
              88.381537,
              22.581977
            ],
            [
              88.384001,
              22.578977
            ],
            [
              88.381448,
              22.577531
            ],
            [
              88.380448,
              22.578622
            ],
            [
              88.377448,
              22.578726
            ],
            [
              88.374302,
              22.576977
            ],
            [
              88.374178,
              22.575977
            ],
            [
              88.375448,
              22.574544
            ],
            [
              88.375717,
              22.575707
            ],
            [
              88.376945,
              22.575474
            ],
            [
              88.377047,
              22.574377
            ],
            [
              88.375835,
              22.573976
            ],
            [
              88.377448,
              22.571717
            ],
            [
              88.381812,
              22.573341
            ],
            [
              88.380881,
              22.570543
            ],
            [
              88.378962,
              22.568977
            ],
            [
              88.381925,
              22.567454
            ],
            [
              88.382448,
              22.565781
            ],
            [
              88.385703,
              22.567232
            ],
            [
              88.386952,
              22.565481
            ],
            [
              88.388455,
              22.564984
            ],
            [
              88.390342,
              22.559871
            ],
            [
              88.391448,
              22.559572
            ],
            [
              88.391962,
              22.560462
            ],
            [
              88.393448,
              22.560448
            ],
            [
              88.394096,
              22.559625
            ],
            [
              88.398921,
              22.557977
            ],
            [
              88.398423,
              22.556952
            ],
            [
              88.400448,
              22.556828
            ],
            [
              88.402448,
              22.558436
            ],
            [
              88.404822,
              22.55735
            ],
            [
              88.404952,
              22.555472
            ],
            [
              88.402892,
              22.554532
            ],
            [
              88.401862,
              22.552977
            ],
            [
              88.401869,
              22.549977
            ],
            [
              88.403448,
              22.549881
            ],
            [
              88.405448,
              22.551661
            ],
            [
              88.406448,
              22.550729
            ],
            [
              88.40924,
              22.550769
            ],
            [
              88.409448,
              22.549925
            ],
            [
              88.411448,
              22.550148
            ],
            [
              88.412448,
              22.550351
            ],
            [
              88.414046,
              22.552378
            ],
            [
              88.415448,
              22.552523
            ],
            [
              88.419029,
              22.549557
            ],
            [
              88.419423,
              22.547952
            ],
            [
              88.420448,
              22.547732
            ],
            [
              88.421544,
              22.54888
            ],
            [
              88.419899,
              22.550428
            ],
            [
              88.418784,
              22.553977
            ],
            [
              88.419448,
              22.554725
            ],
            [
              88.422463,
              22.554961
            ],
            [
              88.419006,
              22.555535
            ],
            [
              88.417899,
              22.557977
            ],
            [
              88.418905,
              22.558977
            ],
            [
              88.417899,
              22.559977
            ],
            [
              88.419448,
              22.561666
            ],
            [
              88.422212,
              22.561741
            ],
            [
              88.422433,
              22.560962
            ],
            [
              88.423652,
              22.560977
            ],
            [
              88.422497,
              22.561026
            ],
            [
              88.422448,
              22.564023
            ],
            [
              88.422342,
              22.563083
            ],
            [
              88.420448,
              22.563188
            ],
            [
              88.419448,
              22.562287
            ],
            [
              88.416856,
              22.563977
            ],
            [
              88.418968,
              22.567977
            ],
            [
              88.420808,
              22.569616
            ],
            [
              88.421196,
              22.571228
            ],
            [
              88.422439,
              22.571977
            ],
            [
              88.422335,
              22.573976
            ],
            [
              88.423298,
              22.574126
            ],
            [
              88.4234,
              22.576024
            ],
            [
              88.424448,
              22.57723
            ],
            [
              88.425626,
              22.577155
            ],
            [
              88.425905,
              22.573519
            ],
            [
              88.424915,
              22.572509
            ],
            [
              88.42293,
              22.572494
            ],
            [
              88.422503,
              22.570977
            ],
            [
              88.42933,
              22.569859
            ],
            [
              88.429448,
              22.568975
            ],
            [
              88.431086,
              22.571338
            ],
            [
              88.435063,
              22.570977
            ],
            [
              88.434319,
              22.573105
            ],
            [
              88.435658,
              22.573187
            ],
            [
              88.437448,
              22.571729
            ],
            [
              88.439448,
              22.571962
            ],
            [
              88.439443,
              22.571981
            ],
            [
              88.438508,
              22.572037
            ],
            [
              88.438753,
              22.574281
            ],
            [
              88.436448,
              22.579694
            ],
            [
              88.435448,
              22.579407
            ],
            [
              88.435107,
              22.579976
            ],
            [
              88.439511,
              22.579913
            ],
            [
              88.439537,
              22.580976
            ],
            [
              88.437374,
              22.582903
            ],
            [
              88.43631,
              22.582839
            ],
            [
              88.438887,
              22.583977
            ],
            [
              88.433928,
              22.586977
            ],
            [
              88.433609,
              22.588815
            ],
            [
              88.434368,
              22.590977
            ],
            [
              88.432448,
              22.593153
            ],
            [
              88.424448,
              22.594497
            ],
            [
              88.422886,
              22.595414
            ],
            [
              88.421448,
              22.59795
            ],
            [
              88.42062,
              22.595804
            ],
            [
              88.417826,
              22.595354
            ],
            [
              88.416174,
              22.596703
            ],
            [
              88.415448,
              22.598634
            ],
            [
              88.414448,
              22.596988
            ],
            [
              88.413448,
              22.597563
            ],
            [
              88.411448,
              22.595685
            ],
            [
              88.410142,
              22.597282
            ],
            [
              88.411759,
              22.597665
            ],
            [
              88.412782,
              22.598977
            ],
            [
              88.409448,
              22.6
            ]
          ]
        ],
        "type": "Polygon"
      },
      "type": "Feature"
    },
    {
      "properties": {
        "fill-opacity": 0.33,
        "fillColor": "#bf4040",
        "opacity": 0.33,
        "fill": "#bf4040",
        "fillOpacity": 0.33,
        "color": "#bf4040",
        "contour": 5.0,
        "metric": "distance",
        "provider_name": "Maa Annapurna",
        "zone_type": "distance",
        "distance_km": 5,
        "mode": "motorcycle",
        "center_lat": 22.57397695,
        "center_lon": 88.40944804,
        "label": "5km"
      },
      "geometry": {
        "coordinates": [
          [
            [
              88.414448,
              22.603314
            ],
            [
              88.408748,
              22.601676
            ],
            [
              88.408412,
              22.600941
            ],
            [
              88.406448,
              22.601496
            ],
            [
              88.399448,
              22.601136
            ],
            [
              88.397448,
              22.603004
            ],
            [
              88.393448,
              22.601136
            ],
            [
              88.393483,
              22.597977
            ],
            [
              88.391448,
              22.597363
            ],
            [
              88.38649,
              22.599019
            ],
            [
              88.386448,
              22.59993
            ],
            [
              88.386064,
              22.598977
            ],
            [
              88.386873,
              22.597977
            ],
            [
              88.386448,
              22.597182
            ],
            [
              88.384448,
              22.598276
            ],
            [
              88.381448,
              22.597387
            ],
            [
              88.380363,
              22.596061
            ],
            [
              88.380595,
              22.594829
            ],
            [
              88.379186,
              22.593976
            ],
            [
              88.382219,
              22.590748
            ],
            [
              88.380854,
              22.58657
            ],
            [
              88.376448,
              22.588602
            ],
            [
              88.372741,
              22.585976
            ],
            [
              88.37252,
              22.584977
            ],
            [
              88.374493,
              22.582977
            ],
            [
              88.373694,
              22.58173
            ],
            [
              88.372448,
              22.582404
            ],
            [
              88.370448,
              22.580368
            ],
            [
              88.366015,
              22.579976
            ],
            [
              88.365224,
              22.5792
            ],
            [
              88.365576,
              22.576977
            ],
            [
              88.36679,
              22.575977
            ],
            [
              88.368414,
              22.571976
            ],
            [
              88.369395,
              22.571924
            ],
            [
              88.370262,
              22.568791
            ],
            [
              88.370674,
              22.56975
            ],
            [
              88.372014,
              22.569543
            ],
            [
              88.372448,
              22.56692
            ],
            [
              88.372619,
              22.567805
            ],
            [
              88.374448,
              22.567772
            ],
            [
              88.375448,
              22.568679
            ],
            [
              88.379466,
              22.567995
            ],
            [
              88.378905,
              22.565976
            ],
            [
              88.380881,
              22.563976
            ],
            [
              88.381743,
              22.559977
            ],
            [
              88.384448,
              22.558186
            ],
            [
              88.384666,
              22.558758
            ],
            [
              88.385925,
              22.558454
            ],
            [
              88.388448,
              22.555514
            ],
            [
              88.390703,
              22.557232
            ],
            [
              88.392566,
              22.556095
            ],
            [
              88.393312,
              22.553976
            ],
            [
              88.395468,
              22.552997
            ],
            [
              88.394496,
              22.550976
            ],
            [
              88.395942,
              22.547976
            ],
            [
              88.394516,
              22.546976
            ],
            [
              88.396448,
              22.543946
            ],
            [
              88.396792,
              22.544633
            ],
            [
              88.397885,
              22.544414
            ],
            [
              88.397931,
              22.543493
            ],
            [
              88.39701,
              22.542976
            ],
            [
              88.398448,
              22.541467
            ],
            [
              88.400448,
              22.544708
            ],
            [
              88.402266,
              22.543795
            ],
            [
              88.402448,
              22.542607
            ],
            [
              88.403142,
              22.542976
            ],
            [
              88.402531,
              22.54306
            ],
            [
              88.402533,
              22.543976
            ],
            [
              88.401574,
              22.545103
            ],
            [
              88.399981,
              22.54551
            ],
            [
              88.400448,
              22.546589
            ],
            [
              88.402448,
              22.546626
            ],
            [
              88.403448,
              22.545706
            ],
            [
              88.405126,
              22.545655
            ],
            [
              88.405448,
              22.544848
            ],
            [
              88.406903,
              22.544977
            ],
            [
              88.405693,
              22.545222
            ],
            [
              88.405547,
              22.546076
            ],
            [
              88.401842,
              22.547976
            ],
            [
              88.405165,
              22.551259
            ],
            [
              88.406448,
              22.551367
            ],
            [
              88.412448,
              22.548565
            ],
            [
              88.414448,
              22.548617
            ],
            [
              88.414687,
              22.549216
            ],
            [
              88.412886,
              22.549977
            ],
            [
              88.414448,
              22.552468
            ],
            [
              88.415688,
              22.552217
            ],
            [
              88.419938,
              22.547976
            ],
            [
              88.419856,
              22.546568
            ],
            [
              88.417277,
              22.545977
            ],
            [
              88.417448,
              22.544704
            ],
            [
              88.418448,
              22.5454
            ],
            [
              88.419448,
              22.544163
            ],
            [
              88.420789,
              22.543976
            ],
            [
              88.419417,
              22.543007
            ],
            [
              88.41943,
              22.541959
            ],
            [
              88.422104,
              22.541633
            ],
            [
              88.422379,
              22.540908
            ],
            [
              88.423448,
              22.540448
            ],
            [
              88.423484,
              22.541013
            ],
            [
              88.422663,
              22.541192
            ],
            [
              88.421731,
              22.542976
            ],
            [
              88.42205,
              22.545374
            ],
            [
              88.423448,
              22.54558
            ],
            [
              88.426072,
              22.543601
            ],
            [
              88.426385,
              22.541914
            ],
            [
              88.427448,
              22.541382
            ],
            [
              88.427494,
              22.542023
            ],
            [
              88.426656,
              22.542185
            ],
            [
              88.426643,
              22.542976
            ],
            [
              88.427448,
              22.546702
            ],
            [
              88.426024,
              22.5454
            ],
            [
              88.425006,
              22.545535
            ],
            [
              88.424672,
              22.547201
            ],
            [
              88.423079,
              22.547608
            ],
            [
              88.420157,
              22.550686
            ],
            [
              88.419049,
              22.553976
            ],
            [
              88.421448,
              22.554448
            ],
            [
              88.422448,
              22.553502
            ],
            [
              88.425448,
              22.553581
            ],
            [
              88.426448,
              22.552674
            ],
            [
              88.431209,
              22.552977
            ],
            [
              88.427448,
              22.553279
            ],
            [
              88.426448,
              22.554329
            ],
            [
              88.423448,
              22.554435
            ],
            [
              88.422448,
              22.555479
            ],
            [
              88.419448,
              22.555549
            ],
            [
              88.418093,
              22.557976
            ],
            [
              88.419096,
              22.558976
            ],
            [
              88.418093,
              22.559977
            ],
            [
              88.419448,
              22.561384
            ],
            [
              88.421448,
              22.561422
            ],
            [
              88.422448,
              22.560471
            ],
            [
              88.427448,
              22.560599
            ],
            [
              88.428448,
              22.559684
            ],
            [
              88.430011,
              22.55954
            ],
            [
              88.43143,
              22.557959
            ],
            [
              88.432412,
              22.557976
            ],
            [
              88.431504,
              22.558033
            ],
            [
              88.431568,
              22.558976
            ],
            [
              88.43058,
              22.560109
            ],
            [
              88.428448,
              22.561308
            ],
            [
              88.423124,
              22.561653
            ],
            [
              88.422448,
              22.564488
            ],
            [
              88.419448,
              22.562569
            ],
            [
              88.417193,
              22.563722
            ],
            [
              88.419286,
              22.568138
            ],
            [
              88.420904,
              22.56952
            ],
            [
              88.421448,
              22.571324
            ],
            [
              88.422448,
              22.570478
            ],
            [
              88.425448,
              22.5704
            ],
            [
              88.426448,
              22.569482
            ],
            [
              88.433448,
              22.567683
            ],
            [
              88.434448,
              22.566755
            ],
            [
              88.438448,
              22.566757
            ],
            [
              88.439448,
              22.565846
            ],
            [
              88.440894,
              22.565976
            ],
            [
              88.441065,
              22.571359
            ],
            [
              88.44394,
              22.572469
            ],
            [
              88.444448,
              22.569843
            ],
            [
              88.446177,
              22.571247
            ],
            [
              88.446011,
              22.573976
            ],
            [
              88.443579,
              22.574977
            ],
            [
              88.444448,
              22.576233
            ],
            [
              88.447528,
              22.576977
            ],
            [
              88.447486,
              22.578015
            ],
            [
              88.445994,
              22.578523
            ],
            [
              88.445186,
              22.580238
            ],
            [
              88.449096,
              22.580976
            ],
            [
              88.448799,
              22.581977
            ],
            [
              88.446448,
              22.583175
            ],
            [
              88.445427,
              22.581977
            ],
            [
              88.443448,
              22.581699
            ],
            [
              88.441164,
              22.582693
            ],
            [
              88.438697,
              22.584977
            ],
            [
              88.439637,
              22.585976
            ],
            [
              88.439184,
              22.591241
            ],
            [
              88.440799,
              22.592977
            ],
            [
              88.439391,
              22.595976
            ],
            [
              88.436172,
              22.5977
            ],
            [
              88.434786,
              22.599315
            ],
            [
              88.430448,
              22.60075
            ],
            [
              88.422448,
              22.601667
            ],
            [
              88.421448,
              22.602426
            ],
            [
              88.415448,
              22.602361
            ],
            [
              88.414448,
              22.603314
            ]
          ]
        ],
        "type": "Polygon"
      },
      "type": "Feature"
    },
    {
      "properties": {
        "fill-opacity": 0.33,
        "fillColor": "#bf4040",
        "opacity": 0.33,
        "fill": "#bf4040",
        "fillOpacity": 0.33,
        "color": "#bf4040",
        "contour": 6.0,
        "metric": "distance",
        "provider_name": "Maa Annapurna",
        "zone_type": "distance",
        "distance_km": 6,
        "mode": "motorcycle",
        "center_lat": 22.57397695,
        "center_lon": 88.40944804,
        "label": "6km"
      },
      "geometry": {
        "coordinates": [
          [
            [
              88.402448,
              22.609342
            ],
            [
              88.400047,
              22.607377
            ],
            [
              88.399454,
              22.60597
            ],
            [
              88.397745,
              22.608273
            ],
            [
              88.396448,
              22.608302
            ],
            [
              88.395448,
              22.607337
            ],
            [
              88.394347,
              22.608077
            ],
            [
              88.393195,
              22.605977
            ],
            [
              88.392975,
              22.601976
            ],
            [
              88.392151,
              22.600976
            ],
            [
              88.392942,
              22.598977
            ],
            [
              88.391448,
              22.597596
            ],
            [
              88.384944,
              22.600473
            ],
            [
              88.382521,
              22.60305
            ],
            [
              88.381639,
              22.603167
            ],
            [
              88.381448,
              22.604055
            ],
            [
              88.380448,
              22.603127
            ],
            [
              88.379582,
              22.603111
            ],
            [
              88.37926,
              22.603977
            ],
            [
              88.378448,
              22.602742
            ],
            [
              88.375431,
              22.602993
            ],
            [
              88.37585,
              22.601574
            ],
            [
              88.372745,
              22.597679
            ],
            [
              88.369437,
              22.594976
            ],
            [
              88.371243,
              22.591976
            ],
            [
              88.369448,
              22.590569
            ],
            [
              88.366448,
              22.591054
            ],
            [
              88.364748,
              22.589977
            ],
            [
              88.365079,
              22.587976
            ],
            [
              88.36294,
              22.585976
            ],
            [
              88.364547,
              22.583076
            ],
            [
              88.363067,
              22.581357
            ],
            [
              88.362852,
              22.578381
            ],
            [
              88.363645,
              22.575977
            ],
            [
              88.364863,
              22.574977
            ],
            [
              88.364819,
              22.569976
            ],
            [
              88.365928,
              22.567977
            ],
            [
              88.36467,
              22.564976
            ],
            [
              88.365535,
              22.563976
            ],
            [
              88.365074,
              22.562976
            ],
            [
              88.366448,
              22.560308
            ],
            [
              88.371448,
              22.56288
            ],
            [
              88.374448,
              22.562624
            ],
            [
              88.375293,
              22.561976
            ],
            [
              88.37528,
              22.559809
            ],
            [
              88.376448,
              22.559211
            ],
            [
              88.377543,
              22.560072
            ],
            [
              88.380531,
              22.55806
            ],
            [
              88.381448,
              22.55643
            ],
            [
              88.382731,
              22.55726
            ],
            [
              88.383448,
              22.555305
            ],
            [
              88.384782,
              22.556976
            ],
            [
              88.385982,
              22.552976
            ],
            [
              88.387932,
              22.551461
            ],
            [
              88.387329,
              22.546858
            ],
            [
              88.390448,
              22.546666
            ],
            [
              88.391137,
              22.545976
            ],
            [
              88.389914,
              22.544976
            ],
            [
              88.39104,
              22.544569
            ],
            [
              88.391048,
              22.543376
            ],
            [
              88.38964,
              22.543168
            ],
            [
              88.389175,
              22.544249
            ],
            [
              88.388907,
              22.541517
            ],
            [
              88.387556,
              22.540977
            ],
            [
              88.389448,
              22.539924
            ],
            [
              88.389798,
              22.541626
            ],
            [
              88.393872,
              22.541401
            ],
            [
              88.394219,
              22.538748
            ],
            [
              88.395853,
              22.536976
            ],
            [
              88.394043,
              22.535976
            ],
            [
              88.395776,
              22.535305
            ],
            [
              88.396448,
              22.532747
            ],
            [
              88.396986,
              22.534438
            ],
            [
              88.399862,
              22.534976
            ],
            [
              88.398694,
              22.535223
            ],
            [
              88.398406,
              22.536976
            ],
            [
              88.399032,
              22.538392
            ],
            [
              88.400797,
              22.538627
            ],
            [
              88.401448,
              22.539585
            ],
            [
              88.40215,
              22.538976
            ],
            [
              88.400448,
              22.536741
            ],
            [
              88.402542,
              22.535976
            ],
            [
              88.404448,
              22.53877
            ],
            [
              88.40517,
              22.537254
            ],
            [
              88.4037,
              22.536976
            ],
            [
              88.404516,
              22.535908
            ],
            [
              88.407448,
              22.537357
            ],
            [
              88.408448,
              22.537208
            ],
            [
              88.408687,
              22.539976
            ],
            [
              88.409448,
              22.540675
            ],
            [
              88.410251,
              22.539976
            ],
            [
              88.410448,
              22.537949
            ],
            [
              88.415508,
              22.540916
            ],
            [
              88.416155,
              22.541976
            ],
            [
              88.415414,
              22.542976
            ],
            [
              88.411448,
              22.543312
            ],
            [
              88.410448,
              22.544358
            ],
            [
              88.408448,
              22.544433
            ],
            [
              88.40207,
              22.547976
            ],
            [
              88.402224,
              22.5492
            ],
            [
              88.4039,
              22.549524
            ],
            [
              88.405448,
              22.551265
            ],
            [
              88.409448,
              22.549304
            ],
            [
              88.414448,
              22.548367
            ],
            [
              88.414854,
              22.549383
            ],
            [
              88.413088,
              22.549976
            ],
            [
              88.413246,
              22.551178
            ],
            [
              88.414448,
              22.552238
            ],
            [
              88.415625,
              22.552154
            ],
            [
              88.418652,
              22.549181
            ],
            [
              88.419795,
              22.546976
            ],
            [
              88.416901,
              22.545976
            ],
            [
              88.417,
              22.543529
            ],
            [
              88.418887,
              22.541416
            ],
            [
              88.421751,
              22.54128
            ],
            [
              88.424746,
              22.538678
            ],
            [
              88.424762,
              22.540291
            ],
            [
              88.42203,
              22.542976
            ],
            [
              88.422199,
              22.545226
            ],
            [
              88.423448,
              22.545353
            ],
            [
              88.427123,
              22.540652
            ],
            [
              88.428813,
              22.540342
            ],
            [
              88.432402,
              22.535931
            ],
            [
              88.434448,
              22.535512
            ],
            [
              88.434648,
              22.536776
            ],
            [
              88.435624,
              22.536976
            ],
            [
              88.43198,
              22.538509
            ],
            [
              88.429743,
              22.541272
            ],
            [
              88.42811,
              22.541639
            ],
            [
              88.426997,
              22.542976
            ],
            [
              88.431448,
              22.543606
            ],
            [
              88.432448,
              22.544708
            ],
            [
              88.435761,
              22.544976
            ],
            [
              88.432448,
              22.545245
            ],
            [
              88.430715,
              22.547243
            ],
            [
              88.429086,
              22.547614
            ],
            [
              88.428714,
              22.551977
            ],
            [
              88.430448,
              22.552452
            ],
            [
              88.431448,
              22.551507
            ],
            [
              88.436448,
              22.551587
            ],
            [
              88.437448,
              22.550758
            ],
            [
              88.438623,
              22.550976
            ],
            [
              88.437604,
              22.551133
            ],
            [
              88.437448,
              22.552212
            ],
            [
              88.432448,
              22.55243
            ],
            [
              88.431448,
              22.553468
            ],
            [
              88.427448,
              22.553561
            ],
            [
              88.426448,
              22.554583
            ],
            [
              88.423448,
              22.554625
            ],
            [
              88.422448,
              22.555644
            ],
            [
              88.419448,
              22.555677
            ],
            [
              88.418186,
              22.557976
            ],
            [
              88.419187,
              22.558976
            ],
            [
              88.418269,
              22.560155
            ],
            [
              88.419448,
              22.561266
            ],
            [
              88.421448,
              22.561285
            ],
            [
              88.422448,
              22.560307
            ],
            [
              88.427448,
              22.56036
            ],
            [
              88.431448,
              22.55747
            ],
            [
              88.433448,
              22.557506
            ],
            [
              88.434885,
              22.558976
            ],
            [
              88.435451,
              22.565976
            ],
            [
              88.436448,
              22.566387
            ],
            [
              88.438448,
              22.566415
            ],
            [
              88.439448,
              22.565442
            ],
            [
              88.444448,
              22.565581
            ],
            [
              88.445945,
              22.564474
            ],
            [
              88.446346,
              22.562976
            ],
            [
              88.447428,
              22.562976
            ],
            [
              88.449025,
              22.565976
            ],
            [
              88.446973,
              22.566502
            ],
            [
              88.44702,
              22.567405
            ],
            [
              88.449186,
              22.567715
            ],
            [
              88.449448,
              22.56694
            ],
            [
              88.451448,
              22.57045
            ],
            [
              88.453698,
              22.570976
            ],
            [
              88.452031,
              22.573976
            ],
            [
              88.452299,
              22.574977
            ],
            [
              88.449843,
              22.576976
            ],
            [
              88.450192,
              22.578232
            ],
            [
              88.451448,
              22.579069
            ],
            [
              88.452448,
              22.577374
            ],
            [
              88.4549,
              22.577976
            ],
            [
              88.453711,
              22.579976
            ],
            [
              88.454448,
              22.581543
            ],
            [
              88.455691,
              22.580733
            ],
            [
              88.458743,
              22.580976
            ],
            [
              88.457665,
              22.581193
            ],
            [
              88.455866,
              22.584976
            ],
            [
              88.454458,
              22.584987
            ],
            [
              88.453448,
              22.586892
            ],
            [
              88.453098,
              22.585326
            ],
            [
              88.451904,
              22.585433
            ],
            [
              88.451739,
              22.586685
            ],
            [
              88.453352,
              22.586976
            ],
            [
              88.450448,
              22.589401
            ],
            [
              88.447448,
              22.586494
            ],
            [
              88.446448,
              22.587628
            ],
            [
              88.446311,
              22.587113
            ],
            [
              88.444693,
              22.587222
            ],
            [
              88.444448,
              22.588242
            ],
            [
              88.44422,
              22.587204
            ],
            [
              88.441448,
              22.587576
            ],
            [
              88.4411,
              22.589977
            ],
            [
              88.442683,
              22.591741
            ],
            [
              88.442035,
              22.592976
            ],
            [
              88.44363,
              22.597977
            ],
            [
              88.441511,
              22.60004
            ],
            [
              88.439647,
              22.600176
            ],
            [
              88.437498,
              22.603027
            ],
            [
              88.43655,
              22.603079
            ],
            [
              88.436448,
              22.604001
            ],
            [
              88.432448,
              22.60419
            ],
            [
              88.431448,
              22.603241
            ],
            [
              88.429448,
              22.60423
            ],
            [
              88.428448,
              22.60324
            ],
            [
              88.427448,
              22.604214
            ],
            [
              88.424448,
              22.604371
            ],
            [
              88.423448,
              22.603473
            ],
            [
              88.416897,
              22.602976
            ],
            [
              88.414797,
              22.604326
            ],
            [
              88.414125,
              22.605977
            ],
            [
              88.410448,
              22.607659
            ],
            [
              88.408448,
              22.602424
            ],
            [
              88.40785,
              22.602976
            ],
            [
              88.407949,
              22.605478
            ],
            [
              88.402448,
              22.609342
            ]
          ]
        ],
        "type": "Polygon"
      },
      "type": "Feature"
    }
  ]
}