{
  "type": "FeatureCollection",
  "metadata": {
    "provider_name": "All Food 69",
    "center_lat": 22.57110951,
    "center_lon": 88.47919486,
    "mode": "motorcycle",
    "total_zones": 4,
    "distance_zones": [
      3,
      4,
      5,
      6
    ],
    "generated_at": "2025-12-28T13:40:28.904387Z"
  },
  "features": [
    {
      "properties": {
        "fill-opacity": 0.33,
        "fillColor": "#bf4040",
        "opacity": 0.33,
        "fill": "#bf4040",
        "fillOpacity": 0.33,
        "color": "#bf4040",
        "contour": 3.0,
        "metric": "distance",
        "provider_name": "All Food 69",
        "zone_type": "distance",
        "distance_km": 3,
        "mode": "motorcycle",
        "center_lat": 22.57110951,
        "center_lon": 88.47919486,
        "label": "3km"
      },
      "geometry": {
        "coordinates": [
          [
            [
              88.474194,
              22.591395
            ],
            [
              88.472532,
              22.587109
            ],
            [
              88.473427,
              22.584876
            ],
            [
              88.465194,
              22.585756
            ],
            [
              88.461979,
              22.584109
            ],
            [
              88.460384,
              22.582109
            ],
            [
              88.457453,
              22.581109
            ],
            [
              88.458936,
              22.580851
            ],
            [
              88.459189,
              22.578109
            ],
            [
              88.461,
              22.575915
            ],
            [
              88.460542,
              22.574761
            ],
            [
              88.458716,
              22.574109
            ],
            [
              88.458142,
              22.573162
            ],
            [
              88.458547,
              22.571757
            ],
            [
              88.457159,
              22.568145
            ],
            [
              88.458827,
              22.567742
            ],
            [
              88.459097,
              22.566011
            ],
            [
              88.46065,
              22.565564
            ],
            [
              88.464194,
              22.561298
            ],
            [
              88.465194,
              22.562809
            ],
            [
              88.465955,
              22.562109
            ],
            [
              88.464918,
              22.561109
            ],
            [
              88.466049,
              22.559109
            ],
            [
              88.465884,
              22.553799
            ],
            [
              88.466194,
              22.55322
            ],
            [
              88.466356,
              22.553947
            ],
            [
              88.467194,
              22.553981
            ],
            [
              88.467894,
              22.553109
            ],
            [
              88.467819,
              22.551484
            ],
            [
              88.46622,
              22.551109
            ],
            [
              88.466818,
              22.549733
            ],
            [
              88.467194,
              22.549317
            ],
            [
              88.468194,
              22.549906
            ],
            [
              88.469776,
              22.553528
            ],
            [
              88.471194,
              22.554635
            ],
            [
              88.476194,
              22.551065
            ],
            [
              88.479023,
              22.551109
            ],
            [
              88.477459,
              22.551374
            ],
            [
              88.476365,
              22.55328
            ],
            [
              88.474759,
              22.553673
            ],
            [
              88.47271,
              22.556109
            ],
            [
              88.474194,
              22.558533
            ],
            [
              88.475194,
              22.557586
            ],
            [
              88.476547,
              22.557757
            ],
            [
              88.476894,
              22.559409
            ],
            [
              88.480194,
              22.562471
            ],
            [
              88.481451,
              22.561366
            ],
            [
              88.481599,
              22.560109
            ],
            [
              88.479659,
              22.559109
            ],
            [
              88.480672,
              22.557109
            ],
            [
              88.479872,
              22.555787
            ],
            [
              88.482194,
              22.555523
            ],
            [
              88.483862,
              22.557441
            ],
            [
              88.485689,
              22.557614
            ],
            [
              88.484771,
              22.559109
            ],
            [
              88.485194,
              22.562464
            ],
            [
              88.485814,
              22.559729
            ],
            [
              88.48883,
              22.559109
            ],
            [
              88.486597,
              22.555109
            ],
            [
              88.487194,
              22.554418
            ],
            [
              88.488194,
              22.554834
            ],
            [
              88.488714,
              22.557589
            ],
            [
              88.490576,
              22.558491
            ],
            [
              88.491809,
              22.557109
            ],
            [
              88.490567,
              22.555109
            ],
            [
              88.490641,
              22.553109
            ],
            [
              88.492194,
              22.551497
            ],
            [
              88.493767,
              22.552109
            ],
            [
              88.493417,
              22.553109
            ],
            [
              88.49477,
              22.554533
            ],
            [
              88.495146,
              22.556109
            ],
            [
              88.494573,
              22.557109
            ],
            [
              88.495194,
              22.557696
            ],
            [
              88.496885,
              22.557109
            ],
            [
              88.495324,
              22.556109
            ],
            [
              88.496194,
              22.555014
            ],
            [
              88.496413,
              22.555891
            ],
            [
              88.499065,
              22.55598
            ],
            [
              88.499194,
              22.555082
            ],
            [
              88.499306,
              22.555998
            ],
            [
              88.501893,
              22.556109
            ],
            [
              88.500194,
              22.5586
            ],
            [
              88.499884,
              22.55742
            ],
            [
              88.498708,
              22.557622
            ],
            [
              88.49863,
              22.558673
            ],
            [
              88.499981,
              22.559109
            ],
            [
              88.499338,
              22.561253
            ],
            [
              88.498194,
              22.561259
            ],
            [
              88.496397,
              22.563109
            ],
            [
              88.497791,
              22.564512
            ],
            [
              88.499386,
              22.563918
            ],
            [
              88.499646,
              22.565109
            ],
            [
              88.498526,
              22.565441
            ],
            [
              88.496747,
              22.567662
            ],
            [
              88.496435,
              22.57035
            ],
            [
              88.495194,
              22.569524
            ],
            [
              88.494652,
              22.570109
            ],
            [
              88.494841,
              22.571462
            ],
            [
              88.496194,
              22.571666
            ],
            [
              88.496855,
              22.57077
            ],
            [
              88.498658,
              22.570573
            ],
            [
              88.499075,
              22.56899
            ],
            [
              88.500979,
              22.568894
            ],
            [
              88.501194,
              22.567973
            ],
            [
              88.501996,
              22.568109
            ],
            [
              88.500676,
              22.570109
            ],
            [
              88.502316,
              22.571109
            ],
            [
              88.50212,
              22.572035
            ],
            [
              88.500194,
              22.571709
            ],
            [
              88.498194,
              22.573453
            ],
            [
              88.496194,
              22.573526
            ],
            [
              88.493721,
              22.576109
            ],
            [
              88.495194,
              22.578949
            ],
            [
              88.496076,
              22.578991
            ],
            [
              88.496448,
              22.578109
            ],
            [
              88.496194,
              22.582337
            ],
            [
              88.494552,
              22.582467
            ],
            [
              88.493561,
              22.585109
            ],
            [
              88.495559,
              22.586744
            ],
            [
              88.497547,
              22.587109
            ],
            [
              88.497194,
              22.58771
            ],
            [
              88.495194,
              22.589001
            ],
            [
              88.494947,
              22.588357
            ],
            [
              88.491194,
              22.588312
            ],
            [
              88.488194,
              22.58969
            ],
            [
              88.487702,
              22.588601
            ],
            [
              88.486194,
              22.588461
            ],
            [
              88.48393,
              22.590373
            ],
            [
              88.483315,
              22.590109
            ],
            [
              88.483606,
              22.589109
            ],
            [
              88.48559,
              22.587109
            ],
            [
              88.482686,
              22.585109
            ],
            [
              88.482949,
              22.583863
            ],
            [
              88.484194,
              22.583933
            ],
            [
              88.484312,
              22.582992
            ],
            [
              88.482124,
              22.583038
            ],
            [
              88.481918,
              22.584833
            ],
            [
              88.480498,
              22.585412
            ],
            [
              88.479609,
              22.583694
            ],
            [
              88.478194,
              22.583453
            ],
            [
              88.477442,
              22.585109
            ],
            [
              88.478544,
              22.587109
            ],
            [
              88.475609,
              22.588523
            ],
            [
              88.474194,
              22.591395
            ]
          ]
        ],
        "type": "Polygon"
      },
      "type": "Feature"
    },
    {
      "properties": {
        "fill-opacity": 0.33,
        "fillColor": "#bf4040",
        "opacity": 0.33,
        "fill": "#bf4040",
        "fillOpacity": 0.33,
        "color": "#bf4040",
        "contour": 4.0,
        "metric": "distance",
        "provider_name": "All Food 69",
        "zone_type": "distance",
        "distance_km": 4,
        "mode": "motorcycle",
        "center_lat": 22.57110951,
        "center_lon": 88.47919486,
        "label": "4km"
      },
      "geometry": {
        "coordinates": [
          [
            [
              88.472194,
              22.599559
            ],
            [
              88.471194,
              22.600032
            ],
            [
              88.471881,
              22.596109
            ],
            [
              88.469979,
              22.595109
            ],
            [
              88.470658,
              22.593645
            ],
            [
              88.467829,
              22.594474
            ],
            [
              88.466309,
              22.592109
            ],
            [
              88.467898,
              22.591813
            ],
            [
              88.468048,
              22.590962
            ],
            [
              88.469697,
              22.590611
            ],
            [
              88.469971,
              22.589886
            ],
            [
              88.471194,
              22.589818
            ],
            [
              88.4728,
              22.591503
            ],
            [
              88.473537,
              22.591452
            ],
            [
              88.473505,
              22.589799
            ],
            [
              88.471194,
              22.587509
            ],
            [
              88.469426,
              22.589341
            ],
            [
              88.467461,
              22.589376
            ],
            [
              88.46725,
              22.590165
            ],
            [
              88.466077,
              22.589226
            ],
            [
              88.466194,
              22.588682
            ],
            [
              88.468692,
              22.588606
            ],
            [
              88.470573,
              22.585731
            ],
            [
              88.466194,
              22.586356
            ],
            [
              88.464325,
              22.587109
            ],
            [
              88.464194,
              22.587848
            ],
            [
              88.462194,
              22.58701
            ],
            [
              88.457194,
              22.58959
            ],
            [
              88.454847,
              22.587109
            ],
            [
              88.455326,
              22.585978
            ],
            [
              88.454161,
              22.585076
            ],
            [
              88.453194,
              22.586839
            ],
            [
              88.452917,
              22.585386
            ],
            [
              88.451251,
              22.585109
            ],
            [
              88.45146,
              22.584109
            ],
            [
              88.449656,
              22.581648
            ],
            [
              88.447762,
              22.581109
            ],
            [
              88.451783,
              22.577109
            ],
            [
              88.451487,
              22.575817
            ],
            [
              88.450194,
              22.57602
            ],
            [
              88.449455,
              22.575109
            ],
            [
              88.450597,
              22.571109
            ],
            [
              88.4545,
              22.570414
            ],
            [
              88.457194,
              22.567215
            ],
            [
              88.45815,
              22.567064
            ],
            [
              88.459093,
              22.565008
            ],
            [
              88.46087,
              22.564109
            ],
            [
              88.461834,
              22.562109
            ],
            [
              88.460924,
              22.561109
            ],
            [
              88.460869,
              22.559435
            ],
            [
              88.460084,
              22.559109
            ],
            [
              88.460194,
              22.557809
            ],
            [
              88.461194,
              22.558387
            ],
            [
              88.461708,
              22.560596
            ],
            [
              88.463194,
              22.561678
            ],
            [
              88.465655,
              22.559109
            ],
            [
              88.465673,
              22.556109
            ],
            [
              88.464559,
              22.553744
            ],
            [
              88.460888,
              22.553109
            ],
            [
              88.463194,
              22.552714
            ],
            [
              88.464788,
              22.551109
            ],
            [
              88.461142,
              22.550109
            ],
            [
              88.463642,
              22.549556
            ],
            [
              88.462921,
              22.548109
            ],
            [
              88.462932,
              22.544371
            ],
            [
              88.461681,
              22.544109
            ],
            [
              88.464718,
              22.543632
            ],
            [
              88.464943,
              22.542361
            ],
            [
              88.463963,
              22.542109
            ],
            [
              88.465194,
              22.540913
            ],
            [
              88.466194,
              22.541211
            ],
            [
              88.465661,
              22.543643
            ],
            [
              88.467306,
              22.543998
            ],
            [
              88.467541,
              22.546109
            ],
            [
              88.468575,
              22.547109
            ],
            [
              88.467641,
              22.548109
            ],
            [
              88.468652,
              22.549109
            ],
            [
              88.46874,
              22.551109
            ],
            [
              88.471194,
              22.554454
            ],
            [
              88.472802,
              22.552717
            ],
            [
              88.475493,
              22.551407
            ],
            [
              88.475972,
              22.548886
            ],
            [
              88.477194,
              22.549719
            ],
            [
              88.477764,
              22.549109
            ],
            [
              88.47416,
              22.545143
            ],
            [
              88.474194,
              22.543737
            ],
            [
              88.474312,
              22.544991
            ],
            [
              88.477609,
              22.545109
            ],
            [
              88.476473,
              22.545387
            ],
            [
              88.476436,
              22.546109
            ],
            [
              88.479194,
              22.54867
            ],
            [
              88.48059,
              22.548504
            ],
            [
              88.480907,
              22.547109
            ],
            [
              88.479089,
              22.545109
            ],
            [
              88.481047,
              22.544961
            ],
            [
              88.481194,
              22.543912
            ],
            [
              88.483194,
              22.546841
            ],
            [
              88.485194,
              22.545161
            ],
            [
              88.48651,
              22.545424
            ],
            [
              88.487194,
              22.543753
            ],
            [
              88.488956,
              22.544347
            ],
            [
              88.491194,
              22.549659
            ],
            [
              88.493194,
              22.549736
            ],
            [
              88.494194,
              22.548773
            ],
            [
              88.496194,
              22.550685
            ],
            [
              88.497978,
              22.549109
            ],
            [
              88.497194,
              22.54737
            ],
            [
              88.498289,
              22.548014
            ],
            [
              88.499194,
              22.549817
            ],
            [
              88.501628,
              22.548109
            ],
            [
              88.503419,
              22.548885
            ],
            [
              88.502415,
              22.54933
            ],
            [
              88.502403,
              22.550901
            ],
            [
              88.504056,
              22.550971
            ],
            [
              88.504492,
              22.550109
            ],
            [
              88.504237,
              22.551152
            ],
            [
              88.503417,
              22.552109
            ],
            [
              88.504786,
              22.554517
            ],
            [
              88.507753,
              22.553668
            ],
            [
              88.508194,
              22.552195
            ],
            [
              88.508354,
              22.552949
            ],
            [
              88.511194,
              22.553109
            ],
            [
              88.510946,
              22.554109
            ],
            [
              88.507713,
              22.554627
            ],
            [
              88.507864,
              22.559778
            ],
            [
              88.502484,
              22.564109
            ],
            [
              88.503194,
              22.565931
            ],
            [
              88.506194,
              22.565796
            ],
            [
              88.507331,
              22.564972
            ],
            [
              88.508286,
              22.566018
            ],
            [
              88.508359,
              22.567944
            ],
            [
              88.509655,
              22.568109
            ],
            [
              88.507194,
              22.569609
            ],
            [
              88.504512,
              22.569427
            ],
            [
              88.504501,
              22.570803
            ],
            [
              88.505359,
              22.571109
            ],
            [
              88.504381,
              22.572109
            ],
            [
              88.504901,
              22.574815
            ],
            [
              88.504194,
              22.575029
            ],
            [
              88.503613,
              22.573691
            ],
            [
              88.502465,
              22.573379
            ],
            [
              88.502599,
              22.574704
            ],
            [
              88.504482,
              22.575821
            ],
            [
              88.503406,
              22.576321
            ],
            [
              88.503194,
              22.577931
            ],
            [
              88.502194,
              22.578015
            ],
            [
              88.502001,
              22.576109
            ],
            [
              88.501194,
              22.575404
            ],
            [
              88.498803,
              22.576718
            ],
            [
              88.496708,
              22.579109
            ],
            [
              88.497194,
              22.580628
            ],
            [
              88.498194,
              22.579824
            ],
            [
              88.500409,
              22.580894
            ],
            [
              88.499586,
              22.582109
            ],
            [
              88.501496,
              22.582808
            ],
            [
              88.501566,
              22.583481
            ],
            [
              88.499194,
              22.58348
            ],
            [
              88.498194,
              22.58255
            ],
            [
              88.49659,
              22.584109
            ],
            [
              88.496644,
              22.585559
            ],
            [
              88.4957,
              22.585603
            ],
            [
              88.495521,
              22.582783
            ],
            [
              88.493799,
              22.584109
            ],
            [
              88.493923,
              22.58538
            ],
            [
              88.495691,
              22.585613
            ],
            [
              88.496194,
              22.586576
            ],
            [
              88.497194,
              22.585636
            ],
            [
              88.500194,
              22.586693
            ],
            [
              88.502478,
              22.583825
            ],
            [
              88.50309,
              22.585109
            ],
            [
              88.501712,
              22.585627
            ],
            [
              88.501772,
              22.587532
            ],
            [
              88.503871,
              22.586785
            ],
            [
              88.504164,
              22.585079
            ],
            [
              88.505419,
              22.586884
            ],
            [
              88.507026,
              22.587109
            ],
            [
              88.506323,
              22.587238
            ],
            [
              88.505968,
              22.589109
            ],
            [
              88.504448,
              22.589363
            ],
            [
              88.503194,
              22.591257
            ],
            [
              88.50293,
              22.590374
            ],
            [
              88.501687,
              22.590602
            ],
            [
              88.502194,
              22.593339
            ],
            [
              88.501149,
              22.593109
            ],
            [
              88.50065,
              22.589654
            ],
            [
              88.497825,
              22.58974
            ],
            [
              88.497194,
              22.5915
            ],
            [
              88.49673,
              22.589109
            ],
            [
              88.495869,
              22.588783
            ],
            [
              88.494605,
              22.591109
            ],
            [
              88.494194,
              22.597255
            ],
            [
              88.493748,
              22.590109
            ],
            [
              88.4947,
              22.589109
            ],
            [
              88.494194,
              22.588642
            ],
            [
              88.491194,
              22.588666
            ],
            [
              88.488865,
              22.58978
            ],
            [
              88.486556,
              22.594109
            ],
            [
              88.486194,
              22.596791
            ],
            [
              88.484194,
              22.59498
            ],
            [
              88.481849,
              22.597109
            ],
            [
              88.481848,
              22.595455
            ],
            [
              88.480194,
              22.594591
            ],
            [
              88.479547,
              22.597109
            ],
            [
              88.478194,
              22.597881
            ],
            [
              88.478155,
              22.597069
            ],
            [
              88.479009,
              22.596924
            ],
            [
              88.478707,
              22.594596
            ],
            [
              88.476783,
              22.593521
            ],
            [
              88.47472,
              22.593635
            ],
            [
              88.472452,
              22.597109
            ],
            [
              88.472194,
              22.599559
            ]
          ]
        ],
        "type": "Polygon"
      },
      "type": "Feature"
    },
    {
      "properties": {
        "fill-opacity": 0.33,
        "fillColor": "#bf4040",
        "opacity": 0.33,
        "fill": "#bf4040",
        "fillOpacity": 0.33,
        "color": "#bf4040",
        "contour": 5.0,
        "metric": "distance",
        "provider_name": "All Food 69",
        "zone_type": "distance",
        "distance_km": 5,
        "mode": "motorcycle",
        "center_lat": 22.57110951,
        "center_lon": 88.47919486,
        "label": "5km"
      },
      "geometry": {
        "coordinates": [
          [
            [
              88.468194,
              22.608455
            ],
            [
              88.468054,
              22.606109
            ],
            [
              88.468914,
              22.605109
            ],
            [
              88.468033,
              22.604109
            ],
            [
              88.469806,
              22.603109
            ],
            [
              88.469736,
              22.600109
            ],
            [
              88.47162,
              22.597109
            ],
            [
              88.471466,
              22.595837
            ],
            [
              88.469821,
              22.595483
            ],
            [
              88.469194,
              22.59462
            ],
            [
              88.468194,
              22.595579
            ],
            [
              88.465804,
              22.595718
            ],
            [
              88.46541,
              22.598324
            ],
            [
              88.463711,
              22.597625
            ],
            [
              88.462388,
              22.599109
            ],
            [
              88.462194,
              22.601019
            ],
            [
              88.461206,
              22.598109
            ],
            [
              88.4633,
              22.596214
            ],
            [
              88.463396,
              22.595311
            ],
            [
              88.464194,
              22.595445
            ],
            [
              88.465778,
              22.594109
            ],
            [
              88.464773,
              22.593688
            ],
            [
              88.464656,
              22.594571
            ],
            [
              88.459787,
              22.596516
            ],
            [
              88.459238,
              22.592153
            ],
            [
              88.460194,
              22.59212
            ],
            [
              88.460518,
              22.593785
            ],
            [
              88.461194,
              22.593862
            ],
            [
              88.461882,
              22.592109
            ],
            [
              88.461194,
              22.591326
            ],
            [
              88.460369,
              22.591283
            ],
            [
              88.460194,
              22.592092
            ],
            [
              88.459118,
              22.591033
            ],
            [
              88.458974,
              22.592889
            ],
            [
              88.457857,
              22.593109
            ],
            [
              88.457194,
              22.595368
            ],
            [
              88.453553,
              22.595751
            ],
            [
              88.449194,
              22.594859
            ],
            [
              88.44852,
              22.594109
            ],
            [
              88.44985,
              22.593764
            ],
            [
              88.450791,
              22.592109
            ],
            [
              88.448454,
              22.590109
            ],
            [
              88.449811,
              22.589726
            ],
            [
              88.449734,
              22.58857
            ],
            [
              88.446441,
              22.588109
            ],
            [
              88.446039,
              22.587265
            ],
            [
              88.444427,
              22.586877
            ],
            [
              88.443194,
              22.584397
            ],
            [
              88.441115,
              22.584189
            ],
            [
              88.442351,
              22.580953
            ],
            [
              88.439294,
              22.580109
            ],
            [
              88.438816,
              22.579109
            ],
            [
              88.439194,
              22.577996
            ],
            [
              88.440086,
              22.578001
            ],
            [
              88.444194,
              22.579419
            ],
            [
              88.445846,
              22.576761
            ],
            [
              88.447581,
              22.576496
            ],
            [
              88.447194,
              22.575443
            ],
            [
              88.444939,
              22.575365
            ],
            [
              88.444193,
              22.572111
            ],
            [
              88.445193,
              22.572108
            ],
            [
              88.444784,
              22.569519
            ],
            [
              88.444059,
              22.569109
            ],
            [
              88.44483,
              22.568744
            ],
            [
              88.445194,
              22.566658
            ],
            [
              88.447643,
              22.56866
            ],
            [
              88.449194,
              22.569139
            ],
            [
              88.449544,
              22.568459
            ],
            [
              88.448194,
              22.566328
            ],
            [
              88.445771,
              22.566532
            ],
            [
              88.446986,
              22.564901
            ],
            [
              88.448194,
              22.564857
            ],
            [
              88.453194,
              22.568825
            ],
            [
              88.454194,
              22.567798
            ],
            [
              88.456194,
              22.567683
            ],
            [
              88.458834,
              22.564748
            ],
            [
              88.460194,
              22.56454
            ],
            [
              88.461575,
              22.563109
            ],
            [
              88.459665,
              22.559109
            ],
            [
              88.45976,
              22.556109
            ],
            [
              88.458655,
              22.553648
            ],
            [
              88.457194,
              22.553323
            ],
            [
              88.456194,
              22.554229
            ],
            [
              88.454458,
              22.554109
            ],
            [
              88.455961,
              22.553876
            ],
            [
              88.456194,
              22.552969
            ],
            [
              88.459194,
              22.552818
            ],
            [
              88.461669,
              22.557109
            ],
            [
              88.461913,
              22.56039
            ],
            [
              88.463194,
              22.561472
            ],
            [
              88.46551,
              22.559109
            ],
            [
              88.465518,
              22.556109
            ],
            [
              88.46443,
              22.553873
            ],
            [
              88.461194,
              22.553699
            ],
            [
              88.460604,
              22.553109
            ],
            [
              88.463194,
              22.552486
            ],
            [
              88.464567,
              22.551109
            ],
            [
              88.460681,
              22.550109
            ],
            [
              88.463584,
              22.549109
            ],
            [
              88.462615,
              22.548109
            ],
            [
              88.462503,
              22.5448
            ],
            [
              88.460194,
              22.544556
            ],
            [
              88.459194,
              22.5455
            ],
            [
              88.456848,
              22.542109
            ],
            [
              88.457418,
              22.540886
            ],
            [
              88.458774,
              22.54353
            ],
            [
              88.462735,
              22.543109
            ],
            [
              88.461682,
              22.539621
            ],
            [
              88.459266,
              22.539181
            ],
            [
              88.459194,
              22.539929
            ],
            [
              88.458627,
              22.537109
            ],
            [
              88.460887,
              22.536802
            ],
            [
              88.462194,
              22.534245
            ],
            [
              88.462672,
              22.536632
            ],
            [
              88.463669,
              22.536583
            ],
            [
              88.464194,
              22.534892
            ],
            [
              88.465742,
              22.536562
            ],
            [
              88.467194,
              22.536776
            ],
            [
              88.467972,
              22.536109
            ],
            [
              88.467169,
              22.535109
            ],
            [
              88.467194,
              22.534124
            ],
            [
              88.46725,
              22.535053
            ],
            [
              88.468273,
              22.53503
            ],
            [
              88.468461,
              22.537109
            ],
            [
              88.469578,
              22.538726
            ],
            [
              88.471194,
              22.538614
            ],
            [
              88.471235,
              22.540149
            ],
            [
              88.47108,
              22.539224
            ],
            [
              88.469194,
              22.539301
            ],
            [
              88.468194,
              22.5384
            ],
            [
              88.466786,
              22.538701
            ],
            [
              88.466713,
              22.542109
            ],
            [
              88.465752,
              22.543109
            ],
            [
              88.46774,
              22.544109
            ],
            [
              88.467799,
              22.546109
            ],
            [
              88.468812,
              22.547109
            ],
            [
              88.467844,
              22.548109
            ],
            [
              88.468843,
              22.549109
            ],
            [
              88.469909,
              22.553109
            ],
            [
              88.471194,
              22.554365
            ],
            [
              88.476573,
              22.550109
            ],
            [
              88.475599,
              22.549109
            ],
            [
              88.476584,
              22.548109
            ],
            [
              88.472882,
              22.543422
            ],
            [
              88.473194,
              22.54239
            ],
            [
              88.476194,
              22.544568
            ],
            [
              88.480575,
              22.54249
            ],
            [
              88.481121,
              22.540182
            ],
            [
              88.480548,
              22.540109
            ],
            [
              88.481112,
              22.540027
            ],
            [
              88.481395,
              22.540908
            ],
            [
              88.484194,
              22.542778
            ],
            [
              88.488194,
              22.542644
            ],
            [
              88.49286,
              22.538775
            ],
            [
              88.493153,
              22.537068
            ],
            [
              88.494194,
              22.536639
            ],
            [
              88.494219,
              22.537134
            ],
            [
              88.493334,
              22.537249
            ],
            [
              88.493385,
              22.539109
            ],
            [
              88.495217,
              22.540087
            ],
            [
              88.495441,
              22.541109
            ],
            [
              88.49512,
              22.541034
            ],
            [
              88.49512,
              22.540184
            ],
            [
              88.491751,
              22.540666
            ],
            [
              88.491581,
              22.542109
            ],
            [
              88.492549,
              22.543109
            ],
            [
              88.489768,
              22.546109
            ],
            [
              88.491947,
              22.549356
            ],
            [
              88.493194,
              22.549494
            ],
            [
              88.494194,
              22.548508
            ],
            [
              88.496194,
              22.550474
            ],
            [
              88.497634,
              22.549109
            ],
            [
              88.496675,
              22.548109
            ],
            [
              88.496816,
              22.544109
            ],
            [
              88.495887,
              22.543109
            ],
            [
              88.496517,
              22.541109
            ],
            [
              88.498914,
              22.541109
            ],
            [
              88.497428,
              22.542109
            ],
            [
              88.497687,
              22.547109
            ],
            [
              88.499194,
              22.549523
            ],
            [
              88.501741,
              22.547109
            ],
            [
              88.499931,
              22.545109
            ],
            [
              88.499996,
              22.542307
            ],
            [
              88.499194,
              22.541837
            ],
            [
              88.500391,
              22.542109
            ],
            [
              88.500717,
              22.544587
            ],
            [
              88.502448,
              22.544856
            ],
            [
              88.503194,
              22.546548
            ],
            [
              88.504194,
              22.544557
            ],
            [
              88.507194,
              22.543803
            ],
            [
              88.508194,
              22.542217
            ],
            [
              88.510194,
              22.541931
            ],
            [
              88.508544,
              22.543459
            ],
            [
              88.508363,
              22.545277
            ],
            [
              88.506757,
              22.545671
            ],
            [
              88.504673,
              22.548109
            ],
            [
              88.50644,
              22.548863
            ],
            [
              88.506637,
              22.550109
            ],
            [
              88.504862,
              22.550776
            ],
            [
              88.503757,
              22.552109
            ],
            [
              88.504941,
              22.554362
            ],
            [
              88.507487,
              22.553402
            ],
            [
              88.508194,
              22.551612
            ],
            [
              88.509194,
              22.552609
            ],
            [
              88.513194,
              22.552584
            ],
            [
              88.519194,
              22.549406
            ],
            [
              88.520093,
              22.550109
            ],
            [
              88.518292,
              22.552206
            ],
            [
              88.516717,
              22.552632
            ],
            [
              88.516457,
              22.554109
            ],
            [
              88.517349,
              22.555263
            ],
            [
              88.516024,
              22.555279
            ],
            [
              88.514194,
              22.553516
            ],
            [
              88.513515,
              22.554109
            ],
            [
              88.512664,
              22.556109
            ],
            [
              88.513875,
              22.559109
            ],
            [
              88.513372,
              22.560286
            ],
            [
              88.512498,
              22.560413
            ],
            [
              88.512251,
              22.562109
            ],
            [
              88.512192,
              22.562109
            ],
            [
              88.51209,
              22.561109
            ],
            [
              88.511817,
              22.560487
            ],
            [
              88.509194,
              22.560562
            ],
            [
              88.508194,
              22.561558
            ],
            [
              88.506194,
              22.561639
            ],
            [
              88.504194,
              22.562666
            ],
            [
              88.502784,
              22.564109
            ],
            [
              88.50292,
              22.565384
            ],
            [
              88.504194,
              22.566476
            ],
            [
              88.507566,
              22.564738
            ],
            [
              88.508813,
              22.566109
            ],
            [
              88.50891,
              22.567393
            ],
            [
              88.510717,
              22.568109
            ],
            [
              88.507194,
              22.570435
            ],
            [
              88.505194,
              22.569519
            ],
            [
              88.503849,
              22.571109
            ],
            [
              88.504667,
              22.571582
            ],
            [
              88.5047,
              22.570615
            ],
            [
              88.505482,
              22.570821
            ],
            [
              88.504789,
              22.572514
            ],
            [
              88.507316,
              22.572987
            ],
            [
              88.507274,
              22.574188
            ],
            [
              88.505479,
              22.575109
            ],
            [
              88.50563,
              22.577109
            ],
            [
              88.507194,
              22.577957
            ],
            [
              88.508253,
              22.577109
            ],
            [
              88.508519,
              22.580109
            ],
            [
              88.510251,
              22.581109
            ],
            [
              88.508377,
              22.581292
            ],
            [
              88.508694,
              22.58261
            ],
            [
              88.510194,
              22.582921
            ],
            [
              88.512094,
              22.58221
            ],
            [
              88.512885,
              22.583109
            ],
            [
              88.512318,
              22.583232
            ],
            [
              88.512141,
              22.585109
            ],
            [
              88.510723,
              22.585638
            ],
            [
              88.510508,
              22.587109
            ],
            [
              88.512854,
              22.589109
            ],
            [
              88.511194,
              22.591691
            ],
            [
              88.510194,
              22.591823
            ],
            [
              88.510549,
              22.593109
            ],
            [
              88.509291,
              22.594109
            ],
            [
              88.509655,
              22.595109
            ],
            [
              88.508441,
              22.595356
            ],
            [
              88.507194,
              22.597394
            ],
            [
              88.506758,
              22.595546
            ],
            [
              88.505654,
              22.594649
            ],
            [
              88.502194,
              22.594592
            ],
            [
              88.500853,
              22.59345
            ],
            [
              88.500465,
              22.589839
            ],
            [
              88.498194,
              22.589752
            ],
            [
              88.497609,
              22.591523
            ],
            [
              88.49678,
              22.591523
            ],
            [
              88.496194,
              22.588775
            ],
            [
              88.494823,
              22.591109
            ],
            [
              88.494667,
              22.598109
            ],
            [
              88.495751,
              22.599553
            ],
            [
              88.497344,
              22.59996
            ],
            [
              88.497194,
              22.602657
            ],
            [
              88.496194,
              22.602522
            ],
            [
              88.494194,
              22.604457
            ],
            [
              88.493988,
              22.602109
            ],
            [
              88.494908,
              22.601109
            ],
            [
              88.494194,
              22.599523
            ],
            [
              88.492501,
              22.601109
            ],
            [
              88.492218,
              22.603132
            ],
            [
              88.490194,
              22.604169
            ],
            [
              88.489966,
              22.601109
            ],
            [
              88.493663,
              22.596109
            ],
            [
              88.493551,
              22.590109
            ],
            [
              88.49453,
              22.589109
            ],
            [
              88.491194,
              22.588802
            ],
            [
              88.488974,
              22.589889
            ],
            [
              88.487805,
              22.592109
            ],
            [
              88.487796,
              22.593507
            ],
            [
              88.489406,
              22.594109
            ],
            [
              88.489518,
              22.596109
            ],
            [
              88.487505,
              22.598419
            ],
            [
              88.486194,
              22.599445
            ],
            [
              88.484829,
              22.599475
            ],
            [
              88.484707,
              22.596109
            ],
            [
              88.484194,
              22.595601
            ],
            [
              88.483703,
              22.596109
            ],
            [
              88.48377,
              22.599534
            ],
            [
              88.484536,
              22.599768
            ],
            [
              88.485474,
              22.601829
            ],
            [
              88.486631,
              22.602109
            ],
            [
              88.484543,
              22.602109
            ],
            [
              88.483194,
              22.600464
            ],
            [
              88.481194,
              22.602284
            ],
            [
              88.480786,
              22.601518
            ],
            [
              88.47943,
              22.601344
            ],
            [
              88.477678,
              22.602592
            ],
            [
              88.476194,
              22.606348
            ],
            [
              88.475194,
              22.606377
            ],
            [
              88.475146,
              22.605109
            ],
            [
              88.475899,
              22.604814
            ],
            [
              88.475934,
              22.603109
            ],
            [
              88.476854,
              22.602109
            ],
            [
              88.47678,
              22.600109
            ],
            [
              88.477729,
              22.599109
            ],
            [
              88.477679,
              22.597109
            ],
            [
              88.478643,
              22.596109
            ],
            [
              88.478483,
              22.594821
            ],
            [
              88.475194,
              22.593728
            ],
            [
              88.472768,
              22.597109
            ],
            [
              88.473628,
              22.600109
            ],
            [
              88.471848,
              22.600763
            ],
            [
              88.470583,
              22.603109
            ],
            [
              88.470699,
              22.605605
            ],
            [
              88.472477,
              22.606109
            ],
            [
              88.471194,
              22.607284
            ],
            [
              88.469909,
              22.606824
            ],
            [
              88.468194,
              22.608455
            ]
          ]
        ],
        "type": "Polygon"
      },
      "type": "Feature"
    },
    {
      "properties": {
        "fill-opacity": 0.33,
        "fillColor": "#bf4040",
        "opacity": 0.33,
        "fill": "#bf4040",
        "fillOpacity": 0.33,
        "color": "#bf4040",
        "contour": 6.0,
        "metric": "distance",
        "provider_name": "All Food 69",
        "zone_type": "distance",
        "distance_km": 6,
        "mode": "motorcycle",
        "center_lat": 22.57110951,
        "center_lon": 88.47919486,
        "label": "6km"
      },
      "geometry": {
        "coordinates": [
          [
            [
              88.465194,
              22.617115
            ],
            [
              88.464939,
              22.615364
            ],
            [
              88.46413,
              22.615109
            ],
            [
              88.465789,
              22.614704
            ],
            [
              88.464944,
              22.613109
            ],
            [
              88.465637,
              22.611667
            ],
            [
              88.463416,
              22.612331
            ],
            [
              88.463144,
              22.61316
            ],
            [
              88.463052,
              22.612251
            ],
            [
              88.462189,
              22.612109
            ],
            [
              88.463827,
              22.611741
            ],
            [
              88.463731,
              22.610572
            ],
            [
              88.461194,
              22.609808
            ],
            [
              88.463194,
              22.608429
            ],
            [
              88.465194,
              22.609927
            ],
            [
              88.466581,
              22.609496
            ],
            [
              88.465769,
              22.607109
            ],
            [
              88.466194,
              22.606684
            ],
            [
              88.467523,
              22.607437
            ],
            [
              88.468613,
              22.605109
            ],
            [
              88.467651,
              22.604109
            ],
            [
              88.469448,
              22.602363
            ],
            [
              88.469545,
              22.600109
            ],
            [
              88.471493,
              22.597109
            ],
            [
              88.471387,
              22.595916
            ],
            [
              88.469194,
              22.594781
            ],
            [
              88.468194,
              22.595762
            ],
            [
              88.465952,
              22.595867
            ],
            [
              88.465592,
              22.598507
            ],
            [
              88.464194,
              22.597712
            ],
            [
              88.462748,
              22.599109
            ],
            [
              88.462845,
              22.601459
            ],
            [
              88.464484,
              22.60182
            ],
            [
              88.464505,
              22.602419
            ],
            [
              88.46286,
              22.602775
            ],
            [
              88.461194,
              22.604314
            ],
            [
              88.460194,
              22.602438
            ],
            [
              88.457047,
              22.605256
            ],
            [
              88.456308,
              22.605109
            ],
            [
              88.456745,
              22.604109
            ],
            [
              88.457832,
              22.603747
            ],
            [
              88.458865,
              22.602109
            ],
            [
              88.458194,
              22.600427
            ],
            [
              88.456194,
              22.602995
            ],
            [
              88.455242,
              22.603156
            ],
            [
              88.454837,
              22.601466
            ],
            [
              88.453364,
              22.601278
            ],
            [
              88.453047,
              22.602256
            ],
            [
              88.452641,
              22.599663
            ],
            [
              88.45094,
              22.599854
            ],
            [
              88.448194,
              22.602025
            ],
            [
              88.447194,
              22.601954
            ],
            [
              88.446194,
              22.600657
            ],
            [
              88.444194,
              22.601613
            ],
            [
              88.443194,
              22.60136
            ],
            [
              88.440876,
              22.600109
            ],
            [
              88.441008,
              22.598109
            ],
            [
              88.442653,
              22.59465
            ],
            [
              88.437194,
              22.589352
            ],
            [
              88.434459,
              22.588844
            ],
            [
              88.43394,
              22.586109
            ],
            [
              88.43563,
              22.584109
            ],
            [
              88.434194,
              22.582746
            ],
            [
              88.433194,
              22.583604
            ],
            [
              88.431996,
              22.583308
            ],
            [
              88.431046,
              22.581961
            ],
            [
              88.432764,
              22.581109
            ],
            [
              88.431363,
              22.580109
            ],
            [
              88.431977,
              22.579891
            ],
            [
              88.432194,
              22.577957
            ],
            [
              88.435169,
              22.577109
            ],
            [
              88.435194,
              22.57469
            ],
            [
              88.437293,
              22.574208
            ],
            [
              88.436194,
              22.573938
            ],
            [
              88.436132,
              22.573172
            ],
            [
              88.437026,
              22.57294
            ],
            [
              88.437194,
              22.570384
            ],
            [
              88.437443,
              22.571861
            ],
            [
              88.438194,
              22.571927
            ],
            [
              88.440194,
              22.57021
            ],
            [
              88.442194,
              22.571712
            ],
            [
              88.443194,
              22.571702
            ],
            [
              88.444502,
              22.570417
            ],
            [
              88.443658,
              22.569109
            ],
            [
              88.444656,
              22.568109
            ],
            [
              88.444536,
              22.566767
            ],
            [
              88.440194,
              22.56642
            ],
            [
              88.439194,
              22.56754
            ],
            [
              88.438872,
              22.567109
            ],
            [
              88.439194,
              22.565854
            ],
            [
              88.444194,
              22.565647
            ],
            [
              88.444745,
              22.565109
            ],
            [
              88.443194,
              22.563417
            ],
            [
              88.441033,
              22.564109
            ],
            [
              88.441966,
              22.562109
            ],
            [
              88.44111,
              22.560109
            ],
            [
              88.442175,
              22.55909
            ],
            [
              88.443769,
              22.560109
            ],
            [
              88.442449,
              22.560364
            ],
            [
              88.442664,
              22.561639
            ],
            [
              88.444784,
              22.56352
            ],
            [
              88.445607,
              22.563522
            ],
            [
              88.447194,
              22.561733
            ],
            [
              88.44879,
              22.564514
            ],
            [
              88.453194,
              22.568526
            ],
            [
              88.454194,
              22.567517
            ],
            [
              88.456194,
              22.567474
            ],
            [
              88.458737,
              22.564652
            ],
            [
              88.460374,
              22.564289
            ],
            [
              88.461475,
              22.562109
            ],
            [
              88.459515,
              22.559109
            ],
            [
              88.459563,
              22.55574
            ],
            [
              88.458571,
              22.555109
            ],
            [
              88.4586,
              22.553703
            ],
            [
              88.457194,
              22.553669
            ],
            [
              88.454194,
              22.555572
            ],
            [
              88.453866,
              22.553781
            ],
            [
              88.456194,
              22.552571
            ],
            [
              88.458584,
              22.552719
            ],
            [
              88.463008,
              22.561295
            ],
            [
              88.465434,
              22.559109
            ],
            [
              88.465439,
              22.556109
            ],
            [
              88.464369,
              22.553935
            ],
            [
              88.461194,
              22.553818
            ],
            [
              88.460485,
              22.553109
            ],
            [
              88.461194,
              22.5524
            ],
            [
              88.463194,
              22.552383
            ],
            [
              88.464466,
              22.551109
            ],
            [
              88.461194,
              22.550782
            ],
            [
              88.460522,
              22.550109
            ],
            [
              88.463475,
              22.549109
            ],
            [
              88.462491,
              22.548109
            ],
            [
              88.462406,
              22.544898
            ],
            [
              88.460194,
              22.544753
            ],
            [
              88.459194,
              22.54573
            ],
            [
              88.457788,
              22.544515
            ],
            [
              88.457474,
              22.542829
            ],
            [
              88.456194,
              22.542428
            ],
            [
              88.455194,
              22.543337
            ],
            [
              88.452025,
              22.543278
            ],
            [
              88.451961,
              22.543109
            ],
            [
              88.454194,
              22.542912
            ],
            [
              88.45501,
              22.541925
            ],
            [
              88.456194,
              22.54179
            ],
            [
              88.458686,
              22.539109
            ],
            [
              88.458521,
              22.537782
            ],
            [
              88.457194,
              22.536553
            ],
            [
              88.452106,
              22.537198
            ],
            [
              88.451308,
              22.536109
            ],
            [
              88.452194,
              22.535998
            ],
            [
              88.453194,
              22.536881
            ],
            [
              88.454638,
              22.535553
            ],
            [
              88.453993,
              22.533908
            ],
            [
              88.455405,
              22.533899
            ],
            [
              88.456804,
              22.5355
            ],
            [
              88.459194,
              22.536598
            ],
            [
              88.460505,
              22.536419
            ],
            [
              88.461666,
              22.535109
            ],
            [
              88.461729,
              22.533109
            ],
            [
              88.459892,
              22.530109
            ],
            [
              88.461194,
              22.529765
            ],
            [
              88.462625,
              22.532109
            ],
            [
              88.462906,
              22.536397
            ],
            [
              88.464194,
              22.534548
            ],
            [
              88.465925,
              22.536379
            ],
            [
              88.467475,
              22.53639
            ],
            [
              88.465746,
              22.533109
            ],
            [
              88.466194,
              22.531687
            ],
            [
              88.467509,
              22.532795
            ],
            [
              88.468726,
              22.535109
            ],
            [
              88.468771,
              22.537109
            ],
            [
              88.470194,
              22.538568
            ],
            [
              88.473621,
              22.536536
            ],
            [
              88.473694,
              22.535609
            ],
            [
              88.471834,
              22.535109
            ],
            [
              88.472989,
              22.534904
            ],
            [
              88.473194,
              22.532061
            ],
            [
              88.474194,
              22.532116
            ],
            [
              88.476201,
              22.533102
            ],
            [
              88.476376,
              22.536928
            ],
            [
              88.477404,
              22.5379
            ],
            [
              88.480194,
              22.538298
            ],
            [
              88.484194,
              22.542497
            ],
            [
              88.488194,
              22.542458
            ],
            [
              88.492295,
              22.53821
            ],
            [
              88.4949,
              22.533109
            ],
            [
              88.494165,
              22.52908
            ],
            [
              88.495194,
              22.528258
            ],
            [
              88.495631,
              22.530673
            ],
            [
              88.496696,
              22.531607
            ],
            [
              88.497935,
              22.53185
            ],
            [
              88.498194,
              22.53035
            ],
            [
              88.498345,
              22.530959
            ],
            [
              88.498225,
              22.533139
            ],
            [
              88.497949,
              22.532355
            ],
            [
              88.496724,
              22.532639
            ],
            [
              88.495637,
              22.535109
            ],
            [
              88.498408,
              22.535896
            ],
            [
              88.498614,
              22.538109
            ],
            [
              88.500194,
              22.539631
            ],
            [
              88.501592,
              22.539506
            ],
            [
              88.503194,
              22.537833
            ],
            [
              88.506194,
              22.540716
            ],
            [
              88.507194,
              22.539706
            ],
            [
              88.508611,
              22.539526
            ],
            [
              88.509912,
              22.538109
            ],
            [
              88.510194,
              22.534557
            ],
            [
              88.510784,
              22.539519
            ],
            [
              88.514864,
              22.538778
            ],
            [
              88.515194,
              22.53744
            ],
            [
              88.516867,
              22.538109
            ],
            [
              88.515409,
              22.538324
            ],
            [
              88.515304,
              22.539219
            ],
            [
              88.513692,
              22.539607
            ],
            [
              88.513359,
              22.541109
            ],
            [
              88.514892,
              22.542109
            ],
            [
              88.512194,
              22.54689
            ],
            [
              88.511893,
              22.54541
            ],
            [
              88.510194,
              22.545155
            ],
            [
              88.509194,
              22.544149
            ],
            [
              88.508576,
              22.545491
            ],
            [
              88.506929,
              22.545844
            ],
            [
              88.504959,
              22.547873
            ],
            [
              88.504967,
              22.549336
            ],
            [
              88.506194,
              22.548496
            ],
            [
              88.506837,
              22.550109
            ],
            [
              88.50389,
              22.552109
            ],
            [
              88.50501,
              22.554293
            ],
            [
              88.507398,
              22.553313
            ],
            [
              88.508194,
              22.551444
            ],
            [
              88.509194,
              22.552442
            ],
            [
              88.512194,
              22.552456
            ],
            [
              88.518518,
              22.549432
            ],
            [
              88.517763,
              22.548109
            ],
            [
              88.51768,
              22.544623
            ],
            [
              88.514755,
              22.544109
            ],
            [
              88.516825,
              22.543739
            ],
            [
              88.516922,
              22.542381
            ],
            [
              88.516095,
              22.542109
            ],
            [
              88.517254,
              22.541049
            ],
            [
              88.520928,
              22.543109
            ],
            [
              88.519194,
              22.543253
            ],
            [
              88.518462,
              22.544109
            ],
            [
              88.521194,
              22.547709
            ],
            [
              88.522889,
              22.547109
            ],
            [
              88.521981,
              22.546109
            ],
            [
              88.522194,
              22.543445
            ],
            [
              88.52321,
              22.544094
            ],
            [
              88.523616,
              22.545687
            ],
            [
              88.528194,
              22.545639
            ],
            [
              88.528225,
              22.54614
            ],
            [
              88.527214,
              22.547128
            ],
            [
              88.522798,
              22.548713
            ],
            [
              88.523194,
              22.549727
            ],
            [
              88.525241,
              22.550062
            ],
            [
              88.525272,
              22.551187
            ],
            [
              88.523667,
              22.551581
            ],
            [
              88.523422,
              22.553336
            ],
            [
              88.521776,
              22.55369
            ],
            [
              88.521233,
              22.557148
            ],
            [
              88.518693,
              22.557608
            ],
            [
              88.518453,
              22.55985
            ],
            [
              88.519166,
              22.560109
            ],
            [
              88.518209,
              22.562123
            ],
            [
              88.516194,
              22.56232
            ],
            [
              88.514611,
              22.564109
            ],
            [
              88.516194,
              22.564853
            ],
            [
              88.517364,
              22.56394
            ],
            [
              88.519294,
              22.564109
            ],
            [
              88.518348,
              22.564262
            ],
            [
              88.517194,
              22.569611
            ],
            [
              88.516194,
              22.570267
            ],
            [
              88.512194,
              22.568806
            ],
            [
              88.510273,
              22.569031
            ],
            [
              88.507194,
              22.570885
            ],
            [
              88.506194,
              22.569797
            ],
            [
              88.504877,
              22.570109
            ],
            [
              88.50592,
              22.571109
            ],
            [
              88.504986,
              22.572318
            ],
            [
              88.507194,
              22.572472
            ],
            [
              88.507763,
              22.573109
            ],
            [
              88.507522,
              22.574437
            ],
            [
              88.505773,
              22.575109
            ],
            [
              88.505943,
              22.57736
            ],
            [
              88.507194,
              22.577568
            ],
            [
              88.508504,
              22.5768
            ],
            [
              88.509194,
              22.578669
            ],
            [
              88.511471,
              22.578833
            ],
            [
              88.515194,
              22.581723
            ],
            [
              88.516194,
              22.580819
            ],
            [
              88.517441,
              22.580863
            ],
            [
              88.519218,
              22.582109
            ],
            [
              88.519194,
              22.582982
            ],
            [
              88.519142,
              22.582162
            ],
            [
              88.518194,
              22.582248
            ],
            [
              88.517194,
              22.581371
            ],
            [
              88.51449,
              22.583405
            ],
            [
              88.512864,
              22.583779
            ],
            [
              88.513605,
              22.585519
            ],
            [
              88.512628,
              22.586542
            ],
            [
              88.510918,
              22.585833
            ],
            [
              88.510913,
              22.587391
            ],
            [
              88.512563,
              22.587477
            ],
            [
              88.513818,
              22.585732
            ],
            [
              88.515194,
              22.585787
            ],
            [
              88.516194,
              22.584838
            ],
            [
              88.515795,
              22.589509
            ],
            [
              88.521367,
              22.590109
            ],
            [
              88.519542,
              22.590456
            ],
            [
              88.519194,
              22.59307
            ],
            [
              88.518947,
              22.592356
            ],
            [
              88.516939,
              22.592365
            ],
            [
              88.516194,
              22.591476
            ],
            [
              88.51548,
              22.592109
            ],
            [
              88.516289,
              22.593203
            ],
            [
              88.515194,
              22.593303
            ],
            [
              88.514194,
              22.59244
            ],
            [
              88.5128,
              22.593715
            ],
            [
              88.51349,
              22.596109
            ],
            [
              88.511542,
              22.598109
            ],
            [
              88.512433,
              22.599109
            ],
            [
              88.512364,
              22.600939
            ],
            [
              88.51322,
              22.601109
            ],
            [
              88.512194,
              22.6017
            ],
            [
              88.511194,
              22.600247
            ],
            [
              88.510194,
              22.60118
            ],
            [
              88.509958,
              22.600345
            ],
            [
              88.506351,
              22.600109
            ],
            [
              88.507077,
              22.599109
            ],
            [
              88.505734,
              22.598109
            ],
            [
              88.505599,
              22.594705
            ],
            [
              88.501755,
              22.594549
            ],
            [
              88.500522,
              22.593109
            ],
            [
              88.500194,
              22.589825
            ],
            [
              88.498019,
              22.589934
            ],
            [
              88.497678,
              22.591593
            ],
            [
              88.496711,
              22.591593
            ],
            [
              88.496194,
              22.588858
            ],
            [
              88.494924,
              22.591109
            ],
            [
              88.494849,
              22.598109
            ],
            [
              88.495928,
              22.599375
            ],
            [
              88.49757,
              22.599734
            ],
            [
              88.497675,
              22.603109
            ],
            [
              88.49665,
              22.604109
            ],
            [
              88.496616,
              22.60553
            ],
            [
              88.495194,
              22.60459
            ],
            [
              88.494636,
              22.606109
            ],
            [
              88.496194,
              22.60688
            ],
            [
              88.496797,
              22.605712
            ],
            [
              88.498194,
              22.605332
            ],
            [
              88.499092,
              22.607109
            ],
            [
              88.496194,
              22.607338
            ],
            [
              88.49475,
              22.608665
            ],
            [
              88.494558,
              22.610746
            ],
            [
              88.495283,
              22.61102
            ],
            [
              88.495556,
              22.612109
            ],
            [
              88.495153,
              22.61215
            ],
            [
              88.494941,
              22.611362
            ],
            [
              88.494021,
              22.611109
            ],
            [
              88.493597,
              22.600706
            ],
            [
              88.492785,
              22.601109
            ],
            [
              88.492534,
              22.603448
            ],
            [
              88.490659,
              22.605109
            ],
            [
              88.490779,
              22.606525
            ],
            [
              88.492465,
              22.607109
            ],
            [
              88.491409,
              22.609894
            ],
            [
              88.491459,
              22.610845
            ],
            [
              88.492256,
              22.611109
            ],
            [
              88.492194,
              22.612339
            ],
            [
              88.492065,
              22.611238
            ],
            [
              88.490138,
              22.611165
            ],
            [
              88.488949,
              22.609109
            ],
            [
              88.489603,
              22.6067
            ],
            [
              88.487194,
              22.606404
            ],
            [
              88.486194,
              22.605398
            ],
            [
              88.485194,
              22.606322
            ],
            [
              88.484088,
              22.606215
            ],
            [
              88.485041,
              22.604956
            ],
            [
              88.487788,
              22.604109
            ],
            [
              88.486194,
              22.602621
            ],
            [
              88.483876,
              22.602428
            ],
            [
              88.483194,
              22.600717
            ],
            [
              88.481194,
              22.602657
            ],
            [
              88.480194,
              22.601651
            ],
            [
              88.478194,
              22.602611
            ],
            [
              88.476735,
              22.605109
            ],
            [
              88.47682,
              22.606483
            ],
            [
              88.478461,
              22.608109
            ],
            [
              88.4786,
              22.610703
            ],
            [
              88.47979,
              22.613109
            ],
            [
              88.479194,
              22.61386
            ],
            [
              88.475194,
              22.613604
            ],
            [
              88.472194,
              22.614852
            ],
            [
              88.472316,
              22.611988
            ],
            [
              88.470225,
              22.611078
            ],
            [
              88.470069,
              22.609984
            ],
            [
              88.469975,
              22.61089
            ],
            [
              88.468194,
              22.61058
            ],
            [
              88.465194,
              22.617115
            ]
          ]
        ],
        "type": "Polygon"
      },
      "type": "Feature"
    }
  ]
}