{
  "type": "FeatureCollection",
  "metadata": {
    "provider_name": "Blue Tokai Coffee Roasters",
    "center_lat": 22.554694,
    "center_lon": 88.350731,
    "mode": "motorcycle",
    "total_zones": 4,
    "distance_zones": [
      3,
      4,
      5,
      6
    ],
    "generated_at": "2025-12-28T11:56:34.894731Z"
  },
  "features": [
    {
      "properties": {
        "fill-opacity": 0.33,
        "fillColor": "#bf4040",
        "opacity": 0.33,
        "fill": "#bf4040",
        "fillOpacity": 0.33,
        "color": "#bf4040",
        "contour": 3.0,
        "metric": "distance",
        "provider_name": "Blue Tokai Coffee Roasters",
        "zone_type": "distance",
        "distance_km": 3,
        "mode": "motorcycle",
        "center_lat": 22.554694,
        "center_lon": 88.350731,
        "label": "3km"
      },
      "geometry": {
        "coordinates": [
          [
            [
              88.356731,
              22.580213
            ],
            [
              88.355731,
              22.579481
            ],
            [
              88.352664,
              22.57976
            ],
            [
              88.351731,
              22.576649
            ],
            [
              88.350295,
              22.577258
            ],
            [
              88.349731,
              22.579043
            ],
            [
              88.349043,
              22.578381
            ],
            [
              88.347731,
              22.578549
            ],
            [
              88.347518,
              22.576906
            ],
            [
              88.345738,
              22.575694
            ],
            [
              88.345175,
              22.573249
            ],
            [
              88.343483,
              22.571941
            ],
            [
              88.343092,
              22.570332
            ],
            [
              88.340383,
              22.568042
            ],
            [
              88.340061,
              22.566363
            ],
            [
              88.336131,
              22.562293
            ],
            [
              88.333555,
              22.560869
            ],
            [
              88.333378,
              22.559046
            ],
            [
              88.332604,
              22.558694
            ],
            [
              88.332731,
              22.557236
            ],
            [
              88.332973,
              22.558452
            ],
            [
              88.334446,
              22.558694
            ],
            [
              88.333965,
              22.559694
            ],
            [
              88.334731,
              22.560378
            ],
            [
              88.335655,
              22.559694
            ],
            [
              88.335575,
              22.558538
            ],
            [
              88.337731,
              22.558578
            ],
            [
              88.337967,
              22.557694
            ],
            [
              88.336278,
              22.555694
            ],
            [
              88.337538,
              22.554694
            ],
            [
              88.337192,
              22.553232
            ],
            [
              88.334634,
              22.55279
            ],
            [
              88.335339,
              22.551085
            ],
            [
              88.333731,
              22.550621
            ],
            [
              88.335731,
              22.550147
            ],
            [
              88.336731,
              22.551391
            ],
            [
              88.338731,
              22.55134
            ],
            [
              88.339257,
              22.550694
            ],
            [
              88.335184,
              22.54924
            ],
            [
              88.332403,
              22.545694
            ],
            [
              88.335303,
              22.545694
            ],
            [
              88.335207,
              22.547217
            ],
            [
              88.336731,
              22.547381
            ],
            [
              88.339731,
              22.549227
            ],
            [
              88.340322,
              22.542694
            ],
            [
              88.336731,
              22.540026
            ],
            [
              88.335731,
              22.540931
            ],
            [
              88.334009,
              22.540972
            ],
            [
              88.333731,
              22.541785
            ],
            [
              88.332344,
              22.541694
            ],
            [
              88.332712,
              22.540712
            ],
            [
              88.33357,
              22.540533
            ],
            [
              88.333731,
              22.538444
            ],
            [
              88.33511,
              22.538073
            ],
            [
              88.335731,
              22.536363
            ],
            [
              88.336307,
              22.537117
            ],
            [
              88.338031,
              22.536994
            ],
            [
              88.338137,
              22.5341
            ],
            [
              88.342731,
              22.532869
            ],
            [
              88.342903,
              22.531694
            ],
            [
              88.344731,
              22.530781
            ],
            [
              88.345731,
              22.52891
            ],
            [
              88.350527,
              22.531897
            ],
            [
              88.351357,
              22.533694
            ],
            [
              88.353507,
              22.533917
            ],
            [
              88.354064,
              22.53536
            ],
            [
              88.356932,
              22.537492
            ],
            [
              88.357783,
              22.537694
            ],
            [
              88.359731,
              22.535565
            ],
            [
              88.360819,
              22.535605
            ],
            [
              88.361731,
              22.536868
            ],
            [
              88.364355,
              22.536318
            ],
            [
              88.364731,
              22.535372
            ],
            [
              88.36856,
              22.537864
            ],
            [
              88.370731,
              22.537041
            ],
            [
              88.372703,
              22.537721
            ],
            [
              88.373912,
              22.539694
            ],
            [
              88.373098,
              22.540061
            ],
            [
              88.372369,
              22.542694
            ],
            [
              88.373579,
              22.545694
            ],
            [
              88.371562,
              22.548694
            ],
            [
              88.371874,
              22.554694
            ],
            [
              88.370035,
              22.555694
            ],
            [
              88.370268,
              22.558694
            ],
            [
              88.36819,
              22.559694
            ],
            [
              88.367552,
              22.562515
            ],
            [
              88.365323,
              22.562694
            ],
            [
              88.366415,
              22.567694
            ],
            [
              88.364925,
              22.570888
            ],
            [
              88.363731,
              22.571
            ],
            [
              88.362731,
              22.573317
            ],
            [
              88.361289,
              22.573694
            ],
            [
              88.362349,
              22.574694
            ],
            [
              88.360889,
              22.577694
            ],
            [
              88.359731,
              22.57798
            ],
            [
              88.358731,
              22.577258
            ],
            [
              88.356731,
              22.580213
            ]
          ]
        ],
        "type": "Polygon"
      },
      "type": "Feature"
    },
    {
      "properties": {
        "fill-opacity": 0.33,
        "fillColor": "#bf4040",
        "opacity": 0.33,
        "fill": "#bf4040",
        "fillOpacity": 0.33,
        "color": "#bf4040",
        "contour": 4.0,
        "metric": "distance",
        "provider_name": "Blue Tokai Coffee Roasters",
        "zone_type": "distance",
        "distance_km": 4,
        "mode": "motorcycle",
        "center_lat": 22.554694,
        "center_lon": 88.350731,
        "label": "4km"
      },
      "geometry": {
        "coordinates": [
          [
            [
              88.358731,
              22.589225
            ],
            [
              88.3556,
              22.586824
            ],
            [
              88.353731,
              22.584272
            ],
            [
              88.351731,
              22.584633
            ],
            [
              88.351847,
              22.585694
            ],
            [
              88.35104,
              22.586003
            ],
            [
              88.349731,
              22.586043
            ],
            [
              88.349441,
              22.584983
            ],
            [
              88.347328,
              22.584694
            ],
            [
              88.348464,
              22.584427
            ],
            [
              88.348444,
              22.582694
            ],
            [
              88.347389,
              22.581694
            ],
            [
              88.347208,
              22.577694
            ],
            [
              88.345398,
              22.576027
            ],
            [
              88.344997,
              22.573427
            ],
            [
              88.342312,
              22.571112
            ],
            [
              88.339952,
              22.566473
            ],
            [
              88.335981,
              22.562443
            ],
            [
              88.333347,
              22.561077
            ],
            [
              88.331257,
              22.556694
            ],
            [
              88.331574,
              22.55485
            ],
            [
              88.330731,
              22.553945
            ],
            [
              88.329731,
              22.554758
            ],
            [
              88.328682,
              22.553742
            ],
            [
              88.32841,
              22.550373
            ],
            [
              88.329881,
              22.549844
            ],
            [
              88.329128,
              22.547296
            ],
            [
              88.327731,
              22.547598
            ],
            [
              88.325709,
              22.546715
            ],
            [
              88.327338,
              22.542694
            ],
            [
              88.324731,
              22.540647
            ],
            [
              88.325731,
              22.540501
            ],
            [
              88.328731,
              22.542381
            ],
            [
              88.329731,
              22.541281
            ],
            [
              88.332004,
              22.540967
            ],
            [
              88.333049,
              22.539694
            ],
            [
              88.332847,
              22.535577
            ],
            [
              88.331731,
              22.534417
            ],
            [
              88.32896,
              22.533694
            ],
            [
              88.328722,
              22.532694
            ],
            [
              88.331468,
              22.531431
            ],
            [
              88.331731,
              22.530013
            ],
            [
              88.333731,
              22.531478
            ],
            [
              88.334109,
              22.529694
            ],
            [
              88.336483,
              22.528446
            ],
            [
              88.336731,
              22.527618
            ],
            [
              88.338106,
              22.529318
            ],
            [
              88.340428,
              22.529391
            ],
            [
              88.341563,
              22.526694
            ],
            [
              88.340604,
              22.525694
            ],
            [
              88.340566,
              22.523529
            ],
            [
              88.343407,
              22.522694
            ],
            [
              88.346731,
              22.520191
            ],
            [
              88.348934,
              22.521694
            ],
            [
              88.352731,
              22.5267
            ],
            [
              88.356731,
              22.529404
            ],
            [
              88.356898,
              22.531526
            ],
            [
              88.357568,
              22.531694
            ],
            [
              88.355726,
              22.533698
            ],
            [
              88.357681,
              22.533743
            ],
            [
              88.357759,
              22.534722
            ],
            [
              88.357996,
              22.533694
            ],
            [
              88.359634,
              22.532597
            ],
            [
              88.362201,
              22.533164
            ],
            [
              88.362558,
              22.532694
            ],
            [
              88.361508,
              22.531694
            ],
            [
              88.361888,
              22.528851
            ],
            [
              88.365034,
              22.528997
            ],
            [
              88.365731,
              22.526606
            ],
            [
              88.368119,
              22.528694
            ],
            [
              88.367883,
              22.529694
            ],
            [
              88.369777,
              22.530647
            ],
            [
              88.371597,
              22.53056
            ],
            [
              88.372731,
              22.529214
            ],
            [
              88.373731,
              22.534791
            ],
            [
              88.375731,
              22.536366
            ],
            [
              88.380348,
              22.536077
            ],
            [
              88.381302,
              22.540122
            ],
            [
              88.383379,
              22.540694
            ],
            [
              88.381018,
              22.540981
            ],
            [
              88.380731,
              22.542406
            ],
            [
              88.378731,
              22.540916
            ],
            [
              88.37796,
              22.541694
            ],
            [
              88.379405,
              22.542694
            ],
            [
              88.379014,
              22.543977
            ],
            [
              88.375731,
              22.544652
            ],
            [
              88.374731,
              22.544092
            ],
            [
              88.374093,
              22.544694
            ],
            [
              88.377731,
              22.545542
            ],
            [
              88.379605,
              22.547694
            ],
            [
              88.379311,
              22.548694
            ],
            [
              88.378009,
              22.548972
            ],
            [
              88.377731,
              22.549769
            ],
            [
              88.376731,
              22.547951
            ],
            [
              88.37508,
              22.549694
            ],
            [
              88.377599,
              22.551694
            ],
            [
              88.375347,
              22.552694
            ],
            [
              88.375254,
              22.557694
            ],
            [
              88.373625,
              22.559588
            ],
            [
              88.374361,
              22.560694
            ],
            [
              88.372766,
              22.562694
            ],
            [
              88.373707,
              22.563694
            ],
            [
              88.372211,
              22.564174
            ],
            [
              88.371039,
              22.566002
            ],
            [
              88.371172,
              22.571694
            ],
            [
              88.369734,
              22.574697
            ],
            [
              88.36765,
              22.573694
            ],
            [
              88.36857,
              22.576694
            ],
            [
              88.365616,
              22.581579
            ],
            [
              88.364731,
              22.584619
            ],
            [
              88.363731,
              22.584884
            ],
            [
              88.362731,
              22.586783
            ],
            [
              88.361343,
              22.586306
            ],
            [
              88.358731,
              22.589225
            ]
          ]
        ],
        "type": "Polygon"
      },
      "type": "Feature"
    },
    {
      "properties": {
        "fill-opacity": 0.33,
        "fillColor": "#bf4040",
        "opacity": 0.33,
        "fill": "#bf4040",
        "fillOpacity": 0.33,
        "color": "#bf4040",
        "contour": 5.0,
        "metric": "distance",
        "provider_name": "Blue Tokai Coffee Roasters",
        "zone_type": "distance",
        "distance_km": 5,
        "mode": "motorcycle",
        "center_lat": 22.554694,
        "center_lon": 88.350731,
        "label": "5km"
      },
      "geometry": {
        "coordinates": [
          [
            [
              88.361731,
              22.596065
            ],
            [
              88.359731,
              22.594949
            ],
            [
              88.358731,
              22.596262
            ],
            [
              88.358304,
              22.59512
            ],
            [
              88.356596,
              22.594694
            ],
            [
              88.355731,
              22.591913
            ],
            [
              88.353731,
              22.594732
            ],
            [
              88.352731,
              22.59475
            ],
            [
              88.35171,
              22.593714
            ],
            [
              88.350405,
              22.589694
            ],
            [
              88.349366,
              22.588694
            ],
            [
              88.349043,
              22.585381
            ],
            [
              88.346261,
              22.585163
            ],
            [
              88.346408,
              22.584372
            ],
            [
              88.34804,
              22.584003
            ],
            [
              88.348147,
              22.582694
            ],
            [
              88.347128,
              22.581694
            ],
            [
              88.347054,
              22.577694
            ],
            [
              88.345286,
              22.576138
            ],
            [
              88.344921,
              22.573503
            ],
            [
              88.340219,
              22.568205
            ],
            [
              88.339897,
              22.566528
            ],
            [
              88.332383,
              22.560041
            ],
            [
              88.332057,
              22.557694
            ],
            [
              88.331076,
              22.556694
            ],
            [
              88.331353,
              22.555071
            ],
            [
              88.329972,
              22.554935
            ],
            [
              88.328614,
              22.556694
            ],
            [
              88.328663,
              22.555761
            ],
            [
              88.329216,
              22.554694
            ],
            [
              88.326449,
              22.551975
            ],
            [
              88.326114,
              22.55031
            ],
            [
              88.323523,
              22.549901
            ],
            [
              88.323151,
              22.548273
            ],
            [
              88.321213,
              22.546694
            ],
            [
              88.321731,
              22.545672
            ],
            [
              88.322731,
              22.5462
            ],
            [
              88.324417,
              22.545694
            ],
            [
              88.323089,
              22.544335
            ],
            [
              88.321508,
              22.543916
            ],
            [
              88.321,
              22.542424
            ],
            [
              88.319002,
              22.540694
            ],
            [
              88.315691,
              22.538694
            ],
            [
              88.316931,
              22.536694
            ],
            [
              88.320622,
              22.533585
            ],
            [
              88.321992,
              22.528955
            ],
            [
              88.323731,
              22.52862
            ],
            [
              88.324731,
              22.529535
            ],
            [
              88.325586,
              22.528694
            ],
            [
              88.325677,
              22.52664
            ],
            [
              88.325989,
              22.527435
            ],
            [
              88.327612,
              22.527575
            ],
            [
              88.33016,
              22.526123
            ],
            [
              88.330293,
              22.524132
            ],
            [
              88.328529,
              22.523694
            ],
            [
              88.329731,
              22.521513
            ],
            [
              88.331539,
              22.521694
            ],
            [
              88.331731,
              22.523023
            ],
            [
              88.332731,
              22.522493
            ],
            [
              88.334066,
              22.524358
            ],
            [
              88.336674,
              22.52475
            ],
            [
              88.338431,
              22.528993
            ],
            [
              88.340036,
              22.528999
            ],
            [
              88.34114,
              22.526694
            ],
            [
              88.339731,
              22.524225
            ],
            [
              88.336982,
              22.524443
            ],
            [
              88.338166,
              22.522694
            ],
            [
              88.337448,
              22.521694
            ],
            [
              88.338592,
              22.519555
            ],
            [
              88.340495,
              22.518694
            ],
            [
              88.340266,
              22.516694
            ],
            [
              88.345731,
              22.511216
            ],
            [
              88.347719,
              22.512705
            ],
            [
              88.348931,
              22.512694
            ],
            [
              88.352083,
              22.517341
            ],
            [
              88.354837,
              22.519587
            ],
            [
              88.354957,
              22.520467
            ],
            [
              88.355931,
              22.520694
            ],
            [
              88.356039,
              22.521694
            ],
            [
              88.356731,
              22.522366
            ],
            [
              88.357731,
              22.52217
            ],
            [
              88.359928,
              22.524694
            ],
            [
              88.359388,
              22.525694
            ],
            [
              88.36086,
              22.525694
            ],
            [
              88.362731,
              22.520979
            ],
            [
              88.363731,
              22.521855
            ],
            [
              88.364374,
              22.521337
            ],
            [
              88.364471,
              22.519953
            ],
            [
              88.363731,
              22.519212
            ],
            [
              88.365289,
              22.519252
            ],
            [
              88.365731,
              22.517772
            ],
            [
              88.366896,
              22.518694
            ],
            [
              88.367653,
              22.520771
            ],
            [
              88.369067,
              22.521357
            ],
            [
              88.369242,
              22.523182
            ],
            [
              88.370348,
              22.523311
            ],
            [
              88.370731,
              22.521852
            ],
            [
              88.373731,
              22.526105
            ],
            [
              88.375731,
              22.524301
            ],
            [
              88.378259,
              22.525694
            ],
            [
              88.379195,
              22.527694
            ],
            [
              88.38074,
              22.528694
            ],
            [
              88.379633,
              22.529694
            ],
            [
              88.381731,
              22.530218
            ],
            [
              88.382731,
              22.531391
            ],
            [
              88.384731,
              22.531506
            ],
            [
              88.38775,
              22.533674
            ],
            [
              88.386891,
              22.534694
            ],
            [
              88.387731,
              22.535187
            ],
            [
              88.388821,
              22.538603
            ],
            [
              88.390349,
              22.538694
            ],
            [
              88.389828,
              22.538791
            ],
            [
              88.390129,
              22.541295
            ],
            [
              88.391731,
              22.541602
            ],
            [
              88.39176,
              22.542664
            ],
            [
              88.39255,
              22.542694
            ],
            [
              88.391731,
              22.542841
            ],
            [
              88.390731,
              22.542354
            ],
            [
              88.389874,
              22.542837
            ],
            [
              88.389836,
              22.543694
            ],
            [
              88.386731,
              22.546349
            ],
            [
              88.384701,
              22.545664
            ],
            [
              88.383401,
              22.547694
            ],
            [
              88.384336,
              22.548694
            ],
            [
              88.383221,
              22.549694
            ],
            [
              88.383908,
              22.553694
            ],
            [
              88.381698,
              22.554661
            ],
            [
              88.381948,
              22.556694
            ],
            [
              88.379366,
              22.558329
            ],
            [
              88.379224,
              22.559187
            ],
            [
              88.377275,
              22.559694
            ],
            [
              88.378187,
              22.56015
            ],
            [
              88.379432,
              22.559694
            ],
            [
              88.37926,
              22.559223
            ],
            [
              88.3804,
              22.561024
            ],
            [
              88.383026,
              22.562398
            ],
            [
              88.382006,
              22.565969
            ],
            [
              88.380531,
              22.566494
            ],
            [
              88.377731,
              22.569617
            ],
            [
              88.377613,
              22.568694
            ],
            [
              88.374496,
              22.565928
            ],
            [
              88.374096,
              22.564329
            ],
            [
              88.372442,
              22.564405
            ],
            [
              88.371373,
              22.566694
            ],
            [
              88.371392,
              22.569032
            ],
            [
              88.377637,
              22.569787
            ],
            [
              88.376842,
              22.574694
            ],
            [
              88.375483,
              22.577694
            ],
            [
              88.374244,
              22.578207
            ],
            [
              88.373731,
              22.579339
            ],
            [
              88.372731,
              22.578945
            ],
            [
              88.373432,
              22.582694
            ],
            [
              88.372206,
              22.584694
            ],
            [
              88.372827,
              22.585694
            ],
            [
              88.371378,
              22.586694
            ],
            [
              88.369731,
              22.589849
            ],
            [
              88.367688,
              22.590651
            ],
            [
              88.364731,
              22.595491
            ],
            [
              88.362731,
              22.594268
            ],
            [
              88.361731,
              22.596065
            ]
          ]
        ],
        "type": "Polygon"
      },
      "type": "Feature"
    },
    {
      "properties": {
        "fill-opacity": 0.33,
        "fillColor": "#bf4040",
        "opacity": 0.33,
        "fill": "#bf4040",
        "fillOpacity": 0.33,
        "color": "#bf4040",
        "contour": 6.0,
        "metric": "distance",
        "provider_name": "Blue Tokai Coffee Roasters",
        "zone_type": "distance",
        "distance_km": 6,
        "mode": "motorcycle",
        "center_lat": 22.554694,
        "center_lon": 88.350731,
        "label": "6km"
      },
      "geometry": {
        "coordinates": [
          [
            [
              88.367731,
              22.604022
            ],
            [
              88.358554,
              22.59987
            ],
            [
              88.356731,
              22.599819
            ],
            [
              88.353436,
              22.596988
            ],
            [
              88.350183,
              22.591694
            ],
            [
              88.348731,
              22.585376
            ],
            [
              88.346731,
              22.585353
            ],
            [
              88.344731,
              22.58718
            ],
            [
              88.342408,
              22.587371
            ],
            [
              88.342731,
              22.588397
            ],
            [
              88.344839,
              22.588694
            ],
            [
              88.342999,
              22.589694
            ],
            [
              88.343911,
              22.591874
            ],
            [
              88.342882,
              22.593845
            ],
            [
              88.341731,
              22.59425
            ],
            [
              88.340731,
              22.593344
            ],
            [
              88.339731,
              22.593669
            ],
            [
              88.337636,
              22.592694
            ],
            [
              88.337371,
              22.591053
            ],
            [
              88.335821,
              22.589694
            ],
            [
              88.335995,
              22.586694
            ],
            [
              88.337104,
              22.586067
            ],
            [
              88.337164,
              22.58426
            ],
            [
              88.335461,
              22.582963
            ],
            [
              88.333785,
              22.582748
            ],
            [
              88.333731,
              22.583623
            ],
            [
              88.331631,
              22.581694
            ],
            [
              88.33214,
              22.580694
            ],
            [
              88.334109,
              22.580072
            ],
            [
              88.334731,
              22.578512
            ],
            [
              88.337367,
              22.57833
            ],
            [
              88.338263,
              22.577226
            ],
            [
              88.338309,
              22.575115
            ],
            [
              88.337076,
              22.574694
            ],
            [
              88.336731,
              22.573316
            ],
            [
              88.339929,
              22.575495
            ],
            [
              88.340315,
              22.577109
            ],
            [
              88.343073,
              22.580351
            ],
            [
              88.344451,
              22.583973
            ],
            [
              88.347942,
              22.583905
            ],
            [
              88.348024,
              22.582694
            ],
            [
              88.347015,
              22.581694
            ],
            [
              88.346975,
              22.577694
            ],
            [
              88.345231,
              22.576193
            ],
            [
              88.344879,
              22.573545
            ],
            [
              88.343166,
              22.572258
            ],
            [
              88.342868,
              22.570556
            ],
            [
              88.340123,
              22.568301
            ],
            [
              88.339863,
              22.566561
            ],
            [
              88.335873,
              22.562551
            ],
            [
              88.334194,
              22.56223
            ],
            [
              88.33228,
              22.560144
            ],
            [
              88.330731,
              22.554901
            ],
            [
              88.326993,
              22.558956
            ],
            [
              88.32504,
              22.559003
            ],
            [
              88.323798,
              22.560761
            ],
            [
              88.32182,
              22.560783
            ],
            [
              88.32175,
              22.561713
            ],
            [
              88.320811,
              22.561694
            ],
            [
              88.321591,
              22.561554
            ],
            [
              88.32169,
              22.560653
            ],
            [
              88.323544,
              22.560507
            ],
            [
              88.323655,
              22.559618
            ],
            [
              88.324458,
              22.559421
            ],
            [
              88.324731,
              22.558356
            ],
            [
              88.326128,
              22.558091
            ],
            [
              88.328945,
              22.554479
            ],
            [
              88.326308,
              22.552116
            ],
            [
              88.325731,
              22.550319
            ],
            [
              88.32325,
              22.550174
            ],
            [
              88.318731,
              22.547568
            ],
            [
              88.315716,
              22.547708
            ],
            [
              88.315261,
              22.545163
            ],
            [
              88.313983,
              22.544946
            ],
            [
              88.313731,
              22.546201
            ],
            [
              88.312665,
              22.544759
            ],
            [
              88.312087,
              22.541338
            ],
            [
              88.309731,
              22.542215
            ],
            [
              88.307796,
              22.539694
            ],
            [
              88.308617,
              22.538694
            ],
            [
              88.306731,
              22.538851
            ],
            [
              88.305987,
              22.537694
            ],
            [
              88.308337,
              22.5373
            ],
            [
              88.308731,
              22.534786
            ],
            [
              88.310109,
              22.534072
            ],
            [
              88.310731,
              22.532507
            ],
            [
              88.310941,
              22.534694
            ],
            [
              88.312315,
              22.537109
            ],
            [
              88.314101,
              22.537064
            ],
            [
              88.314373,
              22.534694
            ],
            [
              88.313447,
              22.533694
            ],
            [
              88.313587,
              22.530837
            ],
            [
              88.312837,
              22.530694
            ],
            [
              88.314448,
              22.530694
            ],
            [
              88.314356,
              22.532694
            ],
            [
              88.314909,
              22.532872
            ],
            [
              88.314824,
              22.530694
            ],
            [
              88.316731,
              22.528341
            ],
            [
              88.317731,
              22.529263
            ],
            [
              88.319731,
              22.527213
            ],
            [
              88.320731,
              22.528136
            ],
            [
              88.323731,
              22.527943
            ],
            [
              88.324886,
              22.528849
            ],
            [
              88.324856,
              22.525694
            ],
            [
              88.323685,
              22.524694
            ],
            [
              88.322641,
              22.519783
            ],
            [
              88.323731,
              22.517947
            ],
            [
              88.324731,
              22.518567
            ],
            [
              88.326171,
              22.518134
            ],
            [
              88.326596,
              22.516559
            ],
            [
              88.328207,
              22.51617
            ],
            [
              88.329629,
              22.514592
            ],
            [
              88.331731,
              22.514694
            ],
            [
              88.332731,
              22.513904
            ],
            [
              88.337731,
              22.51787
            ],
            [
              88.339731,
              22.517969
            ],
            [
              88.337797,
              22.517627
            ],
            [
              88.33781,
              22.516694
            ],
            [
              88.338101,
              22.516064
            ],
            [
              88.339878,
              22.515841
            ],
            [
              88.341139,
              22.513694
            ],
            [
              88.340265,
              22.512694
            ],
            [
              88.341476,
              22.508948
            ],
            [
              88.340208,
              22.507694
            ],
            [
              88.342731,
              22.50501
            ],
            [
              88.344847,
              22.50481
            ],
            [
              88.344006,
              22.503694
            ],
            [
              88.344731,
              22.502255
            ],
            [
              88.348022,
              22.504402
            ],
            [
              88.350834,
              22.50759
            ],
            [
              88.350813,
              22.508694
            ],
            [
              88.349927,
              22.50889
            ],
            [
              88.35029,
              22.510134
            ],
            [
              88.352363,
              22.510326
            ],
            [
              88.353731,
              22.509017
            ],
            [
              88.35504,
              22.511384
            ],
            [
              88.357205,
              22.511694
            ],
            [
              88.355886,
              22.511849
            ],
            [
              88.356053,
              22.513371
            ],
            [
              88.358731,
              22.513882
            ],
            [
              88.359563,
              22.516861
            ],
            [
              88.360731,
              22.517579
            ],
            [
              88.361166,
              22.515258
            ],
            [
              88.359957,
              22.513694
            ],
            [
              88.364225,
              22.513187
            ],
            [
              88.365564,
              22.510694
            ],
            [
              88.367271,
              22.510234
            ],
            [
              88.367731,
              22.509173
            ],
            [
              88.369105,
              22.512319
            ],
            [
              88.371287,
              22.513694
            ],
            [
              88.37241,
              22.520014
            ],
            [
              88.374099,
              22.520062
            ],
            [
              88.375731,
              22.519065
            ],
            [
              88.376495,
              22.519694
            ],
            [
              88.375377,
              22.520694
            ],
            [
              88.376862,
              22.520825
            ],
            [
              88.377731,
              22.519968
            ],
            [
              88.379731,
              22.522222
            ],
            [
              88.380731,
              22.521382
            ],
            [
              88.382731,
              22.522438
            ],
            [
              88.384575,
              22.521694
            ],
            [
              88.385686,
              22.522694
            ],
            [
              88.38442,
              22.524694
            ],
            [
              88.386752,
              22.525672
            ],
            [
              88.386866,
              22.526558
            ],
            [
              88.389662,
              22.526762
            ],
            [
              88.390078,
              22.527694
            ],
            [
              88.386963,
              22.529926
            ],
            [
              88.388172,
              22.535694
            ],
            [
              88.389731,
              22.537284
            ],
            [
              88.394137,
              22.537694
            ],
            [
              88.393878,
              22.538841
            ],
            [
              88.392731,
              22.538101
            ],
            [
              88.392038,
              22.539001
            ],
            [
              88.390402,
              22.539365
            ],
            [
              88.390431,
              22.540993
            ],
            [
              88.392731,
              22.542196
            ],
            [
              88.397471,
              22.542434
            ],
            [
              88.39854,
              22.541694
            ],
            [
              88.397683,
              22.540741
            ],
            [
              88.397731,
              22.539142
            ],
            [
              88.398897,
              22.540694
            ],
            [
              88.398838,
              22.545586
            ],
            [
              88.399772,
              22.545694
            ],
            [
              88.399731,
              22.546472
            ],
            [
              88.399677,
              22.545748
            ],
            [
              88.398694,
              22.54573
            ],
            [
              88.398259,
              22.544165
            ],
            [
              88.397267,
              22.54423
            ],
            [
              88.396731,
              22.545817
            ],
            [
              88.394136,
              22.543288
            ],
            [
              88.391731,
              22.543902
            ],
            [
              88.390731,
              22.543165
            ],
            [
              88.389237,
              22.544694
            ],
            [
              88.390187,
              22.545694
            ],
            [
              88.389169,
              22.546694
            ],
            [
              88.389973,
              22.547451
            ],
            [
              88.392799,
              22.547625
            ],
            [
              88.391952,
              22.547915
            ],
            [
              88.391762,
              22.550725
            ],
            [
              88.390898,
              22.550861
            ],
            [
              88.390731,
              22.551715
            ],
            [
              88.38693,
              22.551893
            ],
            [
              88.386731,
              22.553589
            ],
            [
              88.385796,
              22.553759
            ],
            [
              88.384731,
              22.555475
            ],
            [
              88.383758,
              22.554666
            ],
            [
              88.383634,
              22.555597
            ],
            [
              88.38261,
              22.555694
            ],
            [
              88.384731,
              22.555748
            ],
            [
              88.385946,
              22.557478
            ],
            [
              88.386803,
              22.557621
            ],
            [
              88.387849,
              22.558812
            ],
            [
              88.387276,
              22.560148
            ],
            [
              88.389731,
              22.559635
            ],
            [
              88.389886,
              22.560538
            ],
            [
              88.391742,
              22.560682
            ],
            [
              88.390564,
              22.562527
            ],
            [
              88.391731,
              22.563858
            ],
            [
              88.388731,
              22.567299
            ],
            [
              88.387731,
              22.569739
            ],
            [
              88.386144,
              22.570107
            ],
            [
              88.384847,
              22.572694
            ],
            [
              88.385394,
              22.573694
            ],
            [
              88.382752,
              22.579694
            ],
            [
              88.379731,
              22.580244
            ],
            [
              88.379731,
              22.581217
            ],
            [
              88.382007,
              22.582694
            ],
            [
              88.381385,
              22.584348
            ],
            [
              88.380731,
              22.584845
            ],
            [
              88.38048,
              22.583944
            ],
            [
              88.379228,
              22.584191
            ],
            [
              88.378988,
              22.585436
            ],
            [
              88.380179,
              22.585694
            ],
            [
              88.379731,
              22.587053
            ],
            [
              88.378133,
              22.587096
            ],
            [
              88.377953,
              22.588471
            ],
            [
              88.378731,
              22.588761
            ],
            [
              88.374731,
              22.592614
            ],
            [
              88.37407,
              22.594694
            ],
            [
              88.371534,
              22.597694
            ],
            [
              88.371037,
              22.600694
            ],
            [
              88.367731,
              22.604022
            ]
          ]
        ],
        "type": "Polygon"
      },
      "type": "Feature"
    }
  ]
}