{
  "type": "FeatureCollection",
  "metadata": {
    "provider_name": "Hot n Bite",
    "center_lat": 22.63643409014771,
    "center_lon": 88.36586549460502,
    "mode": "motorcycle",
    "total_zones": 4,
    "distance_zones": [
      3,
      4,
      5,
      6
    ],
    "generated_at": "2025-12-30T11:29:30.060955Z"
  },
  "features": [
    {
      "properties": {
        "fill-opacity": 0.33,
        "fillColor": "#bf4040",
        "opacity": 0.33,
        "fill": "#bf4040",
        "fillOpacity": 0.33,
        "color": "#bf4040",
        "contour": 3.0,
        "metric": "distance",
        "provider_name": "Hot n Bite",
        "zone_type": "distance",
        "distance_km": 3,
        "mode": "motorcycle",
        "center_lat": 22.63643409014771,
        "center_lon": 88.36586549460502,
        "label": "3km"
      },
      "geometry": {
        "coordinates": [
          [
            [
              88.363865,
              22.657459
            ],
            [
              88.361392,
              22.657907
            ],
            [
              88.359179,
              22.65612
            ],
            [
              88.357865,
              22.656331
            ],
            [
              88.358518,
              22.653781
            ],
            [
              88.356402,
              22.653434
            ],
            [
              88.358554,
              22.652434
            ],
            [
              88.359251,
              22.643434
            ],
            [
              88.362156,
              22.638434
            ],
            [
              88.362139,
              22.635434
            ],
            [
              88.364169,
              22.631434
            ],
            [
              88.364203,
              22.629434
            ],
            [
              88.368503,
              22.622434
            ],
            [
              88.367661,
              22.620434
            ],
            [
              88.368865,
              22.618167
            ],
            [
              88.369172,
              22.619127
            ],
            [
              88.370364,
              22.618932
            ],
            [
              88.370575,
              22.617724
            ],
            [
              88.369272,
              22.617434
            ],
            [
              88.370052,
              22.616434
            ],
            [
              88.371865,
              22.615946
            ],
            [
              88.372865,
              22.613538
            ],
            [
              88.373711,
              22.613588
            ],
            [
              88.374405,
              22.617893
            ],
            [
              88.376537,
              22.618105
            ],
            [
              88.376865,
              22.617184
            ],
            [
              88.377865,
              22.617645
            ],
            [
              88.385645,
              22.625434
            ],
            [
              88.384298,
              22.626434
            ],
            [
              88.386865,
              22.626373
            ],
            [
              88.390213,
              22.628434
            ],
            [
              88.390361,
              22.630434
            ],
            [
              88.38861,
              22.632434
            ],
            [
              88.39037,
              22.635434
            ],
            [
              88.39062,
              22.641434
            ],
            [
              88.388865,
              22.643199
            ],
            [
              88.385021,
              22.644434
            ],
            [
              88.385012,
              22.646434
            ],
            [
              88.383865,
              22.647642
            ],
            [
              88.38357,
              22.645729
            ],
            [
              88.38141,
              22.645979
            ],
            [
              88.382118,
              22.64918
            ],
            [
              88.383126,
              22.649695
            ],
            [
              88.381865,
              22.650546
            ],
            [
              88.378568,
              22.649137
            ],
            [
              88.377644,
              22.650434
            ],
            [
              88.377804,
              22.652434
            ],
            [
              88.376865,
              22.653443
            ],
            [
              88.373587,
              22.653156
            ],
            [
              88.372939,
              22.656508
            ],
            [
              88.371039,
              22.656434
            ],
            [
              88.371115,
              22.655184
            ],
            [
              88.369643,
              22.654656
            ],
            [
              88.372361,
              22.653929
            ],
            [
              88.372308,
              22.652991
            ],
            [
              88.368865,
              22.652414
            ],
            [
              88.367865,
              22.65328
            ],
            [
              88.367836,
              22.652463
            ],
            [
              88.365865,
              22.652478
            ],
            [
              88.365071,
              22.65264
            ],
            [
              88.364981,
              22.654317
            ],
            [
              88.367826,
              22.654395
            ],
            [
              88.367865,
              22.653554
            ],
            [
              88.369559,
              22.655434
            ],
            [
              88.367865,
              22.656354
            ],
            [
              88.366865,
              22.655864
            ],
            [
              88.365865,
              22.656756
            ],
            [
              88.364264,
              22.656434
            ],
            [
              88.363865,
              22.657459
            ]
          ]
        ],
        "type": "Polygon"
      },
      "type": "Feature"
    },
    {
      "properties": {
        "fill-opacity": 0.33,
        "fillColor": "#bf4040",
        "opacity": 0.33,
        "fill": "#bf4040",
        "fillOpacity": 0.33,
        "color": "#bf4040",
        "contour": 4.0,
        "metric": "distance",
        "provider_name": "Hot n Bite",
        "zone_type": "distance",
        "distance_km": 4,
        "mode": "motorcycle",
        "center_lat": 22.63643409014771,
        "center_lon": 88.36586549460502,
        "label": "4km"
      },
      "geometry": {
        "coordinates": [
          [
            [
              88.366865,
              22.665575
            ],
            [
              88.364865,
              22.6645
            ],
            [
              88.361865,
              22.666087
            ],
            [
              88.358865,
              22.663801
            ],
            [
              88.357865,
              22.664444
            ],
            [
              88.356641,
              22.660434
            ],
            [
              88.35939,
              22.657434
            ],
            [
              88.357367,
              22.656434
            ],
            [
              88.358171,
              22.654128
            ],
            [
              88.354865,
              22.653892
            ],
            [
              88.353865,
              22.652844
            ],
            [
              88.347711,
              22.652588
            ],
            [
              88.347001,
              22.65157
            ],
            [
              88.349206,
              22.651093
            ],
            [
              88.351298,
              22.652001
            ],
            [
              88.355865,
              22.652272
            ],
            [
              88.358204,
              22.651773
            ],
            [
              88.358213,
              22.648434
            ],
            [
              88.359199,
              22.647434
            ],
            [
              88.359143,
              22.643434
            ],
            [
              88.36209,
              22.638434
            ],
            [
              88.36208,
              22.635434
            ],
            [
              88.363078,
              22.634434
            ],
            [
              88.363316,
              22.631885
            ],
            [
              88.364098,
              22.631434
            ],
            [
              88.364118,
              22.629434
            ],
            [
              88.368254,
              22.622434
            ],
            [
              88.367308,
              22.620434
            ],
            [
              88.368317,
              22.619434
            ],
            [
              88.368688,
              22.610611
            ],
            [
              88.367759,
              22.610434
            ],
            [
              88.368698,
              22.610267
            ],
            [
              88.367818,
              22.608386
            ],
            [
              88.368865,
              22.605405
            ],
            [
              88.37448,
              22.608819
            ],
            [
              88.376263,
              22.609036
            ],
            [
              88.377529,
              22.610434
            ],
            [
              88.377581,
              22.611718
            ],
            [
              88.378865,
              22.611499
            ],
            [
              88.383865,
              22.613946
            ],
            [
              88.386624,
              22.616434
            ],
            [
              88.385865,
              22.618012
            ],
            [
              88.388167,
              22.618434
            ],
            [
              88.385624,
              22.621434
            ],
            [
              88.388865,
              22.620928
            ],
            [
              88.389865,
              22.622085
            ],
            [
              88.39194,
              22.622359
            ],
            [
              88.392166,
              22.625132
            ],
            [
              88.39503,
              22.627269
            ],
            [
              88.395252,
              22.629046
            ],
            [
              88.398621,
              22.630434
            ],
            [
              88.395343,
              22.632912
            ],
            [
              88.394865,
              22.634119
            ],
            [
              88.393491,
              22.632808
            ],
            [
              88.392197,
              22.633434
            ],
            [
              88.392332,
              22.637434
            ],
            [
              88.393937,
              22.638362
            ],
            [
              88.394865,
              22.64296
            ],
            [
              88.394033,
              22.646434
            ],
            [
              88.39114,
              22.647709
            ],
            [
              88.390827,
              22.649434
            ],
            [
              88.389476,
              22.650044
            ],
            [
              88.388865,
              22.651308
            ],
            [
              88.388522,
              22.650777
            ],
            [
              88.38645,
              22.651018
            ],
            [
              88.386865,
              22.652173
            ],
            [
              88.388865,
              22.651896
            ],
            [
              88.389163,
              22.652434
            ],
            [
              88.388332,
              22.654434
            ],
            [
              88.386865,
              22.656011
            ],
            [
              88.385865,
              22.655947
            ],
            [
              88.381624,
              22.653192
            ],
            [
              88.38043,
              22.655434
            ],
            [
              88.381415,
              22.656434
            ],
            [
              88.379878,
              22.660447
            ],
            [
              88.379016,
              22.660584
            ],
            [
              88.378865,
              22.661812
            ],
            [
              88.376865,
              22.662365
            ],
            [
              88.375036,
              22.661262
            ],
            [
              88.37293,
              22.657434
            ],
            [
              88.370505,
              22.657074
            ],
            [
              88.37139,
              22.659909
            ],
            [
              88.373383,
              22.661434
            ],
            [
              88.372865,
              22.663322
            ],
            [
              88.369865,
              22.66251
            ],
            [
              88.366865,
              22.665575
            ]
          ]
        ],
        "type": "Polygon"
      },
      "type": "Feature"
    },
    {
      "properties": {
        "fill-opacity": 0.33,
        "fillColor": "#bf4040",
        "opacity": 0.33,
        "fill": "#bf4040",
        "fillOpacity": 0.33,
        "color": "#bf4040",
        "contour": 5.0,
        "metric": "distance",
        "provider_name": "Hot n Bite",
        "zone_type": "distance",
        "distance_km": 5,
        "mode": "motorcycle",
        "center_lat": 22.63643409014771,
        "center_lon": 88.36586549460502,
        "label": "5km"
      },
      "geometry": {
        "coordinates": [
          [
            [
              88.367865,
              22.673076
            ],
            [
              88.366865,
              22.673383
            ],
            [
              88.365865,
              22.672281
            ],
            [
              88.364865,
              22.672873
            ],
            [
              88.362865,
              22.671646
            ],
            [
              88.361865,
              22.672036
            ],
            [
              88.359821,
              22.670477
            ],
            [
              88.357601,
              22.666698
            ],
            [
              88.356302,
              22.660434
            ],
            [
              88.359209,
              22.657434
            ],
            [
              88.357199,
              22.656434
            ],
            [
              88.358075,
              22.654224
            ],
            [
              88.350865,
              22.653022
            ],
            [
              88.349865,
              22.6551
            ],
            [
              88.348641,
              22.65521
            ],
            [
              88.347865,
              22.656571
            ],
            [
              88.346865,
              22.655043
            ],
            [
              88.345865,
              22.655632
            ],
            [
              88.342108,
              22.65419
            ],
            [
              88.341865,
              22.653239
            ],
            [
              88.33756,
              22.652434
            ],
            [
              88.340625,
              22.652194
            ],
            [
              88.342225,
              22.650794
            ],
            [
              88.342411,
              22.649434
            ],
            [
              88.343865,
              22.648901
            ],
            [
              88.344179,
              22.650119
            ],
            [
              88.345355,
              22.649923
            ],
            [
              88.345615,
              22.648683
            ],
            [
              88.344649,
              22.648434
            ],
            [
              88.345865,
              22.646214
            ],
            [
              88.350865,
              22.642556
            ],
            [
              88.352744,
              22.644434
            ],
            [
              88.351172,
              22.646434
            ],
            [
              88.351298,
              22.651434
            ],
            [
              88.35809,
              22.651658
            ],
            [
              88.358123,
              22.648434
            ],
            [
              88.359116,
              22.647434
            ],
            [
              88.359083,
              22.643434
            ],
            [
              88.361,
              22.640569
            ],
            [
              88.361249,
              22.638817
            ],
            [
              88.362049,
              22.638434
            ],
            [
              88.362042,
              22.635434
            ],
            [
              88.363041,
              22.634434
            ],
            [
              88.363233,
              22.631802
            ],
            [
              88.364054,
              22.631434
            ],
            [
              88.364268,
              22.628837
            ],
            [
              88.365089,
              22.628434
            ],
            [
              88.365311,
              22.626879
            ],
            [
              88.368145,
              22.622434
            ],
            [
              88.367172,
              22.620434
            ],
            [
              88.368177,
              22.619434
            ],
            [
              88.368296,
              22.611434
            ],
            [
              88.367337,
              22.610434
            ],
            [
              88.368304,
              22.609434
            ],
            [
              88.367208,
              22.607091
            ],
            [
              88.363663,
              22.604636
            ],
            [
              88.361777,
              22.602522
            ],
            [
              88.36184,
              22.601459
            ],
            [
              88.360784,
              22.601434
            ],
            [
              88.361865,
              22.601332
            ],
            [
              88.365865,
              22.59699
            ],
            [
              88.368683,
              22.598615
            ],
            [
              88.369865,
              22.600544
            ],
            [
              88.373699,
              22.599268
            ],
            [
              88.375161,
              22.600138
            ],
            [
              88.376111,
              22.602188
            ],
            [
              88.37757,
              22.602138
            ],
            [
              88.377787,
              22.601356
            ],
            [
              88.379316,
              22.600983
            ],
            [
              88.38027,
              22.604839
            ],
            [
              88.378899,
              22.605467
            ],
            [
              88.379341,
              22.606958
            ],
            [
              88.380419,
              22.606988
            ],
            [
              88.380391,
              22.604959
            ],
            [
              88.381362,
              22.604937
            ],
            [
              88.385839,
              22.610459
            ],
            [
              88.386865,
              22.609698
            ],
            [
              88.388159,
              22.610434
            ],
            [
              88.388589,
              22.61171
            ],
            [
              88.392865,
              22.613283
            ],
            [
              88.393719,
              22.619579
            ],
            [
              88.395143,
              22.618155
            ],
            [
              88.396394,
              22.618434
            ],
            [
              88.397011,
              22.619434
            ],
            [
              88.396804,
              22.621373
            ],
            [
              88.394865,
              22.622156
            ],
            [
              88.39287,
              22.624434
            ],
            [
              88.395385,
              22.626914
            ],
            [
              88.395629,
              22.62867
            ],
            [
              88.397865,
              22.628905
            ],
            [
              88.398865,
              22.629958
            ],
            [
              88.404865,
              22.630282
            ],
            [
              88.405684,
              22.631434
            ],
            [
              88.405062,
              22.633434
            ],
            [
              88.403865,
              22.634215
            ],
            [
              88.402407,
              22.633976
            ],
            [
              88.39937,
              22.634939
            ],
            [
              88.398865,
              22.638522
            ],
            [
              88.397587,
              22.638434
            ],
            [
              88.395543,
              22.634756
            ],
            [
              88.392597,
              22.633166
            ],
            [
              88.392517,
              22.637434
            ],
            [
              88.394079,
              22.638219
            ],
            [
              88.395459,
              22.64484
            ],
            [
              88.396962,
              22.645531
            ],
            [
              88.39614,
              22.645708
            ],
            [
              88.395865,
              22.646764
            ],
            [
              88.394299,
              22.646867
            ],
            [
              88.393865,
              22.648788
            ],
            [
              88.392865,
              22.646962
            ],
            [
              88.391552,
              22.648121
            ],
            [
              88.391518,
              22.650434
            ],
            [
              88.390275,
              22.651434
            ],
            [
              88.390105,
              22.655674
            ],
            [
              88.387865,
              22.655926
            ],
            [
              88.386865,
              22.657006
            ],
            [
              88.384865,
              22.656856
            ],
            [
              88.383865,
              22.658099
            ],
            [
              88.382694,
              22.658262
            ],
            [
              88.383428,
              22.661434
            ],
            [
              88.382009,
              22.666578
            ],
            [
              88.379865,
              22.668823
            ],
            [
              88.379622,
              22.667677
            ],
            [
              88.377472,
              22.66704
            ],
            [
              88.377353,
              22.669434
            ],
            [
              88.375865,
              22.671502
            ],
            [
              88.370865,
              22.667187
            ],
            [
              88.369582,
              22.668434
            ],
            [
              88.368865,
              22.671852
            ],
            [
              88.367865,
              22.673076
            ]
          ]
        ],
        "type": "Polygon"
      },
      "type": "Feature"
    },
    {
      "properties": {
        "fill-opacity": 0.33,
        "fillColor": "#bf4040",
        "opacity": 0.33,
        "fill": "#bf4040",
        "fillOpacity": 0.33,
        "color": "#bf4040",
        "contour": 6.0,
        "metric": "distance",
        "provider_name": "Hot n Bite",
        "zone_type": "distance",
        "distance_km": 6,
        "mode": "motorcycle",
        "center_lat": 22.63643409014771,
        "center_lon": 88.36586549460502,
        "label": "6km"
      },
      "geometry": {
        "coordinates": [
          [
            [
              88.375865,
              22.680295
            ],
            [
              88.371919,
              22.677434
            ],
            [
              88.372331,
              22.674968
            ],
            [
              88.370865,
              22.674753
            ],
            [
              88.369865,
              22.673716
            ],
            [
              88.369288,
              22.675857
            ],
            [
              88.367865,
              22.677049
            ],
            [
              88.362628,
              22.675671
            ],
            [
              88.363466,
              22.674434
            ],
            [
              88.35952,
              22.670778
            ],
            [
              88.357242,
              22.666434
            ],
            [
              88.357186,
              22.663434
            ],
            [
              88.356186,
              22.662434
            ],
            [
              88.356401,
              22.65997
            ],
            [
              88.359121,
              22.657434
            ],
            [
              88.357116,
              22.656434
            ],
            [
              88.358024,
              22.654274
            ],
            [
              88.350472,
              22.653434
            ],
            [
              88.350245,
              22.659434
            ],
            [
              88.351139,
              22.660434
            ],
            [
              88.350174,
              22.661434
            ],
            [
              88.351012,
              22.662434
            ],
            [
              88.350865,
              22.664906
            ],
            [
              88.349865,
              22.66493
            ],
            [
              88.34675,
              22.663549
            ],
            [
              88.34665,
              22.662434
            ],
            [
              88.342582,
              22.660717
            ],
            [
              88.343865,
              22.65789
            ],
            [
              88.344204,
              22.659094
            ],
            [
              88.345328,
              22.658896
            ],
            [
              88.345265,
              22.658034
            ],
            [
              88.343941,
              22.657434
            ],
            [
              88.34525,
              22.656818
            ],
            [
              88.345209,
              22.65609
            ],
            [
              88.343865,
              22.655897
            ],
            [
              88.341403,
              22.656972
            ],
            [
              88.340865,
              22.658593
            ],
            [
              88.340296,
              22.656003
            ],
            [
              88.338439,
              22.655434
            ],
            [
              88.339376,
              22.654434
            ],
            [
              88.339133,
              22.653166
            ],
            [
              88.334661,
              22.653229
            ],
            [
              88.333865,
              22.6541
            ],
            [
              88.329865,
              22.65495
            ],
            [
              88.328027,
              22.653434
            ],
            [
              88.331865,
              22.651911
            ],
            [
              88.332865,
              22.652741
            ],
            [
              88.334865,
              22.651862
            ],
            [
              88.340151,
              22.65172
            ],
            [
              88.340146,
              22.649434
            ],
            [
              88.341261,
              22.648829
            ],
            [
              88.341272,
              22.648027
            ],
            [
              88.339865,
              22.646754
            ],
            [
              88.338865,
              22.648457
            ],
            [
              88.337042,
              22.648611
            ],
            [
              88.335405,
              22.646434
            ],
            [
              88.337865,
              22.644788
            ],
            [
              88.340416,
              22.644984
            ],
            [
              88.340865,
              22.641181
            ],
            [
              88.341865,
              22.640264
            ],
            [
              88.342865,
              22.640943
            ],
            [
              88.345396,
              22.639964
            ],
            [
              88.345865,
              22.638357
            ],
            [
              88.348972,
              22.636541
            ],
            [
              88.349886,
              22.634454
            ],
            [
              88.351729,
              22.634298
            ],
            [
              88.351865,
              22.633708
            ],
            [
              88.352108,
              22.63519
            ],
            [
              88.353865,
              22.635328
            ],
            [
              88.354865,
              22.636257
            ],
            [
              88.353993,
              22.637434
            ],
            [
              88.354995,
              22.638434
            ],
            [
              88.354023,
              22.640591
            ],
            [
              88.352251,
              22.641434
            ],
            [
              88.352355,
              22.643434
            ],
            [
              88.353362,
              22.644434
            ],
            [
              88.351456,
              22.646434
            ],
            [
              88.351503,
              22.651434
            ],
            [
              88.358033,
              22.651602
            ],
            [
              88.359223,
              22.642791
            ],
            [
              88.360978,
              22.640546
            ],
            [
              88.361187,
              22.638755
            ],
            [
              88.36202,
              22.638434
            ],
            [
              88.362166,
              22.634734
            ],
            [
              88.363015,
              22.634434
            ],
            [
              88.364201,
              22.628769
            ],
            [
              88.36498,
              22.628549
            ],
            [
              88.365229,
              22.626798
            ],
            [
              88.365987,
              22.626555
            ],
            [
              88.366243,
              22.624812
            ],
            [
              88.368084,
              22.622434
            ],
            [
              88.3671,
              22.620434
            ],
            [
              88.368103,
              22.619434
            ],
            [
              88.368166,
              22.611434
            ],
            [
              88.367188,
              22.610434
            ],
            [
              88.36817,
              22.609434
            ],
            [
              88.366104,
              22.606195
            ],
            [
              88.364472,
              22.605827
            ],
            [
              88.36119,
              22.602108
            ],
            [
              88.357607,
              22.600692
            ],
            [
              88.356331,
              22.598968
            ],
            [
              88.354727,
              22.598572
            ],
            [
              88.353268,
              22.596434
            ],
            [
              88.356097,
              22.596202
            ],
            [
              88.356865,
              22.596842
            ],
            [
              88.356865,
              22.59436
            ],
            [
              88.359865,
              22.593329
            ],
            [
              88.363746,
              22.588314
            ],
            [
              88.371865,
              22.593398
            ],
            [
              88.374865,
              22.59028
            ],
            [
              88.379789,
              22.594434
            ],
            [
              88.380865,
              22.592098
            ],
            [
              88.382949,
              22.594349
            ],
            [
              88.383942,
              22.594356
            ],
            [
              88.383366,
              22.596933
            ],
            [
              88.386973,
              22.597326
            ],
            [
              88.387879,
              22.598419
            ],
            [
              88.385874,
              22.598443
            ],
            [
              88.385948,
              22.599517
            ],
            [
              88.384108,
              22.599677
            ],
            [
              88.384152,
              22.601147
            ],
            [
              88.386768,
              22.601337
            ],
            [
              88.386824,
              22.600393
            ],
            [
              88.38821,
              22.600434
            ],
            [
              88.387282,
              22.600851
            ],
            [
              88.386604,
              22.603694
            ],
            [
              88.388742,
              22.605557
            ],
            [
              88.390601,
              22.604434
            ],
            [
              88.390711,
              22.60328
            ],
            [
              88.391865,
              22.60254
            ],
            [
              88.393899,
              22.605434
            ],
            [
              88.394486,
              22.607812
            ],
            [
              88.396209,
              22.608434
            ],
            [
              88.394865,
              22.609659
            ],
            [
              88.394618,
              22.608681
            ],
            [
              88.393377,
              22.608945
            ],
            [
              88.393865,
              22.611603
            ],
            [
              88.395542,
              22.612434
            ],
            [
              88.395865,
              22.613804
            ],
            [
              88.396287,
              22.612856
            ],
            [
              88.399436,
              22.612434
            ],
            [
              88.399451,
              22.614434
            ],
            [
              88.400665,
              22.614633
            ],
            [
              88.403865,
              22.617599
            ],
            [
              88.404572,
              22.620434
            ],
            [
              88.405865,
              22.620392
            ],
            [
              88.407026,
              22.621434
            ],
            [
              88.404865,
              22.623705
            ],
            [
              88.402865,
              22.624351
            ],
            [
              88.402865,
              22.626384
            ],
            [
              88.398798,
              22.629367
            ],
            [
              88.404865,
              22.629663
            ],
            [
              88.405865,
              22.630816
            ],
            [
              88.407226,
              22.631072
            ],
            [
              88.408266,
              22.632434
            ],
            [
              88.407961,
              22.635434
            ],
            [
              88.40472,
              22.635578
            ],
            [
              88.402865,
              22.634898
            ],
            [
              88.400865,
              22.635833
            ],
            [
              88.399865,
              22.634999
            ],
            [
              88.399096,
              22.638665
            ],
            [
              88.397865,
              22.638779
            ],
            [
              88.3953,
              22.634999
            ],
            [
              88.392674,
              22.633243
            ],
            [
              88.392607,
              22.637434
            ],
            [
              88.394202,
              22.638096
            ],
            [
              88.395613,
              22.644686
            ],
            [
              88.39728,
              22.645434
            ],
            [
              88.395865,
              22.647032
            ],
            [
              88.394523,
              22.647091
            ],
            [
              88.394388,
              22.64891
            ],
            [
              88.395929,
              22.64937
            ],
            [
              88.396865,
              22.650627
            ],
            [
              88.395824,
              22.650474
            ],
            [
              88.395711,
              22.649588
            ],
            [
              88.392865,
              22.64963
            ],
            [
              88.390624,
              22.651192
            ],
            [
              88.389754,
              22.657322
            ],
            [
              88.390447,
              22.659852
            ],
            [
              88.392631,
              22.661434
            ],
            [
              88.389506,
              22.661075
            ],
            [
              88.38805,
              22.665619
            ],
            [
              88.384605,
              22.668434
            ],
            [
              88.386899,
              22.669434
            ],
            [
              88.386865,
              22.67105
            ],
            [
              88.385394,
              22.673434
            ],
            [
              88.3825,
              22.675434
            ],
            [
              88.382004,
              22.676573
            ],
            [
              88.380865,
              22.675849
            ],
            [
              88.37905,
              22.677249
            ],
            [
              88.378967,
              22.675331
            ],
            [
              88.377388,
              22.675956
            ],
            [
              88.377225,
              22.677074
            ],
            [
              88.378806,
              22.677434
            ],
            [
              88.37644,
              22.679008
            ],
            [
              88.375865,
              22.680295
            ]
          ]
        ],
        "type": "Polygon"
      },
      "type": "Feature"
    }
  ]
}